<?xml version="1.0" encoding="UTF-8"?>
<gpx version="1.1" creator="Dolomites 2026" xmlns="http://www.topografix.com/GPX/1/1" xmlns:xsi="http://www.w3.org/2001/XMLSchema-instance" xsi:schemaLocation="http://www.topografix.com/GPX/1/1 http://www.topografix.com/GPX/1/1/gpx.xsd">
  <metadata><name>День 1 · Fontanella → Vallesinella → Tuckett</name></metadata>
  <wpt lat="46.2087281" lon="10.8202457"><ele>1446</ele><name>Loc. Fontanella</name></wpt>
  <wpt lat="46.2068697" lon="10.8516247"><ele>1517</ele><name>Vallesinella</name></wpt>
  <wpt lat="46.1920149" lon="10.8821454"><ele>2268</ele><name>Rifugio Tuckett</name></wpt>
  <trk>
    <name>День 1 · Fontanella → Vallesinella → Tuckett</name>
    <trkseg>
      <trkpt lat="46.208756" lon="10.82023"><ele>1445.5</ele></trkpt>
      <trkpt lat="46.208783" lon="10.820337"><ele>1445.25</ele></trkpt>
      <trkpt lat="46.208826" lon="10.820482"><ele>1445.75</ele></trkpt>
      <trkpt lat="46.208887" lon="10.820619"><ele>1446.75</ele></trkpt>
      <trkpt lat="46.209008" lon="10.8208"><ele>1447.5</ele></trkpt>
      <trkpt lat="46.209606" lon="10.821544"><ele>1453.5</ele></trkpt>
      <trkpt lat="46.209746" lon="10.821679"><ele>1454</ele></trkpt>
      <trkpt lat="46.209888" lon="10.821776"><ele>1454.5</ele></trkpt>
      <trkpt lat="46.210102" lon="10.821867"><ele>1455.5</ele></trkpt>
      <trkpt lat="46.210007" lon="10.821936"><ele>1453</ele></trkpt>
      <trkpt lat="46.209933" lon="10.821955"><ele>1451.25</ele></trkpt>
      <trkpt lat="46.209872" lon="10.821952"><ele>1450.25</ele></trkpt>
      <trkpt lat="46.209771" lon="10.82191"><ele>1449.5</ele></trkpt>
      <trkpt lat="46.209715" lon="10.821871"><ele>1449.25</ele></trkpt>
      <trkpt lat="46.209626" lon="10.82178"><ele>1448.75</ele></trkpt>
      <trkpt lat="46.209567" lon="10.821754"><ele>1447.5</ele></trkpt>
      <trkpt lat="46.209499" lon="10.821805"><ele>1444.5</ele></trkpt>
      <trkpt lat="46.209721" lon="10.82201"><ele>1445.75</ele></trkpt>
      <trkpt lat="46.21004" lon="10.822122"><ele>1445.5</ele></trkpt>
      <trkpt lat="46.2102" lon="10.822217"><ele>1443.25</ele></trkpt>
      <trkpt lat="46.21049" lon="10.822517"><ele>1438.5</ele></trkpt>
      <trkpt lat="46.210746" lon="10.822694"><ele>1437</ele></trkpt>
      <trkpt lat="46.210944" lon="10.822858"><ele>1434.5</ele></trkpt>
      <trkpt lat="46.211351" lon="10.823135"><ele>1429.5</ele></trkpt>
      <trkpt lat="46.211917" lon="10.823548"><ele>1425</ele></trkpt>
      <trkpt lat="46.211977" lon="10.823591"><ele>1425</ele></trkpt>
      <trkpt lat="46.212645" lon="10.824344"><ele>1423.75</ele></trkpt>
      <trkpt lat="46.212906" lon="10.824451"><ele>1423.5</ele></trkpt>
      <trkpt lat="46.212942" lon="10.824442"><ele>1424.25</ele></trkpt>
      <trkpt lat="46.213083" lon="10.824408"><ele>1425.5</ele></trkpt>
      <trkpt lat="46.213255" lon="10.824263"><ele>1426</ele></trkpt>
      <trkpt lat="46.213428" lon="10.824208"><ele>1426.5</ele></trkpt>
      <trkpt lat="46.213529" lon="10.824263"><ele>1425.75</ele></trkpt>
      <trkpt lat="46.213677" lon="10.82433"><ele>1424.5</ele></trkpt>
      <trkpt lat="46.213875" lon="10.824244"><ele>1426.5</ele></trkpt>
      <trkpt lat="46.214365" lon="10.824234"><ele>1429.25</ele></trkpt>
      <trkpt lat="46.21504" lon="10.824313"><ele>1434.5</ele></trkpt>
      <trkpt lat="46.215142" lon="10.824308"><ele>1435</ele></trkpt>
      <trkpt lat="46.215225" lon="10.824284"><ele>1436</ele></trkpt>
      <trkpt lat="46.215323" lon="10.824241"><ele>1436.5</ele></trkpt>
      <trkpt lat="46.215431" lon="10.824171"><ele>1436</ele></trkpt>
      <trkpt lat="46.215619" lon="10.824002"><ele>1437</ele></trkpt>
      <trkpt lat="46.215713" lon="10.823949"><ele>1438.75</ele></trkpt>
      <trkpt lat="46.215804" lon="10.823941"><ele>1440.25</ele></trkpt>
      <trkpt lat="46.215879" lon="10.823949"><ele>1441.5</ele></trkpt>
      <trkpt lat="46.216191" lon="10.824083"><ele>1445.5</ele></trkpt>
      <trkpt lat="46.216223" lon="10.824103"><ele>1445.75</ele></trkpt>
      <trkpt lat="46.216246" lon="10.824117"><ele>1446</ele></trkpt>
      <trkpt lat="46.216299" lon="10.824171"><ele>1446</ele></trkpt>
      <trkpt lat="46.21633" lon="10.82424"><ele>1446.75</ele></trkpt>
      <trkpt lat="46.21634" lon="10.824337"><ele>1447.5</ele></trkpt>
      <trkpt lat="46.216339" lon="10.824418"><ele>1448</ele></trkpt>
      <trkpt lat="46.21629" lon="10.824635"><ele>1449</ele></trkpt>
      <trkpt lat="46.21629" lon="10.824707"><ele>1449.5</ele></trkpt>
      <trkpt lat="46.216303" lon="10.824752"><ele>1449</ele></trkpt>
      <trkpt lat="46.216326" lon="10.824789"><ele>1448.5</ele></trkpt>
      <trkpt lat="46.216365" lon="10.82481"><ele>1448</ele></trkpt>
      <trkpt lat="46.216467" lon="10.824818"><ele>1448.25</ele></trkpt>
      <trkpt lat="46.216592" lon="10.824743"><ele>1451</ele></trkpt>
      <trkpt lat="46.217711" lon="10.824051"><ele>1458.25</ele></trkpt>
      <trkpt lat="46.21842" lon="10.823646"><ele>1460.25</ele></trkpt>
      <trkpt lat="46.218541" lon="10.823588"><ele>1460.5</ele></trkpt>
      <trkpt lat="46.218612" lon="10.823573"><ele>1460.5</ele></trkpt>
      <trkpt lat="46.218703" lon="10.823566"><ele>1460.75</ele></trkpt>
      <trkpt lat="46.218839" lon="10.823577"><ele>1460.5</ele></trkpt>
      <trkpt lat="46.219129" lon="10.823618"><ele>1460.75</ele></trkpt>
      <trkpt lat="46.219327" lon="10.823664"><ele>1462</ele></trkpt>
      <trkpt lat="46.219413" lon="10.823708"><ele>1462.25</ele></trkpt>
      <trkpt lat="46.219491" lon="10.823764"><ele>1462.5</ele></trkpt>
      <trkpt lat="46.219582" lon="10.823854"><ele>1463</ele></trkpt>
      <trkpt lat="46.219614" lon="10.823941"><ele>1463</ele></trkpt>
      <trkpt lat="46.219644" lon="10.823996"><ele>1463.25</ele></trkpt>
      <trkpt lat="46.219724" lon="10.824062"><ele>1463.75</ele></trkpt>
      <trkpt lat="46.219782" lon="10.824099"><ele>1464</ele></trkpt>
      <trkpt lat="46.219847" lon="10.824131"><ele>1464</ele></trkpt>
      <trkpt lat="46.220039" lon="10.824193"><ele>1464</ele></trkpt>
      <trkpt lat="46.220752" lon="10.824369"><ele>1467.75</ele></trkpt>
      <trkpt lat="46.221172" lon="10.824489"><ele>1470.25</ele></trkpt>
      <trkpt lat="46.221264" lon="10.824522"><ele>1471</ele></trkpt>
      <trkpt lat="46.221391" lon="10.824595"><ele>1471.25</ele></trkpt>
      <trkpt lat="46.221598" lon="10.824761"><ele>1471.75</ele></trkpt>
      <trkpt lat="46.22173" lon="10.824886"><ele>1471.75</ele></trkpt>
      <trkpt lat="46.221986" lon="10.825143"><ele>1473.75</ele></trkpt>
      <trkpt lat="46.222061" lon="10.825204"><ele>1474</ele></trkpt>
      <trkpt lat="46.222153" lon="10.82526"><ele>1474.5</ele></trkpt>
      <trkpt lat="46.222429" lon="10.825383"><ele>1474.25</ele></trkpt>
      <trkpt lat="46.222858" lon="10.8257"><ele>1478.25</ele></trkpt>
      <trkpt lat="46.222943" lon="10.825741"><ele>1478.75</ele></trkpt>
      <trkpt lat="46.22313" lon="10.82583"><ele>1480.5</ele></trkpt>
      <trkpt lat="46.223276" lon="10.825862"><ele>1480.75</ele></trkpt>
      <trkpt lat="46.223616" lon="10.82588"><ele>1482</ele></trkpt>
      <trkpt lat="46.223847" lon="10.825905"><ele>1483.5</ele></trkpt>
      <trkpt lat="46.223993" lon="10.825947"><ele>1484.25</ele></trkpt>
      <trkpt lat="46.224353" lon="10.82608"><ele>1486</ele></trkpt>
      <trkpt lat="46.224466" lon="10.826086"><ele>1487</ele></trkpt>
      <trkpt lat="46.224662" lon="10.826046"><ele>1487</ele></trkpt>
      <trkpt lat="46.22475" lon="10.826014"><ele>1487.75</ele></trkpt>
      <trkpt lat="46.224826" lon="10.825975"><ele>1488.75</ele></trkpt>
      <trkpt lat="46.224914" lon="10.825889"><ele>1490.5</ele></trkpt>
      <trkpt lat="46.225218" lon="10.826157"><ele>1491</ele></trkpt>
      <trkpt lat="46.225274" lon="10.826212"><ele>1491.25</ele></trkpt>
      <trkpt lat="46.225322" lon="10.826277"><ele>1491.25</ele></trkpt>
      <trkpt lat="46.225336" lon="10.826311"><ele>1491</ele></trkpt>
      <trkpt lat="46.225367" lon="10.826408"><ele>1490.75</ele></trkpt>
      <trkpt lat="46.225384" lon="10.826491"><ele>1491</ele></trkpt>
      <trkpt lat="46.225392" lon="10.826808"><ele>1491.25</ele></trkpt>
      <trkpt lat="46.225403" lon="10.826885"><ele>1491.5</ele></trkpt>
      <trkpt lat="46.225429" lon="10.826982"><ele>1492.25</ele></trkpt>
      <trkpt lat="46.225492" lon="10.827162"><ele>1493.25</ele></trkpt>
      <trkpt lat="46.225528" lon="10.827274"><ele>1494</ele></trkpt>
      <trkpt lat="46.225548" lon="10.827335"><ele>1494.25</ele></trkpt>
      <trkpt lat="46.22557" lon="10.827402"><ele>1494.5</ele></trkpt>
      <trkpt lat="46.225543" lon="10.827411"><ele>1494.5</ele></trkpt>
      <trkpt lat="46.22552" lon="10.827435"><ele>1494.75</ele></trkpt>
      <trkpt lat="46.225507" lon="10.82747"><ele>1495</ele></trkpt>
      <trkpt lat="46.225507" lon="10.82753"><ele>1495.5</ele></trkpt>
      <trkpt lat="46.225517" lon="10.827557"><ele>1495.75</ele></trkpt>
      <trkpt lat="46.225461" lon="10.827599"><ele>1496.25</ele></trkpt>
      <trkpt lat="46.225388" lon="10.827656"><ele>1496.25</ele></trkpt>
      <trkpt lat="46.225345" lon="10.827691"><ele>1496.25</ele></trkpt>
      <trkpt lat="46.225106" lon="10.827948"><ele>1494.75</ele></trkpt>
      <trkpt lat="46.224991" lon="10.828045"><ele>1494</ele></trkpt>
      <trkpt lat="46.224892" lon="10.828111"><ele>1493.75</ele></trkpt>
      <trkpt lat="46.224803" lon="10.828153"><ele>1493.75</ele></trkpt>
      <trkpt lat="46.224713" lon="10.828169"><ele>1493.75</ele></trkpt>
      <trkpt lat="46.224594" lon="10.828167"><ele>1493.5</ele></trkpt>
      <trkpt lat="46.224287" lon="10.828141"><ele>1492.5</ele></trkpt>
      <trkpt lat="46.223421" lon="10.828063"><ele>1491.25</ele></trkpt>
      <trkpt lat="46.223389" lon="10.828053"><ele>1491</ele></trkpt>
      <trkpt lat="46.223256" lon="10.827996"><ele>1490.5</ele></trkpt>
      <trkpt lat="46.223193" lon="10.827985"><ele>1490.25</ele></trkpt>
      <trkpt lat="46.223128" lon="10.827985"><ele>1490.25</ele></trkpt>
      <trkpt lat="46.222943" lon="10.828029"><ele>1490.5</ele></trkpt>
      <trkpt lat="46.222871" lon="10.828034"><ele>1490.5</ele></trkpt>
      <trkpt lat="46.222398" lon="10.828001"><ele>1490.25</ele></trkpt>
      <trkpt lat="46.222209" lon="10.828004"><ele>1490.5</ele></trkpt>
      <trkpt lat="46.222071" lon="10.828033"><ele>1490.75</ele></trkpt>
      <trkpt lat="46.221693" lon="10.828194"><ele>1492.25</ele></trkpt>
      <trkpt lat="46.221646" lon="10.828213"><ele>1492.5</ele></trkpt>
      <trkpt lat="46.221477" lon="10.828279"><ele>1492.5</ele></trkpt>
      <trkpt lat="46.221361" lon="10.828309"><ele>1492.75</ele></trkpt>
      <trkpt lat="46.221278" lon="10.82832"><ele>1493.25</ele></trkpt>
      <trkpt lat="46.221195" lon="10.828329"><ele>1493.5</ele></trkpt>
      <trkpt lat="46.220901" lon="10.828354"><ele>1495.75</ele></trkpt>
      <trkpt lat="46.220651" lon="10.828398"><ele>1497</ele></trkpt>
      <trkpt lat="46.220572" lon="10.828421"><ele>1497.5</ele></trkpt>
      <trkpt lat="46.220407" lon="10.828496"><ele>1498</ele></trkpt>
      <trkpt lat="46.220286" lon="10.828538"><ele>1498.25</ele></trkpt>
      <trkpt lat="46.220232" lon="10.828546"><ele>1498.75</ele></trkpt>
      <trkpt lat="46.22017" lon="10.828536"><ele>1498.75</ele></trkpt>
      <trkpt lat="46.219628" lon="10.828332"><ele>1498.25</ele></trkpt>
      <trkpt lat="46.219483" lon="10.828299"><ele>1497.75</ele></trkpt>
      <trkpt lat="46.219438" lon="10.828297"><ele>1498</ele></trkpt>
      <trkpt lat="46.219357" lon="10.828325"><ele>1498</ele></trkpt>
      <trkpt lat="46.219265" lon="10.828381"><ele>1499</ele></trkpt>
      <trkpt lat="46.218962" lon="10.828433"><ele>1499.75</ele></trkpt>
      <trkpt lat="46.218862" lon="10.828482"><ele>1501</ele></trkpt>
      <trkpt lat="46.21872" lon="10.828504"><ele>1501</ele></trkpt>
      <trkpt lat="46.21838" lon="10.828568"><ele>1503</ele></trkpt>
      <trkpt lat="46.218305" lon="10.828576"><ele>1503.5</ele></trkpt>
      <trkpt lat="46.218231" lon="10.828571"><ele>1504</ele></trkpt>
      <trkpt lat="46.217754" lon="10.828387"><ele>1503</ele></trkpt>
      <trkpt lat="46.217642" lon="10.828365"><ele>1503.5</ele></trkpt>
      <trkpt lat="46.217532" lon="10.828357"><ele>1504.5</ele></trkpt>
      <trkpt lat="46.217434" lon="10.828363"><ele>1505.75</ele></trkpt>
      <trkpt lat="46.217285" lon="10.828357"><ele>1506.5</ele></trkpt>
      <trkpt lat="46.21705" lon="10.828312"><ele>1506.25</ele></trkpt>
      <trkpt lat="46.216826" lon="10.828248"><ele>1505.75</ele></trkpt>
      <trkpt lat="46.216692" lon="10.828226"><ele>1506</ele></trkpt>
      <trkpt lat="46.216569" lon="10.82822"><ele>1505</ele></trkpt>
      <trkpt lat="46.216453" lon="10.828228"><ele>1504.25</ele></trkpt>
      <trkpt lat="46.216182" lon="10.828286"><ele>1504.25</ele></trkpt>
      <trkpt lat="46.215641" lon="10.828375"><ele>1505.5</ele></trkpt>
      <trkpt lat="46.215169" lon="10.828381"><ele>1503.25</ele></trkpt>
      <trkpt lat="46.214255" lon="10.828639"><ele>1504.75</ele></trkpt>
      <trkpt lat="46.212964" lon="10.828972"><ele>1496.75</ele></trkpt>
      <trkpt lat="46.212653" lon="10.82922"><ele>1499.75</ele></trkpt>
      <trkpt lat="46.212262" lon="10.829281"><ele>1496</ele></trkpt>
      <trkpt lat="46.21188" lon="10.829405"><ele>1491.25</ele></trkpt>
      <trkpt lat="46.211367" lon="10.829878"><ele>1494.25</ele></trkpt>
      <trkpt lat="46.211044" lon="10.830036"><ele>1492</ele></trkpt>
      <trkpt lat="46.210398" lon="10.83047"><ele>1491.75</ele></trkpt>
      <trkpt lat="46.209942" lon="10.831135"><ele>1497.25</ele></trkpt>
      <trkpt lat="46.20927" lon="10.832386"><ele>1494.5</ele></trkpt>
      <trkpt lat="46.20891" lon="10.833971"><ele>1494.75</ele></trkpt>
      <trkpt lat="46.209018" lon="10.835574"><ele>1497.5</ele></trkpt>
      <trkpt lat="46.209313" lon="10.836746"><ele>1502.75</ele></trkpt>
      <trkpt lat="46.209623" lon="10.838655"><ele>1504.25</ele></trkpt>
      <trkpt lat="46.209665" lon="10.83962"><ele>1501.5</ele></trkpt>
      <trkpt lat="46.209576" lon="10.839881"><ele>1499.25</ele></trkpt>
      <trkpt lat="46.2096" lon="10.840162"><ele>1501</ele></trkpt>
      <trkpt lat="46.209798" lon="10.840414"><ele>1508.75</ele></trkpt>
      <trkpt lat="46.209883" lon="10.840793"><ele>1505.5</ele></trkpt>
      <trkpt lat="46.209919" lon="10.8418"><ele>1505.75</ele></trkpt>
      <trkpt lat="46.209784" lon="10.842633"><ele>1504</ele></trkpt>
      <trkpt lat="46.209675" lon="10.842912"><ele>1502.25</ele></trkpt>
      <trkpt lat="46.209671" lon="10.84314"><ele>1503</ele></trkpt>
      <trkpt lat="46.209759" lon="10.843323"><ele>1507.5</ele></trkpt>
      <trkpt lat="46.209809" lon="10.843618"><ele>1504.5</ele></trkpt>
      <trkpt lat="46.209621" lon="10.843993"><ele>1499.5</ele></trkpt>
      <trkpt lat="46.20955" lon="10.844516"><ele>1503.75</ele></trkpt>
      <trkpt lat="46.209346" lon="10.845004"><ele>1499</ele></trkpt>
      <trkpt lat="46.209071" lon="10.846363"><ele>1501.5</ele></trkpt>
      <trkpt lat="46.208911" lon="10.846791"><ele>1500.5</ele></trkpt>
      <trkpt lat="46.208842" lon="10.847337"><ele>1502.5</ele></trkpt>
      <trkpt lat="46.208714" lon="10.847704"><ele>1502</ele></trkpt>
      <trkpt lat="46.208627" lon="10.848268"><ele>1502.25</ele></trkpt>
      <trkpt lat="46.208225" lon="10.849215"><ele>1501.5</ele></trkpt>
      <trkpt lat="46.207996" lon="10.849643"><ele>1503.5</ele></trkpt>
      <trkpt lat="46.207663" lon="10.849965"><ele>1502</ele></trkpt>
      <trkpt lat="46.207188" lon="10.850502"><ele>1505</ele></trkpt>
      <trkpt lat="46.207099" lon="10.850591"><ele>1506.5</ele></trkpt>
      <trkpt lat="46.207068" lon="10.850681"><ele>1507.25</ele></trkpt>
      <trkpt lat="46.206995" lon="10.850895"><ele>1507.75</ele></trkpt>
      <trkpt lat="46.206909" lon="10.851137"><ele>1509.25</ele></trkpt>
      <trkpt lat="46.206787" lon="10.851327"><ele>1512</ele></trkpt>
      <trkpt lat="46.206528" lon="10.851668"><ele>1514.5</ele></trkpt>
      <trkpt lat="46.206664" lon="10.851746"><ele>1513.75</ele></trkpt>
      <trkpt lat="46.206769" lon="10.851851"><ele>1516.5</ele></trkpt>
      <trkpt lat="46.206823" lon="10.851879"><ele>1517.75</ele></trkpt>
      <trkpt lat="46.206853" lon="10.851886"><ele>1518.5</ele></trkpt>
      <trkpt lat="46.20694" lon="10.85169"><ele>1516.75</ele></trkpt>
      <trkpt lat="46.206853" lon="10.851886"><ele>1518.5</ele></trkpt>
      <trkpt lat="46.206823" lon="10.851879"><ele>1517.75</ele></trkpt>
      <trkpt lat="46.206769" lon="10.851851"><ele>1516.5</ele></trkpt>
      <trkpt lat="46.206664" lon="10.851746"><ele>1513.75</ele></trkpt>
      <trkpt lat="46.206528" lon="10.851668"><ele>1514.5</ele></trkpt>
      <trkpt lat="46.20643" lon="10.851794"><ele>1515.75</ele></trkpt>
      <trkpt lat="46.206187" lon="10.85208"><ele>1517.75</ele></trkpt>
      <trkpt lat="46.206098" lon="10.852155"><ele>1518.25</ele></trkpt>
      <trkpt lat="46.206038" lon="10.852158"><ele>1517.5</ele></trkpt>
      <trkpt lat="46.205914" lon="10.852173"><ele>1515.75</ele></trkpt>
      <trkpt lat="46.205852" lon="10.852162"><ele>1515</ele></trkpt>
      <trkpt lat="46.205752" lon="10.852234"><ele>1513.25</ele></trkpt>
      <trkpt lat="46.205696" lon="10.852404"><ele>1511.5</ele></trkpt>
      <trkpt lat="46.20567" lon="10.852424"><ele>1511</ele></trkpt>
      <trkpt lat="46.205574" lon="10.852432"><ele>1510</ele></trkpt>
      <trkpt lat="46.205494" lon="10.852289"><ele>1510</ele></trkpt>
      <trkpt lat="46.205438" lon="10.852249"><ele>1511.5</ele></trkpt>
      <trkpt lat="46.205346" lon="10.852245"><ele>1513.5</ele></trkpt>
      <trkpt lat="46.205253" lon="10.85299"><ele>1518.75</ele></trkpt>
      <trkpt lat="46.205164" lon="10.853387"><ele>1522.75</ele></trkpt>
      <trkpt lat="46.205" lon="10.85358"><ele>1528.5</ele></trkpt>
      <trkpt lat="46.204699" lon="10.853777"><ele>1536.5</ele></trkpt>
      <trkpt lat="46.204503" lon="10.853848"><ele>1541.75</ele></trkpt>
      <trkpt lat="46.204354" lon="10.854052"><ele>1547.25</ele></trkpt>
      <trkpt lat="46.20431" lon="10.854385"><ele>1552.75</ele></trkpt>
      <trkpt lat="46.204228" lon="10.854878"><ele>1563.75</ele></trkpt>
      <trkpt lat="46.204132" lon="10.855109"><ele>1570.5</ele></trkpt>
      <trkpt lat="46.204009" lon="10.855469"><ele>1579</ele></trkpt>
      <trkpt lat="46.203868" lon="10.855688"><ele>1585.5</ele></trkpt>
      <trkpt lat="46.203868" lon="10.855866"><ele>1588.25</ele></trkpt>
      <trkpt lat="46.203786" lon="10.856091"><ele>1596.25</ele></trkpt>
      <trkpt lat="46.203701" lon="10.856182"><ele>1600.5</ele></trkpt>
      <trkpt lat="46.203656" lon="10.856375"><ele>1605.5</ele></trkpt>
      <trkpt lat="46.203623" lon="10.856584"><ele>1610.75</ele></trkpt>
      <trkpt lat="46.203549" lon="10.856799"><ele>1615.5</ele></trkpt>
      <trkpt lat="46.203452" lon="10.856944"><ele>1619</ele></trkpt>
      <trkpt lat="46.203207" lon="10.857003"><ele>1626</ele></trkpt>
      <trkpt lat="46.202775" lon="10.856936"><ele>1631</ele></trkpt>
      <trkpt lat="46.202646" lon="10.857169"><ele>1636.75</ele></trkpt>
      <trkpt lat="46.202544" lon="10.857397"><ele>1636.75</ele></trkpt>
      <trkpt lat="46.202455" lon="10.857453"><ele>1639.75</ele></trkpt>
      <trkpt lat="46.202362" lon="10.857495"><ele>1644</ele></trkpt>
      <trkpt lat="46.202353" lon="10.857486"><ele>1644.5</ele></trkpt>
      <trkpt lat="46.202363" lon="10.85744"><ele>1644.75</ele></trkpt>
      <trkpt lat="46.202395" lon="10.857359"><ele>1644.25</ele></trkpt>
      <trkpt lat="46.202405" lon="10.857304"><ele>1644.5</ele></trkpt>
      <trkpt lat="46.20238" lon="10.857215"><ele>1647.25</ele></trkpt>
      <trkpt lat="46.202359" lon="10.857227"><ele>1648.5</ele></trkpt>
      <trkpt lat="46.202352" lon="10.857221"><ele>1649</ele></trkpt>
      <trkpt lat="46.202347" lon="10.857161"><ele>1649</ele></trkpt>
      <trkpt lat="46.202252" lon="10.85712"><ele>1653.75</ele></trkpt>
      <trkpt lat="46.202224" lon="10.857096"><ele>1655</ele></trkpt>
      <trkpt lat="46.202146" lon="10.856861"><ele>1659.25</ele></trkpt>
      <trkpt lat="46.202115" lon="10.856866"><ele>1661.5</ele></trkpt>
      <trkpt lat="46.20208" lon="10.856938"><ele>1664.25</ele></trkpt>
      <trkpt lat="46.202061" lon="10.857023"><ele>1665.75</ele></trkpt>
      <trkpt lat="46.202016" lon="10.857065"><ele>1669</ele></trkpt>
      <trkpt lat="46.202001" lon="10.857119"><ele>1670</ele></trkpt>
      <trkpt lat="46.201937" lon="10.857286"><ele>1672</ele></trkpt>
      <trkpt lat="46.201844" lon="10.857413"><ele>1677.75</ele></trkpt>
      <trkpt lat="46.201811" lon="10.857554"><ele>1680.75</ele></trkpt>
      <trkpt lat="46.201798" lon="10.857703"><ele>1683.75</ele></trkpt>
      <trkpt lat="46.201814" lon="10.857802"><ele>1684.25</ele></trkpt>
      <trkpt lat="46.2018" lon="10.857951"><ele>1687.5</ele></trkpt>
      <trkpt lat="46.201801" lon="10.857994"><ele>1688</ele></trkpt>
      <trkpt lat="46.201762" lon="10.858242"><ele>1691.75</ele></trkpt>
      <trkpt lat="46.201704" lon="10.858455"><ele>1694</ele></trkpt>
      <trkpt lat="46.201604" lon="10.858775"><ele>1699</ele></trkpt>
      <trkpt lat="46.201569" lon="10.858916"><ele>1701.75</ele></trkpt>
      <trkpt lat="46.201545" lon="10.859073"><ele>1704</ele></trkpt>
      <trkpt lat="46.201505" lon="10.859224"><ele>1707.25</ele></trkpt>
      <trkpt lat="46.201462" lon="10.859722"><ele>1715.5</ele></trkpt>
      <trkpt lat="46.201432" lon="10.859901"><ele>1719.25</ele></trkpt>
      <trkpt lat="46.201368" lon="10.860127"><ele>1725.25</ele></trkpt>
      <trkpt lat="46.201333" lon="10.860297"><ele>1728.75</ele></trkpt>
      <trkpt lat="46.201291" lon="10.8607"><ele>1734.75</ele></trkpt>
      <trkpt lat="46.201265" lon="10.860805"><ele>1736.5</ele></trkpt>
      <trkpt lat="46.201194" lon="10.860788"><ele>1739</ele></trkpt>
      <trkpt lat="46.201094" lon="10.860675"><ele>1742.25</ele></trkpt>
      <trkpt lat="46.201005" lon="10.860547"><ele>1747</ele></trkpt>
      <trkpt lat="46.200915" lon="10.860444"><ele>1751.75</ele></trkpt>
      <trkpt lat="46.200843" lon="10.860293"><ele>1755.25</ele></trkpt>
      <trkpt lat="46.200814" lon="10.860105"><ele>1755.75</ele></trkpt>
      <trkpt lat="46.200785" lon="10.860068"><ele>1757.5</ele></trkpt>
      <trkpt lat="46.200772" lon="10.860099"><ele>1758.5</ele></trkpt>
      <trkpt lat="46.200753" lon="10.86018"><ele>1760.25</ele></trkpt>
      <trkpt lat="46.200688" lon="10.860325"><ele>1765</ele></trkpt>
      <trkpt lat="46.200684" lon="10.860459"><ele>1766</ele></trkpt>
      <trkpt lat="46.200664" lon="10.860489"><ele>1767.5</ele></trkpt>
      <trkpt lat="46.200641" lon="10.860482"><ele>1769</ele></trkpt>
      <trkpt lat="46.200568" lon="10.860324"><ele>1772.5</ele></trkpt>
      <trkpt lat="46.200547" lon="10.860254"><ele>1773.25</ele></trkpt>
      <trkpt lat="46.200481" lon="10.859813"><ele>1778.5</ele></trkpt>
      <trkpt lat="46.200444" lon="10.859731"><ele>1781.75</ele></trkpt>
      <trkpt lat="46.200399" lon="10.859414"><ele>1786.5</ele></trkpt>
      <trkpt lat="46.200422" lon="10.859267"><ele>1785.75</ele></trkpt>
      <trkpt lat="46.200396" lon="10.858974"><ele>1790.75</ele></trkpt>
      <trkpt lat="46.200408" lon="10.8588"><ele>1792.25</ele></trkpt>
      <trkpt lat="46.200454" lon="10.858593"><ele>1791.75</ele></trkpt>
      <trkpt lat="46.200422" lon="10.858416"><ele>1796.5</ele></trkpt>
      <trkpt lat="46.200373" lon="10.858011"><ele>1803</ele></trkpt>
      <trkpt lat="46.200312" lon="10.857914"><ele>1807.75</ele></trkpt>
      <trkpt lat="46.20027" lon="10.85792"><ele>1810.75</ele></trkpt>
      <trkpt lat="46.200211" lon="10.85796"><ele>1812.75</ele></trkpt>
      <trkpt lat="46.200082" lon="10.858117"><ele>1818.5</ele></trkpt>
      <trkpt lat="46.199991" lon="10.85829"><ele>1823</ele></trkpt>
      <trkpt lat="46.199955" lon="10.858336"><ele>1824.75</ele></trkpt>
      <trkpt lat="46.19998" lon="10.858561"><ele>1824</ele></trkpt>
      <trkpt lat="46.199885" lon="10.858664"><ele>1829.75</ele></trkpt>
      <trkpt lat="46.199824" lon="10.858807"><ele>1832.75</ele></trkpt>
      <trkpt lat="46.199764" lon="10.858902"><ele>1835.5</ele></trkpt>
      <trkpt lat="46.199688" lon="10.85906"><ele>1839.25</ele></trkpt>
      <trkpt lat="46.19968" lon="10.859146"><ele>1839.5</ele></trkpt>
      <trkpt lat="46.199644" lon="10.859202"><ele>1842.25</ele></trkpt>
      <trkpt lat="46.199612" lon="10.859134"><ele>1845</ele></trkpt>
      <trkpt lat="46.199589" lon="10.859008"><ele>1846.5</ele></trkpt>
      <trkpt lat="46.199536" lon="10.858789"><ele>1848.5</ele></trkpt>
      <trkpt lat="46.199478" lon="10.858745"><ele>1851</ele></trkpt>
      <trkpt lat="46.199324" lon="10.858711"><ele>1857</ele></trkpt>
      <trkpt lat="46.199249" lon="10.858682"><ele>1859.5</ele></trkpt>
      <trkpt lat="46.199212" lon="10.858657"><ele>1860.25</ele></trkpt>
      <trkpt lat="46.199164" lon="10.858642"><ele>1861.75</ele></trkpt>
      <trkpt lat="46.199069" lon="10.858652"><ele>1865.25</ele></trkpt>
      <trkpt lat="46.199056" lon="10.858729"><ele>1867.25</ele></trkpt>
      <trkpt lat="46.199041" lon="10.858773"><ele>1868.75</ele></trkpt>
      <trkpt lat="46.199004" lon="10.858817"><ele>1870.5</ele></trkpt>
      <trkpt lat="46.19895" lon="10.858836"><ele>1872.5</ele></trkpt>
      <trkpt lat="46.198908" lon="10.858825"><ele>1873.5</ele></trkpt>
      <trkpt lat="46.198864" lon="10.858776"><ele>1874</ele></trkpt>
      <trkpt lat="46.198833" lon="10.858764"><ele>1875</ele></trkpt>
      <trkpt lat="46.198768" lon="10.85871"><ele>1876.25</ele></trkpt>
      <trkpt lat="46.198741" lon="10.858778"><ele>1878.5</ele></trkpt>
      <trkpt lat="46.198721" lon="10.858866"><ele>1880.5</ele></trkpt>
      <trkpt lat="46.198662" lon="10.858804"><ele>1881.5</ele></trkpt>
      <trkpt lat="46.198605" lon="10.85888"><ele>1884.5</ele></trkpt>
      <trkpt lat="46.198577" lon="10.858943"><ele>1885</ele></trkpt>
      <trkpt lat="46.198568" lon="10.859067"><ele>1888.25</ele></trkpt>
      <trkpt lat="46.198545" lon="10.859171"><ele>1890.75</ele></trkpt>
      <trkpt lat="46.198499" lon="10.859445"><ele>1898.5</ele></trkpt>
      <trkpt lat="46.198427" lon="10.859527"><ele>1900</ele></trkpt>
      <trkpt lat="46.198327" lon="10.859723"><ele>1905.75</ele></trkpt>
      <trkpt lat="46.198283" lon="10.859788"><ele>1906.5</ele></trkpt>
      <trkpt lat="46.198185" lon="10.859982"><ele>1910.25</ele></trkpt>
      <trkpt lat="46.198164" lon="10.860005"><ele>1910.5</ele></trkpt>
      <trkpt lat="46.198094" lon="10.860147"><ele>1914</ele></trkpt>
      <trkpt lat="46.19803" lon="10.860235"><ele>1915.25</ele></trkpt>
      <trkpt lat="46.197984" lon="10.86027"><ele>1915.75</ele></trkpt>
      <trkpt lat="46.197874" lon="10.86039"><ele>1919</ele></trkpt>
      <trkpt lat="46.197671" lon="10.860569"><ele>1924</ele></trkpt>
      <trkpt lat="46.197115" lon="10.860923"><ele>1934.5</ele></trkpt>
      <trkpt lat="46.196826" lon="10.861173"><ele>1940</ele></trkpt>
      <trkpt lat="46.196718" lon="10.861314"><ele>1944.5</ele></trkpt>
      <trkpt lat="46.196506" lon="10.861547"><ele>1951.5</ele></trkpt>
      <trkpt lat="46.19638" lon="10.861627"><ele>1952.75</ele></trkpt>
      <trkpt lat="46.196332" lon="10.861649"><ele>1953</ele></trkpt>
      <trkpt lat="46.19628" lon="10.86169"><ele>1954.25</ele></trkpt>
      <trkpt lat="46.196148" lon="10.861816"><ele>1959.25</ele></trkpt>
      <trkpt lat="46.196059" lon="10.861861"><ele>1960.25</ele></trkpt>
      <trkpt lat="46.195899" lon="10.861987"><ele>1964.5</ele></trkpt>
      <trkpt lat="46.195723" lon="10.86214"><ele>1968.25</ele></trkpt>
      <trkpt lat="46.195626" lon="10.862261"><ele>1972.25</ele></trkpt>
      <trkpt lat="46.195523" lon="10.862374"><ele>1974.5</ele></trkpt>
      <trkpt lat="46.195389" lon="10.862561"><ele>1978.5</ele></trkpt>
      <trkpt lat="46.195264" lon="10.862778"><ele>1981.5</ele></trkpt>
      <trkpt lat="46.195175" lon="10.862888"><ele>1983</ele></trkpt>
      <trkpt lat="46.194939" lon="10.863208"><ele>1989</ele></trkpt>
      <trkpt lat="46.194827" lon="10.86339"><ele>1991.75</ele></trkpt>
      <trkpt lat="46.194673" lon="10.863575"><ele>1995.75</ele></trkpt>
      <trkpt lat="46.194573" lon="10.863667"><ele>1998</ele></trkpt>
      <trkpt lat="46.194452" lon="10.863724"><ele>1998.75</ele></trkpt>
      <trkpt lat="46.194326" lon="10.863833"><ele>2001.25</ele></trkpt>
      <trkpt lat="46.194252" lon="10.863923"><ele>2003.25</ele></trkpt>
      <trkpt lat="46.194161" lon="10.863986"><ele>2004</ele></trkpt>
      <trkpt lat="46.194079" lon="10.864026"><ele>2005</ele></trkpt>
      <trkpt lat="46.193969" lon="10.864099"><ele>2007.25</ele></trkpt>
      <trkpt lat="46.193863" lon="10.864146"><ele>2008.5</ele></trkpt>
      <trkpt lat="46.193823" lon="10.86419"><ele>2010</ele></trkpt>
      <trkpt lat="46.193728" lon="10.864269"><ele>2013</ele></trkpt>
      <trkpt lat="46.193614" lon="10.864318"><ele>2014</ele></trkpt>
      <trkpt lat="46.193429" lon="10.86445"><ele>2018</ele></trkpt>
      <trkpt lat="46.193368" lon="10.864518"><ele>2021.75</ele></trkpt>
      <trkpt lat="46.193222" lon="10.864723"><ele>2030.25</ele></trkpt>
      <trkpt lat="46.19311" lon="10.864813"><ele>2031.25</ele></trkpt>
      <trkpt lat="46.192911" lon="10.86493"><ele>2031.5</ele></trkpt>
      <trkpt lat="46.192789" lon="10.865077"><ele>2035</ele></trkpt>
      <trkpt lat="46.192729" lon="10.865105"><ele>2035.75</ele></trkpt>
      <trkpt lat="46.192719" lon="10.8651"><ele>2035.75</ele></trkpt>
      <trkpt lat="46.192704" lon="10.865071"><ele>2034.5</ele></trkpt>
      <trkpt lat="46.192666" lon="10.865044"><ele>2033.5</ele></trkpt>
      <trkpt lat="46.192649" lon="10.865044"><ele>2033.5</ele></trkpt>
      <trkpt lat="46.192573" lon="10.865104"><ele>2036.25</ele></trkpt>
      <trkpt lat="46.192398" lon="10.865161"><ele>2037.5</ele></trkpt>
      <trkpt lat="46.192359" lon="10.865211"><ele>2038.25</ele></trkpt>
      <trkpt lat="46.192329" lon="10.865287"><ele>2039</ele></trkpt>
      <trkpt lat="46.192295" lon="10.865485"><ele>2040</ele></trkpt>
      <trkpt lat="46.19229" lon="10.865659"><ele>2042.25</ele></trkpt>
      <trkpt lat="46.192234" lon="10.865822"><ele>2042.25</ele></trkpt>
      <trkpt lat="46.192221" lon="10.865847"><ele>2042.25</ele></trkpt>
      <trkpt lat="46.192192" lon="10.865874"><ele>2042.75</ele></trkpt>
      <trkpt lat="46.192077" lon="10.865931"><ele>2044.5</ele></trkpt>
      <trkpt lat="46.191956" lon="10.866092"><ele>2045.75</ele></trkpt>
      <trkpt lat="46.191887" lon="10.866274"><ele>2046.25</ele></trkpt>
      <trkpt lat="46.191891" lon="10.866386"><ele>2046.25</ele></trkpt>
      <trkpt lat="46.191914" lon="10.866421"><ele>2046</ele></trkpt>
      <trkpt lat="46.19191" lon="10.866479"><ele>2046</ele></trkpt>
      <trkpt lat="46.191889" lon="10.866582"><ele>2046.25</ele></trkpt>
      <trkpt lat="46.191863" lon="10.866672"><ele>2046.25</ele></trkpt>
      <trkpt lat="46.191866" lon="10.866921"><ele>2044.25</ele></trkpt>
      <trkpt lat="46.191914" lon="10.866998"><ele>2045</ele></trkpt>
      <trkpt lat="46.191912" lon="10.867106"><ele>2047.25</ele></trkpt>
      <trkpt lat="46.191934" lon="10.867202"><ele>2048.75</ele></trkpt>
      <trkpt lat="46.191934" lon="10.867285"><ele>2051.25</ele></trkpt>
      <trkpt lat="46.191998" lon="10.867368"><ele>2054.25</ele></trkpt>
      <trkpt lat="46.191998" lon="10.867394"><ele>2055</ele></trkpt>
      <trkpt lat="46.19203" lon="10.867501"><ele>2058.25</ele></trkpt>
      <trkpt lat="46.192" lon="10.867553"><ele>2059.5</ele></trkpt>
      <trkpt lat="46.192024" lon="10.867622"><ele>2061.75</ele></trkpt>
      <trkpt lat="46.192054" lon="10.867671"><ele>2063.25</ele></trkpt>
      <trkpt lat="46.19206" lon="10.867753"><ele>2065.5</ele></trkpt>
      <trkpt lat="46.192126" lon="10.867819"><ele>2067.75</ele></trkpt>
      <trkpt lat="46.192181" lon="10.867793"><ele>2067.25</ele></trkpt>
      <trkpt lat="46.192227" lon="10.867753"><ele>2066.5</ele></trkpt>
      <trkpt lat="46.192285" lon="10.867745"><ele>2071.5</ele></trkpt>
      <trkpt lat="46.192327" lon="10.867717"><ele>2074.25</ele></trkpt>
      <trkpt lat="46.192327" lon="10.867828"><ele>2077.75</ele></trkpt>
      <trkpt lat="46.192291" lon="10.867861"><ele>2075.5</ele></trkpt>
      <trkpt lat="46.192269" lon="10.867924"><ele>2075.25</ele></trkpt>
      <trkpt lat="46.192258" lon="10.867995"><ele>2076.25</ele></trkpt>
      <trkpt lat="46.192253" lon="10.868096"><ele>2079</ele></trkpt>
      <trkpt lat="46.19223" lon="10.868206"><ele>2080.5</ele></trkpt>
      <trkpt lat="46.192229" lon="10.868271"><ele>2082.5</ele></trkpt>
      <trkpt lat="46.192196" lon="10.868428"><ele>2086.25</ele></trkpt>
      <trkpt lat="46.192197" lon="10.868481"><ele>2088</ele></trkpt>
      <trkpt lat="46.192161" lon="10.868612"><ele>2091</ele></trkpt>
      <trkpt lat="46.192144" lon="10.868907"><ele>2106</ele></trkpt>
      <trkpt lat="46.192125" lon="10.869113"><ele>2109</ele></trkpt>
      <trkpt lat="46.192118" lon="10.869301"><ele>2111</ele></trkpt>
      <trkpt lat="46.192123" lon="10.869452"><ele>2112.5</ele></trkpt>
      <trkpt lat="46.192128" lon="10.869507"><ele>2113.25</ele></trkpt>
      <trkpt lat="46.192187" lon="10.869648"><ele>2115.75</ele></trkpt>
      <trkpt lat="46.192234" lon="10.869819"><ele>2117.25</ele></trkpt>
      <trkpt lat="46.192256" lon="10.870043"><ele>2120.25</ele></trkpt>
      <trkpt lat="46.192191" lon="10.870286"><ele>2122.75</ele></trkpt>
      <trkpt lat="46.192185" lon="10.870491"><ele>2127.75</ele></trkpt>
      <trkpt lat="46.192089" lon="10.870798"><ele>2135.25</ele></trkpt>
      <trkpt lat="46.192093" lon="10.870979"><ele>2137.25</ele></trkpt>
      <trkpt lat="46.192005" lon="10.871189"><ele>2136.5</ele></trkpt>
      <trkpt lat="46.191993" lon="10.871357"><ele>2135.5</ele></trkpt>
      <trkpt lat="46.19196" lon="10.871445"><ele>2135</ele></trkpt>
      <trkpt lat="46.191946" lon="10.871567"><ele>2135</ele></trkpt>
      <trkpt lat="46.191943" lon="10.871854"><ele>2139</ele></trkpt>
      <trkpt lat="46.19189" lon="10.872047"><ele>2143.25</ele></trkpt>
      <trkpt lat="46.191921" lon="10.872228"><ele>2146.5</ele></trkpt>
      <trkpt lat="46.191928" lon="10.872423"><ele>2150</ele></trkpt>
      <trkpt lat="46.191888" lon="10.872558"><ele>2153.25</ele></trkpt>
      <trkpt lat="46.191857" lon="10.872567"><ele>2154.25</ele></trkpt>
      <trkpt lat="46.191875" lon="10.872825"><ele>2156.25</ele></trkpt>
      <trkpt lat="46.191838" lon="10.872937"><ele>2157.75</ele></trkpt>
      <trkpt lat="46.191671" lon="10.873271"><ele>2164.25</ele></trkpt>
      <trkpt lat="46.191529" lon="10.873419"><ele>2170</ele></trkpt>
      <trkpt lat="46.191512" lon="10.873518"><ele>2171</ele></trkpt>
      <trkpt lat="46.191429" lon="10.87366"><ele>2175</ele></trkpt>
      <trkpt lat="46.191385" lon="10.873822"><ele>2177</ele></trkpt>
      <trkpt lat="46.191407" lon="10.873958"><ele>2176.75</ele></trkpt>
      <trkpt lat="46.191398" lon="10.87405"><ele>2177.75</ele></trkpt>
      <trkpt lat="46.191364" lon="10.87416"><ele>2179.75</ele></trkpt>
      <trkpt lat="46.191345" lon="10.874265"><ele>2181.5</ele></trkpt>
      <trkpt lat="46.191347" lon="10.874362"><ele>2182.25</ele></trkpt>
      <trkpt lat="46.19143" lon="10.874544"><ele>2181.75</ele></trkpt>
      <trkpt lat="46.191438" lon="10.874718"><ele>2183.5</ele></trkpt>
      <trkpt lat="46.191512" lon="10.874842"><ele>2184.5</ele></trkpt>
      <trkpt lat="46.191513" lon="10.874887"><ele>2185.25</ele></trkpt>
      <trkpt lat="46.191592" lon="10.874949"><ele>2186.5</ele></trkpt>
      <trkpt lat="46.191607" lon="10.87507"><ele>2189.5</ele></trkpt>
      <trkpt lat="46.191742" lon="10.87503"><ele>2188.5</ele></trkpt>
      <trkpt lat="46.191761" lon="10.875063"><ele>2189.25</ele></trkpt>
      <trkpt lat="46.191747" lon="10.87517"><ele>2192.5</ele></trkpt>
      <trkpt lat="46.191641" lon="10.875362"><ele>2198.25</ele></trkpt>
      <trkpt lat="46.19146" lon="10.875576"><ele>2201</ele></trkpt>
      <trkpt lat="46.191396" lon="10.875625"><ele>2201</ele></trkpt>
      <trkpt lat="46.191374" lon="10.87573"><ele>2202.25</ele></trkpt>
      <trkpt lat="46.191418" lon="10.875845"><ele>2204</ele></trkpt>
      <trkpt lat="46.191438" lon="10.875946"><ele>2203.75</ele></trkpt>
      <trkpt lat="46.191488" lon="10.876043"><ele>2203.25</ele></trkpt>
      <trkpt lat="46.191547" lon="10.876117"><ele>2203</ele></trkpt>
      <trkpt lat="46.191545" lon="10.876322"><ele>2205</ele></trkpt>
      <trkpt lat="46.191502" lon="10.876395"><ele>2206.25</ele></trkpt>
      <trkpt lat="46.191488" lon="10.876516"><ele>2209</ele></trkpt>
      <trkpt lat="46.191462" lon="10.87662"><ele>2211.5</ele></trkpt>
      <trkpt lat="46.191408" lon="10.876726"><ele>2213.25</ele></trkpt>
      <trkpt lat="46.191407" lon="10.876856"><ele>2216</ele></trkpt>
      <trkpt lat="46.191492" lon="10.876871"><ele>2216.5</ele></trkpt>
      <trkpt lat="46.191485" lon="10.876993"><ele>2218.75</ele></trkpt>
      <trkpt lat="46.191535" lon="10.877077"><ele>2220.25</ele></trkpt>
      <trkpt lat="46.191511" lon="10.877157"><ele>2222</ele></trkpt>
      <trkpt lat="46.19155" lon="10.877244"><ele>2222.75</ele></trkpt>
      <trkpt lat="46.191527" lon="10.877351"><ele>2224</ele></trkpt>
      <trkpt lat="46.191574" lon="10.877456"><ele>2224.75</ele></trkpt>
      <trkpt lat="46.19156" lon="10.877596"><ele>2225</ele></trkpt>
      <trkpt lat="46.191646" lon="10.877694"><ele>2224.75</ele></trkpt>
      <trkpt lat="46.191655" lon="10.8778"><ele>2224.5</ele></trkpt>
      <trkpt lat="46.191726" lon="10.877938"><ele>2223.25</ele></trkpt>
      <trkpt lat="46.191649" lon="10.878062"><ele>2221</ele></trkpt>
      <trkpt lat="46.191699" lon="10.878132"><ele>2220.25</ele></trkpt>
      <trkpt lat="46.191776" lon="10.878252"><ele>2220</ele></trkpt>
      <trkpt lat="46.191825" lon="10.878347"><ele>2219.5</ele></trkpt>
      <trkpt lat="46.191868" lon="10.878576"><ele>2217.75</ele></trkpt>
      <trkpt lat="46.191846" lon="10.878714"><ele>2218.5</ele></trkpt>
      <trkpt lat="46.191814" lon="10.87879"><ele>2218.5</ele></trkpt>
      <trkpt lat="46.191856" lon="10.878833"><ele>2221</ele></trkpt>
      <trkpt lat="46.191908" lon="10.878839"><ele>2223.25</ele></trkpt>
      <trkpt lat="46.191968" lon="10.878815"><ele>2224.5</ele></trkpt>
      <trkpt lat="46.192012" lon="10.878816"><ele>2224.75</ele></trkpt>
      <trkpt lat="46.192008" lon="10.878883"><ele>2226</ele></trkpt>
      <trkpt lat="46.191943" lon="10.878963"><ele>2228.75</ele></trkpt>
      <trkpt lat="46.191944" lon="10.879086"><ele>2233.75</ele></trkpt>
      <trkpt lat="46.191852" lon="10.879245"><ele>2234</ele></trkpt>
      <trkpt lat="46.191754" lon="10.879291"><ele>2230.75</ele></trkpt>
      <trkpt lat="46.191689" lon="10.879537"><ele>2234.25</ele></trkpt>
      <trkpt lat="46.19164" lon="10.87959"><ele>2233.5</ele></trkpt>
      <trkpt lat="46.191626" lon="10.879733"><ele>2236.5</ele></trkpt>
      <trkpt lat="46.191556" lon="10.879752"><ele>2232.5</ele></trkpt>
      <trkpt lat="46.191487" lon="10.879803"><ele>2229.5</ele></trkpt>
      <trkpt lat="46.191459" lon="10.88001"><ele>2231.75</ele></trkpt>
      <trkpt lat="46.191474" lon="10.880208"><ele>2233.75</ele></trkpt>
      <trkpt lat="46.191515" lon="10.880353"><ele>2234.25</ele></trkpt>
      <trkpt lat="46.191556" lon="10.880424"><ele>2233.75</ele></trkpt>
      <trkpt lat="46.191737" lon="10.88045"><ele>2237.25</ele></trkpt>
      <trkpt lat="46.191946" lon="10.880369"><ele>2239</ele></trkpt>
      <trkpt lat="46.192024" lon="10.88036"><ele>2238.75</ele></trkpt>
      <trkpt lat="46.192141" lon="10.880283"><ele>2237.75</ele></trkpt>
      <trkpt lat="46.192172" lon="10.880317"><ele>2237.75</ele></trkpt>
      <trkpt lat="46.192212" lon="10.880324"><ele>2237.5</ele></trkpt>
      <trkpt lat="46.192203" lon="10.880665"><ele>2242.25</ele></trkpt>
      <trkpt lat="46.192251" lon="10.880877"><ele>2245.25</ele></trkpt>
      <trkpt lat="46.192218" lon="10.881038"><ele>2248.5</ele></trkpt>
      <trkpt lat="46.192234" lon="10.881074"><ele>2249</ele></trkpt>
      <trkpt lat="46.1922" lon="10.8812"><ele>2251</ele></trkpt>
      <trkpt lat="46.192203" lon="10.881274"><ele>2252</ele></trkpt>
      <trkpt lat="46.192184" lon="10.881423"><ele>2254.25</ele></trkpt>
      <trkpt lat="46.192177" lon="10.881579"><ele>2256.5</ele></trkpt>
      <trkpt lat="46.192079" lon="10.881912"><ele>2262.75</ele></trkpt>
      <trkpt lat="46.192059" lon="10.881958"><ele>2264</ele></trkpt>
      <trkpt lat="46.1921" lon="10.882027"><ele>2264.25</ele></trkpt>
      <trkpt lat="46.192094" lon="10.882152"><ele>2267.5</ele></trkpt>
    </trkseg>
  </trk>
</gpx>
