<?xml version="1.0" encoding="UTF-8"?>
<gpx version="1.1" creator="Dolomites 2026" xmlns="http://www.topografix.com/GPX/1/1" xmlns:xsi="http://www.w3.org/2001/XMLSchema-instance" xsi:schemaLocation="http://www.topografix.com/GPX/1/1 http://www.topografix.com/GPX/1/1/gpx.xsd">
  <metadata><name>День 5 · Detassis → Bocchette Alte → SOSAT → Detassis</name></metadata>
  <wpt lat="46.1754782" lon="10.8759502"><ele>2176</ele><name>Bivacco Detassis</name></wpt>
  <wpt lat="46.1750278" lon="10.8941539"><ele>2587</ele><name>Ferrata Oliva Detassis</name></wpt>
  <wpt lat="46.1784591" lon="10.8994092"><ele>3005</ele><name>Bocchette Alte</name></wpt>
  <wpt lat="46.1855588" lon="10.9010079"><ele>2642</ele><name>Bocca di Tuckett</name></wpt>
  <wpt lat="46.1902827" lon="10.8887011"><ele>2317</ele><name>Sentiero SOSAT</name></wpt>
  <wpt lat="46.1754782" lon="10.8759502"><ele>2176</ele><name>Bivacco Detassis</name></wpt>
  <trk>
    <name>День 5 · Detassis → Bocchette Alte → SOSAT → Detassis</name>
    <trkseg>
      <trkpt lat="46.175429" lon="10.876274"><ele>2176.25</ele></trkpt>
      <trkpt lat="46.175524" lon="10.876403"><ele>2176.25</ele></trkpt>
      <trkpt lat="46.175624" lon="10.876418"><ele>2174.75</ele></trkpt>
      <trkpt lat="46.175713" lon="10.876503"><ele>2173.5</ele></trkpt>
      <trkpt lat="46.175791" lon="10.876537"><ele>2173</ele></trkpt>
      <trkpt lat="46.175909" lon="10.8767"><ele>2173.75</ele></trkpt>
      <trkpt lat="46.175925" lon="10.876813"><ele>2174</ele></trkpt>
      <trkpt lat="46.175954" lon="10.876922"><ele>2174.25</ele></trkpt>
      <trkpt lat="46.175984" lon="10.877226"><ele>2176</ele></trkpt>
      <trkpt lat="46.175992" lon="10.877489"><ele>2177.25</ele></trkpt>
      <trkpt lat="46.176033" lon="10.877574"><ele>2178</ele></trkpt>
      <trkpt lat="46.176091" lon="10.877718"><ele>2178.75</ele></trkpt>
      <trkpt lat="46.176084" lon="10.877809"><ele>2179.5</ele></trkpt>
      <trkpt lat="46.176068" lon="10.877873"><ele>2180.25</ele></trkpt>
      <trkpt lat="46.176056" lon="10.877955"><ele>2181.25</ele></trkpt>
      <trkpt lat="46.176015" lon="10.878049"><ele>2182.5</ele></trkpt>
      <trkpt lat="46.175989" lon="10.878182"><ele>2183.75</ele></trkpt>
      <trkpt lat="46.175937" lon="10.878465"><ele>2186</ele></trkpt>
      <trkpt lat="46.175921" lon="10.878625"><ele>2186.75</ele></trkpt>
      <trkpt lat="46.175937" lon="10.878687"><ele>2187.5</ele></trkpt>
      <trkpt lat="46.175976" lon="10.878759"><ele>2188.5</ele></trkpt>
      <trkpt lat="46.175985" lon="10.878858"><ele>2190</ele></trkpt>
      <trkpt lat="46.175952" lon="10.878927"><ele>2190.75</ele></trkpt>
      <trkpt lat="46.176" lon="10.87963"><ele>2195</ele></trkpt>
      <trkpt lat="46.176041" lon="10.879688"><ele>2195.5</ele></trkpt>
      <trkpt lat="46.176102" lon="10.87991"><ele>2196.75</ele></trkpt>
      <trkpt lat="46.176124" lon="10.880017"><ele>2197.25</ele></trkpt>
      <trkpt lat="46.17622" lon="10.880391"><ele>2203.75</ele></trkpt>
      <trkpt lat="46.176294" lon="10.880522"><ele>2206.75</ele></trkpt>
      <trkpt lat="46.176274" lon="10.880647"><ele>2211.5</ele></trkpt>
      <trkpt lat="46.176337" lon="10.880968"><ele>2220.25</ele></trkpt>
      <trkpt lat="46.176341" lon="10.881096"><ele>2224</ele></trkpt>
      <trkpt lat="46.176322" lon="10.881184"><ele>2227</ele></trkpt>
      <trkpt lat="46.176296" lon="10.881224"><ele>2228.5</ele></trkpt>
      <trkpt lat="46.17632" lon="10.881353"><ele>2230.75</ele></trkpt>
      <trkpt lat="46.176346" lon="10.881406"><ele>2231.5</ele></trkpt>
      <trkpt lat="46.176322" lon="10.881679"><ele>2236</ele></trkpt>
      <trkpt lat="46.176304" lon="10.881743"><ele>2237.75</ele></trkpt>
      <trkpt lat="46.176239" lon="10.881858"><ele>2240.75</ele></trkpt>
      <trkpt lat="46.176204" lon="10.881991"><ele>2244.5</ele></trkpt>
      <trkpt lat="46.176239" lon="10.882189"><ele>2251.25</ele></trkpt>
      <trkpt lat="46.176231" lon="10.882288"><ele>2255.75</ele></trkpt>
      <trkpt lat="46.17616" lon="10.882358"><ele>2259.25</ele></trkpt>
      <trkpt lat="46.176273" lon="10.882408"><ele>2262.25</ele></trkpt>
      <trkpt lat="46.176245" lon="10.882471"><ele>2265.25</ele></trkpt>
      <trkpt lat="46.176254" lon="10.88256"><ele>2268.75</ele></trkpt>
      <trkpt lat="46.176313" lon="10.882754"><ele>2273.75</ele></trkpt>
      <trkpt lat="46.17641" lon="10.882966"><ele>2278</ele></trkpt>
      <trkpt lat="46.176323" lon="10.882927"><ele>2278.25</ele></trkpt>
      <trkpt lat="46.176357" lon="10.883099"><ele>2282.25</ele></trkpt>
      <trkpt lat="46.176422" lon="10.88328"><ele>2286.75</ele></trkpt>
      <trkpt lat="46.17643" lon="10.883374"><ele>2288.75</ele></trkpt>
      <trkpt lat="46.17648" lon="10.883439"><ele>2290.25</ele></trkpt>
      <trkpt lat="46.176483" lon="10.883582"><ele>2292.75</ele></trkpt>
      <trkpt lat="46.176486" lon="10.883752"><ele>2296.5</ele></trkpt>
      <trkpt lat="46.176461" lon="10.883873"><ele>2299.5</ele></trkpt>
      <trkpt lat="46.176418" lon="10.883939"><ele>2301.5</ele></trkpt>
      <trkpt lat="46.17643" lon="10.884014"><ele>2304</ele></trkpt>
      <trkpt lat="46.176538" lon="10.884023"><ele>2303.5</ele></trkpt>
      <trkpt lat="46.176558" lon="10.884127"><ele>2305.75</ele></trkpt>
      <trkpt lat="46.176536" lon="10.884239"><ele>2311</ele></trkpt>
      <trkpt lat="46.176585" lon="10.884327"><ele>2313.5</ele></trkpt>
      <trkpt lat="46.176618" lon="10.884401"><ele>2315</ele></trkpt>
      <trkpt lat="46.176704" lon="10.884485"><ele>2316</ele></trkpt>
      <trkpt lat="46.176731" lon="10.884571"><ele>2319</ele></trkpt>
      <trkpt lat="46.176895" lon="10.884632"><ele>2320.75</ele></trkpt>
      <trkpt lat="46.176938" lon="10.884603"><ele>2320.25</ele></trkpt>
      <trkpt lat="46.176968" lon="10.884692"><ele>2322.25</ele></trkpt>
      <trkpt lat="46.177054" lon="10.884829"><ele>2327.75</ele></trkpt>
      <trkpt lat="46.177041" lon="10.88494"><ele>2330</ele></trkpt>
      <trkpt lat="46.177086" lon="10.884993"><ele>2332.25</ele></trkpt>
      <trkpt lat="46.177041" lon="10.885115"><ele>2334</ele></trkpt>
      <trkpt lat="46.177071" lon="10.885265"><ele>2338.25</ele></trkpt>
      <trkpt lat="46.177145" lon="10.885408"><ele>2344.25</ele></trkpt>
      <trkpt lat="46.177153" lon="10.885516"><ele>2348</ele></trkpt>
      <trkpt lat="46.177217" lon="10.885494"><ele>2348</ele></trkpt>
      <trkpt lat="46.177259" lon="10.885562"><ele>2352.5</ele></trkpt>
      <trkpt lat="46.177195" lon="10.885713"><ele>2354.5</ele></trkpt>
      <trkpt lat="46.177254" lon="10.885758"><ele>2358</ele></trkpt>
      <trkpt lat="46.17723" lon="10.885824"><ele>2358.25</ele></trkpt>
      <trkpt lat="46.17723" lon="10.885953"><ele>2362.25</ele></trkpt>
      <trkpt lat="46.177287" lon="10.886039"><ele>2369.5</ele></trkpt>
      <trkpt lat="46.177252" lon="10.886189"><ele>2372</ele></trkpt>
      <trkpt lat="46.177259" lon="10.886253"><ele>2374.75</ele></trkpt>
      <trkpt lat="46.177294" lon="10.886271"><ele>2378.25</ele></trkpt>
      <trkpt lat="46.177356" lon="10.886164"><ele>2379</ele></trkpt>
      <trkpt lat="46.177438" lon="10.88606"><ele>2381.5</ele></trkpt>
      <trkpt lat="46.177606" lon="10.88587"><ele>2385</ele></trkpt>
      <trkpt lat="46.177626" lon="10.885924"><ele>2388</ele></trkpt>
      <trkpt lat="46.177572" lon="10.886035"><ele>2389</ele></trkpt>
      <trkpt lat="46.177565" lon="10.88631"><ele>2399.25</ele></trkpt>
      <trkpt lat="46.177497" lon="10.886465"><ele>2401.75</ele></trkpt>
      <trkpt lat="46.177406" lon="10.886636"><ele>2403</ele></trkpt>
      <trkpt lat="46.177416" lon="10.886679"><ele>2405.75</ele></trkpt>
      <trkpt lat="46.177494" lon="10.886615"><ele>2407.5</ele></trkpt>
      <trkpt lat="46.177533" lon="10.886591"><ele>2410.25</ele></trkpt>
      <trkpt lat="46.177553" lon="10.886591"><ele>2412</ele></trkpt>
      <trkpt lat="46.177504" lon="10.886734"><ele>2414.5</ele></trkpt>
      <trkpt lat="46.177388" lon="10.886838"><ele>2412.75</ele></trkpt>
      <trkpt lat="46.177297" lon="10.887027"><ele>2415.25</ele></trkpt>
      <trkpt lat="46.17728" lon="10.887298"><ele>2425.25</ele></trkpt>
      <trkpt lat="46.177193" lon="10.887454"><ele>2429.25</ele></trkpt>
      <trkpt lat="46.177152" lon="10.887612"><ele>2437.75</ele></trkpt>
      <trkpt lat="46.177154" lon="10.887711"><ele>2441</ele></trkpt>
      <trkpt lat="46.177138" lon="10.88777"><ele>2443.5</ele></trkpt>
      <trkpt lat="46.177134" lon="10.887848"><ele>2444.75</ele></trkpt>
      <trkpt lat="46.177188" lon="10.887891"><ele>2444.25</ele></trkpt>
      <trkpt lat="46.17718" lon="10.887929"><ele>2445</ele></trkpt>
      <trkpt lat="46.177119" lon="10.887913"><ele>2446.25</ele></trkpt>
      <trkpt lat="46.177097" lon="10.887929"><ele>2447</ele></trkpt>
      <trkpt lat="46.177097" lon="10.888049"><ele>2449</ele></trkpt>
      <trkpt lat="46.177147" lon="10.888146"><ele>2449.75</ele></trkpt>
      <trkpt lat="46.177132" lon="10.888221"><ele>2452</ele></trkpt>
      <trkpt lat="46.177134" lon="10.888379"><ele>2455</ele></trkpt>
      <trkpt lat="46.177164" lon="10.888473"><ele>2454</ele></trkpt>
      <trkpt lat="46.177099" lon="10.888688"><ele>2458.25</ele></trkpt>
      <trkpt lat="46.177071" lon="10.888881"><ele>2460.5</ele></trkpt>
      <trkpt lat="46.177048" lon="10.888985"><ele>2463</ele></trkpt>
      <trkpt lat="46.177061" lon="10.88909"><ele>2464.25</ele></trkpt>
      <trkpt lat="46.177091" lon="10.889141"><ele>2464.25</ele></trkpt>
      <trkpt lat="46.177132" lon="10.889268"><ele>2464.25</ele></trkpt>
      <trkpt lat="46.17711" lon="10.889327"><ele>2465.25</ele></trkpt>
      <trkpt lat="46.177112" lon="10.889401"><ele>2465.5</ele></trkpt>
      <trkpt lat="46.177031" lon="10.889417"><ele>2466</ele></trkpt>
      <trkpt lat="46.176956" lon="10.889755"><ele>2465.75</ele></trkpt>
      <trkpt lat="46.176865" lon="10.89045"><ele>2470.25</ele></trkpt>
      <trkpt lat="46.176811" lon="10.890609"><ele>2472</ele></trkpt>
      <trkpt lat="46.176759" lon="10.890689"><ele>2474.25</ele></trkpt>
      <trkpt lat="46.176641" lon="10.890814"><ele>2479.75</ele></trkpt>
      <trkpt lat="46.176554" lon="10.89089"><ele>2486.75</ele></trkpt>
      <trkpt lat="46.176461" lon="10.890945"><ele>2494</ele></trkpt>
      <trkpt lat="46.176332" lon="10.89105"><ele>2504.5</ele></trkpt>
      <trkpt lat="46.176263" lon="10.89103"><ele>2509.25</ele></trkpt>
      <trkpt lat="46.176166" lon="10.891045"><ele>2516.5</ele></trkpt>
      <trkpt lat="46.176107" lon="10.89112"><ele>2521.5</ele></trkpt>
      <trkpt lat="46.175989" lon="10.89104"><ele>2531.5</ele></trkpt>
      <trkpt lat="46.175951" lon="10.890955"><ele>2533.75</ele></trkpt>
      <trkpt lat="46.175772" lon="10.890917"><ele>2546.75</ele></trkpt>
      <trkpt lat="46.17572" lon="10.890912"><ele>2549.5</ele></trkpt>
      <trkpt lat="46.175715" lon="10.891179"><ele>2555.25</ele></trkpt>
      <trkpt lat="46.175693" lon="10.891329"><ele>2558.25</ele></trkpt>
      <trkpt lat="46.175712" lon="10.891481"><ele>2558.25</ele></trkpt>
      <trkpt lat="46.175749" lon="10.891554"><ele>2556.25</ele></trkpt>
      <trkpt lat="46.175747" lon="10.891737"><ele>2557.5</ele></trkpt>
      <trkpt lat="46.17569" lon="10.891868"><ele>2561.5</ele></trkpt>
      <trkpt lat="46.175678" lon="10.891914"><ele>2562.25</ele></trkpt>
      <trkpt lat="46.175689" lon="10.89207"><ele>2565.25</ele></trkpt>
      <trkpt lat="46.175717" lon="10.892242"><ele>2567.5</ele></trkpt>
      <trkpt lat="46.175739" lon="10.892323"><ele>2567</ele></trkpt>
      <trkpt lat="46.175727" lon="10.89244"><ele>2569.75</ele></trkpt>
      <trkpt lat="46.175736" lon="10.892505"><ele>2570</ele></trkpt>
      <trkpt lat="46.175734" lon="10.892543"><ele>2570.75</ele></trkpt>
      <trkpt lat="46.175746" lon="10.892608"><ele>2570.75</ele></trkpt>
      <trkpt lat="46.175759" lon="10.89261"><ele>2569.5</ele></trkpt>
      <trkpt lat="46.175765" lon="10.892625"><ele>2569.25</ele></trkpt>
      <trkpt lat="46.175762" lon="10.892845"><ele>2572.25</ele></trkpt>
      <trkpt lat="46.175747" lon="10.892963"><ele>2575.25</ele></trkpt>
      <trkpt lat="46.17575" lon="10.893058"><ele>2576</ele></trkpt>
      <trkpt lat="46.175735" lon="10.893175"><ele>2578.5</ele></trkpt>
      <trkpt lat="46.175752" lon="10.893344"><ele>2578.5</ele></trkpt>
      <trkpt lat="46.175768" lon="10.893413"><ele>2578</ele></trkpt>
      <trkpt lat="46.175805" lon="10.893502"><ele>2576</ele></trkpt>
      <trkpt lat="46.175817" lon="10.893854"><ele>2579.5</ele></trkpt>
      <trkpt lat="46.175686" lon="10.894288"><ele>2587.25</ele></trkpt>
      <trkpt lat="46.175659" lon="10.894532"><ele>2588.75</ele></trkpt>
      <trkpt lat="46.175638" lon="10.894608"><ele>2589.5</ele></trkpt>
      <trkpt lat="46.17561" lon="10.894661"><ele>2590.5</ele></trkpt>
      <trkpt lat="46.1756" lon="10.894739"><ele>2590.75</ele></trkpt>
      <trkpt lat="46.175532" lon="10.894861"><ele>2596</ele></trkpt>
      <trkpt lat="46.175472" lon="10.894908"><ele>2602.25</ele></trkpt>
      <trkpt lat="46.175414" lon="10.894988"><ele>2604.25</ele></trkpt>
      <trkpt lat="46.175411" lon="10.895082"><ele>2603</ele></trkpt>
      <trkpt lat="46.17542" lon="10.895202"><ele>2601.25</ele></trkpt>
      <trkpt lat="46.175353" lon="10.89549"><ele>2604.25</ele></trkpt>
      <trkpt lat="46.175314" lon="10.895594"><ele>2606.25</ele></trkpt>
      <trkpt lat="46.175321" lon="10.895745"><ele>2606.5</ele></trkpt>
      <trkpt lat="46.175306" lon="10.895811"><ele>2607.5</ele></trkpt>
      <trkpt lat="46.17528" lon="10.895876"><ele>2608.5</ele></trkpt>
      <trkpt lat="46.175211" lon="10.89595"><ele>2613.5</ele></trkpt>
      <trkpt lat="46.175156" lon="10.896094"><ele>2616.75</ele></trkpt>
      <trkpt lat="46.175151" lon="10.896139"><ele>2617</ele></trkpt>
      <trkpt lat="46.175127" lon="10.896195"><ele>2619</ele></trkpt>
      <trkpt lat="46.175111" lon="10.896274"><ele>2620.5</ele></trkpt>
      <trkpt lat="46.175113" lon="10.896335"><ele>2620.5</ele></trkpt>
      <trkpt lat="46.17514" lon="10.896457"><ele>2618.75</ele></trkpt>
      <trkpt lat="46.175091" lon="10.896547"><ele>2622</ele></trkpt>
      <trkpt lat="46.175086" lon="10.896636"><ele>2622</ele></trkpt>
      <trkpt lat="46.1751" lon="10.896655"><ele>2621</ele></trkpt>
      <trkpt lat="46.175088" lon="10.896769"><ele>2622.5</ele></trkpt>
      <trkpt lat="46.175082" lon="10.896784"><ele>2623</ele></trkpt>
      <trkpt lat="46.175082" lon="10.896954"><ele>2624.25</ele></trkpt>
      <trkpt lat="46.175067" lon="10.897011"><ele>2626</ele></trkpt>
      <trkpt lat="46.1751" lon="10.897067"><ele>2625.75</ele></trkpt>
      <trkpt lat="46.175072" lon="10.897158"><ele>2629</ele></trkpt>
      <trkpt lat="46.175022" lon="10.897185"><ele>2632</ele></trkpt>
      <trkpt lat="46.174996" lon="10.897249"><ele>2635</ele></trkpt>
      <trkpt lat="46.174955" lon="10.897249"><ele>2637.5</ele></trkpt>
      <trkpt lat="46.17494" lon="10.897306"><ele>2640</ele></trkpt>
      <trkpt lat="46.174873" lon="10.897396"><ele>2646</ele></trkpt>
      <trkpt lat="46.174794" lon="10.897424"><ele>2651</ele></trkpt>
      <trkpt lat="46.174706" lon="10.897442"><ele>2657</ele></trkpt>
      <trkpt lat="46.174697" lon="10.897559"><ele>2660.75</ele></trkpt>
      <trkpt lat="46.17469" lon="10.89757"><ele>2662</ele></trkpt>
      <trkpt lat="46.174694" lon="10.897682"><ele>2665.25</ele></trkpt>
      <trkpt lat="46.174683" lon="10.897729"><ele>2668.25</ele></trkpt>
      <trkpt lat="46.174688" lon="10.897758"><ele>2668.5</ele></trkpt>
      <trkpt lat="46.174678" lon="10.897802"><ele>2671.25</ele></trkpt>
      <trkpt lat="46.174699" lon="10.897853"><ele>2669.5</ele></trkpt>
      <trkpt lat="46.174696" lon="10.897896"><ele>2671.25</ele></trkpt>
      <trkpt lat="46.174676" lon="10.897875"><ele>2673</ele></trkpt>
      <trkpt lat="46.174664" lon="10.89788"><ele>2674.75</ele></trkpt>
      <trkpt lat="46.174677" lon="10.897937"><ele>2674.25</ele></trkpt>
      <trkpt lat="46.174728" lon="10.897967"><ele>2670.5</ele></trkpt>
      <trkpt lat="46.174769" lon="10.898132"><ele>2674.25</ele></trkpt>
      <trkpt lat="46.174741" lon="10.898303"><ele>2682.5</ele></trkpt>
      <trkpt lat="46.174751" lon="10.898351"><ele>2685.25</ele></trkpt>
      <trkpt lat="46.174793" lon="10.898395"><ele>2687</ele></trkpt>
      <trkpt lat="46.174754" lon="10.898457"><ele>2698.25</ele></trkpt>
      <trkpt lat="46.174732" lon="10.898513"><ele>2708.25</ele></trkpt>
      <trkpt lat="46.174675" lon="10.898566"><ele>2716.75</ele></trkpt>
      <trkpt lat="46.174617" lon="10.898679"><ele>2733</ele></trkpt>
      <trkpt lat="46.174611" lon="10.898721"><ele>2740.25</ele></trkpt>
      <trkpt lat="46.174614" lon="10.898762"><ele>2748</ele></trkpt>
      <trkpt lat="46.174591" lon="10.898863"><ele>2761.75</ele></trkpt>
      <trkpt lat="46.174536" lon="10.899001"><ele>2769.25</ele></trkpt>
      <trkpt lat="46.174509" lon="10.899086"><ele>2777.25</ele></trkpt>
      <trkpt lat="46.174487" lon="10.899109"><ele>2777.5</ele></trkpt>
      <trkpt lat="46.174477" lon="10.899171"><ele>2786.25</ele></trkpt>
      <trkpt lat="46.17441" lon="10.899296"><ele>2801.75</ele></trkpt>
      <trkpt lat="46.174414" lon="10.899309"><ele>2803.25</ele></trkpt>
      <trkpt lat="46.17444" lon="10.899327"><ele>2805</ele></trkpt>
      <trkpt lat="46.174523" lon="10.899256"><ele>2801.5</ele></trkpt>
      <trkpt lat="46.174548" lon="10.899308"><ele>2809</ele></trkpt>
      <trkpt lat="46.174497" lon="10.899428"><ele>2820.5</ele></trkpt>
      <trkpt lat="46.174541" lon="10.899583"><ele>2838.25</ele></trkpt>
      <trkpt lat="46.174477" lon="10.89966"><ele>2843</ele></trkpt>
      <trkpt lat="46.174505" lon="10.899761"><ele>2852.75</ele></trkpt>
      <trkpt lat="46.174446" lon="10.899835"><ele>2853</ele></trkpt>
      <trkpt lat="46.174475" lon="10.8999"><ele>2858.25</ele></trkpt>
      <trkpt lat="46.174519" lon="10.900102"><ele>2871.5</ele></trkpt>
      <trkpt lat="46.174521" lon="10.900302"><ele>2883</ele></trkpt>
      <trkpt lat="46.1745" lon="10.900431"><ele>2894.75</ele></trkpt>
      <trkpt lat="46.174363" lon="10.90068"><ele>2907.5</ele></trkpt>
      <trkpt lat="46.174218" lon="10.900822"><ele>2905.75</ele></trkpt>
      <trkpt lat="46.174067" lon="10.900937"><ele>2905</ele></trkpt>
      <trkpt lat="46.173922" lon="10.901081"><ele>2904.75</ele></trkpt>
      <trkpt lat="46.1739" lon="10.901195"><ele>2896.5</ele></trkpt>
      <trkpt lat="46.17393" lon="10.901232"><ele>2896</ele></trkpt>
      <trkpt lat="46.174004" lon="10.901187"><ele>2907.5</ele></trkpt>
      <trkpt lat="46.17404" lon="10.901203"><ele>2910</ele></trkpt>
      <trkpt lat="46.174053" lon="10.901273"><ele>2906.75</ele></trkpt>
      <trkpt lat="46.174092" lon="10.901364"><ele>2905.75</ele></trkpt>
      <trkpt lat="46.17411" lon="10.901474"><ele>2910</ele></trkpt>
      <trkpt lat="46.174095" lon="10.901616"><ele>2913.5</ele></trkpt>
      <trkpt lat="46.174065" lon="10.901664"><ele>2912.25</ele></trkpt>
      <trkpt lat="46.174073" lon="10.901726"><ele>2920</ele></trkpt>
      <trkpt lat="46.174086" lon="10.901747"><ele>2924</ele></trkpt>
      <trkpt lat="46.173937" lon="10.901922"><ele>2921.5</ele></trkpt>
      <trkpt lat="46.173908" lon="10.901973"><ele>2921</ele></trkpt>
      <trkpt lat="46.173835" lon="10.902067"><ele>2919.5</ele></trkpt>
      <trkpt lat="46.173846" lon="10.90216"><ele>2927</ele></trkpt>
      <trkpt lat="46.173904" lon="10.902182"><ele>2935.75</ele></trkpt>
      <trkpt lat="46.173941" lon="10.902126"><ele>2938.25</ele></trkpt>
      <trkpt lat="46.173971" lon="10.902107"><ele>2942.25</ele></trkpt>
      <trkpt lat="46.173993" lon="10.902177"><ele>2952</ele></trkpt>
      <trkpt lat="46.173937" lon="10.902292"><ele>2950.5</ele></trkpt>
      <trkpt lat="46.173941" lon="10.90234"><ele>2955</ele></trkpt>
      <trkpt lat="46.173984" lon="10.902321"><ele>2960.5</ele></trkpt>
      <trkpt lat="46.174045" lon="10.902249"><ele>2967</ele></trkpt>
      <trkpt lat="46.174077" lon="10.90223"><ele>2972</ele></trkpt>
      <trkpt lat="46.17419" lon="10.90196"><ele>2963.5</ele></trkpt>
      <trkpt lat="46.174301" lon="10.901943"><ele>2972.25</ele></trkpt>
      <trkpt lat="46.174522" lon="10.901761"><ele>2975.75</ele></trkpt>
      <trkpt lat="46.174581" lon="10.901751"><ele>2977.25</ele></trkpt>
      <trkpt lat="46.174658" lon="10.901782"><ele>2981</ele></trkpt>
      <trkpt lat="46.174826" lon="10.901953"><ele>2986</ele></trkpt>
      <trkpt lat="46.174992" lon="10.902016"><ele>2985.5</ele></trkpt>
      <trkpt lat="46.175046" lon="10.90207"><ele>2982</ele></trkpt>
      <trkpt lat="46.175089" lon="10.902084"><ele>2978</ele></trkpt>
      <trkpt lat="46.175164" lon="10.902278"><ele>2972.25</ele></trkpt>
      <trkpt lat="46.175148" lon="10.902343"><ele>2972.75</ele></trkpt>
      <trkpt lat="46.175221" lon="10.902436"><ele>2964.5</ele></trkpt>
      <trkpt lat="46.175264" lon="10.902412"><ele>2961</ele></trkpt>
      <trkpt lat="46.175276" lon="10.902436"><ele>2959.75</ele></trkpt>
      <trkpt lat="46.175466" lon="10.902613"><ele>2955.75</ele></trkpt>
      <trkpt lat="46.175539" lon="10.902623"><ele>2959</ele></trkpt>
      <trkpt lat="46.175637" lon="10.902578"><ele>2961.25</ele></trkpt>
      <trkpt lat="46.175761" lon="10.902481"><ele>2962.5</ele></trkpt>
      <trkpt lat="46.175897" lon="10.90245"><ele>2957</ele></trkpt>
      <trkpt lat="46.176172" lon="10.902243"><ele>2974.75</ele></trkpt>
      <trkpt lat="46.176453" lon="10.902128"><ele>2962.5</ele></trkpt>
      <trkpt lat="46.176556" lon="10.90199"><ele>2966</ele></trkpt>
      <trkpt lat="46.176784" lon="10.90166"><ele>2977</ele></trkpt>
      <trkpt lat="46.176833" lon="10.901569"><ele>2970.75</ele></trkpt>
      <trkpt lat="46.176922" lon="10.901467"><ele>2980.75</ele></trkpt>
      <trkpt lat="46.177014" lon="10.901469"><ele>2985.75</ele></trkpt>
      <trkpt lat="46.177115" lon="10.901571"><ele>2977.5</ele></trkpt>
      <trkpt lat="46.177136" lon="10.901568"><ele>2977.5</ele></trkpt>
      <trkpt lat="46.177278" lon="10.9015"><ele>2982</ele></trkpt>
      <trkpt lat="46.177424" lon="10.901458"><ele>2980</ele></trkpt>
      <trkpt lat="46.177518" lon="10.901373"><ele>2990.5</ele></trkpt>
      <trkpt lat="46.177572" lon="10.901369"><ele>2996.5</ele></trkpt>
      <trkpt lat="46.17764" lon="10.901444"><ele>2989.5</ele></trkpt>
      <trkpt lat="46.177743" lon="10.901513"><ele>2984.75</ele></trkpt>
      <trkpt lat="46.17781" lon="10.901504"><ele>2989.75</ele></trkpt>
      <trkpt lat="46.177884" lon="10.901446"><ele>3001.25</ele></trkpt>
      <trkpt lat="46.177916" lon="10.901412"><ele>3006.5</ele></trkpt>
      <trkpt lat="46.177937" lon="10.901421"><ele>3005.25</ele></trkpt>
      <trkpt lat="46.177954" lon="10.90145"><ele>3001.5</ele></trkpt>
      <trkpt lat="46.177955" lon="10.901577"><ele>2985.25</ele></trkpt>
      <trkpt lat="46.177977" lon="10.901733"><ele>2964.5</ele></trkpt>
      <trkpt lat="46.178001" lon="10.901735"><ele>2966</ele></trkpt>
      <trkpt lat="46.178219" lon="10.90158"><ele>2995.75</ele></trkpt>
      <trkpt lat="46.178238" lon="10.901608"><ele>2992</ele></trkpt>
      <trkpt lat="46.178227" lon="10.901665"><ele>2983.5</ele></trkpt>
      <trkpt lat="46.178254" lon="10.901735"><ele>2965.5</ele></trkpt>
      <trkpt lat="46.178291" lon="10.901744"><ele>2962.25</ele></trkpt>
      <trkpt lat="46.178326" lon="10.901735"><ele>2963.75</ele></trkpt>
      <trkpt lat="46.178362" lon="10.9017"><ele>2973.5</ele></trkpt>
      <trkpt lat="46.178402" lon="10.901632"><ele>2990.25</ele></trkpt>
      <trkpt lat="46.178426" lon="10.901643"><ele>2988.5</ele></trkpt>
      <trkpt lat="46.178461" lon="10.901711"><ele>2970.25</ele></trkpt>
      <trkpt lat="46.178493" lon="10.901729"><ele>2964.5</ele></trkpt>
      <trkpt lat="46.178548" lon="10.901698"><ele>2974.75</ele></trkpt>
      <trkpt lat="46.178607" lon="10.901702"><ele>2973.5</ele></trkpt>
      <trkpt lat="46.17866" lon="10.901734"><ele>2963</ele></trkpt>
      <trkpt lat="46.178736" lon="10.901645"><ele>2989.75</ele></trkpt>
      <trkpt lat="46.178807" lon="10.901675"><ele>2983.25</ele></trkpt>
      <trkpt lat="46.17886" lon="10.901743"><ele>2963.5</ele></trkpt>
      <trkpt lat="46.178938" lon="10.90173"><ele>2970.25</ele></trkpt>
      <trkpt lat="46.178996" lon="10.901797"><ele>2955.5</ele></trkpt>
      <trkpt lat="46.179099" lon="10.901783"><ele>2965.75</ele></trkpt>
      <trkpt lat="46.179201" lon="10.902054"><ele>2955.5</ele></trkpt>
      <trkpt lat="46.179266" lon="10.902145"><ele>2980.75</ele></trkpt>
      <trkpt lat="46.17926" lon="10.902241"><ele>2989</ele></trkpt>
      <trkpt lat="46.179401" lon="10.902544"><ele>2997.5</ele></trkpt>
      <trkpt lat="46.179455" lon="10.902576"><ele>2997</ele></trkpt>
      <trkpt lat="46.179598" lon="10.902689"><ele>2995.25</ele></trkpt>
      <trkpt lat="46.1797" lon="10.902753"><ele>2995.5</ele></trkpt>
      <trkpt lat="46.179705" lon="10.902863"><ele>2987.75</ele></trkpt>
      <trkpt lat="46.179856" lon="10.90296"><ele>2978.5</ele></trkpt>
      <trkpt lat="46.17991" lon="10.903031"><ele>2972.5</ele></trkpt>
      <trkpt lat="46.179933" lon="10.903219"><ele>2963</ele></trkpt>
      <trkpt lat="46.180029" lon="10.903302"><ele>2958.25</ele></trkpt>
      <trkpt lat="46.180118" lon="10.903243"><ele>2955.75</ele></trkpt>
      <trkpt lat="46.180369" lon="10.903113"><ele>2951.25</ele></trkpt>
      <trkpt lat="46.180554" lon="10.903041"><ele>2952.75</ele></trkpt>
      <trkpt lat="46.18066" lon="10.903054"><ele>2946.75</ele></trkpt>
      <trkpt lat="46.180763" lon="10.902978"><ele>2948.75</ele></trkpt>
      <trkpt lat="46.180863" lon="10.902971"><ele>2946.75</ele></trkpt>
      <trkpt lat="46.180948" lon="10.903021"><ele>2941.5</ele></trkpt>
      <trkpt lat="46.180982" lon="10.903084"><ele>2928.75</ele></trkpt>
      <trkpt lat="46.181059" lon="10.90306"><ele>2936.75</ele></trkpt>
      <trkpt lat="46.181156" lon="10.902991"><ele>2941.25</ele></trkpt>
      <trkpt lat="46.181234" lon="10.903006"><ele>2933.5</ele></trkpt>
      <trkpt lat="46.181335" lon="10.902951"><ele>2934</ele></trkpt>
      <trkpt lat="46.181404" lon="10.902895"><ele>2938.75</ele></trkpt>
      <trkpt lat="46.181617" lon="10.902812"><ele>2935</ele></trkpt>
      <trkpt lat="46.181732" lon="10.902721"><ele>2941.25</ele></trkpt>
      <trkpt lat="46.181911" lon="10.902699"><ele>2933.5</ele></trkpt>
      <trkpt lat="46.182048" lon="10.902748"><ele>2915</ele></trkpt>
      <trkpt lat="46.182203" lon="10.902658"><ele>2912</ele></trkpt>
      <trkpt lat="46.182287" lon="10.902547"><ele>2918.5</ele></trkpt>
      <trkpt lat="46.182475" lon="10.902474"><ele>2911.75</ele></trkpt>
      <trkpt lat="46.182534" lon="10.902471"><ele>2908.75</ele></trkpt>
      <trkpt lat="46.182654" lon="10.902508"><ele>2904.5</ele></trkpt>
      <trkpt lat="46.182917" lon="10.902724"><ele>2889.75</ele></trkpt>
      <trkpt lat="46.182909" lon="10.902667"><ele>2891</ele></trkpt>
      <trkpt lat="46.182952" lon="10.902681"><ele>2890.75</ele></trkpt>
      <trkpt lat="46.182934" lon="10.902629"><ele>2891.25</ele></trkpt>
      <trkpt lat="46.182975" lon="10.902643"><ele>2890.75</ele></trkpt>
      <trkpt lat="46.183091" lon="10.902819"><ele>2880.25</ele></trkpt>
      <trkpt lat="46.183196" lon="10.902926"><ele>2861.25</ele></trkpt>
      <trkpt lat="46.183285" lon="10.902904"><ele>2871.25</ele></trkpt>
      <trkpt lat="46.183376" lon="10.90295"><ele>2870.75</ele></trkpt>
      <trkpt lat="46.183453" lon="10.903007"><ele>2865.5</ele></trkpt>
      <trkpt lat="46.183547" lon="10.903005"><ele>2861.25</ele></trkpt>
      <trkpt lat="46.183622" lon="10.902972"><ele>2856.75</ele></trkpt>
      <trkpt lat="46.183659" lon="10.902907"><ele>2851.25</ele></trkpt>
      <trkpt lat="46.183729" lon="10.902932"><ele>2840</ele></trkpt>
      <trkpt lat="46.18374" lon="10.902838"><ele>2837.75</ele></trkpt>
      <trkpt lat="46.183788" lon="10.90285"><ele>2830</ele></trkpt>
      <trkpt lat="46.183823" lon="10.902891"><ele>2824.5</ele></trkpt>
      <trkpt lat="46.183856" lon="10.902802"><ele>2818</ele></trkpt>
      <trkpt lat="46.183984" lon="10.902834"><ele>2795.75</ele></trkpt>
      <trkpt lat="46.18406" lon="10.902891"><ele>2779.25</ele></trkpt>
      <trkpt lat="46.184049" lon="10.902771"><ele>2786.25</ele></trkpt>
      <trkpt lat="46.184127" lon="10.902804"><ele>2772.25</ele></trkpt>
      <trkpt lat="46.184151" lon="10.902755"><ele>2769.25</ele></trkpt>
      <trkpt lat="46.184156" lon="10.902646"><ele>2762.5</ele></trkpt>
      <trkpt lat="46.184199" lon="10.902551"><ele>2751.25</ele></trkpt>
      <trkpt lat="46.184196" lon="10.902453"><ele>2748.5</ele></trkpt>
      <trkpt lat="46.184226" lon="10.902433"><ele>2744.75</ele></trkpt>
      <trkpt lat="46.184206" lon="10.902304"><ele>2745.75</ele></trkpt>
      <trkpt lat="46.184241" lon="10.902277"><ele>2742.5</ele></trkpt>
      <trkpt lat="46.184181" lon="10.902142"><ele>2745</ele></trkpt>
      <trkpt lat="46.184166" lon="10.902065"><ele>2744.5</ele></trkpt>
      <trkpt lat="46.18424" lon="10.90207"><ele>2739.25</ele></trkpt>
      <trkpt lat="46.184333" lon="10.902171"><ele>2734.5</ele></trkpt>
      <trkpt lat="46.184413" lon="10.902201"><ele>2729</ele></trkpt>
      <trkpt lat="46.184427" lon="10.902126"><ele>2726.75</ele></trkpt>
      <trkpt lat="46.184364" lon="10.901854"><ele>2725.75</ele></trkpt>
      <trkpt lat="46.184362" lon="10.901773"><ele>2723.25</ele></trkpt>
      <trkpt lat="46.184345" lon="10.901639"><ele>2720.25</ele></trkpt>
      <trkpt lat="46.18438" lon="10.901597"><ele>2717.75</ele></trkpt>
      <trkpt lat="46.18437" lon="10.901498"><ele>2716.5</ele></trkpt>
      <trkpt lat="46.184392" lon="10.901478"><ele>2715.25</ele></trkpt>
      <trkpt lat="46.184428" lon="10.901491"><ele>2714</ele></trkpt>
      <trkpt lat="46.18445" lon="10.901444"><ele>2712.25</ele></trkpt>
      <trkpt lat="46.18444" lon="10.901369"><ele>2711.5</ele></trkpt>
      <trkpt lat="46.184474" lon="10.901377"><ele>2710.25</ele></trkpt>
      <trkpt lat="46.184564" lon="10.901289"><ele>2704</ele></trkpt>
      <trkpt lat="46.184654" lon="10.901294"><ele>2700.25</ele></trkpt>
      <trkpt lat="46.184717" lon="10.901268"><ele>2697.25</ele></trkpt>
      <trkpt lat="46.184835" lon="10.901062"><ele>2688.5</ele></trkpt>
      <trkpt lat="46.184897" lon="10.901025"><ele>2684.75</ele></trkpt>
      <trkpt lat="46.18503" lon="10.901054"><ele>2677.75</ele></trkpt>
      <trkpt lat="46.18522" lon="10.901064"><ele>2663.75</ele></trkpt>
      <trkpt lat="46.18534" lon="10.901122"><ele>2656.5</ele></trkpt>
      <trkpt lat="46.185428" lon="10.901088"><ele>2651</ele></trkpt>
      <trkpt lat="46.185463" lon="10.901028"><ele>2647.5</ele></trkpt>
      <trkpt lat="46.185505" lon="10.900995"><ele>2644.25</ele></trkpt>
      <trkpt lat="46.185559" lon="10.901008"><ele>2642</ele></trkpt>
      <trkpt lat="46.185536" lon="10.900948"><ele>2641.5</ele></trkpt>
      <trkpt lat="46.185533" lon="10.90092"><ele>2641</ele></trkpt>
      <trkpt lat="46.185549" lon="10.900894"><ele>2639.5</ele></trkpt>
      <trkpt lat="46.185593" lon="10.900893"><ele>2641</ele></trkpt>
      <trkpt lat="46.185633" lon="10.90087"><ele>2642</ele></trkpt>
      <trkpt lat="46.185579" lon="10.900751"><ele>2636.75</ele></trkpt>
      <trkpt lat="46.185596" lon="10.900736"><ele>2636.5</ele></trkpt>
      <trkpt lat="46.185706" lon="10.900744"><ele>2638.25</ele></trkpt>
      <trkpt lat="46.185762" lon="10.900728"><ele>2638.25</ele></trkpt>
      <trkpt lat="46.18584" lon="10.900652"><ele>2635.25</ele></trkpt>
      <trkpt lat="46.18602" lon="10.900236"><ele>2620</ele></trkpt>
      <trkpt lat="46.18606" lon="10.900098"><ele>2613</ele></trkpt>
      <trkpt lat="46.186173" lon="10.899632"><ele>2595.75</ele></trkpt>
      <trkpt lat="46.186328" lon="10.899097"><ele>2576.5</ele></trkpt>
      <trkpt lat="46.186384" lon="10.898788"><ele>2556.25</ele></trkpt>
      <trkpt lat="46.186547" lon="10.898348"><ele>2541.5</ele></trkpt>
      <trkpt lat="46.186603" lon="10.898086"><ele>2530.75</ele></trkpt>
      <trkpt lat="46.186827" lon="10.897856"><ele>2523.75</ele></trkpt>
      <trkpt lat="46.186983" lon="10.897642"><ele>2519</ele></trkpt>
      <trkpt lat="46.187034" lon="10.897483"><ele>2511.5</ele></trkpt>
      <trkpt lat="46.187047" lon="10.897275"><ele>2499.25</ele></trkpt>
      <trkpt lat="46.186983" lon="10.897161"><ele>2488.75</ele></trkpt>
      <trkpt lat="46.187058" lon="10.89697"><ele>2484</ele></trkpt>
      <trkpt lat="46.18703" lon="10.896862"><ele>2477.75</ele></trkpt>
      <trkpt lat="46.187186" lon="10.896683"><ele>2469.25</ele></trkpt>
      <trkpt lat="46.18732" lon="10.89647"><ele>2464.5</ele></trkpt>
      <trkpt lat="46.187491" lon="10.896143"><ele>2452.5</ele></trkpt>
      <trkpt lat="46.187649" lon="10.895755"><ele>2448.5</ele></trkpt>
      <trkpt lat="46.187738" lon="10.89551"><ele>2434.5</ele></trkpt>
      <trkpt lat="46.187948" lon="10.89507"><ele>2427.75</ele></trkpt>
      <trkpt lat="46.188061" lon="10.894686"><ele>2421</ele></trkpt>
      <trkpt lat="46.188199" lon="10.89432"><ele>2415.75</ele></trkpt>
      <trkpt lat="46.188271" lon="10.894161"><ele>2414</ele></trkpt>
      <trkpt lat="46.188393" lon="10.893852"><ele>2411.5</ele></trkpt>
      <trkpt lat="46.18861" lon="10.893446"><ele>2404.75</ele></trkpt>
      <trkpt lat="46.188717" lon="10.89329"><ele>2405</ele></trkpt>
      <trkpt lat="46.188881" lon="10.893028"><ele>2398.5</ele></trkpt>
      <trkpt lat="46.188957" lon="10.892892"><ele>2399.25</ele></trkpt>
      <trkpt lat="46.189027" lon="10.8928"><ele>2399.25</ele></trkpt>
      <trkpt lat="46.189167" lon="10.892559"><ele>2395.75</ele></trkpt>
      <trkpt lat="46.189295" lon="10.892388"><ele>2393.75</ele></trkpt>
      <trkpt lat="46.18938" lon="10.892306"><ele>2393.25</ele></trkpt>
      <trkpt lat="46.189405" lon="10.892122"><ele>2387.5</ele></trkpt>
      <trkpt lat="46.189443" lon="10.892105"><ele>2388</ele></trkpt>
      <trkpt lat="46.189529" lon="10.891822"><ele>2381.75</ele></trkpt>
      <trkpt lat="46.18964" lon="10.89156"><ele>2376.25</ele></trkpt>
      <trkpt lat="46.189843" lon="10.891222"><ele>2371.25</ele></trkpt>
      <trkpt lat="46.189868" lon="10.891104"><ele>2367.75</ele></trkpt>
      <trkpt lat="46.189883" lon="10.890785"><ele>2359.25</ele></trkpt>
      <trkpt lat="46.190109" lon="10.890308"><ele>2350.25</ele></trkpt>
      <trkpt lat="46.190537" lon="10.889649"><ele>2336.75</ele></trkpt>
      <trkpt lat="46.190643" lon="10.889557"><ele>2336.75</ele></trkpt>
      <trkpt lat="46.190694" lon="10.889512"><ele>2336.75</ele></trkpt>
      <trkpt lat="46.190905" lon="10.889054"><ele>2329.5</ele></trkpt>
      <trkpt lat="46.191049" lon="10.8888"><ele>2328.5</ele></trkpt>
      <trkpt lat="46.191072" lon="10.888704"><ele>2327.5</ele></trkpt>
      <trkpt lat="46.191009" lon="10.888774"><ele>2326.25</ele></trkpt>
      <trkpt lat="46.190923" lon="10.888796"><ele>2322.75</ele></trkpt>
      <trkpt lat="46.190817" lon="10.888922"><ele>2322.25</ele></trkpt>
      <trkpt lat="46.190698" lon="10.888989"><ele>2319</ele></trkpt>
      <trkpt lat="46.190604" lon="10.889114"><ele>2318</ele></trkpt>
      <trkpt lat="46.190516" lon="10.889175"><ele>2316.5</ele></trkpt>
      <trkpt lat="46.190501" lon="10.889204"><ele>2317.5</ele></trkpt>
      <trkpt lat="46.19045" lon="10.889267"><ele>2318.75</ele></trkpt>
      <trkpt lat="46.190409" lon="10.889293"><ele>2318.5</ele></trkpt>
      <trkpt lat="46.190383" lon="10.889341"><ele>2319.25</ele></trkpt>
      <trkpt lat="46.190335" lon="10.889354"><ele>2318</ele></trkpt>
      <trkpt lat="46.190241" lon="10.889464"><ele>2319</ele></trkpt>
      <trkpt lat="46.19019" lon="10.889502"><ele>2320.75</ele></trkpt>
      <trkpt lat="46.190115" lon="10.889537"><ele>2321.5</ele></trkpt>
      <trkpt lat="46.190091" lon="10.889504"><ele>2320.25</ele></trkpt>
      <trkpt lat="46.190066" lon="10.889511"><ele>2320.25</ele></trkpt>
      <trkpt lat="46.190032" lon="10.889492"><ele>2319.75</ele></trkpt>
      <trkpt lat="46.190004" lon="10.889466"><ele>2319.25</ele></trkpt>
      <trkpt lat="46.189972" lon="10.88939"><ele>2318.75</ele></trkpt>
      <trkpt lat="46.189901" lon="10.889345"><ele>2320.25</ele></trkpt>
      <trkpt lat="46.189835" lon="10.889339"><ele>2322</ele></trkpt>
      <trkpt lat="46.189797" lon="10.889295"><ele>2322.5</ele></trkpt>
      <trkpt lat="46.189781" lon="10.889201"><ele>2322.25</ele></trkpt>
      <trkpt lat="46.189741" lon="10.889149"><ele>2323.25</ele></trkpt>
      <trkpt lat="46.18973" lon="10.889065"><ele>2323.25</ele></trkpt>
      <trkpt lat="46.189636" lon="10.88893"><ele>2326</ele></trkpt>
      <trkpt lat="46.189661" lon="10.888787"><ele>2324.25</ele></trkpt>
      <trkpt lat="46.189598" lon="10.888681"><ele>2326.75</ele></trkpt>
      <trkpt lat="46.189569" lon="10.888464"><ele>2327.25</ele></trkpt>
      <trkpt lat="46.189583" lon="10.888127"><ele>2323</ele></trkpt>
      <trkpt lat="46.189541" lon="10.887943"><ele>2325.5</ele></trkpt>
      <trkpt lat="46.189494" lon="10.887866"><ele>2328.5</ele></trkpt>
      <trkpt lat="46.189452" lon="10.887974"><ele>2332.5</ele></trkpt>
      <trkpt lat="46.18939" lon="10.887915"><ele>2337.5</ele></trkpt>
      <trkpt lat="46.189349" lon="10.887483"><ele>2331.75</ele></trkpt>
      <trkpt lat="46.189303" lon="10.887587"><ele>2338.5</ele></trkpt>
      <trkpt lat="46.189279" lon="10.887516"><ele>2338.75</ele></trkpt>
      <trkpt lat="46.189199" lon="10.887475"><ele>2344.25</ele></trkpt>
      <trkpt lat="46.189145" lon="10.887336"><ele>2344.75</ele></trkpt>
      <trkpt lat="46.189052" lon="10.887336"><ele>2351.5</ele></trkpt>
      <trkpt lat="46.188954" lon="10.887282"><ele>2357</ele></trkpt>
      <trkpt lat="46.188904" lon="10.887178"><ele>2357.25</ele></trkpt>
      <trkpt lat="46.188839" lon="10.887151"><ele>2360.75</ele></trkpt>
      <trkpt lat="46.188792" lon="10.887083"><ele>2361.25</ele></trkpt>
      <trkpt lat="46.18873" lon="10.88696"><ele>2360.75</ele></trkpt>
      <trkpt lat="46.188651" lon="10.886687"><ele>2363.5</ele></trkpt>
      <trkpt lat="46.188581" lon="10.886558"><ele>2369.25</ele></trkpt>
      <trkpt lat="46.188578" lon="10.886454"><ele>2369.75</ele></trkpt>
      <trkpt lat="46.188596" lon="10.886193"><ele>2362.75</ele></trkpt>
      <trkpt lat="46.188568" lon="10.88615"><ele>2364.5</ele></trkpt>
      <trkpt lat="46.188579" lon="10.886048"><ele>2362.5</ele></trkpt>
      <trkpt lat="46.188583" lon="10.885936"><ele>2362.25</ele></trkpt>
      <trkpt lat="46.18856" lon="10.885866"><ele>2364.75</ele></trkpt>
      <trkpt lat="46.188562" lon="10.885676"><ele>2362.75</ele></trkpt>
      <trkpt lat="46.188527" lon="10.885061"><ele>2357</ele></trkpt>
      <trkpt lat="46.188484" lon="10.884726"><ele>2356.25</ele></trkpt>
      <trkpt lat="46.188482" lon="10.884619"><ele>2356.25</ele></trkpt>
      <trkpt lat="46.188433" lon="10.884457"><ele>2360.75</ele></trkpt>
      <trkpt lat="46.188428" lon="10.884342"><ele>2361.75</ele></trkpt>
      <trkpt lat="46.188445" lon="10.884138"><ele>2360.75</ele></trkpt>
      <trkpt lat="46.188493" lon="10.883833"><ele>2359.25</ele></trkpt>
      <trkpt lat="46.188555" lon="10.88371"><ele>2354.25</ele></trkpt>
      <trkpt lat="46.188609" lon="10.883578"><ele>2350</ele></trkpt>
      <trkpt lat="46.188627" lon="10.883412"><ele>2348</ele></trkpt>
      <trkpt lat="46.188629" lon="10.88328"><ele>2347.5</ele></trkpt>
      <trkpt lat="46.188605" lon="10.883101"><ele>2348.75</ele></trkpt>
      <trkpt lat="46.188549" lon="10.883028"><ele>2352.5</ele></trkpt>
      <trkpt lat="46.188519" lon="10.882929"><ele>2354</ele></trkpt>
      <trkpt lat="46.188445" lon="10.88291"><ele>2359.25</ele></trkpt>
      <trkpt lat="46.18843" lon="10.882806"><ele>2359.25</ele></trkpt>
      <trkpt lat="46.188382" lon="10.882752"><ele>2362.25</ele></trkpt>
      <trkpt lat="46.18836" lon="10.882489"><ele>2361.75</ele></trkpt>
      <trkpt lat="46.188315" lon="10.882226"><ele>2364.25</ele></trkpt>
      <trkpt lat="46.188328" lon="10.882055"><ele>2362.75</ele></trkpt>
      <trkpt lat="46.1883" lon="10.881982"><ele>2364.5</ele></trkpt>
      <trkpt lat="46.188297" lon="10.881676"><ele>2368.5</ele></trkpt>
      <trkpt lat="46.188323" lon="10.881561"><ele>2369</ele></trkpt>
      <trkpt lat="46.188341" lon="10.881419"><ele>2370.75</ele></trkpt>
      <trkpt lat="46.188389" lon="10.88129"><ele>2368.5</ele></trkpt>
      <trkpt lat="46.188414" lon="10.881068"><ele>2368.75</ele></trkpt>
      <trkpt lat="46.188421" lon="10.880944"><ele>2369.5</ele></trkpt>
      <trkpt lat="46.188438" lon="10.880815"><ele>2369.5</ele></trkpt>
      <trkpt lat="46.188393" lon="10.880606"><ele>2374</ele></trkpt>
      <trkpt lat="46.188384" lon="10.880499"><ele>2375.5</ele></trkpt>
      <trkpt lat="46.188419" lon="10.880244"><ele>2375.25</ele></trkpt>
      <trkpt lat="46.188419" lon="10.88003"><ele>2376.5</ele></trkpt>
      <trkpt lat="46.188449" lon="10.879855"><ele>2375.75</ele></trkpt>
      <trkpt lat="46.188449" lon="10.879695"><ele>2377.75</ele></trkpt>
      <trkpt lat="46.188436" lon="10.879592"><ele>2378.25</ele></trkpt>
      <trkpt lat="46.188406" lon="10.879517"><ele>2380</ele></trkpt>
      <trkpt lat="46.188358" lon="10.879456"><ele>2382.5</ele></trkpt>
      <trkpt lat="46.188291" lon="10.879421"><ele>2385</ele></trkpt>
      <trkpt lat="46.18825" lon="10.879485"><ele>2388</ele></trkpt>
      <trkpt lat="46.188226" lon="10.87956"><ele>2390.5</ele></trkpt>
      <trkpt lat="46.188219" lon="10.879871"><ele>2394.75</ele></trkpt>
      <trkpt lat="46.188176" lon="10.879858"><ele>2398</ele></trkpt>
      <trkpt lat="46.187968" lon="10.879831"><ele>2410.5</ele></trkpt>
      <trkpt lat="46.187774" lon="10.87977"><ele>2418.5</ele></trkpt>
      <trkpt lat="46.187682" lon="10.879729"><ele>2420.75</ele></trkpt>
      <trkpt lat="46.18758" lon="10.879584"><ele>2423.75</ele></trkpt>
      <trkpt lat="46.18755" lon="10.879512"><ele>2424.75</ele></trkpt>
      <trkpt lat="46.187424" lon="10.879329"><ele>2430</ele></trkpt>
      <trkpt lat="46.187413" lon="10.87919"><ele>2430.25</ele></trkpt>
      <trkpt lat="46.187357" lon="10.879013"><ele>2431.75</ele></trkpt>
      <trkpt lat="46.187372" lon="10.878884"><ele>2430.5</ele></trkpt>
      <trkpt lat="46.18735" lon="10.878723"><ele>2430.5</ele></trkpt>
      <trkpt lat="46.187355" lon="10.878581"><ele>2429.5</ele></trkpt>
      <trkpt lat="46.187331" lon="10.878471"><ele>2429.5</ele></trkpt>
      <trkpt lat="46.187277" lon="10.878361"><ele>2431.75</ele></trkpt>
      <trkpt lat="46.187132" lon="10.878318"><ele>2438.25</ele></trkpt>
      <trkpt lat="46.18709" lon="10.878262"><ele>2439</ele></trkpt>
      <trkpt lat="46.186952" lon="10.877911"><ele>2438.25</ele></trkpt>
      <trkpt lat="46.186848" lon="10.877827"><ele>2440.25</ele></trkpt>
      <trkpt lat="46.186787" lon="10.87772"><ele>2441</ele></trkpt>
      <trkpt lat="46.186672" lon="10.877688"><ele>2443.25</ele></trkpt>
      <trkpt lat="46.186624" lon="10.877637"><ele>2443</ele></trkpt>
      <trkpt lat="46.186603" lon="10.877532"><ele>2441.25</ele></trkpt>
      <trkpt lat="46.186566" lon="10.87746"><ele>2440.5</ele></trkpt>
      <trkpt lat="46.186493" lon="10.877428"><ele>2440.75</ele></trkpt>
      <trkpt lat="46.186449" lon="10.877361"><ele>2440.25</ele></trkpt>
      <trkpt lat="46.186425" lon="10.877272"><ele>2438.75</ele></trkpt>
      <trkpt lat="46.18636" lon="10.877256"><ele>2438.75</ele></trkpt>
      <trkpt lat="46.186167" lon="10.877304"><ele>2440.5</ele></trkpt>
      <trkpt lat="46.186126" lon="10.877262"><ele>2440.75</ele></trkpt>
      <trkpt lat="46.186117" lon="10.877208"><ele>2441</ele></trkpt>
      <trkpt lat="46.186137" lon="10.877039"><ele>2441.5</ele></trkpt>
      <trkpt lat="46.186143" lon="10.876669"><ele>2441.25</ele></trkpt>
      <trkpt lat="46.186068" lon="10.876502"><ele>2438.25</ele></trkpt>
      <trkpt lat="46.185968" lon="10.876384"><ele>2436.25</ele></trkpt>
      <trkpt lat="46.185847" lon="10.876398"><ele>2439</ele></trkpt>
      <trkpt lat="46.185594" lon="10.876235"><ele>2441.5</ele></trkpt>
      <trkpt lat="46.185539" lon="10.876173"><ele>2441</ele></trkpt>
      <trkpt lat="46.185494" lon="10.876103"><ele>2440.5</ele></trkpt>
      <trkpt lat="46.185506" lon="10.876055"><ele>2439.75</ele></trkpt>
      <trkpt lat="46.185457" lon="10.875891"><ele>2441</ele></trkpt>
      <trkpt lat="46.185403" lon="10.875588"><ele>2440.25</ele></trkpt>
      <trkpt lat="46.185339" lon="10.875518"><ele>2441.5</ele></trkpt>
      <trkpt lat="46.185311" lon="10.875446"><ele>2442</ele></trkpt>
      <trkpt lat="46.185294" lon="10.875352"><ele>2441.75</ele></trkpt>
      <trkpt lat="46.185287" lon="10.875194"><ele>2441.25</ele></trkpt>
      <trkpt lat="46.18527" lon="10.875105"><ele>2441.75</ele></trkpt>
      <trkpt lat="46.185233" lon="10.875008"><ele>2443.5</ele></trkpt>
      <trkpt lat="46.185229" lon="10.874885"><ele>2443.5</ele></trkpt>
      <trkpt lat="46.185212" lon="10.874424"><ele>2443.25</ele></trkpt>
      <trkpt lat="46.185186" lon="10.874378"><ele>2443.25</ele></trkpt>
      <trkpt lat="46.18504" lon="10.874405"><ele>2446.25</ele></trkpt>
      <trkpt lat="46.184989" lon="10.874475"><ele>2447.75</ele></trkpt>
      <trkpt lat="46.184976" lon="10.874563"><ele>2449.25</ele></trkpt>
      <trkpt lat="46.184906" lon="10.874684"><ele>2449.25</ele></trkpt>
      <trkpt lat="46.184858" lon="10.874727"><ele>2449</ele></trkpt>
      <trkpt lat="46.184826" lon="10.874823"><ele>2451.25</ele></trkpt>
      <trkpt lat="46.184767" lon="10.874808"><ele>2448.75</ele></trkpt>
      <trkpt lat="46.184694" lon="10.874864"><ele>2450.75</ele></trkpt>
      <trkpt lat="46.184599" lon="10.874885"><ele>2451</ele></trkpt>
      <trkpt lat="46.184533" lon="10.87485"><ele>2448.5</ele></trkpt>
      <trkpt lat="46.184416" lon="10.874764"><ele>2444.25</ele></trkpt>
      <trkpt lat="46.184361" lon="10.87475"><ele>2444.25</ele></trkpt>
      <trkpt lat="46.184151" lon="10.874736"><ele>2446.25</ele></trkpt>
      <trkpt lat="46.184012" lon="10.874692"><ele>2449.25</ele></trkpt>
      <trkpt lat="46.183875" lon="10.874597"><ele>2451</ele></trkpt>
      <trkpt lat="46.18374" lon="10.874469"><ele>2446.5</ele></trkpt>
      <trkpt lat="46.183602" lon="10.874464"><ele>2446.75</ele></trkpt>
      <trkpt lat="46.183582" lon="10.874341"><ele>2441.25</ele></trkpt>
      <trkpt lat="46.183546" lon="10.874268"><ele>2440</ele></trkpt>
      <trkpt lat="46.183476" lon="10.874201"><ele>2442.75</ele></trkpt>
      <trkpt lat="46.183376" lon="10.87404"><ele>2440</ele></trkpt>
      <trkpt lat="46.183283" lon="10.873964"><ele>2437</ele></trkpt>
      <trkpt lat="46.18322" lon="10.873954"><ele>2438.25</ele></trkpt>
      <trkpt lat="46.183142" lon="10.873909"><ele>2437.25</ele></trkpt>
      <trkpt lat="46.183092" lon="10.873954"><ele>2442</ele></trkpt>
      <trkpt lat="46.182993" lon="10.873952"><ele>2447.75</ele></trkpt>
      <trkpt lat="46.18293" lon="10.873887"><ele>2448.75</ele></trkpt>
      <trkpt lat="46.182863" lon="10.873796"><ele>2447.25</ele></trkpt>
      <trkpt lat="46.18275" lon="10.873737"><ele>2451.5</ele></trkpt>
      <trkpt lat="46.182661" lon="10.873603"><ele>2450</ele></trkpt>
      <trkpt lat="46.182572" lon="10.873434"><ele>2449</ele></trkpt>
      <trkpt lat="46.182371" lon="10.873187"><ele>2447.25</ele></trkpt>
      <trkpt lat="46.18231" lon="10.873138"><ele>2448.5</ele></trkpt>
      <trkpt lat="46.182246" lon="10.87313"><ele>2451.75</ele></trkpt>
      <trkpt lat="46.182199" lon="10.873156"><ele>2452</ele></trkpt>
      <trkpt lat="46.182163" lon="10.873206"><ele>2450.75</ele></trkpt>
      <trkpt lat="46.182176" lon="10.8733"><ele>2454.25</ele></trkpt>
      <trkpt lat="46.182141" lon="10.873375"><ele>2455</ele></trkpt>
      <trkpt lat="46.182052" lon="10.873415"><ele>2449.75</ele></trkpt>
      <trkpt lat="46.182048" lon="10.873509"><ele>2454.5</ele></trkpt>
      <trkpt lat="46.181996" lon="10.873528"><ele>2450.75</ele></trkpt>
      <trkpt lat="46.182" lon="10.8737"><ele>2458.25</ele></trkpt>
      <trkpt lat="46.18197" lon="10.87381"><ele>2458.75</ele></trkpt>
      <trkpt lat="46.18192" lon="10.87429"><ele>2472.25</ele></trkpt>
      <trkpt lat="46.181879" lon="10.874392"><ele>2469</ele></trkpt>
      <trkpt lat="46.181816" lon="10.874284"><ele>2453</ele></trkpt>
      <trkpt lat="46.181779" lon="10.874319"><ele>2448</ele></trkpt>
      <trkpt lat="46.18176" lon="10.874711"><ele>2467</ele></trkpt>
      <trkpt lat="46.181697" lon="10.874786"><ele>2461</ele></trkpt>
      <trkpt lat="46.18168" lon="10.874595"><ele>2447.25</ele></trkpt>
      <trkpt lat="46.18168" lon="10.874443"><ele>2439</ele></trkpt>
      <trkpt lat="46.181665" lon="10.874306"><ele>2426.75</ele></trkpt>
      <trkpt lat="46.181585" lon="10.874139"><ele>2408.25</ele></trkpt>
      <trkpt lat="46.181416" lon="10.874188"><ele>2394.25</ele></trkpt>
      <trkpt lat="46.18122" lon="10.874161"><ele>2387.5</ele></trkpt>
      <trkpt lat="46.181112" lon="10.874134"><ele>2383.75</ele></trkpt>
      <trkpt lat="46.181043" lon="10.874075"><ele>2404.5</ele></trkpt>
      <trkpt lat="46.181017" lon="10.873992"><ele>2400</ele></trkpt>
      <trkpt lat="46.180967" lon="10.873968"><ele>2408.5</ele></trkpt>
      <trkpt lat="46.180934" lon="10.873893"><ele>2397.25</ele></trkpt>
      <trkpt lat="46.180859" lon="10.873775"><ele>2405.5</ele></trkpt>
      <trkpt lat="46.180842" lon="10.873708"><ele>2406.75</ele></trkpt>
      <trkpt lat="46.180744" lon="10.873517"><ele>2408</ele></trkpt>
      <trkpt lat="46.180649" lon="10.87341"><ele>2410</ele></trkpt>
      <trkpt lat="46.180438" lon="10.873268"><ele>2407.75</ele></trkpt>
      <trkpt lat="46.180389" lon="10.873286"><ele>2408</ele></trkpt>
      <trkpt lat="46.180319" lon="10.873351"><ele>2411</ele></trkpt>
      <trkpt lat="46.180262" lon="10.873429"><ele>2411.75</ele></trkpt>
      <trkpt lat="46.180176" lon="10.873606"><ele>2409</ele></trkpt>
      <trkpt lat="46.180128" lon="10.873753"><ele>2425.25</ele></trkpt>
      <trkpt lat="46.180058" lon="10.873845"><ele>2418.25</ele></trkpt>
      <trkpt lat="46.180059" lon="10.87397"><ele>2428.25</ele></trkpt>
      <trkpt lat="46.179973" lon="10.874067"><ele>2412</ele></trkpt>
      <trkpt lat="46.17997" lon="10.874126"><ele>2415.25</ele></trkpt>
      <trkpt lat="46.180011" lon="10.874255"><ele>2428.5</ele></trkpt>
      <trkpt lat="46.180055" lon="10.874311"><ele>2445.75</ele></trkpt>
      <trkpt lat="46.180035" lon="10.874636"><ele>2466.5</ele></trkpt>
      <trkpt lat="46.180012" lon="10.874684"><ele>2467.75</ele></trkpt>
      <trkpt lat="46.179812" lon="10.874995"><ele>2447.75</ele></trkpt>
      <trkpt lat="46.179691" lon="10.875223"><ele>2433</ele></trkpt>
      <trkpt lat="46.179596" lon="10.875317"><ele>2433.5</ele></trkpt>
      <trkpt lat="46.17953" lon="10.875483"><ele>2431.25</ele></trkpt>
      <trkpt lat="46.179552" lon="10.875711"><ele>2436</ele></trkpt>
      <trkpt lat="46.179507" lon="10.875824"><ele>2434.25</ele></trkpt>
      <trkpt lat="46.179481" lon="10.875843"><ele>2432.75</ele></trkpt>
      <trkpt lat="46.179444" lon="10.875918"><ele>2433.5</ele></trkpt>
      <trkpt lat="46.179349" lon="10.875963"><ele>2434</ele></trkpt>
      <trkpt lat="46.179243" lon="10.875977"><ele>2432.5</ele></trkpt>
      <trkpt lat="46.179164" lon="10.876122"><ele>2436</ele></trkpt>
      <trkpt lat="46.179075" lon="10.876362"><ele>2437</ele></trkpt>
      <trkpt lat="46.179046" lon="10.876483"><ele>2436.5</ele></trkpt>
      <trkpt lat="46.179045" lon="10.87661"><ele>2437.5</ele></trkpt>
      <trkpt lat="46.179067" lon="10.876741"><ele>2439.75</ele></trkpt>
      <trkpt lat="46.179114" lon="10.876891"><ele>2443</ele></trkpt>
      <trkpt lat="46.179023" lon="10.876977"><ele>2436.75</ele></trkpt>
      <trkpt lat="46.179023" lon="10.877055"><ele>2437.25</ele></trkpt>
      <trkpt lat="46.179084" lon="10.877173"><ele>2444</ele></trkpt>
      <trkpt lat="46.179063" lon="10.877229"><ele>2442.75</ele></trkpt>
      <trkpt lat="46.179019" lon="10.87731"><ele>2441.75</ele></trkpt>
      <trkpt lat="46.178956" lon="10.877302"><ele>2435</ele></trkpt>
      <trkpt lat="46.178911" lon="10.877484"><ele>2438.25</ele></trkpt>
      <trkpt lat="46.1789" lon="10.877776"><ele>2441.25</ele></trkpt>
      <trkpt lat="46.178868" lon="10.878002"><ele>2442.5</ele></trkpt>
      <trkpt lat="46.178818" lon="10.878106"><ele>2441.5</ele></trkpt>
      <trkpt lat="46.178811" lon="10.878675"><ele>2470.5</ele></trkpt>
      <trkpt lat="46.178776" lon="10.878817"><ele>2465.5</ele></trkpt>
      <trkpt lat="46.17877" lon="10.87911"><ele>2469.5</ele></trkpt>
      <trkpt lat="46.178725" lon="10.879187"><ele>2458</ele></trkpt>
      <trkpt lat="46.178718" lon="10.879348"><ele>2457.25</ele></trkpt>
      <trkpt lat="46.178761" lon="10.879515"><ele>2468.5</ele></trkpt>
      <trkpt lat="46.178803" lon="10.879587"><ele>2480.5</ele></trkpt>
      <trkpt lat="46.178796" lon="10.879638"><ele>2477.75</ele></trkpt>
      <trkpt lat="46.178738" lon="10.879716"><ele>2457</ele></trkpt>
      <trkpt lat="46.178686" lon="10.879933"><ele>2443</ele></trkpt>
      <trkpt lat="46.178731" lon="10.880035"><ele>2455.25</ele></trkpt>
      <trkpt lat="46.178701" lon="10.88015"><ele>2452.5</ele></trkpt>
      <trkpt lat="46.178642" lon="10.880236"><ele>2440.75</ele></trkpt>
      <trkpt lat="46.178547" lon="10.880502"><ele>2441.5</ele></trkpt>
      <trkpt lat="46.178542" lon="10.880614"><ele>2446</ele></trkpt>
      <trkpt lat="46.178432" lon="10.881009"><ele>2439.25</ele></trkpt>
      <trkpt lat="46.178404" lon="10.881204"><ele>2437.5</ele></trkpt>
      <trkpt lat="46.178404" lon="10.881285"><ele>2438.5</ele></trkpt>
      <trkpt lat="46.178378" lon="10.881368"><ele>2436</ele></trkpt>
      <trkpt lat="46.178376" lon="10.881443"><ele>2437.25</ele></trkpt>
      <trkpt lat="46.178339" lon="10.881534"><ele>2433</ele></trkpt>
      <trkpt lat="46.178334" lon="10.881684"><ele>2434</ele></trkpt>
      <trkpt lat="46.178302" lon="10.881883"><ele>2424.75</ele></trkpt>
      <trkpt lat="46.178313" lon="10.881921"><ele>2427.25</ele></trkpt>
      <trkpt lat="46.178432" lon="10.881945"><ele>2458.25</ele></trkpt>
      <trkpt lat="46.178387" lon="10.882004"><ele>2445</ele></trkpt>
      <trkpt lat="46.178402" lon="10.882089"><ele>2447.25</ele></trkpt>
      <trkpt lat="46.178391" lon="10.882181"><ele>2442.5</ele></trkpt>
      <trkpt lat="46.178363" lon="10.882229"><ele>2434</ele></trkpt>
      <trkpt lat="46.17836" lon="10.882285"><ele>2432.75</ele></trkpt>
      <trkpt lat="46.178371" lon="10.882403"><ele>2435.25</ele></trkpt>
      <trkpt lat="46.178361" lon="10.882468"><ele>2431.5</ele></trkpt>
      <trkpt lat="46.178331" lon="10.882582"><ele>2416</ele></trkpt>
      <trkpt lat="46.178283" lon="10.882883"><ele>2403</ele></trkpt>
      <trkpt lat="46.178228" lon="10.883047"><ele>2400</ele></trkpt>
      <trkpt lat="46.178204" lon="10.88335"><ele>2392.5</ele></trkpt>
      <trkpt lat="46.178174" lon="10.883423"><ele>2391</ele></trkpt>
      <trkpt lat="46.178161" lon="10.883524"><ele>2391.5</ele></trkpt>
      <trkpt lat="46.178159" lon="10.883564"><ele>2392.5</ele></trkpt>
      <trkpt lat="46.178159" lon="10.883602"><ele>2392.5</ele></trkpt>
      <trkpt lat="46.178183" lon="10.88371"><ele>2395.25</ele></trkpt>
      <trkpt lat="46.17822" lon="10.883752"><ele>2398.75</ele></trkpt>
      <trkpt lat="46.178226" lon="10.883798"><ele>2399.75</ele></trkpt>
      <trkpt lat="46.178202" lon="10.883876"><ele>2398.5</ele></trkpt>
      <trkpt lat="46.178185" lon="10.883994"><ele>2395.75</ele></trkpt>
      <trkpt lat="46.178185" lon="10.884085"><ele>2394.75</ele></trkpt>
      <trkpt lat="46.178228" lon="10.884219"><ele>2395.25</ele></trkpt>
      <trkpt lat="46.178358" lon="10.884404"><ele>2399.25</ele></trkpt>
      <trkpt lat="46.178404" lon="10.884498"><ele>2401.75</ele></trkpt>
      <trkpt lat="46.178421" lon="10.884616"><ele>2402</ele></trkpt>
      <trkpt lat="46.178393" lon="10.884833"><ele>2408</ele></trkpt>
      <trkpt lat="46.17833" lon="10.884984"><ele>2398.25</ele></trkpt>
      <trkpt lat="46.178226" lon="10.885327"><ele>2399.5</ele></trkpt>
      <trkpt lat="46.17817" lon="10.885407"><ele>2399.75</ele></trkpt>
      <trkpt lat="46.178111" lon="10.885456"><ele>2398.75</ele></trkpt>
      <trkpt lat="46.178079" lon="10.885603"><ele>2403.25</ele></trkpt>
      <trkpt lat="46.178042" lon="10.8857"><ele>2403.25</ele></trkpt>
      <trkpt lat="46.17794" lon="10.885925"><ele>2407</ele></trkpt>
      <trkpt lat="46.177815" lon="10.886113"><ele>2406.5</ele></trkpt>
      <trkpt lat="46.177732" lon="10.886282"><ele>2407.25</ele></trkpt>
      <trkpt lat="46.177667" lon="10.886435"><ele>2411.5</ele></trkpt>
      <trkpt lat="46.177617" lon="10.886492"><ele>2412</ele></trkpt>
      <trkpt lat="46.177553" lon="10.886591"><ele>2412</ele></trkpt>
      <trkpt lat="46.177533" lon="10.886591"><ele>2410.25</ele></trkpt>
      <trkpt lat="46.177494" lon="10.886615"><ele>2407.5</ele></trkpt>
      <trkpt lat="46.177416" lon="10.886679"><ele>2405.75</ele></trkpt>
      <trkpt lat="46.177406" lon="10.886636"><ele>2403</ele></trkpt>
      <trkpt lat="46.177497" lon="10.886465"><ele>2401.75</ele></trkpt>
      <trkpt lat="46.177565" lon="10.88631"><ele>2399.25</ele></trkpt>
      <trkpt lat="46.177572" lon="10.886035"><ele>2389</ele></trkpt>
      <trkpt lat="46.177626" lon="10.885924"><ele>2388</ele></trkpt>
      <trkpt lat="46.177606" lon="10.88587"><ele>2385</ele></trkpt>
      <trkpt lat="46.177438" lon="10.88606"><ele>2381.5</ele></trkpt>
      <trkpt lat="46.177356" lon="10.886164"><ele>2379</ele></trkpt>
      <trkpt lat="46.177294" lon="10.886271"><ele>2378.25</ele></trkpt>
      <trkpt lat="46.177259" lon="10.886253"><ele>2374.75</ele></trkpt>
      <trkpt lat="46.177252" lon="10.886189"><ele>2372</ele></trkpt>
      <trkpt lat="46.177287" lon="10.886039"><ele>2369.5</ele></trkpt>
      <trkpt lat="46.17723" lon="10.885953"><ele>2362.25</ele></trkpt>
      <trkpt lat="46.17723" lon="10.885824"><ele>2358.25</ele></trkpt>
      <trkpt lat="46.177254" lon="10.885758"><ele>2358</ele></trkpt>
      <trkpt lat="46.177195" lon="10.885713"><ele>2354.5</ele></trkpt>
      <trkpt lat="46.177259" lon="10.885562"><ele>2352.5</ele></trkpt>
      <trkpt lat="46.177217" lon="10.885494"><ele>2348</ele></trkpt>
      <trkpt lat="46.177153" lon="10.885516"><ele>2348</ele></trkpt>
      <trkpt lat="46.177145" lon="10.885408"><ele>2344.25</ele></trkpt>
      <trkpt lat="46.177071" lon="10.885265"><ele>2338.25</ele></trkpt>
      <trkpt lat="46.177041" lon="10.885115"><ele>2334</ele></trkpt>
      <trkpt lat="46.177086" lon="10.884993"><ele>2332.25</ele></trkpt>
      <trkpt lat="46.177041" lon="10.88494"><ele>2330</ele></trkpt>
      <trkpt lat="46.177054" lon="10.884829"><ele>2327.75</ele></trkpt>
      <trkpt lat="46.176968" lon="10.884692"><ele>2322.25</ele></trkpt>
      <trkpt lat="46.176938" lon="10.884603"><ele>2320.25</ele></trkpt>
      <trkpt lat="46.176895" lon="10.884632"><ele>2320.75</ele></trkpt>
      <trkpt lat="46.176731" lon="10.884571"><ele>2319</ele></trkpt>
      <trkpt lat="46.176704" lon="10.884485"><ele>2316</ele></trkpt>
      <trkpt lat="46.176618" lon="10.884401"><ele>2315</ele></trkpt>
      <trkpt lat="46.176585" lon="10.884327"><ele>2313.5</ele></trkpt>
      <trkpt lat="46.176536" lon="10.884239"><ele>2311</ele></trkpt>
      <trkpt lat="46.176558" lon="10.884127"><ele>2305.75</ele></trkpt>
      <trkpt lat="46.176538" lon="10.884023"><ele>2303.5</ele></trkpt>
      <trkpt lat="46.17643" lon="10.884014"><ele>2304</ele></trkpt>
      <trkpt lat="46.176418" lon="10.883939"><ele>2301.5</ele></trkpt>
      <trkpt lat="46.176461" lon="10.883873"><ele>2299.5</ele></trkpt>
      <trkpt lat="46.176486" lon="10.883752"><ele>2296.5</ele></trkpt>
      <trkpt lat="46.176483" lon="10.883582"><ele>2292.75</ele></trkpt>
      <trkpt lat="46.17648" lon="10.883439"><ele>2290.25</ele></trkpt>
      <trkpt lat="46.17643" lon="10.883374"><ele>2288.75</ele></trkpt>
      <trkpt lat="46.176422" lon="10.88328"><ele>2286.75</ele></trkpt>
      <trkpt lat="46.176357" lon="10.883099"><ele>2282.25</ele></trkpt>
      <trkpt lat="46.176323" lon="10.882927"><ele>2278.25</ele></trkpt>
      <trkpt lat="46.17641" lon="10.882966"><ele>2278</ele></trkpt>
      <trkpt lat="46.176313" lon="10.882754"><ele>2273.75</ele></trkpt>
      <trkpt lat="46.176254" lon="10.88256"><ele>2268.75</ele></trkpt>
      <trkpt lat="46.176339" lon="10.88242"><ele>2263</ele></trkpt>
      <trkpt lat="46.176398" lon="10.882309"><ele>2257</ele></trkpt>
      <trkpt lat="46.17654" lon="10.882213"><ele>2254.75</ele></trkpt>
      <trkpt lat="46.17656" lon="10.882135"><ele>2252.5</ele></trkpt>
      <trkpt lat="46.176566" lon="10.882037"><ele>2249.25</ele></trkpt>
      <trkpt lat="46.176592" lon="10.881881"><ele>2244.75</ele></trkpt>
      <trkpt lat="46.176644" lon="10.881794"><ele>2243.5</ele></trkpt>
      <trkpt lat="46.176729" lon="10.881749"><ele>2244.75</ele></trkpt>
      <trkpt lat="46.17677" lon="10.881706"><ele>2245.25</ele></trkpt>
      <trkpt lat="46.176791" lon="10.881622"><ele>2243.5</ele></trkpt>
      <trkpt lat="46.176831" lon="10.881589"><ele>2244</ele></trkpt>
      <trkpt lat="46.176852" lon="10.881511"><ele>2241.75</ele></trkpt>
      <trkpt lat="46.176907" lon="10.881459"><ele>2241.5</ele></trkpt>
      <trkpt lat="46.176919" lon="10.880961"><ele>2232</ele></trkpt>
      <trkpt lat="46.176929" lon="10.880872"><ele>2231.5</ele></trkpt>
      <trkpt lat="46.176881" lon="10.880741"><ele>2228</ele></trkpt>
      <trkpt lat="46.17681" lon="10.880508"><ele>2222</ele></trkpt>
      <trkpt lat="46.176776" lon="10.880229"><ele>2216.5</ele></trkpt>
      <trkpt lat="46.176779" lon="10.879993"><ele>2213</ele></trkpt>
      <trkpt lat="46.176733" lon="10.879795"><ele>2210.25</ele></trkpt>
      <trkpt lat="46.176594" lon="10.879675"><ele>2205.75</ele></trkpt>
      <trkpt lat="46.176528" lon="10.87959"><ele>2203.5</ele></trkpt>
      <trkpt lat="46.176499" lon="10.879495"><ele>2202</ele></trkpt>
      <trkpt lat="46.176416" lon="10.87934"><ele>2198.5</ele></trkpt>
      <trkpt lat="46.176358" lon="10.879077"><ele>2194.5</ele></trkpt>
      <trkpt lat="46.176233" lon="10.878871"><ele>2191</ele></trkpt>
      <trkpt lat="46.17614" lon="10.878644"><ele>2186.75</ele></trkpt>
      <trkpt lat="46.176104" lon="10.878429"><ele>2184</ele></trkpt>
      <trkpt lat="46.176128" lon="10.878253"><ele>2182.5</ele></trkpt>
      <trkpt lat="46.176104" lon="10.878065"><ele>2181</ele></trkpt>
      <trkpt lat="46.176095" lon="10.877887"><ele>2180</ele></trkpt>
      <trkpt lat="46.176068" lon="10.877873"><ele>2180.25</ele></trkpt>
      <trkpt lat="46.176084" lon="10.877809"><ele>2179.5</ele></trkpt>
      <trkpt lat="46.176091" lon="10.877718"><ele>2178.75</ele></trkpt>
      <trkpt lat="46.176033" lon="10.877574"><ele>2178</ele></trkpt>
      <trkpt lat="46.175992" lon="10.877489"><ele>2177.25</ele></trkpt>
      <trkpt lat="46.175984" lon="10.877226"><ele>2176</ele></trkpt>
      <trkpt lat="46.175954" lon="10.876922"><ele>2174.25</ele></trkpt>
      <trkpt lat="46.175925" lon="10.876813"><ele>2174</ele></trkpt>
      <trkpt lat="46.175909" lon="10.8767"><ele>2173.75</ele></trkpt>
      <trkpt lat="46.175791" lon="10.876537"><ele>2173</ele></trkpt>
      <trkpt lat="46.175713" lon="10.876503"><ele>2173.5</ele></trkpt>
      <trkpt lat="46.175624" lon="10.876418"><ele>2174.75</ele></trkpt>
      <trkpt lat="46.175524" lon="10.876403"><ele>2176.25</ele></trkpt>
      <trkpt lat="46.175429" lon="10.876274"><ele>2176.25</ele></trkpt>
    </trkseg>
  </trk>
</gpx>
