{
  "type": "FeatureCollection",
  "features": [
    {
      "type": "Feature",
      "properties": {
        "kind": "route",
        "name": "День 4 · XII Apostoli → Ideale → Brentari → Pedrotti → Detassis",
        "distance_km": 8.815,
        "ascent_m": 775,
        "source": "BRouter / OpenStreetMap"
      },
      "geometry": {
        "type": "LineString",
        "coordinates": [
          [
            10.847619,
            46.150532,
            2487.75
          ],
          [
            10.847717,
            46.150583,
            2485
          ],
          [
            10.84809,
            46.150723,
            2474.75
          ],
          [
            10.848154,
            46.150742,
            2473.75
          ],
          [
            10.848231,
            46.150756,
            2473
          ],
          [
            10.848347,
            46.150836,
            2470.75
          ],
          [
            10.84839,
            46.150882,
            2471
          ],
          [
            10.848396,
            46.150931,
            2471.25
          ],
          [
            10.848548,
            46.15106,
            2471.75
          ],
          [
            10.848535,
            46.15113,
            2472
          ],
          [
            10.848535,
            46.151196,
            2471.75
          ],
          [
            10.848626,
            46.151354,
            2473.25
          ],
          [
            10.848697,
            46.151407,
            2476.5
          ],
          [
            10.848715,
            46.151494,
            2478.25
          ],
          [
            10.848683,
            46.151594,
            2478.25
          ],
          [
            10.848705,
            46.151647,
            2479.75
          ],
          [
            10.848762,
            46.151703,
            2481.25
          ],
          [
            10.848888,
            46.15175,
            2484.75
          ],
          [
            10.849011,
            46.151816,
            2487.25
          ],
          [
            10.849011,
            46.151849,
            2486.75
          ],
          [
            10.849283,
            46.151974,
            2493
          ],
          [
            10.849338,
            46.152015,
            2494.75
          ],
          [
            10.849396,
            46.152103,
            2496.75
          ],
          [
            10.849431,
            46.152183,
            2498.25
          ],
          [
            10.849511,
            46.152206,
            2500.5
          ],
          [
            10.849564,
            46.15225,
            2500.75
          ],
          [
            10.849781,
            46.152244,
            2505.5
          ],
          [
            10.850159,
            46.152319,
            2506
          ],
          [
            10.850482,
            46.152462,
            2504
          ],
          [
            10.850564,
            46.152465,
            2505.25
          ],
          [
            10.850693,
            46.152512,
            2504.75
          ],
          [
            10.850783,
            46.1525,
            2506.25
          ],
          [
            10.850891,
            46.152545,
            2507.25
          ],
          [
            10.850983,
            46.152559,
            2508.5
          ],
          [
            10.85128,
            46.152639,
            2513
          ],
          [
            10.851367,
            46.152652,
            2514.5
          ],
          [
            10.851417,
            46.152677,
            2515
          ],
          [
            10.851443,
            46.152714,
            2515.25
          ],
          [
            10.851506,
            46.152711,
            2516.25
          ],
          [
            10.851657,
            46.152734,
            2518.75
          ],
          [
            10.851785,
            46.152787,
            2521.25
          ],
          [
            10.851911,
            46.152849,
            2524.5
          ],
          [
            10.851944,
            46.152892,
            2526
          ],
          [
            10.852109,
            46.152969,
            2530.75
          ],
          [
            10.852204,
            46.152983,
            2533.25
          ],
          [
            10.852279,
            46.152987,
            2535
          ],
          [
            10.852379,
            46.153019,
            2538.5
          ],
          [
            10.852412,
            46.153065,
            2540.5
          ],
          [
            10.852477,
            46.153055,
            2542.25
          ],
          [
            10.852534,
            46.153093,
            2544.75
          ],
          [
            10.852646,
            46.153091,
            2547
          ],
          [
            10.852717,
            46.153106,
            2549
          ],
          [
            10.852882,
            46.153116,
            2552.25
          ],
          [
            10.853002,
            46.15318,
            2556
          ],
          [
            10.853265,
            46.153249,
            2562.5
          ],
          [
            10.853512,
            46.153298,
            2567.25
          ],
          [
            10.85361,
            46.153309,
            2569
          ],
          [
            10.853713,
            46.153296,
            2570.75
          ],
          [
            10.853836,
            46.153303,
            2573.5
          ],
          [
            10.854008,
            46.153325,
            2578
          ],
          [
            10.854137,
            46.153364,
            2583.25
          ],
          [
            10.854315,
            46.153374,
            2586.75
          ],
          [
            10.854451,
            46.153402,
            2590.5
          ],
          [
            10.854565,
            46.153405,
            2591.75
          ],
          [
            10.854523,
            46.153442,
            2593.75
          ],
          [
            10.854526,
            46.153469,
            2595.5
          ],
          [
            10.854709,
            46.153492,
            2599
          ],
          [
            10.854821,
            46.153529,
            2602.75
          ],
          [
            10.854677,
            46.153595,
            2605.25
          ],
          [
            10.85464,
            46.153629,
            2605.75
          ],
          [
            10.854636,
            46.153669,
            2605.5
          ],
          [
            10.854697,
            46.153681,
            2606
          ],
          [
            10.854825,
            46.153671,
            2608
          ],
          [
            10.855294,
            46.153676,
            2616
          ],
          [
            10.856028,
            46.153611,
            2630
          ],
          [
            10.856378,
            46.153539,
            2635.25
          ],
          [
            10.856482,
            46.153505,
            2636.5
          ],
          [
            10.856662,
            46.153479,
            2640.5
          ],
          [
            10.857046,
            46.153366,
            2650
          ],
          [
            10.857181,
            46.153363,
            2654.25
          ],
          [
            10.857366,
            46.153304,
            2655.75
          ],
          [
            10.857781,
            46.153151,
            2660.75
          ],
          [
            10.857955,
            46.153108,
            2668
          ],
          [
            10.858073,
            46.153098,
            2673
          ],
          [
            10.85809,
            46.153077,
            2674
          ],
          [
            10.858167,
            46.153071,
            2677.5
          ],
          [
            10.858237,
            46.153021,
            2679.5
          ],
          [
            10.858444,
            46.152935,
            2685.5
          ],
          [
            10.858931,
            46.15283,
            2701.5
          ],
          [
            10.859139,
            46.1529,
            2704.5
          ],
          [
            10.859347,
            46.152941,
            2706.5
          ],
          [
            10.859556,
            46.152956,
            2708.5
          ],
          [
            10.859869,
            46.152914,
            2711.75
          ],
          [
            10.860052,
            46.152843,
            2713
          ],
          [
            10.86074,
            46.152669,
            2716.25
          ],
          [
            10.86098,
            46.152567,
            2717.5
          ],
          [
            10.861412,
            46.152555,
            2729.75
          ],
          [
            10.861478,
            46.152494,
            2726.75
          ],
          [
            10.861577,
            46.152502,
            2728.75
          ],
          [
            10.861737,
            46.152573,
            2735.75
          ],
          [
            10.861882,
            46.152571,
            2737.75
          ],
          [
            10.862012,
            46.152538,
            2737.25
          ],
          [
            10.862318,
            46.152596,
            2746
          ],
          [
            10.862446,
            46.15259,
            2747.75
          ],
          [
            10.862597,
            46.152556,
            2749.75
          ],
          [
            10.862819,
            46.152559,
            2757.5
          ],
          [
            10.86294,
            46.152528,
            2759
          ],
          [
            10.863012,
            46.152481,
            2757.25
          ],
          [
            10.863252,
            46.152445,
            2757.5
          ],
          [
            10.863423,
            46.152444,
            2757
          ],
          [
            10.863538,
            46.152413,
            2754.5
          ],
          [
            10.863649,
            46.152367,
            2752.5
          ],
          [
            10.863718,
            46.152314,
            2751
          ],
          [
            10.863825,
            46.152286,
            2749.75
          ],
          [
            10.863897,
            46.152234,
            2751.5
          ],
          [
            10.864009,
            46.152211,
            2745
          ],
          [
            10.864085,
            46.152222,
            2739.5
          ],
          [
            10.864212,
            46.152281,
            2730.25
          ],
          [
            10.864329,
            46.152309,
            2727.25
          ],
          [
            10.864763,
            46.152338,
            2726.25
          ],
          [
            10.865382,
            46.152306,
            2731
          ],
          [
            10.865685,
            46.152306,
            2732.75
          ],
          [
            10.86648,
            46.152263,
            2744.75
          ],
          [
            10.866783,
            46.152259,
            2752.25
          ],
          [
            10.867013,
            46.152193,
            2764.5
          ],
          [
            10.867249,
            46.152215,
            2770.5
          ],
          [
            10.868068,
            46.152317,
            2797.5
          ],
          [
            10.868212,
            46.152412,
            2802
          ],
          [
            10.868288,
            46.152541,
            2802.75
          ],
          [
            10.868253,
            46.152675,
            2800
          ],
          [
            10.868252,
            46.152855,
            2798.75
          ],
          [
            10.868298,
            46.152911,
            2801.25
          ],
          [
            10.868372,
            46.152946,
            2805
          ],
          [
            10.86838,
            46.153038,
            2805
          ],
          [
            10.868316,
            46.153137,
            2835.75
          ],
          [
            10.868268,
            46.153173,
            2840.25
          ],
          [
            10.868239,
            46.153185,
            2837.5
          ],
          [
            10.868281,
            46.153196,
            2851.5
          ],
          [
            10.868484,
            46.153132,
            2847.75
          ],
          [
            10.868758,
            46.153004,
            2846.5
          ],
          [
            10.868955,
            46.152941,
            2875.25
          ],
          [
            10.869054,
            46.152888,
            2878.75
          ],
          [
            10.869091,
            46.152858,
            2874.5
          ],
          [
            10.869104,
            46.152829,
            2866.5
          ],
          [
            10.869132,
            46.152817,
            2865.25
          ],
          [
            10.869174,
            46.152812,
            2867.75
          ],
          [
            10.869224,
            46.152784,
            2862
          ],
          [
            10.869268,
            46.152789,
            2868.25
          ],
          [
            10.869293,
            46.152769,
            2867.25
          ],
          [
            10.869317,
            46.152762,
            2870
          ],
          [
            10.869321,
            46.152739,
            2871
          ],
          [
            10.869378,
            46.152677,
            2876.25
          ],
          [
            10.869397,
            46.152686,
            2877.5
          ],
          [
            10.869403,
            46.152713,
            2878
          ],
          [
            10.869439,
            46.152726,
            2881.25
          ],
          [
            10.869472,
            46.152712,
            2885
          ],
          [
            10.86949,
            46.152681,
            2886.5
          ],
          [
            10.869511,
            46.152609,
            2886.75
          ],
          [
            10.869604,
            46.152533,
            2893.5
          ],
          [
            10.869617,
            46.152491,
            2893.75
          ],
          [
            10.869585,
            46.152437,
            2897.5
          ],
          [
            10.869576,
            46.152423,
            2897.5
          ],
          [
            10.869636,
            46.15238,
            2903.25
          ],
          [
            10.869708,
            46.152339,
            2905.25
          ],
          [
            10.869774,
            46.152308,
            2899.25
          ],
          [
            10.869975,
            46.152237,
            2864.5
          ],
          [
            10.870074,
            46.152157,
            2856.25
          ],
          [
            10.870092,
            46.152124,
            2857.25
          ],
          [
            10.870109,
            46.152137,
            2853.75
          ],
          [
            10.870131,
            46.152132,
            2851.5
          ],
          [
            10.87029,
            46.152033,
            2837.5
          ],
          [
            10.870295,
            46.152064,
            2835.25
          ],
          [
            10.870315,
            46.15206,
            2833
          ],
          [
            10.870349,
            46.152033,
            2830
          ],
          [
            10.870518,
            46.151943,
            2805
          ],
          [
            10.870562,
            46.151875,
            2797.5
          ],
          [
            10.870642,
            46.151826,
            2793.75
          ],
          [
            10.870778,
            46.151846,
            2790
          ],
          [
            10.870967,
            46.151887,
            2789
          ],
          [
            10.871074,
            46.151863,
            2786.5
          ],
          [
            10.871139,
            46.151687,
            2775.75
          ],
          [
            10.871058,
            46.1513,
            2758
          ],
          [
            10.871054,
            46.150936,
            2741
          ],
          [
            10.87121,
            46.150459,
            2718
          ],
          [
            10.871223,
            46.150275,
            2710.5
          ],
          [
            10.871597,
            46.150407,
            2716.25
          ],
          [
            10.872269,
            46.150482,
            2722.25
          ],
          [
            10.872531,
            46.150436,
            2725.75
          ],
          [
            10.872715,
            46.150366,
            2729.25
          ],
          [
            10.872919,
            46.150316,
            2735.25
          ],
          [
            10.873127,
            46.150308,
            2746.25
          ],
          [
            10.873268,
            46.15041,
            2764.5
          ],
          [
            10.873396,
            46.150471,
            2780.25
          ],
          [
            10.873537,
            46.150498,
            2794.25
          ],
          [
            10.873853,
            46.150451,
            2816.75
          ],
          [
            10.873938,
            46.150412,
            2824
          ],
          [
            10.874041,
            46.150251,
            2820.5
          ],
          [
            10.874102,
            46.15023,
            2825.5
          ],
          [
            10.874197,
            46.150248,
            2835
          ],
          [
            10.874382,
            46.150299,
            2847
          ],
          [
            10.874457,
            46.150386,
            2863.25
          ],
          [
            10.874735,
            46.150318,
            2859.25
          ],
          [
            10.874813,
            46.150324,
            2860.25
          ],
          [
            10.874883,
            46.15037,
            2867
          ],
          [
            10.874963,
            46.150396,
            2871.5
          ],
          [
            10.875111,
            46.150418,
            2872.25
          ],
          [
            10.87515,
            46.15045,
            2876.75
          ],
          [
            10.875225,
            46.150454,
            2875.5
          ],
          [
            10.875312,
            46.150435,
            2871
          ],
          [
            10.875342,
            46.150493,
            2881.75
          ],
          [
            10.875415,
            46.150497,
            2883.25
          ],
          [
            10.875484,
            46.150458,
            2876
          ],
          [
            10.87587,
            46.150559,
            2882.5
          ],
          [
            10.876149,
            46.150695,
            2880.75
          ],
          [
            10.876375,
            46.150774,
            2873.75
          ],
          [
            10.876464,
            46.150828,
            2875
          ],
          [
            10.876537,
            46.150854,
            2872.25
          ],
          [
            10.876708,
            46.150847,
            2859.75
          ],
          [
            10.876673,
            46.15101,
            2865.5
          ],
          [
            10.876707,
            46.151147,
            2868.75
          ],
          [
            10.876925,
            46.15118,
            2866.5
          ],
          [
            10.877138,
            46.151326,
            2865.25
          ],
          [
            10.877161,
            46.151387,
            2866.5
          ],
          [
            10.877149,
            46.15143,
            2865.75
          ],
          [
            10.877047,
            46.151515,
            2866
          ],
          [
            10.876953,
            46.151569,
            2866.25
          ],
          [
            10.876863,
            46.151633,
            2866.5
          ],
          [
            10.876771,
            46.151665,
            2867.25
          ],
          [
            10.876655,
            46.151672,
            2869.75
          ],
          [
            10.876408,
            46.151739,
            2871
          ],
          [
            10.876138,
            46.15185,
            2872
          ],
          [
            10.875954,
            46.1519,
            2874
          ],
          [
            10.875877,
            46.151962,
            2871.75
          ],
          [
            10.875727,
            46.152039,
            2871.5
          ],
          [
            10.875629,
            46.152125,
            2869.75
          ],
          [
            10.8756,
            46.152257,
            2864.25
          ],
          [
            10.875603,
            46.152293,
            2863.25
          ],
          [
            10.875576,
            46.15231,
            2863.75
          ],
          [
            10.875557,
            46.152339,
            2863.5
          ],
          [
            10.8756,
            46.152413,
            2860
          ],
          [
            10.875558,
            46.152446,
            2860.25
          ],
          [
            10.875486,
            46.152589,
            2859.75
          ],
          [
            10.875505,
            46.152637,
            2858.75
          ],
          [
            10.875475,
            46.152679,
            2859.25
          ],
          [
            10.875503,
            46.152736,
            2857.5
          ],
          [
            10.875507,
            46.152777,
            2856.75
          ],
          [
            10.875545,
            46.152813,
            2857.5
          ],
          [
            10.875593,
            46.152902,
            2861
          ],
          [
            10.875718,
            46.153054,
            2862.25
          ],
          [
            10.875753,
            46.153121,
            2861.5
          ],
          [
            10.875856,
            46.153196,
            2856.25
          ],
          [
            10.87602,
            46.153355,
            2851.5
          ],
          [
            10.8763,
            46.153571,
            2840.5
          ],
          [
            10.876549,
            46.153631,
            2831.25
          ],
          [
            10.876704,
            46.153571,
            2823.75
          ],
          [
            10.87702,
            46.153546,
            2807.5
          ],
          [
            10.877192,
            46.153569,
            2795.5
          ],
          [
            10.877454,
            46.153639,
            2789
          ],
          [
            10.87814,
            46.153609,
            2774.25
          ],
          [
            10.878535,
            46.153532,
            2762.5
          ],
          [
            10.878707,
            46.153442,
            2755.5
          ],
          [
            10.878766,
            46.153183,
            2743.75
          ],
          [
            10.878863,
            46.153202,
            2740.75
          ],
          [
            10.878992,
            46.153215,
            2735.75
          ],
          [
            10.879131,
            46.153263,
            2730.25
          ],
          [
            10.879209,
            46.153298,
            2728
          ],
          [
            10.879332,
            46.153298,
            2726.25
          ],
          [
            10.879456,
            46.153343,
            2724.75
          ],
          [
            10.879692,
            46.153408,
            2719
          ],
          [
            10.879732,
            46.153356,
            2716.25
          ],
          [
            10.880121,
            46.153436,
            2706.5
          ],
          [
            10.880435,
            46.153443,
            2698.25
          ],
          [
            10.880536,
            46.153495,
            2696.25
          ],
          [
            10.880595,
            46.153557,
            2695.25
          ],
          [
            10.88073,
            46.15357,
            2690
          ],
          [
            10.881005,
            46.153642,
            2683
          ],
          [
            10.881446,
            46.153709,
            2673.25
          ],
          [
            10.88181,
            46.153798,
            2664
          ],
          [
            10.881954,
            46.153763,
            2657.5
          ],
          [
            10.882169,
            46.153869,
            2652.5
          ],
          [
            10.882304,
            46.153899,
            2649.5
          ],
          [
            10.882527,
            46.153907,
            2645.5
          ],
          [
            10.882808,
            46.153888,
            2640
          ],
          [
            10.882915,
            46.153898,
            2637.25
          ],
          [
            10.882926,
            46.153944,
            2636.5
          ],
          [
            10.882965,
            46.153984,
            2634.75
          ],
          [
            10.883042,
            46.153968,
            2632.5
          ],
          [
            10.883357,
            46.154028,
            2620.5
          ],
          [
            10.883784,
            46.154339,
            2609.5
          ],
          [
            10.883753,
            46.154543,
            2604.5
          ],
          [
            10.883809,
            46.154567,
            2602.75
          ],
          [
            10.883861,
            46.154616,
            2600.5
          ],
          [
            10.883951,
            46.154643,
            2599
          ],
          [
            10.884066,
            46.154611,
            2599.25
          ],
          [
            10.884077,
            46.154631,
            2598.5
          ],
          [
            10.884056,
            46.154674,
            2597.25
          ],
          [
            10.884094,
            46.154701,
            2595.75
          ],
          [
            10.884186,
            46.154718,
            2594
          ],
          [
            10.884395,
            46.154735,
            2592
          ],
          [
            10.884458,
            46.154782,
            2590.75
          ],
          [
            10.884521,
            46.154808,
            2589.75
          ],
          [
            10.884564,
            46.154849,
            2588.5
          ],
          [
            10.884608,
            46.154916,
            2586.5
          ],
          [
            10.884636,
            46.154993,
            2584.25
          ],
          [
            10.884719,
            46.155121,
            2582.5
          ],
          [
            10.884829,
            46.155175,
            2577.75
          ],
          [
            10.884888,
            46.15515,
            2576.25
          ],
          [
            10.884915,
            46.155162,
            2574.75
          ],
          [
            10.884989,
            46.155234,
            2568
          ],
          [
            10.885025,
            46.155325,
            2563.5
          ],
          [
            10.885079,
            46.155351,
            2561.5
          ],
          [
            10.885127,
            46.155432,
            2558
          ],
          [
            10.885185,
            46.155455,
            2555
          ],
          [
            10.885272,
            46.155505,
            2549.25
          ],
          [
            10.885339,
            46.15565,
            2546.25
          ],
          [
            10.885417,
            46.155707,
            2545.75
          ],
          [
            10.885635,
            46.155821,
            2546.75
          ],
          [
            10.885904,
            46.156018,
            2544.5
          ],
          [
            10.886082,
            46.156124,
            2544.5
          ],
          [
            10.886321,
            46.156244,
            2537.75
          ],
          [
            10.88654,
            46.156307,
            2534.75
          ],
          [
            10.886848,
            46.156315,
            2530.25
          ],
          [
            10.88723,
            46.156255,
            2521.75
          ],
          [
            10.887439,
            46.156284,
            2523.25
          ],
          [
            10.887597,
            46.156236,
            2520.25
          ],
          [
            10.887734,
            46.156222,
            2521
          ],
          [
            10.888003,
            46.156096,
            2509.25
          ],
          [
            10.888205,
            46.156014,
            2508.25
          ],
          [
            10.888336,
            46.155993,
            2509.25
          ],
          [
            10.888398,
            46.15588,
            2504.5
          ],
          [
            10.888562,
            46.155727,
            2501.5
          ],
          [
            10.888905,
            46.155535,
            2499.25
          ],
          [
            10.889191,
            46.155467,
            2503
          ],
          [
            10.88939,
            46.155387,
            2500.75
          ],
          [
            10.889505,
            46.155349,
            2499.75
          ],
          [
            10.889547,
            46.15529,
            2496
          ],
          [
            10.889881,
            46.155218,
            2494.75
          ],
          [
            10.890006,
            46.155216,
            2496
          ],
          [
            10.890041,
            46.155173,
            2494.5
          ],
          [
            10.890132,
            46.155134,
            2494
          ],
          [
            10.890344,
            46.155073,
            2493.25
          ],
          [
            10.890454,
            46.155059,
            2493.25
          ],
          [
            10.890488,
            46.155024,
            2491
          ],
          [
            10.890567,
            46.15498,
            2488.5
          ],
          [
            10.890681,
            46.154957,
            2488
          ],
          [
            10.890892,
            46.154894,
            2487.75
          ],
          [
            10.890914,
            46.154827,
            2484.5
          ],
          [
            10.891192,
            46.154692,
            2482.25
          ],
          [
            10.89122,
            46.15465,
            2480.25
          ],
          [
            10.891323,
            46.154615,
            2479.5
          ],
          [
            10.891396,
            46.154623,
            2480.75
          ],
          [
            10.891434,
            46.154545,
            2477.5
          ],
          [
            10.89174,
            46.154433,
            2474.5
          ],
          [
            10.891895,
            46.154332,
            2471.25
          ],
          [
            10.891995,
            46.154317,
            2472.25
          ],
          [
            10.892308,
            46.154159,
            2467.25
          ],
          [
            10.892374,
            46.154169,
            2469.5
          ],
          [
            10.892503,
            46.154081,
            2468
          ],
          [
            10.892548,
            46.154035,
            2467
          ],
          [
            10.892675,
            46.153993,
            2468.5
          ],
          [
            10.892797,
            46.15397,
            2470.25
          ],
          [
            10.892986,
            46.153887,
            2468.5
          ],
          [
            10.893117,
            46.153801,
            2467
          ],
          [
            10.893521,
            46.153712,
            2472
          ],
          [
            10.893623,
            46.153695,
            2473
          ],
          [
            10.893693,
            46.153662,
            2472
          ],
          [
            10.893865,
            46.153614,
            2471.5
          ],
          [
            10.894046,
            46.153578,
            2473.75
          ],
          [
            10.894139,
            46.153583,
            2476.75
          ],
          [
            10.894301,
            46.153498,
            2473.75
          ],
          [
            10.894417,
            46.153491,
            2476
          ],
          [
            10.89458,
            46.1534,
            2474
          ],
          [
            10.894609,
            46.153388,
            2474.25
          ],
          [
            10.894614,
            46.153407,
            2476.25
          ],
          [
            10.894751,
            46.153338,
            2477
          ],
          [
            10.894829,
            46.153313,
            2479
          ],
          [
            10.894838,
            46.153242,
            2471.5
          ],
          [
            10.895096,
            46.153146,
            2477.25
          ],
          [
            10.895304,
            46.153112,
            2485.25
          ],
          [
            10.895347,
            46.153122,
            2488.25
          ],
          [
            10.895548,
            46.153082,
            2486.75
          ],
          [
            10.895687,
            46.153069,
            2485
          ],
          [
            10.895757,
            46.15309,
            2489
          ],
          [
            10.896016,
            46.153063,
            2486
          ],
          [
            10.896032,
            46.153096,
            2489.25
          ],
          [
            10.896159,
            46.153075,
            2487.5
          ],
          [
            10.896419,
            46.153105,
            2489.75
          ],
          [
            10.896607,
            46.153149,
            2489.5
          ],
          [
            10.896705,
            46.153163,
            2488.75
          ],
          [
            10.897028,
            46.153199,
            2486.25
          ],
          [
            10.897082,
            46.153225,
            2487
          ],
          [
            10.897145,
            46.153222,
            2487
          ],
          [
            10.897214,
            46.153251,
            2487.75
          ],
          [
            10.897252,
            46.153257,
            2487.5
          ],
          [
            10.897336,
            46.153253,
            2486.5
          ],
          [
            10.897376,
            46.153246,
            2485.75
          ],
          [
            10.897531,
            46.153374,
            2486.5
          ],
          [
            10.897623,
            46.153397,
            2484.75
          ],
          [
            10.897699,
            46.153492,
            2484.5
          ],
          [
            10.897745,
            46.153649,
            2484.5
          ],
          [
            10.897711,
            46.153685,
            2486.25
          ],
          [
            10.89763,
            46.153829,
            2489.25
          ],
          [
            10.897595,
            46.153823,
            2490.5
          ],
          [
            10.897573,
            46.153893,
            2490.75
          ],
          [
            10.897606,
            46.153916,
            2490
          ],
          [
            10.897605,
            46.153962,
            2490.5
          ],
          [
            10.897692,
            46.154078,
            2490.5
          ],
          [
            10.897735,
            46.154168,
            2492
          ],
          [
            10.897857,
            46.154228,
            2492.75
          ],
          [
            10.897945,
            46.154371,
            2495
          ],
          [
            10.898007,
            46.154409,
            2495
          ],
          [
            10.898149,
            46.154353,
            2492.25
          ],
          [
            10.898217,
            46.154338,
            2491.5
          ],
          [
            10.898389,
            46.15433,
            2490
          ],
          [
            10.898471,
            46.154283,
            2490
          ],
          [
            10.898731,
            46.154292,
            2483.75
          ],
          [
            10.898833,
            46.15423,
            2484.75
          ],
          [
            10.898731,
            46.154292,
            2483.75
          ],
          [
            10.898471,
            46.154283,
            2490
          ],
          [
            10.898389,
            46.15433,
            2490
          ],
          [
            10.898474,
            46.154396,
            2487
          ],
          [
            10.898452,
            46.154476,
            2483.25
          ],
          [
            10.898369,
            46.154516,
            2482.75
          ],
          [
            10.897793,
            46.154683,
            2491.25
          ],
          [
            10.897227,
            46.155206,
            2500.5
          ],
          [
            10.897089,
            46.155374,
            2505.25
          ],
          [
            10.896992,
            46.155518,
            2507.5
          ],
          [
            10.896912,
            46.155671,
            2506
          ],
          [
            10.896567,
            46.155966,
            2511.75
          ],
          [
            10.896308,
            46.156113,
            2517.75
          ],
          [
            10.896069,
            46.156278,
            2523
          ],
          [
            10.895941,
            46.156397,
            2521
          ],
          [
            10.895814,
            46.156442,
            2529.25
          ],
          [
            10.895772,
            46.156496,
            2532.25
          ],
          [
            10.895752,
            46.15661,
            2530.75
          ],
          [
            10.895763,
            46.156723,
            2533.75
          ],
          [
            10.895888,
            46.156794,
            2533
          ],
          [
            10.895836,
            46.156838,
            2538
          ],
          [
            10.895733,
            46.156805,
            2543
          ],
          [
            10.895626,
            46.156752,
            2544.75
          ],
          [
            10.895449,
            46.15675,
            2553.75
          ],
          [
            10.895279,
            46.156729,
            2559
          ],
          [
            10.895186,
            46.156742,
            2558
          ],
          [
            10.894697,
            46.156965,
            2530.25
          ],
          [
            10.894454,
            46.157115,
            2520.75
          ],
          [
            10.894326,
            46.15726,
            2512.75
          ],
          [
            10.894091,
            46.157412,
            2505.75
          ],
          [
            10.893841,
            46.157645,
            2495.75
          ],
          [
            10.893727,
            46.157698,
            2493.5
          ],
          [
            10.893686,
            46.157807,
            2490.25
          ],
          [
            10.893505,
            46.157764,
            2487.25
          ],
          [
            10.893213,
            46.1578,
            2480.75
          ],
          [
            10.893212,
            46.157954,
            2478.75
          ],
          [
            10.893449,
            46.158123,
            2477
          ],
          [
            10.893425,
            46.158218,
            2473.5
          ],
          [
            10.892795,
            46.158823,
            2421
          ],
          [
            10.892789,
            46.159296,
            2399
          ],
          [
            10.892659,
            46.159592,
            2382.5
          ],
          [
            10.892225,
            46.159674,
            2369.25
          ],
          [
            10.891785,
            46.159691,
            2361.75
          ],
          [
            10.891298,
            46.159599,
            2351.75
          ],
          [
            10.891212,
            46.159699,
            2351.25
          ],
          [
            10.891072,
            46.159755,
            2351.25
          ],
          [
            10.89074,
            46.159948,
            2352.5
          ],
          [
            10.890595,
            46.160063,
            2352.75
          ],
          [
            10.890431,
            46.160356,
            2348
          ],
          [
            10.890404,
            46.160492,
            2346.5
          ],
          [
            10.890511,
            46.160798,
            2346
          ],
          [
            10.890482,
            46.161199,
            2337.75
          ],
          [
            10.890521,
            46.161328,
            2338
          ],
          [
            10.890514,
            46.16143,
            2336.75
          ],
          [
            10.890419,
            46.161745,
            2332.75
          ],
          [
            10.890437,
            46.161901,
            2332.25
          ],
          [
            10.890411,
            46.161967,
            2331
          ],
          [
            10.890276,
            46.162119,
            2327
          ],
          [
            10.89022,
            46.162234,
            2326.25
          ],
          [
            10.890167,
            46.162386,
            2324
          ],
          [
            10.890096,
            46.162656,
            2320
          ],
          [
            10.890026,
            46.162973,
            2313.75
          ],
          [
            10.890068,
            46.163067,
            2315
          ],
          [
            10.890024,
            46.16313,
            2314
          ],
          [
            10.889854,
            46.163333,
            2310.25
          ],
          [
            10.889621,
            46.163382,
            2306.25
          ],
          [
            10.889377,
            46.163493,
            2304.75
          ],
          [
            10.889094,
            46.163715,
            2302.75
          ],
          [
            10.888964,
            46.163838,
            2300.75
          ],
          [
            10.8889,
            46.164001,
            2299.5
          ],
          [
            10.888873,
            46.164229,
            2299.75
          ],
          [
            10.888585,
            46.164547,
            2297.25
          ],
          [
            10.888434,
            46.164655,
            2296.5
          ],
          [
            10.888229,
            46.164698,
            2292
          ],
          [
            10.888145,
            46.164782,
            2291.75
          ],
          [
            10.88801,
            46.164861,
            2288.25
          ],
          [
            10.887955,
            46.164962,
            2288
          ],
          [
            10.887867,
            46.165056,
            2287.75
          ],
          [
            10.887748,
            46.165125,
            2285.5
          ],
          [
            10.887639,
            46.165163,
            2282.25
          ],
          [
            10.887601,
            46.165285,
            2284.25
          ],
          [
            10.887487,
            46.165393,
            2283
          ],
          [
            10.887376,
            46.165456,
            2280.75
          ],
          [
            10.887199,
            46.165609,
            2279.5
          ],
          [
            10.88712,
            46.165713,
            2279.25
          ],
          [
            10.886684,
            46.165958,
            2273.25
          ],
          [
            10.88622,
            46.166135,
            2263
          ],
          [
            10.886149,
            46.166239,
            2263.75
          ],
          [
            10.886039,
            46.166319,
            2261
          ],
          [
            10.88589,
            46.166488,
            2258.75
          ],
          [
            10.885772,
            46.166544,
            2255
          ],
          [
            10.885672,
            46.166637,
            2252.5
          ],
          [
            10.885569,
            46.166796,
            2259.75
          ],
          [
            10.885474,
            46.166879,
            2260.25
          ],
          [
            10.885283,
            46.166995,
            2256.75
          ],
          [
            10.885141,
            46.167132,
            2258.75
          ],
          [
            10.88515,
            46.167187,
            2266
          ],
          [
            10.884952,
            46.167299,
            2258
          ],
          [
            10.884868,
            46.167408,
            2266.25
          ],
          [
            10.884841,
            46.167542,
            2283
          ],
          [
            10.88472,
            46.167755,
            2268.75
          ],
          [
            10.884606,
            46.167839,
            2266
          ],
          [
            10.883915,
            46.168157,
            2245.25
          ],
          [
            10.883731,
            46.168312,
            2246
          ],
          [
            10.883535,
            46.168458,
            2241.75
          ],
          [
            10.883339,
            46.168727,
            2239
          ],
          [
            10.883232,
            46.16879,
            2235.75
          ],
          [
            10.8832,
            46.168872,
            2236.75
          ],
          [
            10.883237,
            46.168936,
            2238.25
          ],
          [
            10.883216,
            46.169076,
            2236.25
          ],
          [
            10.883224,
            46.16919,
            2238.25
          ],
          [
            10.883046,
            46.169392,
            2233.75
          ],
          [
            10.882957,
            46.169565,
            2236
          ],
          [
            10.882683,
            46.169997,
            2233
          ],
          [
            10.882489,
            46.170138,
            2231.5
          ],
          [
            10.882334,
            46.170313,
            2232.5
          ],
          [
            10.882201,
            46.170386,
            2230
          ],
          [
            10.881818,
            46.170631,
            2227
          ],
          [
            10.881541,
            46.170687,
            2222
          ],
          [
            10.881379,
            46.170758,
            2221.25
          ],
          [
            10.881011,
            46.170875,
            2218.75
          ],
          [
            10.88096,
            46.17093,
            2220
          ],
          [
            10.880874,
            46.170953,
            2219.25
          ],
          [
            10.880757,
            46.170939,
            2215
          ],
          [
            10.880682,
            46.170968,
            2214.25
          ],
          [
            10.880329,
            46.171272,
            2211.5
          ],
          [
            10.88029,
            46.17135,
            2212.25
          ],
          [
            10.879842,
            46.171565,
            2203.75
          ],
          [
            10.879783,
            46.171704,
            2205.75
          ],
          [
            10.879711,
            46.171837,
            2205
          ],
          [
            10.879641,
            46.17192,
            2204.25
          ],
          [
            10.879429,
            46.172033,
            2202
          ],
          [
            10.879218,
            46.172113,
            2199.25
          ],
          [
            10.879096,
            46.172201,
            2200
          ],
          [
            10.879043,
            46.172267,
            2200.5
          ],
          [
            10.878948,
            46.172398,
            2200.75
          ],
          [
            10.878826,
            46.172501,
            2199
          ],
          [
            10.878475,
            46.172659,
            2195
          ],
          [
            10.878349,
            46.172736,
            2195
          ],
          [
            10.877824,
            46.172972,
            2190.75
          ],
          [
            10.877525,
            46.173216,
            2193.25
          ],
          [
            10.877331,
            46.173392,
            2191.75
          ],
          [
            10.877264,
            46.173497,
            2191.25
          ],
          [
            10.877072,
            46.173941,
            2191.25
          ],
          [
            10.876918,
            46.174039,
            2190
          ],
          [
            10.876882,
            46.174118,
            2191
          ],
          [
            10.876799,
            46.174196,
            2192.25
          ],
          [
            10.876643,
            46.174234,
            2191.75
          ],
          [
            10.876583,
            46.174271,
            2189.75
          ],
          [
            10.876505,
            46.17486,
            2185
          ],
          [
            10.876426,
            46.175047,
            2182
          ],
          [
            10.876319,
            46.175141,
            2179.5
          ],
          [
            10.876234,
            46.175225,
            2178.75
          ],
          [
            10.876274,
            46.175429,
            2176.25
          ]
        ]
      }
    },
    {
      "type": "Feature",
      "properties": {
        "kind": "waypoint",
        "name": "Rifugio XII Apostoli",
        "show_label": true
      },
      "geometry": {
        "type": "Point",
        "coordinates": [
          10.8474143,
          46.1506526,
          2488
        ]
      }
    },
    {
      "type": "Feature",
      "properties": {
        "kind": "waypoint",
        "name": "Ferrata dell'Ideale",
        "show_label": true
      },
      "geometry": {
        "type": "Point",
        "coordinates": [
          10.8594208,
          46.151978,
          2702
        ]
      }
    },
    {
      "type": "Feature",
      "properties": {
        "kind": "waypoint",
        "name": "Bocca d'Ambiez",
        "show_label": false
      },
      "geometry": {
        "type": "Point",
        "coordinates": [
          10.8695836,
          46.1524385,
          2898
        ]
      }
    },
    {
      "type": "Feature",
      "properties": {
        "kind": "waypoint",
        "name": "Ferrata Brentari",
        "show_label": true
      },
      "geometry": {
        "type": "Point",
        "coordinates": [
          10.875144,
          46.1509848,
          2882
        ]
      }
    },
    {
      "type": "Feature",
      "properties": {
        "kind": "waypoint",
        "name": "Rifugio Pedrotti",
        "show_label": true
      },
      "geometry": {
        "type": "Point",
        "coordinates": [
          10.8987399,
          46.1541551,
          2485
        ]
      }
    },
    {
      "type": "Feature",
      "properties": {
        "kind": "waypoint",
        "name": "Bocca di Brenta",
        "show_label": false
      },
      "geometry": {
        "type": "Point",
        "coordinates": [
          10.8952786,
          46.1567293,
          2559
        ]
      }
    },
    {
      "type": "Feature",
      "properties": {
        "kind": "waypoint",
        "name": "Bivacco Detassis",
        "show_label": true
      },
      "geometry": {
        "type": "Point",
        "coordinates": [
          10.8759502,
          46.1754782,
          2176
        ]
      }
    }
  ]
}
