{
  "type": "FeatureCollection",
  "features": [
    {
      "type": "Feature",
      "properties": {
        "kind": "route",
        "name": "День 6 · Detassis → Casinei → Vallesinella → Madonna di Campiglio",
        "distance_km": 9.013,
        "ascent_m": 93,
        "source": "BRouter / OpenStreetMap"
      },
      "geometry": {
        "type": "LineString",
        "coordinates": [
          [
            10.876274,
            46.175429,
            2176.25
          ],
          [
            10.876403,
            46.175524,
            2176.25
          ],
          [
            10.876418,
            46.175624,
            2174.75
          ],
          [
            10.876503,
            46.175713,
            2173.5
          ],
          [
            10.876537,
            46.175791,
            2173
          ],
          [
            10.8767,
            46.175909,
            2173.75
          ],
          [
            10.876706,
            46.176054,
            2173.25
          ],
          [
            10.876605,
            46.176175,
            2171.75
          ],
          [
            10.876575,
            46.176221,
            2171
          ],
          [
            10.876565,
            46.17626,
            2170.75
          ],
          [
            10.87657,
            46.17641,
            2170.5
          ],
          [
            10.87656,
            46.176506,
            2169.75
          ],
          [
            10.876568,
            46.176639,
            2169.75
          ],
          [
            10.876563,
            46.176677,
            2169.5
          ],
          [
            10.876603,
            46.176781,
            2170.5
          ],
          [
            10.876583,
            46.176895,
            2169.75
          ],
          [
            10.876558,
            46.17694,
            2168.5
          ],
          [
            10.876535,
            46.177036,
            2168.75
          ],
          [
            10.876478,
            46.177121,
            2167
          ],
          [
            10.876458,
            46.177199,
            2167
          ],
          [
            10.876403,
            46.177264,
            2166.5
          ],
          [
            10.87632,
            46.177294,
            2165.25
          ],
          [
            10.876143,
            46.177337,
            2162.5
          ],
          [
            10.876033,
            46.177354,
            2161.25
          ],
          [
            10.875937,
            46.177356,
            2159.5
          ],
          [
            10.87581,
            46.177377,
            2158.75
          ],
          [
            10.875722,
            46.177398,
            2159.25
          ],
          [
            10.875647,
            46.177422,
            2160
          ],
          [
            10.875472,
            46.177495,
            2162
          ],
          [
            10.875406,
            46.177534,
            2163.25
          ],
          [
            10.875338,
            46.177551,
            2162.75
          ],
          [
            10.875209,
            46.177566,
            2161.25
          ],
          [
            10.875054,
            46.177623,
            2162.5
          ],
          [
            10.875004,
            46.177651,
            2163.25
          ],
          [
            10.874977,
            46.177696,
            2165
          ],
          [
            10.874947,
            46.177722,
            2165.5
          ],
          [
            10.874899,
            46.17781,
            2169
          ],
          [
            10.874859,
            46.177843,
            2169.5
          ],
          [
            10.874828,
            46.177914,
            2172.25
          ],
          [
            10.874729,
            46.17799,
            2172.5
          ],
          [
            10.874535,
            46.178067,
            2170.75
          ],
          [
            10.874228,
            46.178155,
            2171.25
          ],
          [
            10.874183,
            46.178162,
            2171.25
          ],
          [
            10.873953,
            46.17817,
            2168.25
          ],
          [
            10.873781,
            46.178142,
            2163.75
          ],
          [
            10.873561,
            46.178143,
            2160.75
          ],
          [
            10.873344,
            46.178132,
            2155.75
          ],
          [
            10.873169,
            46.178171,
            2153.25
          ],
          [
            10.87305,
            46.17823,
            2152.25
          ],
          [
            10.872991,
            46.178345,
            2154.75
          ],
          [
            10.872672,
            46.178523,
            2147.25
          ],
          [
            10.872562,
            46.178649,
            2152
          ],
          [
            10.872362,
            46.178735,
            2147
          ],
          [
            10.872254,
            46.178894,
            2143
          ],
          [
            10.871951,
            46.179045,
            2136.75
          ],
          [
            10.87182,
            46.179174,
            2134.75
          ],
          [
            10.87159,
            46.179246,
            2124.25
          ],
          [
            10.871496,
            46.179321,
            2124
          ],
          [
            10.871205,
            46.179437,
            2114.25
          ],
          [
            10.871095,
            46.179612,
            2116
          ],
          [
            10.871078,
            46.179723,
            2119.25
          ],
          [
            10.871026,
            46.179799,
            2118.5
          ],
          [
            10.870924,
            46.179868,
            2113.75
          ],
          [
            10.87074,
            46.180057,
            2109.75
          ],
          [
            10.870792,
            46.180232,
            2113
          ],
          [
            10.870773,
            46.180363,
            2114.5
          ],
          [
            10.870686,
            46.180466,
            2114.25
          ],
          [
            10.870613,
            46.180496,
            2113.25
          ],
          [
            10.870419,
            46.180535,
            2110.5
          ],
          [
            10.87033,
            46.1808,
            2110.25
          ],
          [
            10.870314,
            46.180876,
            2112
          ],
          [
            10.870204,
            46.180996,
            2112.5
          ],
          [
            10.87012,
            46.181002,
            2108.25
          ],
          [
            10.870026,
            46.181029,
            2104.5
          ],
          [
            10.869938,
            46.181067,
            2102.25
          ],
          [
            10.869907,
            46.181098,
            2102.5
          ],
          [
            10.869817,
            46.181253,
            2123.25
          ],
          [
            10.86963,
            46.181317,
            2122
          ],
          [
            10.869546,
            46.181362,
            2121.25
          ],
          [
            10.869474,
            46.181384,
            2117.25
          ],
          [
            10.869412,
            46.181411,
            2114.5
          ],
          [
            10.869364,
            46.181468,
            2117.25
          ],
          [
            10.869292,
            46.181585,
            2123
          ],
          [
            10.869202,
            46.181662,
            2127.5
          ],
          [
            10.869194,
            46.181696,
            2127.5
          ],
          [
            10.869166,
            46.181746,
            2123.5
          ],
          [
            10.869119,
            46.181795,
            2118
          ],
          [
            10.869115,
            46.181832,
            2118
          ],
          [
            10.869167,
            46.182153,
            2113.25
          ],
          [
            10.869166,
            46.182205,
            2110.75
          ],
          [
            10.869241,
            46.18231,
            2115
          ],
          [
            10.869268,
            46.182385,
            2115.75
          ],
          [
            10.8693,
            46.182518,
            2117.25
          ],
          [
            10.869255,
            46.182547,
            2116.25
          ],
          [
            10.86908,
            46.182618,
            2110.75
          ],
          [
            10.869018,
            46.182669,
            2112
          ],
          [
            10.86899,
            46.18271,
            2114.75
          ],
          [
            10.868993,
            46.182778,
            2121.5
          ],
          [
            10.868949,
            46.182872,
            2119.75
          ],
          [
            10.868953,
            46.182936,
            2119.75
          ],
          [
            10.868922,
            46.183064,
            2117.5
          ],
          [
            10.868943,
            46.183107,
            2118.5
          ],
          [
            10.868955,
            46.183165,
            2119
          ],
          [
            10.868943,
            46.183195,
            2118.25
          ],
          [
            10.868919,
            46.183346,
            2116.25
          ],
          [
            10.86881,
            46.183577,
            2117.25
          ],
          [
            10.868793,
            46.183659,
            2118
          ],
          [
            10.868783,
            46.183834,
            2118.75
          ],
          [
            10.868764,
            46.183869,
            2118.5
          ],
          [
            10.868742,
            46.18391,
            2118.5
          ],
          [
            10.868693,
            46.183958,
            2118
          ],
          [
            10.868621,
            46.183975,
            2116
          ],
          [
            10.868564,
            46.184002,
            2114.25
          ],
          [
            10.868527,
            46.184029,
            2113
          ],
          [
            10.868513,
            46.184113,
            2113.75
          ],
          [
            10.868444,
            46.184191,
            2111.75
          ],
          [
            10.868343,
            46.184275,
            2108.25
          ],
          [
            10.868328,
            46.184328,
            2107.75
          ],
          [
            10.868175,
            46.184483,
            2103
          ],
          [
            10.868055,
            46.184617,
            2100.25
          ],
          [
            10.867893,
            46.184726,
            2096
          ],
          [
            10.867883,
            46.184778,
            2096.75
          ],
          [
            10.867749,
            46.18487,
            2092.75
          ],
          [
            10.867722,
            46.184915,
            2092
          ],
          [
            10.867727,
            46.184957,
            2092.75
          ],
          [
            10.867709,
            46.185012,
            2092.5
          ],
          [
            10.867672,
            46.185056,
            2091.75
          ],
          [
            10.867584,
            46.185136,
            2089.5
          ],
          [
            10.86746,
            46.18522,
            2086.25
          ],
          [
            10.86733,
            46.185279,
            2082.5
          ],
          [
            10.867287,
            46.185306,
            2081.25
          ],
          [
            10.867249,
            46.18534,
            2080.5
          ],
          [
            10.867195,
            46.185367,
            2078.25
          ],
          [
            10.867128,
            46.185419,
            2076
          ],
          [
            10.8671,
            46.185501,
            2076.5
          ],
          [
            10.866955,
            46.185567,
            2070.5
          ],
          [
            10.86691,
            46.185627,
            2068.5
          ],
          [
            10.86691,
            46.185706,
            2069
          ],
          [
            10.866893,
            46.185833,
            2069
          ],
          [
            10.86691,
            46.185978,
            2069.5
          ],
          [
            10.866887,
            46.186074,
            2068.25
          ],
          [
            10.866869,
            46.186295,
            2068.25
          ],
          [
            10.866782,
            46.186387,
            2064.75
          ],
          [
            10.866763,
            46.186536,
            2062
          ],
          [
            10.866681,
            46.186636,
            2057
          ],
          [
            10.866658,
            46.186751,
            2055.5
          ],
          [
            10.866586,
            46.186793,
            2051.5
          ],
          [
            10.866545,
            46.186943,
            2048
          ],
          [
            10.866469,
            46.187053,
            2049.5
          ],
          [
            10.866386,
            46.18711,
            2045.5
          ],
          [
            10.866203,
            46.187182,
            2038.75
          ],
          [
            10.866156,
            46.187279,
            2041.25
          ],
          [
            10.866076,
            46.187377,
            2043.75
          ],
          [
            10.865954,
            46.187442,
            2044
          ],
          [
            10.865864,
            46.187469,
            2042.75
          ],
          [
            10.865847,
            46.187496,
            2044
          ],
          [
            10.865771,
            46.187552,
            2049.75
          ],
          [
            10.865687,
            46.187511,
            2049
          ],
          [
            10.865632,
            46.187491,
            2048.75
          ],
          [
            10.865581,
            46.187432,
            2043.5
          ],
          [
            10.865508,
            46.187457,
            2046.75
          ],
          [
            10.865343,
            46.187482,
            2049.25
          ],
          [
            10.86519,
            46.187636,
            2050.75
          ],
          [
            10.865153,
            46.187696,
            2051.75
          ],
          [
            10.86519,
            46.187733,
            2055
          ],
          [
            10.865256,
            46.187781,
            2059.25
          ],
          [
            10.865276,
            46.18796,
            2071
          ],
          [
            10.865205,
            46.188028,
            2067.75
          ],
          [
            10.86514,
            46.188206,
            2066
          ],
          [
            10.865152,
            46.188311,
            2070.5
          ],
          [
            10.865147,
            46.188381,
            2070.5
          ],
          [
            10.865015,
            46.188459,
            2059.5
          ],
          [
            10.865008,
            46.188559,
            2059.75
          ],
          [
            10.865077,
            46.188626,
            2064.25
          ],
          [
            10.865175,
            46.188789,
            2061.5
          ],
          [
            10.865349,
            46.189038,
            2057.25
          ],
          [
            10.865693,
            46.189388,
            2055.25
          ],
          [
            10.865838,
            46.189493,
            2054
          ],
          [
            10.866032,
            46.189679,
            2050.75
          ],
          [
            10.866152,
            46.189729,
            2051
          ],
          [
            10.866274,
            46.189886,
            2050
          ],
          [
            10.866373,
            46.190067,
            2047.75
          ],
          [
            10.866502,
            46.190163,
            2050
          ],
          [
            10.866487,
            46.190245,
            2047.5
          ],
          [
            10.866485,
            46.190315,
            2045.75
          ],
          [
            10.866513,
            46.190376,
            2045.5
          ],
          [
            10.866501,
            46.190427,
            2043.75
          ],
          [
            10.866496,
            46.190558,
            2040.5
          ],
          [
            10.866485,
            46.190613,
            2040.25
          ],
          [
            10.866561,
            46.1907,
            2043.5
          ],
          [
            10.866527,
            46.190794,
            2042.25
          ],
          [
            10.866519,
            46.190899,
            2043.25
          ],
          [
            10.86652,
            46.191083,
            2046.5
          ],
          [
            10.866547,
            46.191138,
            2048
          ],
          [
            10.866566,
            46.191255,
            2048.75
          ],
          [
            10.866553,
            46.191313,
            2048.75
          ],
          [
            10.866586,
            46.191462,
            2048.5
          ],
          [
            10.866556,
            46.191548,
            2048
          ],
          [
            10.866493,
            46.191619,
            2047.75
          ],
          [
            10.866398,
            46.1917,
            2047.5
          ],
          [
            10.866394,
            46.191746,
            2047.25
          ],
          [
            10.86632,
            46.191783,
            2047.25
          ],
          [
            10.866274,
            46.191887,
            2046.25
          ],
          [
            10.866092,
            46.191956,
            2045.75
          ],
          [
            10.865931,
            46.192077,
            2044.5
          ],
          [
            10.865874,
            46.192192,
            2042.75
          ],
          [
            10.865847,
            46.192221,
            2042.25
          ],
          [
            10.865822,
            46.192234,
            2042.25
          ],
          [
            10.865659,
            46.19229,
            2042.25
          ],
          [
            10.865485,
            46.192295,
            2040
          ],
          [
            10.865287,
            46.192329,
            2039
          ],
          [
            10.865211,
            46.192359,
            2038.25
          ],
          [
            10.865161,
            46.192398,
            2037.5
          ],
          [
            10.865104,
            46.192573,
            2036.25
          ],
          [
            10.865044,
            46.192649,
            2033.5
          ],
          [
            10.865044,
            46.192666,
            2033.5
          ],
          [
            10.865071,
            46.192704,
            2034.5
          ],
          [
            10.8651,
            46.192719,
            2035.75
          ],
          [
            10.865105,
            46.192729,
            2035.75
          ],
          [
            10.865077,
            46.192789,
            2035
          ],
          [
            10.86493,
            46.192911,
            2031.5
          ],
          [
            10.864813,
            46.19311,
            2031.25
          ],
          [
            10.864723,
            46.193222,
            2030.25
          ],
          [
            10.864518,
            46.193368,
            2021.75
          ],
          [
            10.86445,
            46.193429,
            2018
          ],
          [
            10.864318,
            46.193614,
            2014
          ],
          [
            10.864269,
            46.193728,
            2013
          ],
          [
            10.86419,
            46.193823,
            2010
          ],
          [
            10.864146,
            46.193863,
            2008.5
          ],
          [
            10.864099,
            46.193969,
            2007.25
          ],
          [
            10.864026,
            46.194079,
            2005
          ],
          [
            10.863986,
            46.194161,
            2004
          ],
          [
            10.863923,
            46.194252,
            2003.25
          ],
          [
            10.863833,
            46.194326,
            2001.25
          ],
          [
            10.863724,
            46.194452,
            1998.75
          ],
          [
            10.863667,
            46.194573,
            1998
          ],
          [
            10.863575,
            46.194673,
            1995.75
          ],
          [
            10.86339,
            46.194827,
            1991.75
          ],
          [
            10.863208,
            46.194939,
            1989
          ],
          [
            10.862888,
            46.195175,
            1983
          ],
          [
            10.862778,
            46.195264,
            1981.5
          ],
          [
            10.862561,
            46.195389,
            1978.5
          ],
          [
            10.862374,
            46.195523,
            1974.5
          ],
          [
            10.862261,
            46.195626,
            1972.25
          ],
          [
            10.86214,
            46.195723,
            1968.25
          ],
          [
            10.861987,
            46.195899,
            1964.5
          ],
          [
            10.861861,
            46.196059,
            1960.25
          ],
          [
            10.861816,
            46.196148,
            1959.25
          ],
          [
            10.86169,
            46.19628,
            1954.25
          ],
          [
            10.861649,
            46.196332,
            1953
          ],
          [
            10.861627,
            46.19638,
            1952.75
          ],
          [
            10.861547,
            46.196506,
            1951.5
          ],
          [
            10.861314,
            46.196718,
            1944.5
          ],
          [
            10.861173,
            46.196826,
            1940
          ],
          [
            10.860923,
            46.197115,
            1934.5
          ],
          [
            10.860569,
            46.197671,
            1924
          ],
          [
            10.86039,
            46.197874,
            1919
          ],
          [
            10.86027,
            46.197984,
            1915.75
          ],
          [
            10.860235,
            46.19803,
            1915.25
          ],
          [
            10.860147,
            46.198094,
            1914
          ],
          [
            10.860005,
            46.198164,
            1910.5
          ],
          [
            10.859982,
            46.198185,
            1910.25
          ],
          [
            10.859788,
            46.198283,
            1906.5
          ],
          [
            10.859723,
            46.198327,
            1905.75
          ],
          [
            10.859527,
            46.198427,
            1900
          ],
          [
            10.859445,
            46.198499,
            1898.5
          ],
          [
            10.859171,
            46.198545,
            1890.75
          ],
          [
            10.859067,
            46.198568,
            1888.25
          ],
          [
            10.858943,
            46.198577,
            1885
          ],
          [
            10.85888,
            46.198605,
            1884.5
          ],
          [
            10.858804,
            46.198662,
            1881.5
          ],
          [
            10.858866,
            46.198721,
            1880.5
          ],
          [
            10.858778,
            46.198741,
            1878.5
          ],
          [
            10.85871,
            46.198768,
            1876.25
          ],
          [
            10.858764,
            46.198833,
            1875
          ],
          [
            10.858776,
            46.198864,
            1874
          ],
          [
            10.858825,
            46.198908,
            1873.5
          ],
          [
            10.858836,
            46.19895,
            1872.5
          ],
          [
            10.858817,
            46.199004,
            1870.5
          ],
          [
            10.858773,
            46.199041,
            1868.75
          ],
          [
            10.858729,
            46.199056,
            1867.25
          ],
          [
            10.858652,
            46.199069,
            1865.25
          ],
          [
            10.858642,
            46.199164,
            1861.75
          ],
          [
            10.858657,
            46.199212,
            1860.25
          ],
          [
            10.858682,
            46.199249,
            1859.5
          ],
          [
            10.858711,
            46.199324,
            1857
          ],
          [
            10.858745,
            46.199478,
            1851
          ],
          [
            10.858789,
            46.199536,
            1848.5
          ],
          [
            10.859008,
            46.199589,
            1846.5
          ],
          [
            10.859134,
            46.199612,
            1845
          ],
          [
            10.859202,
            46.199644,
            1842.25
          ],
          [
            10.859146,
            46.19968,
            1839.5
          ],
          [
            10.85906,
            46.199688,
            1839.25
          ],
          [
            10.858902,
            46.199764,
            1835.5
          ],
          [
            10.858807,
            46.199824,
            1832.75
          ],
          [
            10.858664,
            46.199885,
            1829.75
          ],
          [
            10.858561,
            46.19998,
            1824
          ],
          [
            10.858336,
            46.199955,
            1824.75
          ],
          [
            10.85829,
            46.199991,
            1823
          ],
          [
            10.858117,
            46.200082,
            1818.5
          ],
          [
            10.85796,
            46.200211,
            1812.75
          ],
          [
            10.85792,
            46.20027,
            1810.75
          ],
          [
            10.857914,
            46.200312,
            1807.75
          ],
          [
            10.858011,
            46.200373,
            1803
          ],
          [
            10.858416,
            46.200422,
            1796.5
          ],
          [
            10.858593,
            46.200454,
            1791.75
          ],
          [
            10.8588,
            46.200408,
            1792.25
          ],
          [
            10.858974,
            46.200396,
            1790.75
          ],
          [
            10.859267,
            46.200422,
            1785.75
          ],
          [
            10.859414,
            46.200399,
            1786.5
          ],
          [
            10.859731,
            46.200444,
            1781.75
          ],
          [
            10.859813,
            46.200481,
            1778.5
          ],
          [
            10.860254,
            46.200547,
            1773.25
          ],
          [
            10.860324,
            46.200568,
            1772.5
          ],
          [
            10.860482,
            46.200641,
            1769
          ],
          [
            10.860489,
            46.200664,
            1767.5
          ],
          [
            10.860459,
            46.200684,
            1766
          ],
          [
            10.860325,
            46.200688,
            1765
          ],
          [
            10.86018,
            46.200753,
            1760.25
          ],
          [
            10.860099,
            46.200772,
            1758.5
          ],
          [
            10.860068,
            46.200785,
            1757.5
          ],
          [
            10.860105,
            46.200814,
            1755.75
          ],
          [
            10.860293,
            46.200843,
            1755.25
          ],
          [
            10.860444,
            46.200915,
            1751.75
          ],
          [
            10.860547,
            46.201005,
            1747
          ],
          [
            10.860675,
            46.201094,
            1742.25
          ],
          [
            10.860788,
            46.201194,
            1739
          ],
          [
            10.860805,
            46.201265,
            1736.5
          ],
          [
            10.8607,
            46.201291,
            1734.75
          ],
          [
            10.860297,
            46.201333,
            1728.75
          ],
          [
            10.860127,
            46.201368,
            1725.25
          ],
          [
            10.859901,
            46.201432,
            1719.25
          ],
          [
            10.859722,
            46.201462,
            1715.5
          ],
          [
            10.859224,
            46.201505,
            1707.25
          ],
          [
            10.859073,
            46.201545,
            1704
          ],
          [
            10.858916,
            46.201569,
            1701.75
          ],
          [
            10.858775,
            46.201604,
            1699
          ],
          [
            10.858455,
            46.201704,
            1694
          ],
          [
            10.858242,
            46.201762,
            1691.75
          ],
          [
            10.857994,
            46.201801,
            1688
          ],
          [
            10.857951,
            46.2018,
            1687.5
          ],
          [
            10.857802,
            46.201814,
            1684.25
          ],
          [
            10.857703,
            46.201798,
            1683.75
          ],
          [
            10.857554,
            46.201811,
            1680.75
          ],
          [
            10.857413,
            46.201844,
            1677.75
          ],
          [
            10.857286,
            46.201937,
            1672
          ],
          [
            10.857119,
            46.202001,
            1670
          ],
          [
            10.857065,
            46.202016,
            1669
          ],
          [
            10.857023,
            46.202061,
            1665.75
          ],
          [
            10.856938,
            46.20208,
            1664.25
          ],
          [
            10.856866,
            46.202115,
            1661.5
          ],
          [
            10.856861,
            46.202146,
            1659.25
          ],
          [
            10.857096,
            46.202224,
            1655
          ],
          [
            10.85712,
            46.202252,
            1653.75
          ],
          [
            10.857161,
            46.202347,
            1649
          ],
          [
            10.857221,
            46.202352,
            1649
          ],
          [
            10.857227,
            46.202359,
            1648.5
          ],
          [
            10.857215,
            46.20238,
            1647.25
          ],
          [
            10.857304,
            46.202405,
            1644.5
          ],
          [
            10.857359,
            46.202395,
            1644.25
          ],
          [
            10.85744,
            46.202363,
            1644.75
          ],
          [
            10.857486,
            46.202353,
            1644.5
          ],
          [
            10.857495,
            46.202362,
            1644
          ],
          [
            10.857453,
            46.202455,
            1639.75
          ],
          [
            10.857397,
            46.202544,
            1636.75
          ],
          [
            10.857169,
            46.202646,
            1636.75
          ],
          [
            10.856936,
            46.202775,
            1631
          ],
          [
            10.857003,
            46.203207,
            1626
          ],
          [
            10.856944,
            46.203452,
            1619
          ],
          [
            10.856799,
            46.203549,
            1615.5
          ],
          [
            10.856584,
            46.203623,
            1610.75
          ],
          [
            10.856375,
            46.203656,
            1605.5
          ],
          [
            10.856182,
            46.203701,
            1600.5
          ],
          [
            10.856091,
            46.203786,
            1596.25
          ],
          [
            10.855866,
            46.203868,
            1588.25
          ],
          [
            10.855688,
            46.203868,
            1585.5
          ],
          [
            10.855469,
            46.204009,
            1579
          ],
          [
            10.855109,
            46.204132,
            1570.5
          ],
          [
            10.854878,
            46.204228,
            1563.75
          ],
          [
            10.854385,
            46.20431,
            1552.75
          ],
          [
            10.854052,
            46.204354,
            1547.25
          ],
          [
            10.853848,
            46.204503,
            1541.75
          ],
          [
            10.853777,
            46.204699,
            1536.5
          ],
          [
            10.85358,
            46.205,
            1528.5
          ],
          [
            10.853387,
            46.205164,
            1522.75
          ],
          [
            10.85299,
            46.205253,
            1518.75
          ],
          [
            10.852245,
            46.205346,
            1513.5
          ],
          [
            10.852249,
            46.205438,
            1511.5
          ],
          [
            10.852289,
            46.205494,
            1510
          ],
          [
            10.852432,
            46.205574,
            1511.5
          ],
          [
            10.852424,
            46.20567,
            1512.75
          ],
          [
            10.852404,
            46.205696,
            1513.25
          ],
          [
            10.852234,
            46.205752,
            1513.25
          ],
          [
            10.852162,
            46.205852,
            1515
          ],
          [
            10.852173,
            46.205914,
            1515.75
          ],
          [
            10.852158,
            46.206038,
            1517.5
          ],
          [
            10.852155,
            46.206098,
            1518.25
          ],
          [
            10.85208,
            46.206187,
            1517.75
          ],
          [
            10.851794,
            46.20643,
            1515.75
          ],
          [
            10.851668,
            46.206528,
            1514.5
          ],
          [
            10.851327,
            46.206787,
            1512
          ],
          [
            10.851137,
            46.206909,
            1509.25
          ],
          [
            10.850895,
            46.206995,
            1507.75
          ],
          [
            10.850681,
            46.207068,
            1507.25
          ],
          [
            10.850591,
            46.207099,
            1506.5
          ],
          [
            10.850502,
            46.207188,
            1505
          ],
          [
            10.849965,
            46.207663,
            1502
          ],
          [
            10.849643,
            46.207996,
            1503.5
          ],
          [
            10.849215,
            46.208225,
            1501.5
          ],
          [
            10.848268,
            46.208627,
            1502.25
          ],
          [
            10.847704,
            46.208714,
            1502
          ],
          [
            10.847337,
            46.208842,
            1502.5
          ],
          [
            10.846791,
            46.208911,
            1500.5
          ],
          [
            10.846363,
            46.209071,
            1501.5
          ],
          [
            10.845004,
            46.209346,
            1499
          ],
          [
            10.844516,
            46.20955,
            1503.75
          ],
          [
            10.843993,
            46.209621,
            1499.5
          ],
          [
            10.843618,
            46.209809,
            1504.5
          ],
          [
            10.843323,
            46.209759,
            1507.5
          ],
          [
            10.84314,
            46.209671,
            1503
          ],
          [
            10.842912,
            46.209675,
            1502.25
          ],
          [
            10.842633,
            46.209784,
            1504
          ],
          [
            10.8418,
            46.209919,
            1505.75
          ],
          [
            10.840793,
            46.209883,
            1505.5
          ],
          [
            10.840414,
            46.209798,
            1508.75
          ],
          [
            10.840162,
            46.2096,
            1501
          ],
          [
            10.839881,
            46.209576,
            1499.25
          ],
          [
            10.83962,
            46.209665,
            1501.5
          ],
          [
            10.838655,
            46.209623,
            1504.25
          ],
          [
            10.836746,
            46.209313,
            1502.75
          ],
          [
            10.835574,
            46.209018,
            1497.5
          ],
          [
            10.833971,
            46.20891,
            1494.75
          ],
          [
            10.832386,
            46.20927,
            1494.5
          ],
          [
            10.831135,
            46.209942,
            1497.25
          ],
          [
            10.83047,
            46.210398,
            1491.75
          ],
          [
            10.830036,
            46.211044,
            1492
          ],
          [
            10.829878,
            46.211367,
            1494.25
          ],
          [
            10.829405,
            46.21188,
            1491.25
          ],
          [
            10.829281,
            46.212262,
            1496
          ],
          [
            10.82922,
            46.212653,
            1499.75
          ],
          [
            10.828972,
            46.212964,
            1496.75
          ],
          [
            10.828639,
            46.214255,
            1504.75
          ],
          [
            10.828381,
            46.215169,
            1503.25
          ],
          [
            10.828375,
            46.215641,
            1505.5
          ],
          [
            10.828286,
            46.216182,
            1504.25
          ],
          [
            10.828228,
            46.216453,
            1504.25
          ],
          [
            10.82822,
            46.216569,
            1505
          ],
          [
            10.828226,
            46.216692,
            1506
          ],
          [
            10.828248,
            46.216826,
            1505.75
          ],
          [
            10.828312,
            46.21705,
            1506.25
          ],
          [
            10.828357,
            46.217285,
            1506.5
          ],
          [
            10.828363,
            46.217434,
            1505.75
          ],
          [
            10.828357,
            46.217532,
            1504.5
          ],
          [
            10.828365,
            46.217642,
            1503.5
          ],
          [
            10.828387,
            46.217754,
            1503
          ],
          [
            10.828571,
            46.218231,
            1504
          ],
          [
            10.828576,
            46.218305,
            1503.5
          ],
          [
            10.828568,
            46.21838,
            1503
          ],
          [
            10.828504,
            46.21872,
            1501
          ],
          [
            10.828482,
            46.218862,
            1501
          ],
          [
            10.828433,
            46.218962,
            1499.75
          ],
          [
            10.828381,
            46.219265,
            1499
          ],
          [
            10.828325,
            46.219357,
            1498
          ],
          [
            10.828297,
            46.219438,
            1498
          ],
          [
            10.828299,
            46.219483,
            1497.75
          ],
          [
            10.828332,
            46.219628,
            1498.25
          ],
          [
            10.828536,
            46.22017,
            1498.75
          ],
          [
            10.828546,
            46.220232,
            1498.75
          ],
          [
            10.828538,
            46.220286,
            1498.25
          ],
          [
            10.828496,
            46.220407,
            1498
          ],
          [
            10.828421,
            46.220572,
            1497.5
          ],
          [
            10.828398,
            46.220651,
            1497
          ],
          [
            10.828354,
            46.220901,
            1495.75
          ],
          [
            10.828329,
            46.221195,
            1493.5
          ],
          [
            10.82832,
            46.221278,
            1493.25
          ],
          [
            10.828309,
            46.221361,
            1492.75
          ],
          [
            10.828279,
            46.221477,
            1492.5
          ],
          [
            10.828213,
            46.221646,
            1492.5
          ],
          [
            10.828194,
            46.221693,
            1492.25
          ],
          [
            10.828033,
            46.222071,
            1490.75
          ],
          [
            10.828004,
            46.222209,
            1490.5
          ],
          [
            10.828001,
            46.222398,
            1490.25
          ],
          [
            10.828034,
            46.222871,
            1490.5
          ],
          [
            10.828029,
            46.222943,
            1490.5
          ],
          [
            10.827985,
            46.223128,
            1490.25
          ],
          [
            10.827985,
            46.223193,
            1490.25
          ],
          [
            10.827996,
            46.223256,
            1490.5
          ],
          [
            10.828053,
            46.223389,
            1491
          ],
          [
            10.828063,
            46.223421,
            1491.25
          ],
          [
            10.828141,
            46.224287,
            1492.5
          ],
          [
            10.828167,
            46.224594,
            1493.5
          ],
          [
            10.828169,
            46.224713,
            1493.75
          ],
          [
            10.828153,
            46.224803,
            1493.75
          ],
          [
            10.828111,
            46.224892,
            1493.75
          ],
          [
            10.828045,
            46.224991,
            1494
          ],
          [
            10.827948,
            46.225106,
            1494.75
          ],
          [
            10.827691,
            46.225345,
            1496.25
          ],
          [
            10.827656,
            46.225388,
            1496.25
          ],
          [
            10.827599,
            46.225461,
            1496.25
          ],
          [
            10.827557,
            46.225517,
            1495.75
          ],
          [
            10.827591,
            46.225551,
            1496.25
          ],
          [
            10.827591,
            46.225592,
            1496.25
          ],
          [
            10.827577,
            46.225611,
            1496
          ],
          [
            10.827528,
            46.225635,
            1495.5
          ],
          [
            10.827555,
            46.22569,
            1496
          ],
          [
            10.827633,
            46.225807,
            1496.75
          ],
          [
            10.827868,
            46.226024,
            1498.25
          ],
          [
            10.828028,
            46.226164,
            1498
          ],
          [
            10.828083,
            46.226216,
            1498.5
          ],
          [
            10.828083,
            46.226231,
            1498.5
          ],
          [
            10.828031,
            46.226239,
            1498.25
          ],
          [
            10.827998,
            46.226245,
            1498
          ],
          [
            10.827942,
            46.226268,
            1497.75
          ],
          [
            10.827862,
            46.2262,
            1497.5
          ],
          [
            10.827764,
            46.226143,
            1497.75
          ],
          [
            10.827653,
            46.226088,
            1497.75
          ],
          [
            10.827593,
            46.226074,
            1497.75
          ],
          [
            10.827519,
            46.226084,
            1497.75
          ],
          [
            10.82737,
            46.226145,
            1497.5
          ],
          [
            10.827201,
            46.226184,
            1497.25
          ],
          [
            10.827166,
            46.226198,
            1497
          ],
          [
            10.827113,
            46.226229,
            1497
          ],
          [
            10.827058,
            46.226281,
            1496.75
          ],
          [
            10.827022,
            46.226341,
            1496.5
          ],
          [
            10.827014,
            46.2264,
            1496.25
          ],
          [
            10.827038,
            46.226579,
            1496.25
          ],
          [
            10.827007,
            46.226677,
            1496.5
          ],
          [
            10.827004,
            46.226714,
            1496.25
          ],
          [
            10.827054,
            46.226831,
            1496
          ],
          [
            10.827076,
            46.226947,
            1496
          ],
          [
            10.827088,
            46.226961,
            1496.25
          ]
        ]
      }
    },
    {
      "type": "Feature",
      "properties": {
        "kind": "waypoint",
        "name": "Bivacco Detassis",
        "show_label": true
      },
      "geometry": {
        "type": "Point",
        "coordinates": [
          10.8759502,
          46.1754782,
          2176
        ]
      }
    },
    {
      "type": "Feature",
      "properties": {
        "kind": "waypoint",
        "name": "Rifugio Casinei",
        "show_label": true
      },
      "geometry": {
        "type": "Point",
        "coordinates": [
          10.858336,
          46.199955,
          1825
        ]
      }
    },
    {
      "type": "Feature",
      "properties": {
        "kind": "waypoint",
        "name": "Vallesinella",
        "show_label": true
      },
      "geometry": {
        "type": "Point",
        "coordinates": [
          10.851327,
          46.206787,
          1512
        ]
      }
    },
    {
      "type": "Feature",
      "properties": {
        "kind": "waypoint",
        "name": "Madonna di Campiglio",
        "show_label": true
      },
      "geometry": {
        "type": "Point",
        "coordinates": [
          10.8270157,
          46.2269942,
          1496
        ]
      }
    }
  ]
}
