{
  "type": "FeatureCollection",
  "features": [
    {
      "type": "Feature",
      "properties": {
        "kind": "route",
        "name": "День 1 · Madonna di Campiglio → Spinale → Graffer → Tuckett",
        "distance_km": 13.574,
        "ascent_m": 1096,
        "source": "BRouter / OpenStreetMap"
      },
      "geometry": {
        "type": "LineString",
        "coordinates": [
          [
            10.827088,
            46.226961,
            1496
          ],
          [
            10.827117,
            46.226992,
            1496.25
          ],
          [
            10.827131,
            46.227033,
            1496.25
          ],
          [
            10.827151,
            46.227145,
            1496.5
          ],
          [
            10.827148,
            46.227205,
            1497
          ],
          [
            10.827156,
            46.227278,
            1496.75
          ],
          [
            10.827215,
            46.227516,
            1496
          ],
          [
            10.827223,
            46.2276,
            1496.5
          ],
          [
            10.827276,
            46.227719,
            1497.25
          ],
          [
            10.827303,
            46.227804,
            1497.75
          ],
          [
            10.827332,
            46.227843,
            1498
          ],
          [
            10.827374,
            46.227871,
            1498
          ],
          [
            10.82742,
            46.227883,
            1498
          ],
          [
            10.827401,
            46.227908,
            1498.25
          ],
          [
            10.827378,
            46.227923,
            1498.5
          ],
          [
            10.82734,
            46.227934,
            1498.5
          ],
          [
            10.827153,
            46.227955,
            1499.25
          ],
          [
            10.827207,
            46.228175,
            1499
          ],
          [
            10.82721,
            46.228251,
            1499
          ],
          [
            10.827198,
            46.228302,
            1499.25
          ],
          [
            10.827168,
            46.228646,
            1500.5
          ],
          [
            10.827115,
            46.22967,
            1504.5
          ],
          [
            10.827171,
            46.229873,
            1504.5
          ],
          [
            10.827156,
            46.230002,
            1505.25
          ],
          [
            10.827131,
            46.230084,
            1507
          ],
          [
            10.82703,
            46.230119,
            1508.5
          ],
          [
            10.826832,
            46.230123,
            1510.25
          ],
          [
            10.826542,
            46.230112,
            1512
          ],
          [
            10.826521,
            46.230361,
            1512.25
          ],
          [
            10.826496,
            46.230435,
            1512.25
          ],
          [
            10.826387,
            46.230681,
            1513
          ],
          [
            10.826543,
            46.230758,
            1512.5
          ],
          [
            10.826603,
            46.230779,
            1512.5
          ],
          [
            10.826667,
            46.23079,
            1512.5
          ],
          [
            10.827033,
            46.230799,
            1512.75
          ],
          [
            10.827031,
            46.230866,
            1513
          ],
          [
            10.82704,
            46.230998,
            1513.5
          ],
          [
            10.8271,
            46.231207,
            1514
          ],
          [
            10.827133,
            46.23129,
            1514.25
          ],
          [
            10.827178,
            46.231373,
            1514.75
          ],
          [
            10.827268,
            46.231351,
            1514.75
          ],
          [
            10.827386,
            46.231321,
            1514.75
          ],
          [
            10.82751,
            46.231314,
            1514.5
          ],
          [
            10.8285,
            46.231319,
            1518.25
          ],
          [
            10.828894,
            46.231317,
            1522.25
          ],
          [
            10.82917,
            46.231325,
            1524
          ],
          [
            10.829232,
            46.23133,
            1524.75
          ],
          [
            10.829269,
            46.231342,
            1525.25
          ],
          [
            10.829302,
            46.231359,
            1525.75
          ],
          [
            10.82941,
            46.231497,
            1529.75
          ],
          [
            10.829444,
            46.231517,
            1530.75
          ],
          [
            10.82947,
            46.231524,
            1531.25
          ],
          [
            10.829501,
            46.231525,
            1531.75
          ],
          [
            10.82973,
            46.231436,
            1533.75
          ],
          [
            10.829888,
            46.231412,
            1536.25
          ],
          [
            10.830031,
            46.231379,
            1538.25
          ],
          [
            10.830068,
            46.231378,
            1538.75
          ],
          [
            10.83009,
            46.231385,
            1538.75
          ],
          [
            10.830121,
            46.231411,
            1539.5
          ],
          [
            10.830158,
            46.23146,
            1540.75
          ],
          [
            10.830295,
            46.231572,
            1545.75
          ],
          [
            10.830324,
            46.23163,
            1547.5
          ],
          [
            10.830366,
            46.231803,
            1551.25
          ],
          [
            10.830391,
            46.231855,
            1552.5
          ],
          [
            10.830425,
            46.231894,
            1553.5
          ],
          [
            10.830507,
            46.231961,
            1555.75
          ],
          [
            10.830631,
            46.232023,
            1558
          ],
          [
            10.830993,
            46.232162,
            1562.75
          ],
          [
            10.831175,
            46.232269,
            1565.75
          ],
          [
            10.83137,
            46.232439,
            1569
          ],
          [
            10.83145,
            46.232515,
            1570.5
          ],
          [
            10.831542,
            46.232624,
            1572.75
          ],
          [
            10.831614,
            46.232685,
            1573.25
          ],
          [
            10.831667,
            46.232694,
            1573.25
          ],
          [
            10.831718,
            46.232691,
            1573.5
          ],
          [
            10.831767,
            46.232677,
            1573.75
          ],
          [
            10.831797,
            46.232647,
            1573.75
          ],
          [
            10.831806,
            46.23262,
            1573.75
          ],
          [
            10.831801,
            46.232585,
            1573.5
          ],
          [
            10.831859,
            46.232576,
            1573.75
          ],
          [
            10.83191,
            46.232557,
            1574
          ],
          [
            10.831983,
            46.232509,
            1575
          ],
          [
            10.832034,
            46.232443,
            1577.25
          ],
          [
            10.832056,
            46.232386,
            1578.75
          ],
          [
            10.832041,
            46.232179,
            1580.25
          ],
          [
            10.832053,
            46.232143,
            1580.75
          ],
          [
            10.832117,
            46.232032,
            1583
          ],
          [
            10.83213,
            46.231972,
            1583.5
          ],
          [
            10.832132,
            46.231765,
            1585.75
          ],
          [
            10.832193,
            46.231481,
            1594
          ],
          [
            10.83217,
            46.231445,
            1594
          ],
          [
            10.832076,
            46.231392,
            1591.5
          ],
          [
            10.832023,
            46.231285,
            1592.5
          ],
          [
            10.832011,
            46.230967,
            1600.75
          ],
          [
            10.831983,
            46.230816,
            1601.75
          ],
          [
            10.831994,
            46.230771,
            1601.25
          ],
          [
            10.832025,
            46.230736,
            1602
          ],
          [
            10.832275,
            46.230559,
            1609.25
          ],
          [
            10.832404,
            46.230407,
            1611.25
          ],
          [
            10.832431,
            46.230348,
            1611.25
          ],
          [
            10.832635,
            46.230084,
            1617.25
          ],
          [
            10.832834,
            46.229763,
            1625
          ],
          [
            10.83288,
            46.229702,
            1626.75
          ],
          [
            10.833038,
            46.229533,
            1632.25
          ],
          [
            10.833096,
            46.229451,
            1634.25
          ],
          [
            10.833223,
            46.229206,
            1640
          ],
          [
            10.83328,
            46.22914,
            1642.5
          ],
          [
            10.83335,
            46.229029,
            1647
          ],
          [
            10.833393,
            46.2289,
            1650.5
          ],
          [
            10.83342,
            46.228625,
            1657.5
          ],
          [
            10.833417,
            46.228566,
            1659
          ],
          [
            10.833373,
            46.228449,
            1660.5
          ],
          [
            10.833296,
            46.228324,
            1661
          ],
          [
            10.833275,
            46.228255,
            1660.25
          ],
          [
            10.833285,
            46.228194,
            1661.5
          ],
          [
            10.833306,
            46.228139,
            1663.25
          ],
          [
            10.833335,
            46.228099,
            1665.5
          ],
          [
            10.833505,
            46.227913,
            1669.75
          ],
          [
            10.833627,
            46.227759,
            1673.25
          ],
          [
            10.833708,
            46.227641,
            1674.5
          ],
          [
            10.833833,
            46.227433,
            1676.5
          ],
          [
            10.833909,
            46.227218,
            1679.75
          ],
          [
            10.833959,
            46.227048,
            1682.75
          ],
          [
            10.834002,
            46.226948,
            1685
          ],
          [
            10.834045,
            46.226861,
            1686.75
          ],
          [
            10.834212,
            46.226648,
            1692.75
          ],
          [
            10.834241,
            46.226583,
            1694.25
          ],
          [
            10.834272,
            46.226499,
            1695.75
          ],
          [
            10.834369,
            46.22611,
            1703.5
          ],
          [
            10.83448,
            46.225768,
            1709
          ],
          [
            10.834523,
            46.225723,
            1710.25
          ],
          [
            10.834822,
            46.225514,
            1721.75
          ],
          [
            10.834874,
            46.225464,
            1723.5
          ],
          [
            10.835001,
            46.225311,
            1726.25
          ],
          [
            10.835174,
            46.225123,
            1728.25
          ],
          [
            10.835316,
            46.225019,
            1732
          ],
          [
            10.835425,
            46.224781,
            1734.75
          ],
          [
            10.835468,
            46.22469,
            1736
          ],
          [
            10.835485,
            46.224476,
            1738.25
          ],
          [
            10.835445,
            46.22434,
            1741
          ],
          [
            10.83543,
            46.224306,
            1741.75
          ],
          [
            10.835352,
            46.224065,
            1746.5
          ],
          [
            10.835338,
            46.223956,
            1749.5
          ],
          [
            10.835306,
            46.223883,
            1750.25
          ],
          [
            10.83528,
            46.223727,
            1752
          ],
          [
            10.835292,
            46.223493,
            1756.25
          ],
          [
            10.83533,
            46.223286,
            1760
          ],
          [
            10.835496,
            46.223031,
            1766
          ],
          [
            10.835539,
            46.222691,
            1771.5
          ],
          [
            10.835574,
            46.222606,
            1773.25
          ],
          [
            10.835664,
            46.222456,
            1776.5
          ],
          [
            10.835846,
            46.222295,
            1778
          ],
          [
            10.836143,
            46.22222,
            1781.5
          ],
          [
            10.836343,
            46.222104,
            1784.75
          ],
          [
            10.83643,
            46.222026,
            1787.25
          ],
          [
            10.836419,
            46.221926,
            1786.5
          ],
          [
            10.836453,
            46.221529,
            1795
          ],
          [
            10.83655,
            46.221357,
            1803.75
          ],
          [
            10.836567,
            46.221221,
            1803.75
          ],
          [
            10.836624,
            46.221042,
            1805.25
          ],
          [
            10.836713,
            46.220847,
            1808
          ],
          [
            10.836829,
            46.220687,
            1812.25
          ],
          [
            10.836929,
            46.220498,
            1815.75
          ],
          [
            10.837042,
            46.220346,
            1818.5
          ],
          [
            10.837163,
            46.220263,
            1821.25
          ],
          [
            10.837295,
            46.220147,
            1825.5
          ],
          [
            10.837361,
            46.220044,
            1827.25
          ],
          [
            10.837395,
            46.219941,
            1827
          ],
          [
            10.837465,
            46.219866,
            1827.75
          ],
          [
            10.837519,
            46.219763,
            1828
          ],
          [
            10.837597,
            46.219684,
            1829.5
          ],
          [
            10.837681,
            46.219657,
            1831.75
          ],
          [
            10.837836,
            46.219462,
            1835.5
          ],
          [
            10.837936,
            46.219379,
            1838.75
          ],
          [
            10.837975,
            46.219276,
            1841.25
          ],
          [
            10.837953,
            46.219168,
            1842.25
          ],
          [
            10.838022,
            46.219076,
            1843
          ],
          [
            10.838134,
            46.219002,
            1845
          ],
          [
            10.83835,
            46.218803,
            1849.25
          ],
          [
            10.838516,
            46.218685,
            1852
          ],
          [
            10.838602,
            46.218541,
            1855.5
          ],
          [
            10.838601,
            46.21843,
            1858.25
          ],
          [
            10.83848,
            46.218299,
            1860.25
          ],
          [
            10.838317,
            46.218168,
            1864
          ],
          [
            10.838144,
            46.21808,
            1865.5
          ],
          [
            10.837969,
            46.218005,
            1868.25
          ],
          [
            10.837871,
            46.217989,
            1868.5
          ],
          [
            10.837775,
            46.217991,
            1867.25
          ],
          [
            10.837491,
            46.217919,
            1871.75
          ],
          [
            10.837367,
            46.217925,
            1871.5
          ],
          [
            10.837225,
            46.217849,
            1876
          ],
          [
            10.837069,
            46.217783,
            1878
          ],
          [
            10.836902,
            46.217689,
            1881
          ],
          [
            10.836751,
            46.217619,
            1883.25
          ],
          [
            10.836641,
            46.217582,
            1884
          ],
          [
            10.836505,
            46.217511,
            1885.5
          ],
          [
            10.836423,
            46.21746,
            1885.75
          ],
          [
            10.836314,
            46.217369,
            1887
          ],
          [
            10.83616,
            46.217267,
            1888.75
          ],
          [
            10.836176,
            46.217189,
            1892.75
          ],
          [
            10.836288,
            46.217184,
            1894.25
          ],
          [
            10.836453,
            46.217279,
            1892.25
          ],
          [
            10.83659,
            46.21733,
            1893.5
          ],
          [
            10.836782,
            46.217359,
            1895.25
          ],
          [
            10.836935,
            46.217358,
            1897
          ],
          [
            10.837165,
            46.217356,
            1899.5
          ],
          [
            10.837403,
            46.217388,
            1902.5
          ],
          [
            10.837662,
            46.217453,
            1904.5
          ],
          [
            10.837994,
            46.217501,
            1907
          ],
          [
            10.838355,
            46.217516,
            1910
          ],
          [
            10.838717,
            46.217518,
            1914.25
          ],
          [
            10.838912,
            46.217567,
            1915.5
          ],
          [
            10.839078,
            46.217617,
            1915.75
          ],
          [
            10.839228,
            46.217581,
            1918
          ],
          [
            10.839391,
            46.217523,
            1920
          ],
          [
            10.839539,
            46.217496,
            1921.5
          ],
          [
            10.839693,
            46.217477,
            1923
          ],
          [
            10.840016,
            46.217474,
            1925.5
          ],
          [
            10.840391,
            46.21746,
            1928.75
          ],
          [
            10.840828,
            46.217461,
            1931.75
          ],
          [
            10.841288,
            46.217475,
            1935.5
          ],
          [
            10.841535,
            46.217468,
            1937.5
          ],
          [
            10.841757,
            46.217447,
            1939.5
          ],
          [
            10.84218,
            46.217385,
            1942
          ],
          [
            10.842382,
            46.217362,
            1941.75
          ],
          [
            10.842594,
            46.217307,
            1941.75
          ],
          [
            10.842745,
            46.217217,
            1941.25
          ],
          [
            10.842902,
            46.217106,
            1942
          ],
          [
            10.843105,
            46.217015,
            1942.5
          ],
          [
            10.843306,
            46.216864,
            1945
          ],
          [
            10.843455,
            46.216789,
            1945.25
          ],
          [
            10.843584,
            46.21677,
            1945
          ],
          [
            10.84374,
            46.216807,
            1945.5
          ],
          [
            10.843806,
            46.216865,
            1946.25
          ],
          [
            10.843776,
            46.216968,
            1947.25
          ],
          [
            10.843705,
            46.217091,
            1949.5
          ],
          [
            10.843654,
            46.217193,
            1950.75
          ],
          [
            10.843827,
            46.217466,
            1955.75
          ],
          [
            10.843904,
            46.217515,
            1957
          ],
          [
            10.844037,
            46.217522,
            1958
          ],
          [
            10.844199,
            46.217518,
            1959.25
          ],
          [
            10.844388,
            46.217525,
            1960
          ],
          [
            10.844519,
            46.21755,
            1961.25
          ],
          [
            10.844685,
            46.217601,
            1963.25
          ],
          [
            10.845225,
            46.217653,
            1970.75
          ],
          [
            10.845586,
            46.217667,
            1974.5
          ],
          [
            10.845652,
            46.217722,
            1975.5
          ],
          [
            10.845724,
            46.217825,
            1977.25
          ],
          [
            10.845898,
            46.217917,
            1978.5
          ],
          [
            10.846034,
            46.217949,
            1979.75
          ],
          [
            10.846168,
            46.217961,
            1980
          ],
          [
            10.846243,
            46.217975,
            1979.75
          ],
          [
            10.846432,
            46.218056,
            1978.5
          ],
          [
            10.846599,
            46.218113,
            1978.75
          ],
          [
            10.846794,
            46.218195,
            1980
          ],
          [
            10.847159,
            46.218271,
            1981.25
          ],
          [
            10.847295,
            46.218306,
            1981.5
          ],
          [
            10.847631,
            46.218353,
            1982.25
          ],
          [
            10.847889,
            46.218461,
            1982.25
          ],
          [
            10.847924,
            46.218536,
            1982.5
          ],
          [
            10.847865,
            46.218618,
            1983.25
          ],
          [
            10.847734,
            46.218691,
            1985.25
          ],
          [
            10.847516,
            46.218878,
            1987
          ],
          [
            10.847433,
            46.218957,
            1988.25
          ],
          [
            10.847339,
            46.218956,
            1989.25
          ],
          [
            10.847212,
            46.218927,
            1990.25
          ],
          [
            10.847101,
            46.21892,
            1991.5
          ],
          [
            10.846996,
            46.218931,
            1992.5
          ],
          [
            10.84687,
            46.218964,
            1994.25
          ],
          [
            10.846781,
            46.21901,
            1995.25
          ],
          [
            10.84669,
            46.219081,
            1996.25
          ],
          [
            10.846615,
            46.219162,
            1997
          ],
          [
            10.846607,
            46.219234,
            1997.75
          ],
          [
            10.846613,
            46.219392,
            1999.25
          ],
          [
            10.846554,
            46.219687,
            2000.75
          ],
          [
            10.846579,
            46.219817,
            2003.75
          ],
          [
            10.846673,
            46.219938,
            2007
          ],
          [
            10.846813,
            46.220047,
            2009.5
          ],
          [
            10.846936,
            46.220216,
            2012
          ],
          [
            10.847066,
            46.220367,
            2014.75
          ],
          [
            10.847183,
            46.220449,
            2016.5
          ],
          [
            10.84726,
            46.220528,
            2018
          ],
          [
            10.847253,
            46.22063,
            2020
          ],
          [
            10.847158,
            46.220882,
            2023.75
          ],
          [
            10.847048,
            46.220936,
            2025
          ],
          [
            10.846944,
            46.22095,
            2025.75
          ],
          [
            10.846775,
            46.220991,
            2028.75
          ],
          [
            10.84664,
            46.221089,
            2032
          ],
          [
            10.846546,
            46.221133,
            2034.75
          ],
          [
            10.846456,
            46.221146,
            2036.75
          ],
          [
            10.846329,
            46.221201,
            2039
          ],
          [
            10.846284,
            46.221227,
            2039.75
          ],
          [
            10.846194,
            46.221306,
            2041.25
          ],
          [
            10.846185,
            46.221467,
            2045.25
          ],
          [
            10.846254,
            46.221688,
            2052
          ],
          [
            10.846316,
            46.22174,
            2054.5
          ],
          [
            10.846403,
            46.221786,
            2057
          ],
          [
            10.846459,
            46.221835,
            2058
          ],
          [
            10.846446,
            46.221896,
            2059.5
          ],
          [
            10.846394,
            46.221953,
            2061.25
          ],
          [
            10.846286,
            46.222019,
            2063
          ],
          [
            10.846102,
            46.22208,
            2064.25
          ],
          [
            10.845968,
            46.222165,
            2066.75
          ],
          [
            10.845872,
            46.222323,
            2069.75
          ],
          [
            10.845826,
            46.222442,
            2071
          ],
          [
            10.845834,
            46.222522,
            2072.5
          ],
          [
            10.845907,
            46.222621,
            2076
          ],
          [
            10.846089,
            46.222714,
            2081
          ],
          [
            10.84645,
            46.222863,
            2088
          ],
          [
            10.846594,
            46.222859,
            2090.5
          ],
          [
            10.846712,
            46.222818,
            2091.75
          ],
          [
            10.846875,
            46.222657,
            2093
          ],
          [
            10.847027,
            46.222562,
            2094.25
          ],
          [
            10.847344,
            46.222459,
            2093.25
          ],
          [
            10.847505,
            46.222471,
            2095.5
          ],
          [
            10.847687,
            46.222538,
            2100.5
          ],
          [
            10.847733,
            46.222564,
            2101.25
          ],
          [
            10.847844,
            46.222605,
            2102
          ],
          [
            10.84793,
            46.222654,
            2101
          ],
          [
            10.848047,
            46.222723,
            2101
          ],
          [
            10.848207,
            46.222781,
            2099.75
          ],
          [
            10.848404,
            46.222811,
            2098.5
          ],
          [
            10.848688,
            46.222784,
            2095.5
          ],
          [
            10.848835,
            46.222797,
            2092.75
          ],
          [
            10.849135,
            46.22286,
            2088.5
          ],
          [
            10.849401,
            46.222879,
            2083.5
          ],
          [
            10.849649,
            46.222917,
            2079.5
          ],
          [
            10.84982,
            46.222967,
            2076.25
          ],
          [
            10.850154,
            46.223089,
            2070.25
          ],
          [
            10.850519,
            46.223265,
            2065.5
          ],
          [
            10.850876,
            46.223257,
            2063.75
          ],
          [
            10.851145,
            46.223241,
            2062.75
          ],
          [
            10.851989,
            46.223271,
            2056.5
          ],
          [
            10.852933,
            46.223255,
            2055.75
          ],
          [
            10.853677,
            46.223304,
            2053
          ],
          [
            10.854476,
            46.223293,
            2048.75
          ],
          [
            10.855104,
            46.223232,
            2043
          ],
          [
            10.855317,
            46.223194,
            2041.75
          ],
          [
            10.855676,
            46.222883,
            2039.5
          ],
          [
            10.856114,
            46.22278,
            2034.75
          ],
          [
            10.856266,
            46.222855,
            2033.5
          ],
          [
            10.856377,
            46.222803,
            2031.25
          ],
          [
            10.856619,
            46.222783,
            2031
          ],
          [
            10.856712,
            46.222748,
            2029.75
          ],
          [
            10.856835,
            46.222732,
            2027.75
          ],
          [
            10.857046,
            46.222621,
            2025
          ],
          [
            10.857358,
            46.22251,
            2026.5
          ],
          [
            10.857693,
            46.222444,
            2027.75
          ],
          [
            10.857896,
            46.222441,
            2028.5
          ],
          [
            10.858144,
            46.222347,
            2030.75
          ],
          [
            10.858269,
            46.222279,
            2031
          ],
          [
            10.858745,
            46.222302,
            2031
          ],
          [
            10.858898,
            46.222298,
            2031
          ],
          [
            10.859122,
            46.222245,
            2030.75
          ],
          [
            10.859286,
            46.222249,
            2030
          ],
          [
            10.859444,
            46.222309,
            2027.75
          ],
          [
            10.859526,
            46.222317,
            2027.25
          ],
          [
            10.859783,
            46.22226,
            2027
          ],
          [
            10.860153,
            46.222118,
            2026.25
          ],
          [
            10.860375,
            46.221935,
            2028.5
          ],
          [
            10.86081,
            46.221599,
            2028.5
          ],
          [
            10.860929,
            46.221563,
            2028
          ],
          [
            10.861006,
            46.221469,
            2028
          ],
          [
            10.861254,
            46.221404,
            2028.25
          ],
          [
            10.861348,
            46.221309,
            2029.25
          ],
          [
            10.861544,
            46.221055,
            2029.5
          ],
          [
            10.861698,
            46.220949,
            2029.75
          ],
          [
            10.861903,
            46.220849,
            2030
          ],
          [
            10.862043,
            46.220612,
            2031
          ],
          [
            10.862423,
            46.220282,
            2034
          ],
          [
            10.862543,
            46.220153,
            2035.5
          ],
          [
            10.862802,
            46.220008,
            2036.25
          ],
          [
            10.863102,
            46.219784,
            2038.5
          ],
          [
            10.863361,
            46.219756,
            2038.25
          ],
          [
            10.863538,
            46.219674,
            2039.5
          ],
          [
            10.863717,
            46.219655,
            2040.5
          ],
          [
            10.864036,
            46.219687,
            2041.5
          ],
          [
            10.864227,
            46.219634,
            2043.25
          ],
          [
            10.864637,
            46.219618,
            2041.25
          ],
          [
            10.865015,
            46.219507,
            2039.5
          ],
          [
            10.865449,
            46.219476,
            2040
          ],
          [
            10.865738,
            46.219546,
            2042.5
          ],
          [
            10.866226,
            46.219873,
            2050.75
          ],
          [
            10.866384,
            46.219978,
            2050.75
          ],
          [
            10.866651,
            46.220111,
            2054
          ],
          [
            10.86683,
            46.220159,
            2054
          ],
          [
            10.867044,
            46.220348,
            2054.5
          ],
          [
            10.867257,
            46.220519,
            2057.5
          ],
          [
            10.867462,
            46.220602,
            2057.75
          ],
          [
            10.867769,
            46.220714,
            2060.5
          ],
          [
            10.867914,
            46.220684,
            2062
          ],
          [
            10.868102,
            46.220602,
            2063
          ],
          [
            10.868392,
            46.220596,
            2065.5
          ],
          [
            10.868563,
            46.220548,
            2066.75
          ],
          [
            10.868794,
            46.220424,
            2071
          ],
          [
            10.869024,
            46.220318,
            2072.5
          ],
          [
            10.869289,
            46.220353,
            2074.75
          ],
          [
            10.86963,
            46.220519,
            2078
          ],
          [
            10.869784,
            46.220637,
            2080.75
          ],
          [
            10.870202,
            46.220814,
            2081
          ],
          [
            10.870826,
            46.220992,
            2083.25
          ],
          [
            10.871135,
            46.221107,
            2084.75
          ],
          [
            10.871426,
            46.221249,
            2084.25
          ],
          [
            10.871479,
            46.221339,
            2084.5
          ],
          [
            10.871642,
            46.221454,
            2084.25
          ],
          [
            10.872052,
            46.221685,
            2085.5
          ],
          [
            10.871865,
            46.221812,
            2086.25
          ],
          [
            10.871661,
            46.222069,
            2086
          ],
          [
            10.87157,
            46.222226,
            2085.75
          ],
          [
            10.8715,
            46.222422,
            2085
          ],
          [
            10.871428,
            46.22259,
            2082.75
          ],
          [
            10.871351,
            46.222725,
            2079.5
          ],
          [
            10.871356,
            46.222914,
            2078.5
          ],
          [
            10.871438,
            46.223107,
            2079.75
          ],
          [
            10.871521,
            46.223403,
            2080
          ],
          [
            10.871428,
            46.223528,
            2079.25
          ],
          [
            10.871412,
            46.223589,
            2079
          ],
          [
            10.871521,
            46.223721,
            2077
          ],
          [
            10.871526,
            46.223856,
            2075
          ],
          [
            10.871577,
            46.223914,
            2074.25
          ],
          [
            10.871753,
            46.223981,
            2073.5
          ],
          [
            10.871908,
            46.223988,
            2071.75
          ],
          [
            10.872346,
            46.223935,
            2069.5
          ],
          [
            10.872594,
            46.223928,
            2068.5
          ],
          [
            10.8728,
            46.223978,
            2067.5
          ],
          [
            10.873264,
            46.224131,
            2066.5
          ],
          [
            10.87347,
            46.224156,
            2067.5
          ],
          [
            10.873749,
            46.224195,
            2068.75
          ],
          [
            10.873996,
            46.224184,
            2069
          ],
          [
            10.874177,
            46.224188,
            2068.25
          ],
          [
            10.874304,
            46.224206,
            2069.25
          ],
          [
            10.874424,
            46.224239,
            2070
          ],
          [
            10.874591,
            46.224331,
            2071
          ],
          [
            10.874764,
            46.224589,
            2071.5
          ],
          [
            10.874912,
            46.22466,
            2074.25
          ],
          [
            10.874981,
            46.224694,
            2075.25
          ],
          [
            10.875147,
            46.224851,
            2077.75
          ],
          [
            10.875238,
            46.224922,
            2078.75
          ],
          [
            10.875297,
            46.224904,
            2080
          ],
          [
            10.875625,
            46.2249,
            2081
          ],
          [
            10.875959,
            46.224933,
            2084
          ],
          [
            10.876161,
            46.224969,
            2085.75
          ],
          [
            10.876238,
            46.224974,
            2087
          ],
          [
            10.876326,
            46.224959,
            2088.75
          ],
          [
            10.876402,
            46.224916,
            2090.75
          ],
          [
            10.876422,
            46.22487,
            2092
          ],
          [
            10.876407,
            46.224827,
            2092.75
          ],
          [
            10.876357,
            46.22479,
            2093.25
          ],
          [
            10.876196,
            46.224736,
            2093.75
          ],
          [
            10.875984,
            46.22458,
            2094.75
          ],
          [
            10.875956,
            46.224538,
            2095.5
          ],
          [
            10.875955,
            46.224497,
            2096.25
          ],
          [
            10.876025,
            46.224446,
            2097.5
          ],
          [
            10.876234,
            46.22442,
            2099.25
          ],
          [
            10.876411,
            46.224378,
            2101.25
          ],
          [
            10.876595,
            46.224316,
            2102.5
          ],
          [
            10.877059,
            46.22413,
            2104.25
          ],
          [
            10.877165,
            46.224124,
            2105
          ],
          [
            10.877368,
            46.224158,
            2106
          ],
          [
            10.877464,
            46.224157,
            2106.75
          ],
          [
            10.877694,
            46.224115,
            2107.75
          ],
          [
            10.877902,
            46.224062,
            2108.5
          ],
          [
            10.878159,
            46.223973,
            2109
          ],
          [
            10.878371,
            46.223867,
            2110
          ],
          [
            10.878815,
            46.223572,
            2114.25
          ],
          [
            10.879369,
            46.223263,
            2122
          ],
          [
            10.879601,
            46.22316,
            2124.25
          ],
          [
            10.879786,
            46.223113,
            2126.75
          ],
          [
            10.880032,
            46.223029,
            2132
          ],
          [
            10.880405,
            46.222838,
            2135.75
          ],
          [
            10.880722,
            46.222791,
            2140.5
          ],
          [
            10.880901,
            46.222809,
            2143
          ],
          [
            10.881043,
            46.222808,
            2146
          ],
          [
            10.881141,
            46.222819,
            2147.75
          ],
          [
            10.881275,
            46.222816,
            2149.25
          ],
          [
            10.881474,
            46.222695,
            2150.25
          ],
          [
            10.88165,
            46.222664,
            2152
          ],
          [
            10.882133,
            46.222595,
            2159.75
          ],
          [
            10.882206,
            46.222607,
            2161
          ],
          [
            10.882255,
            46.222643,
            2162
          ],
          [
            10.882268,
            46.22269,
            2162.5
          ],
          [
            10.882237,
            46.222763,
            2162.25
          ],
          [
            10.882159,
            46.222821,
            2162
          ],
          [
            10.881926,
            46.222955,
            2163.25
          ],
          [
            10.881904,
            46.223009,
            2165
          ],
          [
            10.881933,
            46.223052,
            2166.75
          ],
          [
            10.882014,
            46.22306,
            2167
          ],
          [
            10.882323,
            46.222955,
            2166.5
          ],
          [
            10.882513,
            46.22292,
            2168
          ],
          [
            10.883158,
            46.222809,
            2174.25
          ],
          [
            10.883451,
            46.222798,
            2176.25
          ],
          [
            10.883526,
            46.222777,
            2177.25
          ],
          [
            10.883583,
            46.222742,
            2178.25
          ],
          [
            10.883614,
            46.222704,
            2179.25
          ],
          [
            10.883641,
            46.222493,
            2183.5
          ],
          [
            10.883685,
            46.22245,
            2185.25
          ],
          [
            10.883794,
            46.222443,
            2187.5
          ],
          [
            10.883883,
            46.222497,
            2187.75
          ],
          [
            10.883987,
            46.222575,
            2188.5
          ],
          [
            10.88407,
            46.222619,
            2189.5
          ],
          [
            10.884163,
            46.222605,
            2191.75
          ],
          [
            10.88444,
            46.222468,
            2191.75
          ],
          [
            10.884797,
            46.222268,
            2198
          ],
          [
            10.885171,
            46.22186,
            2206
          ],
          [
            10.885224,
            46.22175,
            2207.5
          ],
          [
            10.885246,
            46.221659,
            2208.25
          ],
          [
            10.885303,
            46.221614,
            2208.5
          ],
          [
            10.885417,
            46.221617,
            2210.25
          ],
          [
            10.885769,
            46.221794,
            2213.25
          ],
          [
            10.885967,
            46.221883,
            2215.25
          ],
          [
            10.886102,
            46.221899,
            2217
          ],
          [
            10.886232,
            46.221852,
            2218.25
          ],
          [
            10.886403,
            46.221726,
            2220
          ],
          [
            10.88657,
            46.22155,
            2223.75
          ],
          [
            10.886757,
            46.221468,
            2226
          ],
          [
            10.886984,
            46.221337,
            2227.75
          ],
          [
            10.887206,
            46.221243,
            2229.75
          ],
          [
            10.887368,
            46.221218,
            2231.25
          ],
          [
            10.887487,
            46.221226,
            2232.25
          ],
          [
            10.8876,
            46.221249,
            2233.75
          ],
          [
            10.887757,
            46.221287,
            2236.25
          ],
          [
            10.887891,
            46.221296,
            2237
          ],
          [
            10.888015,
            46.221281,
            2237.25
          ],
          [
            10.888167,
            46.22124,
            2238
          ],
          [
            10.888355,
            46.221142,
            2238.25
          ],
          [
            10.888552,
            46.221059,
            2240.25
          ],
          [
            10.888642,
            46.221014,
            2241.5
          ],
          [
            10.888859,
            46.220834,
            2246.5
          ],
          [
            10.88898,
            46.22071,
            2248.75
          ],
          [
            10.889015,
            46.220611,
            2250
          ],
          [
            10.889001,
            46.220498,
            2251.25
          ],
          [
            10.888936,
            46.220264,
            2252.5
          ],
          [
            10.888936,
            46.220202,
            2253.25
          ],
          [
            10.889345,
            46.219906,
            2259
          ],
          [
            10.889481,
            46.219746,
            2260.75
          ],
          [
            10.889672,
            46.219677,
            2260.75
          ],
          [
            10.889586,
            46.21956,
            2260.75
          ],
          [
            10.889564,
            46.219519,
            2261
          ],
          [
            10.889636,
            46.219478,
            2260.5
          ],
          [
            10.889672,
            46.219438,
            2260.25
          ],
          [
            10.889736,
            46.219332,
            2260.25
          ],
          [
            10.889824,
            46.219169,
            2261.5
          ],
          [
            10.889828,
            46.219043,
            2260.5
          ],
          [
            10.889885,
            46.218921,
            2259.75
          ],
          [
            10.890413,
            46.218486,
            2264
          ],
          [
            10.890472,
            46.218382,
            2265.75
          ],
          [
            10.890512,
            46.218287,
            2267
          ],
          [
            10.89055,
            46.218136,
            2268.25
          ],
          [
            10.890665,
            46.218044,
            2270.75
          ],
          [
            10.890673,
            46.217922,
            2269.75
          ],
          [
            10.890777,
            46.217782,
            2268.25
          ],
          [
            10.890896,
            46.217734,
            2269.75
          ],
          [
            10.891009,
            46.217699,
            2272.25
          ],
          [
            10.891084,
            46.217585,
            2273.25
          ],
          [
            10.891158,
            46.217532,
            2274.5
          ],
          [
            10.89137,
            46.21717,
            2281
          ],
          [
            10.891676,
            46.216981,
            2284.25
          ],
          [
            10.891774,
            46.216881,
            2287.25
          ],
          [
            10.891764,
            46.216847,
            2287.25
          ],
          [
            10.891803,
            46.216785,
            2288.75
          ],
          [
            10.891964,
            46.216638,
            2293.25
          ],
          [
            10.892117,
            46.216547,
            2296
          ],
          [
            10.89229,
            46.21632,
            2297.25
          ],
          [
            10.892425,
            46.216167,
            2298
          ],
          [
            10.89269,
            46.216026,
            2303.75
          ],
          [
            10.892706,
            46.215873,
            2306
          ],
          [
            10.892662,
            46.215672,
            2309
          ],
          [
            10.892703,
            46.215597,
            2311
          ],
          [
            10.892684,
            46.215474,
            2313.5
          ],
          [
            10.892825,
            46.215403,
            2317
          ],
          [
            10.892811,
            46.215353,
            2317.75
          ],
          [
            10.892877,
            46.21525,
            2320.75
          ],
          [
            10.893003,
            46.21488,
            2328
          ],
          [
            10.893103,
            46.214651,
            2332.75
          ],
          [
            10.893114,
            46.214479,
            2335.25
          ],
          [
            10.893226,
            46.214331,
            2337
          ],
          [
            10.893234,
            46.21422,
            2338.75
          ],
          [
            10.893361,
            46.214017,
            2342.25
          ],
          [
            10.893426,
            46.213879,
            2344.25
          ],
          [
            10.893434,
            46.213697,
            2347.25
          ],
          [
            10.89358,
            46.213425,
            2353.75
          ],
          [
            10.893688,
            46.213102,
            2356
          ],
          [
            10.893733,
            46.212995,
            2357.75
          ],
          [
            10.893824,
            46.21287,
            2360
          ],
          [
            10.89384,
            46.212701,
            2362.5
          ],
          [
            10.893969,
            46.212588,
            2366
          ],
          [
            10.894202,
            46.212278,
            2371.75
          ],
          [
            10.894378,
            46.211934,
            2380.75
          ],
          [
            10.894479,
            46.211835,
            2384.25
          ],
          [
            10.894467,
            46.21159,
            2385.75
          ],
          [
            10.894445,
            46.21149,
            2387.25
          ],
          [
            10.894473,
            46.211417,
            2390
          ],
          [
            10.894465,
            46.211261,
            2391.25
          ],
          [
            10.894515,
            46.211113,
            2393.25
          ],
          [
            10.894658,
            46.210986,
            2397.5
          ],
          [
            10.894672,
            46.21089,
            2398.75
          ],
          [
            10.894753,
            46.210828,
            2400.75
          ],
          [
            10.894755,
            46.210765,
            2401.75
          ],
          [
            10.894779,
            46.210716,
            2402.75
          ],
          [
            10.89483,
            46.210643,
            2403.5
          ],
          [
            10.894854,
            46.210529,
            2404.25
          ],
          [
            10.894858,
            46.210408,
            2406
          ],
          [
            10.894928,
            46.210265,
            2407.25
          ],
          [
            10.894979,
            46.21007,
            2405.25
          ],
          [
            10.895051,
            46.210005,
            2406.5
          ],
          [
            10.895046,
            46.209967,
            2404.75
          ],
          [
            10.894989,
            46.209914,
            2400.75
          ],
          [
            10.894991,
            46.209858,
            2398.25
          ],
          [
            10.895049,
            46.209845,
            2399
          ],
          [
            10.895006,
            46.209801,
            2395.75
          ],
          [
            10.895057,
            46.209795,
            2397
          ],
          [
            10.895024,
            46.209752,
            2394
          ],
          [
            10.8951,
            46.209748,
            2396
          ],
          [
            10.895183,
            46.209714,
            2396.75
          ],
          [
            10.895234,
            46.209649,
            2394.25
          ],
          [
            10.895213,
            46.209623,
            2392
          ],
          [
            10.895089,
            46.209624,
            2388.75
          ],
          [
            10.894995,
            46.209601,
            2384.75
          ],
          [
            10.894979,
            46.209581,
            2383.5
          ],
          [
            10.895009,
            46.209556,
            2382.5
          ],
          [
            10.895102,
            46.209509,
            2382.25
          ],
          [
            10.89518,
            46.209426,
            2380
          ],
          [
            10.895283,
            46.209265,
            2377.25
          ],
          [
            10.895421,
            46.209018,
            2381
          ],
          [
            10.895495,
            46.208797,
            2377.5
          ],
          [
            10.895541,
            46.208747,
            2375.75
          ],
          [
            10.8956,
            46.208735,
            2375.5
          ],
          [
            10.895662,
            46.2087,
            2374.25
          ],
          [
            10.895528,
            46.208651,
            2371.5
          ],
          [
            10.895701,
            46.208602,
            2370.25
          ],
          [
            10.895576,
            46.208568,
            2369.25
          ],
          [
            10.895579,
            46.208512,
            2368.5
          ],
          [
            10.895565,
            46.208444,
            2367.5
          ],
          [
            10.895507,
            46.208362,
            2365.75
          ],
          [
            10.895266,
            46.208172,
            2365.25
          ],
          [
            10.895219,
            46.208063,
            2366.5
          ],
          [
            10.895177,
            46.207993,
            2366.75
          ],
          [
            10.895033,
            46.207951,
            2364.5
          ],
          [
            10.89488,
            46.207898,
            2362.25
          ],
          [
            10.894905,
            46.207846,
            2363.75
          ],
          [
            10.894912,
            46.207791,
            2364.75
          ],
          [
            10.894889,
            46.207756,
            2364.5
          ],
          [
            10.894831,
            46.207749,
            2363.25
          ],
          [
            10.894784,
            46.207718,
            2362.5
          ],
          [
            10.894789,
            46.207606,
            2363
          ],
          [
            10.894668,
            46.207527,
            2361
          ],
          [
            10.894645,
            46.207426,
            2361.75
          ],
          [
            10.894584,
            46.207362,
            2361.25
          ],
          [
            10.894575,
            46.207275,
            2361.75
          ],
          [
            10.894516,
            46.207201,
            2360.25
          ],
          [
            10.894474,
            46.207109,
            2359
          ],
          [
            10.894455,
            46.206975,
            2358.25
          ],
          [
            10.894338,
            46.20686,
            2356
          ],
          [
            10.894186,
            46.206817,
            2351.75
          ],
          [
            10.894101,
            46.206767,
            2349
          ],
          [
            10.894054,
            46.206731,
            2347.25
          ],
          [
            10.893988,
            46.206634,
            2345.25
          ],
          [
            10.893872,
            46.206565,
            2340.25
          ],
          [
            10.893732,
            46.20651,
            2336
          ],
          [
            10.89362,
            46.206502,
            2332.25
          ],
          [
            10.89355,
            46.206487,
            2330.5
          ],
          [
            10.893476,
            46.206401,
            2330.25
          ],
          [
            10.893406,
            46.20639,
            2328.75
          ],
          [
            10.893301,
            46.20639,
            2325.75
          ],
          [
            10.893227,
            46.206355,
            2323.75
          ],
          [
            10.893138,
            46.206297,
            2322.5
          ],
          [
            10.892952,
            46.206219,
            2318.5
          ],
          [
            10.8928,
            46.206106,
            2316
          ],
          [
            10.892676,
            46.20597,
            2313.25
          ],
          [
            10.892645,
            46.205873,
            2313
          ],
          [
            10.89261,
            46.205714,
            2312.75
          ],
          [
            10.892455,
            46.205419,
            2309
          ],
          [
            10.892288,
            46.205264,
            2307.25
          ],
          [
            10.892125,
            46.205178,
            2305.75
          ],
          [
            10.891907,
            46.205124,
            2302.25
          ],
          [
            10.891682,
            46.205136,
            2295.5
          ],
          [
            10.891546,
            46.205128,
            2290.75
          ],
          [
            10.891476,
            46.205062,
            2291.5
          ],
          [
            10.891484,
            46.204918,
            2293.5
          ],
          [
            10.891554,
            46.20472,
            2292.5
          ],
          [
            10.891562,
            46.20453,
            2292.5
          ],
          [
            10.891469,
            46.204258,
            2289
          ],
          [
            10.891453,
            46.204087,
            2287.25
          ],
          [
            10.891306,
            46.203854,
            2278.75
          ],
          [
            10.891186,
            46.20373,
            2273.25
          ],
          [
            10.891247,
            46.203606,
            2274.75
          ],
          [
            10.891259,
            46.203521,
            2275.5
          ],
          [
            10.891155,
            46.20345,
            2271.75
          ],
          [
            10.89117,
            46.203346,
            2272.75
          ],
          [
            10.891103,
            46.203273,
            2272
          ],
          [
            10.891026,
            46.203245,
            2270.25
          ],
          [
            10.890979,
            46.203113,
            2271
          ],
          [
            10.890909,
            46.203066,
            2269.5
          ],
          [
            10.89077,
            46.203012,
            2267.25
          ],
          [
            10.890653,
            46.20293,
            2268.5
          ],
          [
            10.890575,
            46.202943,
            2266.75
          ],
          [
            10.890362,
            46.20287,
            2266
          ],
          [
            10.89011,
            46.202822,
            2264.5
          ],
          [
            10.889923,
            46.202775,
            2264.25
          ],
          [
            10.889818,
            46.202725,
            2264.25
          ],
          [
            10.889667,
            46.202558,
            2265
          ],
          [
            10.889566,
            46.202395,
            2267.75
          ],
          [
            10.889504,
            46.202356,
            2268.5
          ],
          [
            10.88945,
            46.202356,
            2268.5
          ],
          [
            10.889324,
            46.202487,
            2265.75
          ],
          [
            10.889228,
            46.202472,
            2266
          ],
          [
            10.889117,
            46.202476,
            2265.5
          ],
          [
            10.888966,
            46.202512,
            2263.75
          ],
          [
            10.888759,
            46.202528,
            2262.5
          ],
          [
            10.888656,
            46.202575,
            2260.25
          ],
          [
            10.888551,
            46.20257,
            2259.5
          ],
          [
            10.888413,
            46.20259,
            2256.5
          ],
          [
            10.888285,
            46.202567,
            2255.5
          ],
          [
            10.888157,
            46.202599,
            2253.5
          ],
          [
            10.888047,
            46.20256,
            2253.25
          ],
          [
            10.887943,
            46.202581,
            2250.25
          ],
          [
            10.887881,
            46.202553,
            2249.25
          ],
          [
            10.887823,
            46.202512,
            2248.75
          ],
          [
            10.887665,
            46.202475,
            2244.25
          ],
          [
            10.887687,
            46.202398,
            2244.75
          ],
          [
            10.887629,
            46.202368,
            2243
          ],
          [
            10.887615,
            46.202323,
            2242.75
          ],
          [
            10.88755,
            46.202261,
            2241.5
          ],
          [
            10.88734,
            46.202298,
            2237.75
          ],
          [
            10.887273,
            46.202246,
            2237.75
          ],
          [
            10.887178,
            46.202253,
            2236
          ],
          [
            10.887054,
            46.20223,
            2234
          ],
          [
            10.886807,
            46.202245,
            2228.75
          ],
          [
            10.886698,
            46.202266,
            2226.5
          ],
          [
            10.886567,
            46.202271,
            2223
          ],
          [
            10.88646,
            46.202336,
            2220.25
          ],
          [
            10.886344,
            46.202345,
            2217.5
          ],
          [
            10.886276,
            46.202404,
            2216.5
          ],
          [
            10.88625,
            46.202484,
            2217
          ],
          [
            10.886037,
            46.202647,
            2211.25
          ],
          [
            10.88599,
            46.202647,
            2210
          ],
          [
            10.88594,
            46.202581,
            2209
          ],
          [
            10.885939,
            46.202454,
            2208.25
          ],
          [
            10.885889,
            46.202258,
            2203
          ],
          [
            10.885995,
            46.202169,
            2204
          ],
          [
            10.886079,
            46.202014,
            2204
          ],
          [
            10.886034,
            46.201981,
            2202.25
          ],
          [
            10.88604,
            46.201915,
            2200.75
          ],
          [
            10.886321,
            46.201661,
            2203.25
          ],
          [
            10.886356,
            46.201549,
            2204.75
          ],
          [
            10.88626,
            46.201476,
            2201.75
          ],
          [
            10.886217,
            46.201392,
            2201
          ],
          [
            10.886272,
            46.201298,
            2201
          ],
          [
            10.886285,
            46.201249,
            2200.5
          ],
          [
            10.886341,
            46.201141,
            2199.5
          ],
          [
            10.886297,
            46.201082,
            2198.5
          ],
          [
            10.88616,
            46.201033,
            2196.5
          ],
          [
            10.886092,
            46.201068,
            2195
          ],
          [
            10.88596,
            46.20112,
            2192.25
          ],
          [
            10.885899,
            46.201107,
            2191.25
          ],
          [
            10.885815,
            46.201071,
            2190.25
          ],
          [
            10.885733,
            46.201022,
            2189.5
          ],
          [
            10.885667,
            46.201015,
            2188
          ],
          [
            10.885582,
            46.20092,
            2188.25
          ],
          [
            10.88547,
            46.200876,
            2185.5
          ],
          [
            10.885478,
            46.200783,
            2186.75
          ],
          [
            10.885474,
            46.200707,
            2186.75
          ],
          [
            10.885489,
            46.200615,
            2187.25
          ],
          [
            10.885417,
            46.20054,
            2185.75
          ],
          [
            10.885324,
            46.200391,
            2188
          ],
          [
            10.885295,
            46.200364,
            2187.75
          ],
          [
            10.88519,
            46.200317,
            2189
          ],
          [
            10.885054,
            46.200294,
            2190.75
          ],
          [
            10.884888,
            46.200317,
            2188.75
          ],
          [
            10.884822,
            46.200306,
            2188.5
          ],
          [
            10.884759,
            46.200248,
            2191
          ],
          [
            10.884639,
            46.20022,
            2191
          ],
          [
            10.884597,
            46.200176,
            2192.5
          ],
          [
            10.884422,
            46.200131,
            2191.5
          ],
          [
            10.884321,
            46.200039,
            2193.75
          ],
          [
            10.884194,
            46.200041,
            2190.5
          ],
          [
            10.884076,
            46.200007,
            2190.5
          ],
          [
            10.883982,
            46.199959,
            2196
          ],
          [
            10.883898,
            46.199953,
            2195.75
          ],
          [
            10.883782,
            46.199926,
            2199.75
          ],
          [
            10.883653,
            46.199921,
            2199.5
          ],
          [
            10.883529,
            46.199925,
            2197
          ],
          [
            10.883366,
            46.199886,
            2198.75
          ],
          [
            10.883032,
            46.199832,
            2195.75
          ],
          [
            10.882846,
            46.199783,
            2198
          ],
          [
            10.882818,
            46.199695,
            2202.5
          ],
          [
            10.882775,
            46.199619,
            2201.25
          ],
          [
            10.882856,
            46.199497,
            2205.25
          ],
          [
            10.882801,
            46.199317,
            2203.5
          ],
          [
            10.88276,
            46.199261,
            2202
          ],
          [
            10.88279,
            46.199232,
            2203.75
          ],
          [
            10.882775,
            46.199052,
            2201.25
          ],
          [
            10.882857,
            46.198858,
            2204
          ],
          [
            10.882845,
            46.198792,
            2203.5
          ],
          [
            10.88274,
            46.198675,
            2198.5
          ],
          [
            10.882639,
            46.198454,
            2199.75
          ],
          [
            10.88255,
            46.198357,
            2199.75
          ],
          [
            10.882496,
            46.198333,
            2198.75
          ],
          [
            10.882418,
            46.198337,
            2196
          ],
          [
            10.882372,
            46.198333,
            2194.75
          ],
          [
            10.882337,
            46.198295,
            2195.5
          ],
          [
            10.882312,
            46.198218,
            2198.25
          ],
          [
            10.882282,
            46.198163,
            2199.25
          ],
          [
            10.882188,
            46.198006,
            2202.25
          ],
          [
            10.882055,
            46.19781,
            2206.75
          ],
          [
            10.881928,
            46.197803,
            2201
          ],
          [
            10.881855,
            46.197634,
            2209
          ],
          [
            10.881595,
            46.197495,
            2206
          ],
          [
            10.881564,
            46.197313,
            2210
          ],
          [
            10.88149,
            46.19725,
            2207.5
          ],
          [
            10.881536,
            46.197122,
            2211.25
          ],
          [
            10.881476,
            46.197079,
            2208
          ],
          [
            10.881521,
            46.197017,
            2210.75
          ],
          [
            10.881509,
            46.196825,
            2211.5
          ],
          [
            10.881473,
            46.19678,
            2210
          ],
          [
            10.881494,
            46.196598,
            2212.75
          ],
          [
            10.881436,
            46.196606,
            2207.75
          ],
          [
            10.88142,
            46.196563,
            2205.75
          ],
          [
            10.88148,
            46.196472,
            2212.5
          ],
          [
            10.88141,
            46.196361,
            2201
          ],
          [
            10.881421,
            46.19625,
            2204
          ],
          [
            10.881385,
            46.195996,
            2204
          ],
          [
            10.881296,
            46.195845,
            2205.5
          ],
          [
            10.881284,
            46.195755,
            2204.5
          ],
          [
            10.881312,
            46.195682,
            2204.75
          ],
          [
            10.88137,
            46.1956,
            2205.75
          ],
          [
            10.881437,
            46.195375,
            2215.5
          ],
          [
            10.881492,
            46.195311,
            2225
          ],
          [
            10.881423,
            46.195266,
            2213.5
          ],
          [
            10.881479,
            46.195195,
            2221.25
          ],
          [
            10.881374,
            46.194851,
            2217.25
          ],
          [
            10.881484,
            46.194779,
            2223.5
          ],
          [
            10.881466,
            46.194632,
            2224.75
          ],
          [
            10.881565,
            46.194535,
            2229.5
          ],
          [
            10.881631,
            46.194232,
            2232.5
          ],
          [
            10.88175,
            46.194087,
            2236
          ],
          [
            10.881832,
            46.194043,
            2238.25
          ],
          [
            10.881931,
            46.19388,
            2239.5
          ],
          [
            10.881951,
            46.193823,
            2240.75
          ],
          [
            10.882026,
            46.193709,
            2244.75
          ],
          [
            10.882041,
            46.193634,
            2246.25
          ],
          [
            10.881991,
            46.193527,
            2245.5
          ],
          [
            10.881986,
            46.193469,
            2246
          ],
          [
            10.882077,
            46.193387,
            2249
          ],
          [
            10.882115,
            46.193317,
            2250
          ],
          [
            10.882032,
            46.193127,
            2250.5
          ],
          [
            10.881918,
            46.192957,
            2251.75
          ],
          [
            10.881893,
            46.192873,
            2253.25
          ],
          [
            10.881614,
            46.192721,
            2251
          ],
          [
            10.881774,
            46.192657,
            2253.25
          ],
          [
            10.881765,
            46.19255,
            2253
          ],
          [
            10.881688,
            46.192424,
            2253.25
          ],
          [
            10.881709,
            46.192369,
            2254.75
          ],
          [
            10.881613,
            46.192277,
            2255.75
          ],
          [
            10.881423,
            46.192184,
            2254.25
          ],
          [
            10.881579,
            46.192177,
            2256.5
          ],
          [
            10.881912,
            46.192079,
            2262.75
          ],
          [
            10.881958,
            46.192059,
            2264
          ],
          [
            10.882027,
            46.1921,
            2264.25
          ],
          [
            10.882152,
            46.192094,
            2267.5
          ]
        ]
      }
    },
    {
      "type": "Feature",
      "properties": {
        "kind": "waypoint",
        "name": "Madonna di Campiglio",
        "show_label": true
      },
      "geometry": {
        "type": "Point",
        "coordinates": [
          10.8270157,
          46.2269942,
          1496
        ]
      }
    },
    {
      "type": "Feature",
      "properties": {
        "kind": "waypoint",
        "name": "Monte Spinale",
        "show_label": true
      },
      "geometry": {
        "type": "Point",
        "coordinates": [
          10.847831,
          46.2227384,
          2101
        ]
      }
    },
    {
      "type": "Feature",
      "properties": {
        "kind": "waypoint",
        "name": "Lago Spinale",
        "show_label": false
      },
      "geometry": {
        "type": "Point",
        "coordinates": [
          10.865759,
          46.2202104,
          2051
        ]
      }
    },
    {
      "type": "Feature",
      "properties": {
        "kind": "waypoint",
        "name": "Rifugio Graffer",
        "show_label": true
      },
      "geometry": {
        "type": "Point",
        "coordinates": [
          10.8894126,
          46.2196548,
          2261
        ]
      }
    },
    {
      "type": "Feature",
      "properties": {
        "kind": "waypoint",
        "name": "Rifugio Tuckett",
        "show_label": true
      },
      "geometry": {
        "type": "Point",
        "coordinates": [
          10.8821454,
          46.1920149,
          2268
        ]
      }
    }
  ]
}
