{
  "type": "FeatureCollection",
  "features": [
    {
      "type": "Feature",
      "properties": {
        "kind": "route",
        "name": "День 2 · Tuckett → Orsi → Pedrotti → Spellini → Bocchette Centrali → Pedrotti",
        "distance_km": 11.721,
        "ascent_m": 1470,
        "source": "BRouter / OpenStreetMap"
      },
      "geometry": {
        "type": "LineString",
        "coordinates": [
          [
            10.882152,
            46.192094,
            2266
          ],
          [
            10.88224,
            46.19209,
            2267.5
          ],
          [
            10.882297,
            46.192071,
            2268.5
          ],
          [
            10.882321,
            46.192025,
            2270
          ],
          [
            10.882398,
            46.192029,
            2270.75
          ],
          [
            10.882471,
            46.192062,
            2270.5
          ],
          [
            10.882571,
            46.192076,
            2270.75
          ],
          [
            10.882651,
            46.191983,
            2272.5
          ],
          [
            10.882681,
            46.191977,
            2272.75
          ],
          [
            10.883122,
            46.191966,
            2278.25
          ],
          [
            10.883281,
            46.191878,
            2277.5
          ],
          [
            10.883653,
            46.191868,
            2282.5
          ],
          [
            10.883867,
            46.191838,
            2285
          ],
          [
            10.884062,
            46.191774,
            2284.75
          ],
          [
            10.884267,
            46.191732,
            2286.25
          ],
          [
            10.884523,
            46.191761,
            2292.5
          ],
          [
            10.884991,
            46.191746,
            2299.75
          ],
          [
            10.8851,
            46.191693,
            2299.25
          ],
          [
            10.885303,
            46.191679,
            2305.25
          ],
          [
            10.885793,
            46.191534,
            2308
          ],
          [
            10.886266,
            46.191522,
            2317.75
          ],
          [
            10.886598,
            46.191413,
            2316
          ],
          [
            10.887015,
            46.191374,
            2317.25
          ],
          [
            10.887281,
            46.191395,
            2321.75
          ],
          [
            10.887845,
            46.191255,
            2316.75
          ],
          [
            10.888068,
            46.191309,
            2321.5
          ],
          [
            10.888307,
            46.191288,
            2321.75
          ],
          [
            10.888513,
            46.191233,
            2325
          ],
          [
            10.888598,
            46.191181,
            2327.25
          ],
          [
            10.888704,
            46.191072,
            2327.5
          ],
          [
            10.8888,
            46.191049,
            2328.5
          ],
          [
            10.889054,
            46.190905,
            2329.5
          ],
          [
            10.889512,
            46.190694,
            2336.75
          ],
          [
            10.889557,
            46.190643,
            2336.75
          ],
          [
            10.889649,
            46.190537,
            2336.75
          ],
          [
            10.890308,
            46.190109,
            2350.25
          ],
          [
            10.890785,
            46.189883,
            2359.25
          ],
          [
            10.891104,
            46.189868,
            2367.75
          ],
          [
            10.891222,
            46.189843,
            2371.25
          ],
          [
            10.89156,
            46.18964,
            2376.25
          ],
          [
            10.891822,
            46.189529,
            2381.75
          ],
          [
            10.892105,
            46.189443,
            2388
          ],
          [
            10.892122,
            46.189405,
            2387.5
          ],
          [
            10.892306,
            46.18938,
            2393.25
          ],
          [
            10.892388,
            46.189295,
            2393.75
          ],
          [
            10.892559,
            46.189167,
            2395.75
          ],
          [
            10.8928,
            46.189027,
            2399.25
          ],
          [
            10.892892,
            46.188957,
            2399.25
          ],
          [
            10.893028,
            46.188881,
            2398.5
          ],
          [
            10.89329,
            46.188717,
            2405
          ],
          [
            10.893446,
            46.18861,
            2404.75
          ],
          [
            10.893852,
            46.188393,
            2411.5
          ],
          [
            10.894161,
            46.188271,
            2414
          ],
          [
            10.89432,
            46.188199,
            2415.75
          ],
          [
            10.894686,
            46.188061,
            2421
          ],
          [
            10.89507,
            46.187948,
            2427.75
          ],
          [
            10.89551,
            46.187738,
            2434.5
          ],
          [
            10.895755,
            46.187649,
            2448.5
          ],
          [
            10.896143,
            46.187491,
            2452.5
          ],
          [
            10.89647,
            46.18732,
            2464.5
          ],
          [
            10.896683,
            46.187186,
            2469.25
          ],
          [
            10.896862,
            46.18703,
            2477.75
          ],
          [
            10.89697,
            46.187058,
            2484
          ],
          [
            10.897161,
            46.186983,
            2488.75
          ],
          [
            10.897275,
            46.187047,
            2499.25
          ],
          [
            10.897483,
            46.187034,
            2511.5
          ],
          [
            10.897642,
            46.186983,
            2519
          ],
          [
            10.897856,
            46.186827,
            2523.75
          ],
          [
            10.898086,
            46.186603,
            2530.75
          ],
          [
            10.898348,
            46.186547,
            2541.5
          ],
          [
            10.898788,
            46.186384,
            2556.25
          ],
          [
            10.899097,
            46.186328,
            2576.5
          ],
          [
            10.899632,
            46.186173,
            2595.75
          ],
          [
            10.900098,
            46.18606,
            2613
          ],
          [
            10.900236,
            46.18602,
            2620
          ],
          [
            10.900652,
            46.18584,
            2635.25
          ],
          [
            10.900728,
            46.185762,
            2638.25
          ],
          [
            10.900744,
            46.185706,
            2638.25
          ],
          [
            10.900736,
            46.185596,
            2636.5
          ],
          [
            10.900751,
            46.185579,
            2636.75
          ],
          [
            10.90087,
            46.185633,
            2642
          ],
          [
            10.900893,
            46.185593,
            2641
          ],
          [
            10.900894,
            46.185549,
            2639.5
          ],
          [
            10.90092,
            46.185533,
            2641
          ],
          [
            10.900948,
            46.185536,
            2641.5
          ],
          [
            10.901008,
            46.185559,
            2642
          ],
          [
            10.901203,
            46.185585,
            2645.75
          ],
          [
            10.901282,
            46.185583,
            2643.5
          ],
          [
            10.901345,
            46.185558,
            2633.75
          ],
          [
            10.901737,
            46.18552,
            2613.75
          ],
          [
            10.901895,
            46.185546,
            2605
          ],
          [
            10.902252,
            46.185546,
            2588
          ],
          [
            10.902414,
            46.18551,
            2581
          ],
          [
            10.902576,
            46.185474,
            2573.75
          ],
          [
            10.902683,
            46.185489,
            2572.75
          ],
          [
            10.902788,
            46.185517,
            2573
          ],
          [
            10.90292,
            46.185494,
            2565.25
          ],
          [
            10.903016,
            46.18552,
            2563
          ],
          [
            10.903062,
            46.185442,
            2555.25
          ],
          [
            10.903241,
            46.185465,
            2545.25
          ],
          [
            10.903539,
            46.185559,
            2537.25
          ],
          [
            10.90374,
            46.185537,
            2532.75
          ],
          [
            10.903775,
            46.185485,
            2529
          ],
          [
            10.903926,
            46.185465,
            2525.75
          ],
          [
            10.904151,
            46.185387,
            2517.5
          ],
          [
            10.90429,
            46.185316,
            2510.5
          ],
          [
            10.904325,
            46.185257,
            2507.25
          ],
          [
            10.904381,
            46.18527,
            2506.5
          ],
          [
            10.904389,
            46.185235,
            2505.5
          ],
          [
            10.904456,
            46.185218,
            2503.75
          ],
          [
            10.904443,
            46.185155,
            2502
          ],
          [
            10.904569,
            46.18509,
            2497
          ],
          [
            10.904585,
            46.184949,
            2493.5
          ],
          [
            10.904628,
            46.184861,
            2490.75
          ],
          [
            10.904658,
            46.184713,
            2487
          ],
          [
            10.90482,
            46.184526,
            2477.25
          ],
          [
            10.905119,
            46.184092,
            2465
          ],
          [
            10.90524,
            46.18387,
            2467.5
          ],
          [
            10.905358,
            46.183847,
            2462.25
          ],
          [
            10.905417,
            46.183749,
            2466.25
          ],
          [
            10.905454,
            46.183662,
            2469.75
          ],
          [
            10.905634,
            46.183489,
            2469.75
          ],
          [
            10.905621,
            46.183422,
            2472.5
          ],
          [
            10.90572,
            46.183357,
            2470.5
          ],
          [
            10.905867,
            46.182947,
            2472.25
          ],
          [
            10.905862,
            46.182846,
            2473.25
          ],
          [
            10.905897,
            46.182755,
            2472.25
          ],
          [
            10.905902,
            46.182694,
            2471.75
          ],
          [
            10.905934,
            46.182642,
            2470.5
          ],
          [
            10.905921,
            46.182559,
            2470.5
          ],
          [
            10.905964,
            46.182527,
            2468.75
          ],
          [
            10.905958,
            46.182473,
            2469
          ],
          [
            10.905999,
            46.182393,
            2467.25
          ],
          [
            10.906007,
            46.182332,
            2466.75
          ],
          [
            10.906068,
            46.182265,
            2464
          ],
          [
            10.906068,
            46.181903,
            2462.5
          ],
          [
            10.906093,
            46.181702,
            2460
          ],
          [
            10.906074,
            46.181554,
            2459.25
          ],
          [
            10.906095,
            46.18132,
            2455.5
          ],
          [
            10.906039,
            46.181221,
            2456.25
          ],
          [
            10.905991,
            46.181036,
            2453.5
          ],
          [
            10.905902,
            46.180889,
            2451.25
          ],
          [
            10.905891,
            46.180831,
            2449.25
          ],
          [
            10.905862,
            46.180759,
            2447.5
          ],
          [
            10.905806,
            46.180674,
            2446.25
          ],
          [
            10.905749,
            46.180631,
            2447.75
          ],
          [
            10.905763,
            46.180484,
            2443.75
          ],
          [
            10.905792,
            46.180371,
            2441
          ],
          [
            10.905712,
            46.180276,
            2444
          ],
          [
            10.905645,
            46.180115,
            2442
          ],
          [
            10.905543,
            46.180005,
            2442.5
          ],
          [
            10.905396,
            46.179954,
            2444.75
          ],
          [
            10.905344,
            46.179847,
            2442.75
          ],
          [
            10.905223,
            46.179642,
            2441.5
          ],
          [
            10.905194,
            46.179499,
            2440.75
          ],
          [
            10.90514,
            46.179388,
            2442.25
          ],
          [
            10.905187,
            46.17927,
            2440.25
          ],
          [
            10.905156,
            46.179187,
            2441
          ],
          [
            10.90516,
            46.179008,
            2443.25
          ],
          [
            10.905208,
            46.178707,
            2442.25
          ],
          [
            10.905205,
            46.178532,
            2444
          ],
          [
            10.905401,
            46.1783,
            2444
          ],
          [
            10.905655,
            46.177944,
            2445.5
          ],
          [
            10.905666,
            46.17786,
            2447
          ],
          [
            10.905873,
            46.17745,
            2450.75
          ],
          [
            10.905972,
            46.177401,
            2450.5
          ],
          [
            10.906153,
            46.177246,
            2454
          ],
          [
            10.906329,
            46.177167,
            2452.5
          ],
          [
            10.906315,
            46.177138,
            2454.5
          ],
          [
            10.906444,
            46.177102,
            2451.5
          ],
          [
            10.906516,
            46.176956,
            2455.5
          ],
          [
            10.906637,
            46.176816,
            2458.75
          ],
          [
            10.906849,
            46.176705,
            2461.75
          ],
          [
            10.906951,
            46.176725,
            2458.5
          ],
          [
            10.907198,
            46.176632,
            2462.5
          ],
          [
            10.907495,
            46.176463,
            2471
          ],
          [
            10.907788,
            46.176352,
            2482.25
          ],
          [
            10.907817,
            46.176305,
            2485.75
          ],
          [
            10.907828,
            46.17627,
            2488.5
          ],
          [
            10.907812,
            46.176218,
            2493.75
          ],
          [
            10.907764,
            46.176185,
            2499.5
          ],
          [
            10.907723,
            46.176116,
            2509.75
          ],
          [
            10.907718,
            46.176088,
            2513.75
          ],
          [
            10.907852,
            46.176051,
            2508.5
          ],
          [
            10.907943,
            46.175943,
            2516
          ],
          [
            10.90808,
            46.175895,
            2513.5
          ],
          [
            10.908187,
            46.175878,
            2513.5
          ],
          [
            10.908281,
            46.175875,
            2512
          ],
          [
            10.908375,
            46.175849,
            2514.25
          ],
          [
            10.908456,
            46.175741,
            2523
          ],
          [
            10.908566,
            46.17575,
            2522
          ],
          [
            10.908636,
            46.175807,
            2519.25
          ],
          [
            10.908711,
            46.175881,
            2520.25
          ],
          [
            10.908741,
            46.176028,
            2516.25
          ],
          [
            10.908769,
            46.176084,
            2515
          ],
          [
            10.90882,
            46.176111,
            2515.25
          ],
          [
            10.908887,
            46.176103,
            2517.25
          ],
          [
            10.909046,
            46.175965,
            2516
          ],
          [
            10.909191,
            46.175895,
            2514.25
          ],
          [
            10.909263,
            46.175798,
            2516
          ],
          [
            10.909322,
            46.175607,
            2518.5
          ],
          [
            10.9093,
            46.175544,
            2522
          ],
          [
            10.90941,
            46.175446,
            2516.75
          ],
          [
            10.909445,
            46.175284,
            2516.75
          ],
          [
            10.909402,
            46.174989,
            2520.25
          ],
          [
            10.909443,
            46.174879,
            2517.5
          ],
          [
            10.909454,
            46.174754,
            2517.25
          ],
          [
            10.90944,
            46.17468,
            2517.25
          ],
          [
            10.909322,
            46.174534,
            2522.75
          ],
          [
            10.90926,
            46.174268,
            2524.5
          ],
          [
            10.909283,
            46.174008,
            2519.75
          ],
          [
            10.909201,
            46.173829,
            2522.75
          ],
          [
            10.909197,
            46.173706,
            2523
          ],
          [
            10.909284,
            46.17351,
            2517.25
          ],
          [
            10.909228,
            46.17343,
            2520.25
          ],
          [
            10.909258,
            46.173369,
            2518
          ],
          [
            10.909223,
            46.173293,
            2521.5
          ],
          [
            10.909262,
            46.173195,
            2521.25
          ],
          [
            10.909268,
            46.172986,
            2532.25
          ],
          [
            10.909376,
            46.172823,
            2528.75
          ],
          [
            10.909483,
            46.172771,
            2516.25
          ],
          [
            10.909593,
            46.172782,
            2505
          ],
          [
            10.90974,
            46.172777,
            2498.25
          ],
          [
            10.910019,
            46.172843,
            2522.5
          ],
          [
            10.910317,
            46.172838,
            2498.25
          ],
          [
            10.910446,
            46.172788,
            2498
          ],
          [
            10.910491,
            46.172652,
            2508.75
          ],
          [
            10.910542,
            46.172561,
            2512.75
          ],
          [
            10.910585,
            46.172411,
            2517.25
          ],
          [
            10.910588,
            46.172247,
            2518.75
          ],
          [
            10.91068,
            46.172028,
            2519.5
          ],
          [
            10.910741,
            46.171855,
            2515.25
          ],
          [
            10.910727,
            46.171768,
            2515.25
          ],
          [
            10.910756,
            46.17169,
            2513.25
          ],
          [
            10.910596,
            46.171683,
            2517
          ],
          [
            10.910498,
            46.17166,
            2515.75
          ],
          [
            10.910373,
            46.171653,
            2513.75
          ],
          [
            10.909929,
            46.171704,
            2516
          ],
          [
            10.909581,
            46.171685,
            2509
          ],
          [
            10.909426,
            46.17171,
            2511
          ],
          [
            10.909257,
            46.171672,
            2508
          ],
          [
            10.908832,
            46.171487,
            2500.25
          ],
          [
            10.908665,
            46.171425,
            2499.25
          ],
          [
            10.908584,
            46.171333,
            2496
          ],
          [
            10.908477,
            46.170944,
            2482.75
          ],
          [
            10.908386,
            46.170793,
            2480.5
          ],
          [
            10.9084,
            46.170663,
            2476.75
          ],
          [
            10.90844,
            46.170491,
            2470.75
          ],
          [
            10.908651,
            46.170368,
            2466.25
          ],
          [
            10.908721,
            46.170296,
            2464.25
          ],
          [
            10.908666,
            46.170202,
            2462.75
          ],
          [
            10.908738,
            46.170041,
            2456.75
          ],
          [
            10.908858,
            46.170035,
            2455.75
          ],
          [
            10.908893,
            46.169997,
            2454.75
          ],
          [
            10.908889,
            46.169922,
            2451.75
          ],
          [
            10.908713,
            46.169832,
            2448.5
          ],
          [
            10.908156,
            46.169499,
            2435.75
          ],
          [
            10.908034,
            46.169434,
            2434.5
          ],
          [
            10.907944,
            46.169398,
            2434
          ],
          [
            10.907883,
            46.169298,
            2430.75
          ],
          [
            10.907781,
            46.169228,
            2429
          ],
          [
            10.907634,
            46.16914,
            2429
          ],
          [
            10.907446,
            46.169068,
            2428
          ],
          [
            10.90729,
            46.169065,
            2428.75
          ],
          [
            10.907068,
            46.168942,
            2427.75
          ],
          [
            10.907007,
            46.168868,
            2427.25
          ],
          [
            10.906984,
            46.168754,
            2424.75
          ],
          [
            10.90694,
            46.168707,
            2424.75
          ],
          [
            10.90694,
            46.168559,
            2421.75
          ],
          [
            10.906969,
            46.167711,
            2416
          ],
          [
            10.907022,
            46.167638,
            2414.25
          ],
          [
            10.906979,
            46.167533,
            2415
          ],
          [
            10.906941,
            46.167394,
            2413.75
          ],
          [
            10.9069,
            46.167292,
            2412.5
          ],
          [
            10.9068,
            46.16719,
            2413
          ],
          [
            10.906772,
            46.167112,
            2412.75
          ],
          [
            10.906771,
            46.167053,
            2412
          ],
          [
            10.906797,
            46.166982,
            2409.75
          ],
          [
            10.906871,
            46.166881,
            2407.5
          ],
          [
            10.906951,
            46.166797,
            2405.75
          ],
          [
            10.906931,
            46.166678,
            2409.25
          ],
          [
            10.907006,
            46.166526,
            2407.5
          ],
          [
            10.907026,
            46.166429,
            2407.5
          ],
          [
            10.907023,
            46.166208,
            2405.75
          ],
          [
            10.906999,
            46.165943,
            2403.75
          ],
          [
            10.906957,
            46.165766,
            2403.75
          ],
          [
            10.906995,
            46.165657,
            2401.5
          ],
          [
            10.907224,
            46.165409,
            2393.5
          ],
          [
            10.907354,
            46.165155,
            2394.75
          ],
          [
            10.907496,
            46.164996,
            2393.75
          ],
          [
            10.907518,
            46.164908,
            2391.75
          ],
          [
            10.907494,
            46.164783,
            2390
          ],
          [
            10.907512,
            46.164723,
            2388.75
          ],
          [
            10.907573,
            46.164626,
            2386.25
          ],
          [
            10.907549,
            46.164529,
            2384.5
          ],
          [
            10.907483,
            46.164437,
            2383.75
          ],
          [
            10.907345,
            46.164335,
            2382.75
          ],
          [
            10.907234,
            46.164289,
            2382.5
          ],
          [
            10.907096,
            46.164212,
            2380.5
          ],
          [
            10.906968,
            46.164202,
            2379.75
          ],
          [
            10.906857,
            46.164167,
            2378.5
          ],
          [
            10.906791,
            46.164115,
            2377.25
          ],
          [
            10.906695,
            46.164014,
            2375
          ],
          [
            10.906545,
            46.163922,
            2373.5
          ],
          [
            10.906359,
            46.163846,
            2371.75
          ],
          [
            10.906302,
            46.163841,
            2372.5
          ],
          [
            10.906165,
            46.163786,
            2371.25
          ],
          [
            10.906046,
            46.163765,
            2374.5
          ],
          [
            10.905918,
            46.163805,
            2387.5
          ],
          [
            10.905681,
            46.163727,
            2396.25
          ],
          [
            10.905566,
            46.163705,
            2400.5
          ],
          [
            10.905478,
            46.163644,
            2384.25
          ],
          [
            10.905434,
            46.163594,
            2375
          ],
          [
            10.905297,
            46.163513,
            2375
          ],
          [
            10.905202,
            46.163432,
            2374
          ],
          [
            10.905144,
            46.163332,
            2371.75
          ],
          [
            10.905162,
            46.163281,
            2371.25
          ],
          [
            10.905217,
            46.163224,
            2369.25
          ],
          [
            10.90527,
            46.163099,
            2368
          ],
          [
            10.905211,
            46.163028,
            2369.25
          ],
          [
            10.905111,
            46.162962,
            2369.75
          ],
          [
            10.905038,
            46.162929,
            2371.25
          ],
          [
            10.904993,
            46.16285,
            2368.75
          ],
          [
            10.904967,
            46.162762,
            2365.5
          ],
          [
            10.904967,
            46.162705,
            2365
          ],
          [
            10.904813,
            46.162394,
            2366.5
          ],
          [
            10.904725,
            46.162311,
            2367
          ],
          [
            10.904619,
            46.162251,
            2368.75
          ],
          [
            10.904557,
            46.162167,
            2368
          ],
          [
            10.904533,
            46.162115,
            2367.25
          ],
          [
            10.904383,
            46.162043,
            2369
          ],
          [
            10.904387,
            46.162004,
            2367.5
          ],
          [
            10.904408,
            46.16198,
            2366.5
          ],
          [
            10.904474,
            46.16193,
            2363.5
          ],
          [
            10.904541,
            46.161892,
            2360.75
          ],
          [
            10.904591,
            46.161843,
            2358.5
          ],
          [
            10.904616,
            46.161838,
            2357.5
          ],
          [
            10.904619,
            46.161795,
            2357.25
          ],
          [
            10.904525,
            46.161743,
            2361.5
          ],
          [
            10.904544,
            46.161676,
            2360.5
          ],
          [
            10.904647,
            46.16157,
            2356.5
          ],
          [
            10.904652,
            46.161534,
            2356.5
          ],
          [
            10.904577,
            46.161454,
            2357.75
          ],
          [
            10.904522,
            46.161425,
            2358
          ],
          [
            10.904431,
            46.161363,
            2358
          ],
          [
            10.904393,
            46.16128,
            2357.75
          ],
          [
            10.904473,
            46.161011,
            2355
          ],
          [
            10.904471,
            46.160898,
            2354.5
          ],
          [
            10.904456,
            46.160851,
            2354.5
          ],
          [
            10.904397,
            46.160775,
            2353.25
          ],
          [
            10.904241,
            46.160631,
            2351.25
          ],
          [
            10.904196,
            46.160487,
            2351.25
          ],
          [
            10.904199,
            46.16042,
            2352
          ],
          [
            10.904385,
            46.160163,
            2354
          ],
          [
            10.904451,
            46.160114,
            2355
          ],
          [
            10.904726,
            46.160049,
            2357.25
          ],
          [
            10.904757,
            46.159989,
            2359.25
          ],
          [
            10.90473,
            46.159947,
            2362.75
          ],
          [
            10.904674,
            46.159896,
            2365
          ],
          [
            10.904648,
            46.159818,
            2367.75
          ],
          [
            10.904702,
            46.159758,
            2369
          ],
          [
            10.904773,
            46.159708,
            2368.25
          ],
          [
            10.904773,
            46.15961,
            2370.25
          ],
          [
            10.904792,
            46.159523,
            2371.25
          ],
          [
            10.904796,
            46.159339,
            2370.5
          ],
          [
            10.904742,
            46.159316,
            2371
          ],
          [
            10.904633,
            46.159309,
            2374.25
          ],
          [
            10.90455,
            46.159275,
            2375.5
          ],
          [
            10.904442,
            46.159257,
            2378.25
          ],
          [
            10.904364,
            46.159208,
            2377.5
          ],
          [
            10.904249,
            46.159154,
            2379.25
          ],
          [
            10.904214,
            46.15909,
            2380.25
          ],
          [
            10.904232,
            46.159025,
            2379.5
          ],
          [
            10.904407,
            46.158881,
            2369
          ],
          [
            10.904467,
            46.158815,
            2365
          ],
          [
            10.904502,
            46.158728,
            2362.5
          ],
          [
            10.904444,
            46.15865,
            2364.25
          ],
          [
            10.90419,
            46.158462,
            2364.75
          ],
          [
            10.904153,
            46.158409,
            2364.75
          ],
          [
            10.904155,
            46.158315,
            2361.25
          ],
          [
            10.90412,
            46.158207,
            2365.5
          ],
          [
            10.904144,
            46.158204,
            2362.75
          ],
          [
            10.904234,
            46.158222,
            2355.75
          ],
          [
            10.904334,
            46.158202,
            2349
          ],
          [
            10.904325,
            46.158158,
            2349.25
          ],
          [
            10.904257,
            46.158045,
            2353.5
          ],
          [
            10.904226,
            46.157918,
            2355
          ],
          [
            10.904254,
            46.157714,
            2350
          ],
          [
            10.904293,
            46.157634,
            2346.5
          ],
          [
            10.904309,
            46.157491,
            2346
          ],
          [
            10.904258,
            46.157443,
            2345.25
          ],
          [
            10.904157,
            46.157405,
            2347.75
          ],
          [
            10.904026,
            46.157389,
            2356.25
          ],
          [
            10.903905,
            46.15734,
            2358
          ],
          [
            10.903724,
            46.157337,
            2367.75
          ],
          [
            10.903582,
            46.157326,
            2373.5
          ],
          [
            10.903441,
            46.15725,
            2368.75
          ],
          [
            10.903162,
            46.157046,
            2365.5
          ],
          [
            10.903087,
            46.156999,
            2365.75
          ],
          [
            10.90307,
            46.156952,
            2363.75
          ],
          [
            10.903008,
            46.156923,
            2365.25
          ],
          [
            10.902997,
            46.156881,
            2363.75
          ],
          [
            10.90289,
            46.156823,
            2365.75
          ],
          [
            10.90284,
            46.156818,
            2367.75
          ],
          [
            10.902783,
            46.156769,
            2367.75
          ],
          [
            10.902629,
            46.156707,
            2370
          ],
          [
            10.902458,
            46.156615,
            2369.5
          ],
          [
            10.902287,
            46.156549,
            2369.5
          ],
          [
            10.902136,
            46.156517,
            2370.75
          ],
          [
            10.90197,
            46.156508,
            2373.25
          ],
          [
            10.901794,
            46.156443,
            2372.5
          ],
          [
            10.901647,
            46.156407,
            2373.5
          ],
          [
            10.901505,
            46.156395,
            2376.25
          ],
          [
            10.901403,
            46.156353,
            2377.5
          ],
          [
            10.901358,
            46.156317,
            2378.25
          ],
          [
            10.901342,
            46.15627,
            2377.75
          ],
          [
            10.901295,
            46.15624,
            2378.75
          ],
          [
            10.901302,
            46.156198,
            2377.5
          ],
          [
            10.901297,
            46.156148,
            2376.75
          ],
          [
            10.901242,
            46.156121,
            2378.5
          ],
          [
            10.90121,
            46.15607,
            2378.75
          ],
          [
            10.90112,
            46.156016,
            2381.75
          ],
          [
            10.901062,
            46.155922,
            2382.5
          ],
          [
            10.901086,
            46.155863,
            2380.5
          ],
          [
            10.901129,
            46.155814,
            2377.75
          ],
          [
            10.901104,
            46.15574,
            2377.75
          ],
          [
            10.90105,
            46.155704,
            2379.25
          ],
          [
            10.90101,
            46.155644,
            2379.5
          ],
          [
            10.900952,
            46.15559,
            2380.25
          ],
          [
            10.900919,
            46.15554,
            2380
          ],
          [
            10.900821,
            46.155465,
            2380
          ],
          [
            10.900593,
            46.155373,
            2382
          ],
          [
            10.900538,
            46.155306,
            2380.5
          ],
          [
            10.900544,
            46.155253,
            2379.75
          ],
          [
            10.900599,
            46.155157,
            2380.75
          ],
          [
            10.900589,
            46.155106,
            2382
          ],
          [
            10.900622,
            46.155063,
            2382.75
          ],
          [
            10.90067,
            46.155025,
            2383
          ],
          [
            10.900665,
            46.154993,
            2384.25
          ],
          [
            10.900696,
            46.154958,
            2386.5
          ],
          [
            10.900727,
            46.154898,
            2390.75
          ],
          [
            10.900828,
            46.154857,
            2391.75
          ],
          [
            10.900906,
            46.154796,
            2394.25
          ],
          [
            10.900936,
            46.154745,
            2397.25
          ],
          [
            10.90109,
            46.154718,
            2395.75
          ],
          [
            10.901357,
            46.154683,
            2399.5
          ],
          [
            10.901408,
            46.154655,
            2401.25
          ],
          [
            10.901536,
            46.154614,
            2401.25
          ],
          [
            10.901561,
            46.154586,
            2403
          ],
          [
            10.901558,
            46.154565,
            2404.5
          ],
          [
            10.901523,
            46.154533,
            2407.75
          ],
          [
            10.901481,
            46.154518,
            2409.75
          ],
          [
            10.901481,
            46.154481,
            2412.5
          ],
          [
            10.901451,
            46.154465,
            2414.25
          ],
          [
            10.901452,
            46.154436,
            2416.25
          ],
          [
            10.901404,
            46.154408,
            2418.25
          ],
          [
            10.901415,
            46.154368,
            2420
          ],
          [
            10.901541,
            46.154313,
            2420.25
          ],
          [
            10.90164,
            46.154303,
            2419
          ],
          [
            10.901649,
            46.154249,
            2421.25
          ],
          [
            10.901593,
            46.154243,
            2422.75
          ],
          [
            10.901523,
            46.154248,
            2423.75
          ],
          [
            10.901499,
            46.154224,
            2425.25
          ],
          [
            10.901531,
            46.154154,
            2427.5
          ],
          [
            10.901499,
            46.154115,
            2429
          ],
          [
            10.901511,
            46.154042,
            2430.25
          ],
          [
            10.901492,
            46.153998,
            2431.75
          ],
          [
            10.90154,
            46.15389,
            2432.5
          ],
          [
            10.901544,
            46.153843,
            2444.25
          ],
          [
            10.901463,
            46.153866,
            2442.75
          ],
          [
            10.901375,
            46.153879,
            2442.25
          ],
          [
            10.901277,
            46.153914,
            2441.5
          ],
          [
            10.901241,
            46.153955,
            2441.25
          ],
          [
            10.901207,
            46.15391,
            2444.25
          ],
          [
            10.901215,
            46.153858,
            2454.25
          ],
          [
            10.901096,
            46.153926,
            2447.75
          ],
          [
            10.901063,
            46.153966,
            2447.25
          ],
          [
            10.901035,
            46.154039,
            2445
          ],
          [
            10.900979,
            46.154058,
            2446.5
          ],
          [
            10.900947,
            46.154087,
            2446.25
          ],
          [
            10.900896,
            46.154087,
            2448.25
          ],
          [
            10.900853,
            46.154066,
            2451.25
          ],
          [
            10.900849,
            46.15403,
            2453
          ],
          [
            10.900864,
            46.153988,
            2454.5
          ],
          [
            10.900918,
            46.153966,
            2453.5
          ],
          [
            10.900919,
            46.153934,
            2455
          ],
          [
            10.900855,
            46.153944,
            2457.25
          ],
          [
            10.900823,
            46.153937,
            2458.5
          ],
          [
            10.900592,
            46.153969,
            2457.75
          ],
          [
            10.900509,
            46.153968,
            2458.25
          ],
          [
            10.900433,
            46.153952,
            2459.5
          ],
          [
            10.900374,
            46.153964,
            2459
          ],
          [
            10.900202,
            46.153862,
            2465.25
          ],
          [
            10.900113,
            46.153858,
            2466.75
          ],
          [
            10.900087,
            46.153895,
            2467
          ],
          [
            10.89999,
            46.153935,
            2465.75
          ],
          [
            10.89991,
            46.153937,
            2468
          ],
          [
            10.899781,
            46.153973,
            2469.25
          ],
          [
            10.899724,
            46.153999,
            2469
          ],
          [
            10.899634,
            46.154063,
            2468
          ],
          [
            10.899555,
            46.154083,
            2470.5
          ],
          [
            10.899473,
            46.154081,
            2474.5
          ],
          [
            10.89941,
            46.154104,
            2476
          ],
          [
            10.899266,
            46.154128,
            2478.75
          ],
          [
            10.899208,
            46.154116,
            2480
          ],
          [
            10.898939,
            46.15417,
            2487
          ],
          [
            10.898839,
            46.154227,
            2484.75
          ],
          [
            10.898833,
            46.15423,
            2483.75
          ],
          [
            10.898839,
            46.154227,
            2484.75
          ],
          [
            10.898939,
            46.15417,
            2487
          ],
          [
            10.899208,
            46.154116,
            2480
          ],
          [
            10.899266,
            46.154128,
            2478.75
          ],
          [
            10.89941,
            46.154104,
            2476
          ],
          [
            10.899473,
            46.154081,
            2474.5
          ],
          [
            10.899555,
            46.154083,
            2470.5
          ],
          [
            10.899634,
            46.154063,
            2468
          ],
          [
            10.899724,
            46.153999,
            2469
          ],
          [
            10.899781,
            46.153973,
            2469.25
          ],
          [
            10.89991,
            46.153937,
            2468
          ],
          [
            10.89999,
            46.153935,
            2465.75
          ],
          [
            10.900087,
            46.153895,
            2467
          ],
          [
            10.900113,
            46.153858,
            2466.75
          ],
          [
            10.900202,
            46.153862,
            2465.25
          ],
          [
            10.900374,
            46.153964,
            2459
          ],
          [
            10.900433,
            46.153952,
            2459.5
          ],
          [
            10.900509,
            46.153968,
            2458.25
          ],
          [
            10.900592,
            46.153969,
            2457.75
          ],
          [
            10.900823,
            46.153937,
            2458.5
          ],
          [
            10.900855,
            46.153944,
            2457.25
          ],
          [
            10.900919,
            46.153934,
            2455
          ],
          [
            10.900918,
            46.153966,
            2453.5
          ],
          [
            10.900864,
            46.153988,
            2454.5
          ],
          [
            10.900849,
            46.15403,
            2453
          ],
          [
            10.900853,
            46.154066,
            2451.25
          ],
          [
            10.900896,
            46.154087,
            2448.25
          ],
          [
            10.900947,
            46.154087,
            2446.25
          ],
          [
            10.900979,
            46.154058,
            2446.5
          ],
          [
            10.901035,
            46.154039,
            2445
          ],
          [
            10.901063,
            46.153966,
            2447.25
          ],
          [
            10.901096,
            46.153926,
            2447.75
          ],
          [
            10.901215,
            46.153858,
            2454.25
          ],
          [
            10.901207,
            46.15391,
            2444.25
          ],
          [
            10.901241,
            46.153955,
            2441.25
          ],
          [
            10.901277,
            46.153914,
            2441.5
          ],
          [
            10.901375,
            46.153879,
            2442.25
          ],
          [
            10.901463,
            46.153866,
            2442.75
          ],
          [
            10.901544,
            46.153843,
            2444.25
          ],
          [
            10.90154,
            46.15389,
            2432.5
          ],
          [
            10.901492,
            46.153998,
            2431.75
          ],
          [
            10.901511,
            46.154042,
            2430.25
          ],
          [
            10.901499,
            46.154115,
            2429
          ],
          [
            10.901531,
            46.154154,
            2427.5
          ],
          [
            10.901499,
            46.154224,
            2425.25
          ],
          [
            10.901523,
            46.154248,
            2423.75
          ],
          [
            10.901593,
            46.154243,
            2422.75
          ],
          [
            10.901649,
            46.154249,
            2421.25
          ],
          [
            10.90164,
            46.154303,
            2419
          ],
          [
            10.901541,
            46.154313,
            2420.25
          ],
          [
            10.901415,
            46.154368,
            2420
          ],
          [
            10.901404,
            46.154408,
            2418.25
          ],
          [
            10.901452,
            46.154436,
            2416.25
          ],
          [
            10.901451,
            46.154465,
            2414.25
          ],
          [
            10.901481,
            46.154481,
            2412.5
          ],
          [
            10.901481,
            46.154518,
            2409.75
          ],
          [
            10.901523,
            46.154533,
            2407.75
          ],
          [
            10.901558,
            46.154565,
            2404.5
          ],
          [
            10.901561,
            46.154586,
            2403
          ],
          [
            10.901536,
            46.154614,
            2401.25
          ],
          [
            10.901408,
            46.154655,
            2401.25
          ],
          [
            10.901357,
            46.154683,
            2399.5
          ],
          [
            10.90109,
            46.154718,
            2395.75
          ],
          [
            10.900936,
            46.154745,
            2397.25
          ],
          [
            10.900906,
            46.154796,
            2394.25
          ],
          [
            10.900828,
            46.154857,
            2391.75
          ],
          [
            10.900727,
            46.154898,
            2390.75
          ],
          [
            10.900696,
            46.154958,
            2386.5
          ],
          [
            10.900665,
            46.154993,
            2384.25
          ],
          [
            10.90067,
            46.155025,
            2383
          ],
          [
            10.900622,
            46.155063,
            2382.75
          ],
          [
            10.900589,
            46.155106,
            2382
          ],
          [
            10.900599,
            46.155157,
            2380.75
          ],
          [
            10.900544,
            46.155253,
            2379.75
          ],
          [
            10.900538,
            46.155306,
            2380.5
          ],
          [
            10.900593,
            46.155373,
            2382
          ],
          [
            10.900821,
            46.155465,
            2380
          ],
          [
            10.900919,
            46.15554,
            2380
          ],
          [
            10.900952,
            46.15559,
            2380.25
          ],
          [
            10.90101,
            46.155644,
            2379.5
          ],
          [
            10.90105,
            46.155704,
            2379.25
          ],
          [
            10.901104,
            46.15574,
            2377.75
          ],
          [
            10.901129,
            46.155814,
            2377.75
          ],
          [
            10.901086,
            46.155863,
            2380.5
          ],
          [
            10.901062,
            46.155922,
            2382.5
          ],
          [
            10.90112,
            46.156016,
            2381.75
          ],
          [
            10.90121,
            46.15607,
            2378.75
          ],
          [
            10.901242,
            46.156121,
            2378.5
          ],
          [
            10.901297,
            46.156148,
            2376.75
          ],
          [
            10.901302,
            46.156198,
            2377.5
          ],
          [
            10.901295,
            46.15624,
            2378.75
          ],
          [
            10.901342,
            46.15627,
            2377.75
          ],
          [
            10.901358,
            46.156317,
            2378.25
          ],
          [
            10.901403,
            46.156353,
            2377.5
          ],
          [
            10.901505,
            46.156395,
            2376.25
          ],
          [
            10.901647,
            46.156407,
            2373.5
          ],
          [
            10.901794,
            46.156443,
            2372.5
          ],
          [
            10.90197,
            46.156508,
            2373.25
          ],
          [
            10.902136,
            46.156517,
            2370.75
          ],
          [
            10.902287,
            46.156549,
            2369.5
          ],
          [
            10.902458,
            46.156615,
            2369.5
          ],
          [
            10.902629,
            46.156707,
            2370
          ],
          [
            10.902783,
            46.156769,
            2367.75
          ],
          [
            10.90284,
            46.156818,
            2367.75
          ],
          [
            10.90289,
            46.156823,
            2365.75
          ],
          [
            10.902997,
            46.156881,
            2363.75
          ],
          [
            10.903008,
            46.156923,
            2365.25
          ],
          [
            10.90307,
            46.156952,
            2363.75
          ],
          [
            10.903087,
            46.156999,
            2365.75
          ],
          [
            10.903162,
            46.157046,
            2365.5
          ],
          [
            10.903441,
            46.15725,
            2368.75
          ],
          [
            10.903582,
            46.157326,
            2373.5
          ],
          [
            10.903724,
            46.157337,
            2367.75
          ],
          [
            10.903905,
            46.15734,
            2358
          ],
          [
            10.904026,
            46.157389,
            2356.25
          ],
          [
            10.904157,
            46.157405,
            2347.75
          ],
          [
            10.904258,
            46.157443,
            2345.25
          ],
          [
            10.904309,
            46.157491,
            2346
          ],
          [
            10.904293,
            46.157634,
            2346.5
          ],
          [
            10.904254,
            46.157714,
            2350
          ],
          [
            10.904226,
            46.157918,
            2355
          ],
          [
            10.904257,
            46.158045,
            2353.5
          ],
          [
            10.904325,
            46.158158,
            2349.25
          ],
          [
            10.904334,
            46.158202,
            2349
          ],
          [
            10.904234,
            46.158222,
            2355.75
          ],
          [
            10.904144,
            46.158204,
            2362.75
          ],
          [
            10.90412,
            46.158207,
            2365.5
          ],
          [
            10.904155,
            46.158315,
            2361.25
          ],
          [
            10.904153,
            46.158409,
            2364.75
          ],
          [
            10.90419,
            46.158462,
            2364.75
          ],
          [
            10.904444,
            46.15865,
            2364.25
          ],
          [
            10.904502,
            46.158728,
            2362.5
          ],
          [
            10.904467,
            46.158815,
            2365
          ],
          [
            10.904407,
            46.158881,
            2369
          ],
          [
            10.904232,
            46.159025,
            2379.5
          ],
          [
            10.904214,
            46.15909,
            2380.25
          ],
          [
            10.904249,
            46.159154,
            2379.25
          ],
          [
            10.904364,
            46.159208,
            2377.5
          ],
          [
            10.904442,
            46.159257,
            2378.25
          ],
          [
            10.90455,
            46.159275,
            2375.5
          ],
          [
            10.904633,
            46.159309,
            2374.25
          ],
          [
            10.904742,
            46.159316,
            2371
          ],
          [
            10.904796,
            46.159339,
            2370.5
          ],
          [
            10.904792,
            46.159523,
            2371.25
          ],
          [
            10.904773,
            46.15961,
            2370.25
          ],
          [
            10.904773,
            46.159708,
            2368.25
          ],
          [
            10.904702,
            46.159758,
            2369
          ],
          [
            10.904648,
            46.159818,
            2367.75
          ],
          [
            10.904674,
            46.159896,
            2365
          ],
          [
            10.90473,
            46.159947,
            2362.75
          ],
          [
            10.904757,
            46.159989,
            2359.25
          ],
          [
            10.904726,
            46.160049,
            2357.25
          ],
          [
            10.904451,
            46.160114,
            2355
          ],
          [
            10.904385,
            46.160163,
            2354
          ],
          [
            10.904199,
            46.16042,
            2352
          ],
          [
            10.904196,
            46.160487,
            2351.25
          ],
          [
            10.904241,
            46.160631,
            2351.25
          ],
          [
            10.904397,
            46.160775,
            2353.25
          ],
          [
            10.904456,
            46.160851,
            2354.5
          ],
          [
            10.904471,
            46.160898,
            2354.5
          ],
          [
            10.904473,
            46.161011,
            2355
          ],
          [
            10.904393,
            46.16128,
            2357.75
          ],
          [
            10.904431,
            46.161363,
            2358
          ],
          [
            10.904522,
            46.161425,
            2358
          ],
          [
            10.904577,
            46.161454,
            2357.75
          ],
          [
            10.904652,
            46.161534,
            2356.5
          ],
          [
            10.904647,
            46.16157,
            2356.5
          ],
          [
            10.904544,
            46.161676,
            2360.5
          ],
          [
            10.904525,
            46.161743,
            2361.5
          ],
          [
            10.904619,
            46.161795,
            2357.25
          ],
          [
            10.904616,
            46.161838,
            2357.5
          ],
          [
            10.904591,
            46.161843,
            2358.5
          ],
          [
            10.904541,
            46.161892,
            2360.75
          ],
          [
            10.904474,
            46.16193,
            2363.5
          ],
          [
            10.904408,
            46.16198,
            2366.5
          ],
          [
            10.904387,
            46.162004,
            2367.5
          ],
          [
            10.904383,
            46.162043,
            2369
          ],
          [
            10.904386,
            46.162044,
            2367.25
          ],
          [
            10.904383,
            46.162043,
            2369
          ],
          [
            10.903915,
            46.162373,
            2382.25
          ],
          [
            10.90373,
            46.162478,
            2387.5
          ],
          [
            10.903587,
            46.162529,
            2390.75
          ],
          [
            10.903722,
            46.162593,
            2395
          ],
          [
            10.903931,
            46.16276,
            2403
          ],
          [
            10.903889,
            46.162821,
            2405.25
          ],
          [
            10.903905,
            46.162833,
            2405.75
          ],
          [
            10.903952,
            46.16283,
            2405.5
          ],
          [
            10.903992,
            46.162837,
            2405.75
          ],
          [
            10.904023,
            46.162865,
            2406.5
          ],
          [
            10.904033,
            46.162911,
            2408
          ],
          [
            10.904022,
            46.162931,
            2408.5
          ],
          [
            10.903991,
            46.162953,
            2409.25
          ],
          [
            10.904004,
            46.162979,
            2410
          ],
          [
            10.904054,
            46.163019,
            2411.25
          ],
          [
            10.90407,
            46.163051,
            2412
          ],
          [
            10.90407,
            46.163087,
            2412.75
          ],
          [
            10.904046,
            46.163134,
            2413.75
          ],
          [
            10.904017,
            46.16317,
            2414.75
          ],
          [
            10.904006,
            46.163229,
            2416.25
          ],
          [
            10.904034,
            46.163336,
            2417.75
          ],
          [
            10.903951,
            46.163503,
            2421.75
          ],
          [
            10.903945,
            46.163617,
            2423.25
          ],
          [
            10.903915,
            46.163683,
            2426
          ],
          [
            10.90376,
            46.163788,
            2427.5
          ],
          [
            10.903758,
            46.163836,
            2429
          ],
          [
            10.903801,
            46.163863,
            2430.5
          ],
          [
            10.903818,
            46.163885,
            2431.5
          ],
          [
            10.903798,
            46.16393,
            2433
          ],
          [
            10.90374,
            46.164139,
            2440.75
          ],
          [
            10.903717,
            46.164256,
            2447.25
          ],
          [
            10.903569,
            46.164426,
            2453.25
          ],
          [
            10.903505,
            46.164485,
            2466.25
          ],
          [
            10.903408,
            46.164552,
            2486.25
          ],
          [
            10.903267,
            46.16459,
            2494.75
          ],
          [
            10.903111,
            46.164616,
            2496.75
          ],
          [
            10.902936,
            46.164664,
            2496.75
          ],
          [
            10.902535,
            46.164761,
            2483.5
          ],
          [
            10.902414,
            46.164785,
            2482
          ],
          [
            10.902376,
            46.164823,
            2484.75
          ],
          [
            10.902332,
            46.164841,
            2484.75
          ],
          [
            10.902276,
            46.164841,
            2482.5
          ],
          [
            10.902189,
            46.164857,
            2481.25
          ],
          [
            10.902151,
            46.164901,
            2483.75
          ],
          [
            10.902164,
            46.164976,
            2488.25
          ],
          [
            10.902118,
            46.165023,
            2490.5
          ],
          [
            10.902044,
            46.165127,
            2495.5
          ],
          [
            10.901895,
            46.165439,
            2508.25
          ],
          [
            10.90179,
            46.165521,
            2511.75
          ],
          [
            10.901745,
            46.165541,
            2512.5
          ],
          [
            10.901609,
            46.165546,
            2513
          ],
          [
            10.901466,
            46.165583,
            2516.5
          ],
          [
            10.901447,
            46.165621,
            2518.5
          ],
          [
            10.901451,
            46.165711,
            2523
          ],
          [
            10.90146,
            46.165745,
            2524.75
          ],
          [
            10.901485,
            46.165765,
            2525.5
          ],
          [
            10.90146,
            46.165796,
            2527.25
          ],
          [
            10.901413,
            46.165795,
            2527.75
          ],
          [
            10.901365,
            46.165783,
            2528
          ],
          [
            10.901325,
            46.165797,
            2530
          ],
          [
            10.901318,
            46.165831,
            2532
          ],
          [
            10.901332,
            46.165864,
            2533.25
          ],
          [
            10.901409,
            46.165969,
            2537
          ],
          [
            10.901487,
            46.16613,
            2545.25
          ],
          [
            10.901381,
            46.166169,
            2548.5
          ],
          [
            10.901256,
            46.166194,
            2552.75
          ],
          [
            10.901196,
            46.166194,
            2554
          ],
          [
            10.901046,
            46.166165,
            2556.75
          ],
          [
            10.900782,
            46.166057,
            2561.5
          ],
          [
            10.90075,
            46.16606,
            2562.75
          ],
          [
            10.900732,
            46.166093,
            2565.25
          ],
          [
            10.900738,
            46.166189,
            2569
          ],
          [
            10.900703,
            46.166399,
            2580
          ],
          [
            10.900657,
            46.166494,
            2597.25
          ],
          [
            10.900696,
            46.166525,
            2597.75
          ],
          [
            10.900759,
            46.166562,
            2595
          ],
          [
            10.900854,
            46.166595,
            2587.25
          ],
          [
            10.900787,
            46.166612,
            2596
          ],
          [
            10.900746,
            46.166602,
            2601.25
          ],
          [
            10.900355,
            46.166513,
            2624.75
          ],
          [
            10.90008,
            46.16671,
            2651.5
          ],
          [
            10.899949,
            46.167013,
            2676.25
          ],
          [
            10.899818,
            46.167149,
            2682.5
          ],
          [
            10.899492,
            46.167359,
            2719.75
          ],
          [
            10.899229,
            46.167696,
            2742.5
          ],
          [
            10.899148,
            46.167702,
            2741.5
          ],
          [
            10.899156,
            46.167676,
            2740.25
          ],
          [
            10.899113,
            46.167648,
            2743
          ],
          [
            10.898991,
            46.167588,
            2755.75
          ],
          [
            10.89903,
            46.167555,
            2752.5
          ],
          [
            10.898928,
            46.167505,
            2768.75
          ],
          [
            10.899264,
            46.167217,
            2754.25
          ],
          [
            10.89928,
            46.16712,
            2758
          ],
          [
            10.899339,
            46.16707,
            2743.5
          ],
          [
            10.899331,
            46.167022,
            2749.5
          ],
          [
            10.899296,
            46.166986,
            2764
          ],
          [
            10.899264,
            46.166911,
            2772.25
          ],
          [
            10.899202,
            46.166872,
            2785.75
          ],
          [
            10.899154,
            46.166862,
            2796.5
          ],
          [
            10.899079,
            46.166834,
            2796.25
          ],
          [
            10.89902,
            46.166799,
            2793
          ],
          [
            10.898934,
            46.166632,
            2762.75
          ],
          [
            10.898794,
            46.16655,
            2761.25
          ],
          [
            10.898733,
            46.166522,
            2761.25
          ],
          [
            10.898617,
            46.166496,
            2765
          ],
          [
            10.898564,
            46.166474,
            2761
          ],
          [
            10.898483,
            46.166489,
            2765.75
          ],
          [
            10.898403,
            46.166533,
            2776.25
          ],
          [
            10.898277,
            46.166548,
            2781.25
          ],
          [
            10.898049,
            46.166504,
            2776.75
          ],
          [
            10.897734,
            46.166488,
            2775.75
          ],
          [
            10.897202,
            46.166342,
            2790.25
          ],
          [
            10.897115,
            46.166283,
            2791.75
          ],
          [
            10.897039,
            46.166209,
            2793.25
          ],
          [
            10.897059,
            46.166156,
            2790.5
          ],
          [
            10.897227,
            46.166097,
            2778.25
          ],
          [
            10.897378,
            46.16592,
            2779.75
          ],
          [
            10.897545,
            46.16581,
            2774.5
          ],
          [
            10.897569,
            46.165709,
            2757.25
          ],
          [
            10.897303,
            46.165655,
            2746.75
          ],
          [
            10.896934,
            46.165602,
            2747.75
          ],
          [
            10.896579,
            46.165392,
            2764
          ],
          [
            10.896255,
            46.165325,
            2784.5
          ],
          [
            10.896064,
            46.165189,
            2768
          ],
          [
            10.895962,
            46.165157,
            2769
          ],
          [
            10.895836,
            46.165153,
            2777.5
          ],
          [
            10.89575,
            46.165118,
            2773.25
          ],
          [
            10.895661,
            46.165016,
            2762.5
          ],
          [
            10.895584,
            46.164973,
            2762.5
          ],
          [
            10.895243,
            46.164917,
            2762.5
          ],
          [
            10.895208,
            46.164843,
            2752.5
          ],
          [
            10.89494,
            46.164815,
            2752
          ],
          [
            10.894809,
            46.164824,
            2755.25
          ],
          [
            10.894599,
            46.164745,
            2746.75
          ],
          [
            10.894562,
            46.164653,
            2743
          ],
          [
            10.894606,
            46.164536,
            2734.75
          ],
          [
            10.894652,
            46.164461,
            2727.5
          ],
          [
            10.894705,
            46.16433,
            2731
          ],
          [
            10.894763,
            46.164252,
            2731
          ],
          [
            10.894826,
            46.1642,
            2733.25
          ],
          [
            10.894818,
            46.164161,
            2737.25
          ],
          [
            10.894792,
            46.164111,
            2737.25
          ],
          [
            10.89474,
            46.164063,
            2740.5
          ],
          [
            10.894829,
            46.163866,
            2729.5
          ],
          [
            10.894819,
            46.163778,
            2736.25
          ],
          [
            10.894862,
            46.163618,
            2731.25
          ],
          [
            10.894831,
            46.163571,
            2738.75
          ],
          [
            10.894851,
            46.163531,
            2730.5
          ],
          [
            10.894794,
            46.163465,
            2737
          ],
          [
            10.8947,
            46.163401,
            2737.75
          ],
          [
            10.894586,
            46.16335,
            2731
          ],
          [
            10.894611,
            46.163209,
            2728.5
          ],
          [
            10.894755,
            46.16298,
            2722.5
          ],
          [
            10.894999,
            46.162812,
            2699
          ],
          [
            10.895039,
            46.162676,
            2684.5
          ],
          [
            10.895171,
            46.16264,
            2672
          ],
          [
            10.895207,
            46.162602,
            2667
          ],
          [
            10.895144,
            46.162496,
            2665.75
          ],
          [
            10.895078,
            46.162461,
            2668.5
          ],
          [
            10.894979,
            46.162379,
            2672.75
          ],
          [
            10.894957,
            46.16232,
            2673.5
          ],
          [
            10.895041,
            46.162246,
            2659.25
          ],
          [
            10.895195,
            46.162184,
            2639.5
          ],
          [
            10.895294,
            46.162049,
            2634.75
          ],
          [
            10.89535,
            46.161987,
            2630
          ],
          [
            10.895361,
            46.161898,
            2629.5
          ],
          [
            10.895348,
            46.161864,
            2630
          ],
          [
            10.895356,
            46.161783,
            2628.75
          ],
          [
            10.895339,
            46.16175,
            2627.5
          ],
          [
            10.895294,
            46.161734,
            2624.5
          ],
          [
            10.895277,
            46.161711,
            2621.5
          ],
          [
            10.895264,
            46.161685,
            2618
          ],
          [
            10.895281,
            46.16167,
            2618.5
          ],
          [
            10.89525,
            46.161625,
            2623.5
          ],
          [
            10.895227,
            46.161614,
            2623.5
          ],
          [
            10.895192,
            46.161617,
            2619.5
          ],
          [
            10.895167,
            46.161627,
            2615
          ],
          [
            10.8951,
            46.161601,
            2614.25
          ],
          [
            10.895058,
            46.161605,
            2609.25
          ],
          [
            10.894951,
            46.161558,
            2611.25
          ],
          [
            10.894822,
            46.161479,
            2618
          ],
          [
            10.894654,
            46.161429,
            2611.75
          ],
          [
            10.894578,
            46.161397,
            2608.25
          ],
          [
            10.89441,
            46.161276,
            2601
          ],
          [
            10.894334,
            46.161254,
            2593
          ],
          [
            10.894269,
            46.161219,
            2590
          ],
          [
            10.894222,
            46.161174,
            2592.5
          ],
          [
            10.894145,
            46.161064,
            2598.75
          ],
          [
            10.894095,
            46.161041,
            2591
          ],
          [
            10.894008,
            46.16103,
            2575.5
          ],
          [
            10.893984,
            46.160982,
            2578.25
          ],
          [
            10.893948,
            46.160946,
            2578
          ],
          [
            10.893876,
            46.160931,
            2570
          ],
          [
            10.893824,
            46.160891,
            2570.25
          ],
          [
            10.893686,
            46.160752,
            2568.25
          ],
          [
            10.893627,
            46.160655,
            2566.75
          ],
          [
            10.893526,
            46.160559,
            2563.75
          ],
          [
            10.893481,
            46.160458,
            2569.5
          ],
          [
            10.893412,
            46.160379,
            2567.25
          ],
          [
            10.893297,
            46.16033,
            2552
          ],
          [
            10.893254,
            46.160292,
            2545.75
          ],
          [
            10.893241,
            46.160251,
            2542.75
          ],
          [
            10.89319,
            46.160203,
            2525.75
          ],
          [
            10.893218,
            46.160138,
            2528.75
          ],
          [
            10.893202,
            46.160063,
            2515.5
          ],
          [
            10.893221,
            46.159944,
            2511
          ],
          [
            10.893357,
            46.159933,
            2570.75
          ],
          [
            10.893387,
            46.159914,
            2571.75
          ],
          [
            10.893382,
            46.159887,
            2565.75
          ],
          [
            10.893357,
            46.159846,
            2552.75
          ],
          [
            10.893363,
            46.159768,
            2538
          ],
          [
            10.893433,
            46.159675,
            2543
          ],
          [
            10.893526,
            46.159697,
            2570.25
          ],
          [
            10.893559,
            46.159677,
            2577.75
          ],
          [
            10.893505,
            46.159517,
            2550
          ],
          [
            10.893539,
            46.159429,
            2552.25
          ],
          [
            10.893639,
            46.159384,
            2567.5
          ],
          [
            10.893745,
            46.159198,
            2546.5
          ],
          [
            10.89384,
            46.159156,
            2559
          ],
          [
            10.893835,
            46.159091,
            2548.25
          ],
          [
            10.893899,
            46.159007,
            2546
          ],
          [
            10.894016,
            46.158791,
            2556
          ],
          [
            10.894202,
            46.158506,
            2559.75
          ],
          [
            10.894299,
            46.1584,
            2578.5
          ],
          [
            10.894385,
            46.158235,
            2582.75
          ],
          [
            10.894413,
            46.158149,
            2573.5
          ],
          [
            10.894546,
            46.157822,
            2582
          ],
          [
            10.894585,
            46.157696,
            2580.25
          ],
          [
            10.894636,
            46.157575,
            2559.25
          ],
          [
            10.894873,
            46.157248,
            2559.25
          ],
          [
            10.894938,
            46.157088,
            2554.5
          ],
          [
            10.895031,
            46.156901,
            2549
          ],
          [
            10.895186,
            46.156742,
            2558
          ],
          [
            10.895279,
            46.156729,
            2559
          ],
          [
            10.895449,
            46.15675,
            2553.75
          ],
          [
            10.895626,
            46.156752,
            2544.75
          ],
          [
            10.895733,
            46.156805,
            2543
          ],
          [
            10.895836,
            46.156838,
            2538
          ],
          [
            10.895888,
            46.156794,
            2533
          ],
          [
            10.895763,
            46.156723,
            2533.75
          ],
          [
            10.895752,
            46.15661,
            2530.75
          ],
          [
            10.895772,
            46.156496,
            2532.25
          ],
          [
            10.895814,
            46.156442,
            2529.25
          ],
          [
            10.895941,
            46.156397,
            2521
          ],
          [
            10.896069,
            46.156278,
            2523
          ],
          [
            10.896308,
            46.156113,
            2517.75
          ],
          [
            10.896567,
            46.155966,
            2511.75
          ],
          [
            10.896912,
            46.155671,
            2506
          ],
          [
            10.896992,
            46.155518,
            2507.5
          ],
          [
            10.897089,
            46.155374,
            2505.25
          ],
          [
            10.897227,
            46.155206,
            2500.5
          ],
          [
            10.897793,
            46.154683,
            2491.25
          ],
          [
            10.898369,
            46.154516,
            2482.75
          ],
          [
            10.898452,
            46.154476,
            2483.25
          ],
          [
            10.898474,
            46.154396,
            2487
          ],
          [
            10.898389,
            46.15433,
            2490
          ],
          [
            10.898471,
            46.154283,
            2490
          ],
          [
            10.898731,
            46.154292,
            2483.75
          ],
          [
            10.898833,
            46.15423,
            2484.75
          ]
        ]
      }
    },
    {
      "type": "Feature",
      "properties": {
        "kind": "waypoint",
        "name": "Rifugio Tuckett",
        "show_label": true
      },
      "geometry": {
        "type": "Point",
        "coordinates": [
          10.8821454,
          46.1920149,
          2266
        ]
      }
    },
    {
      "type": "Feature",
      "properties": {
        "kind": "waypoint",
        "name": "Bocca di Tuckett",
        "show_label": true
      },
      "geometry": {
        "type": "Point",
        "coordinates": [
          10.9010079,
          46.1855588,
          2642
        ]
      }
    },
    {
      "type": "Feature",
      "properties": {
        "kind": "waypoint",
        "name": "Rifugio Pedrotti",
        "show_label": true
      },
      "geometry": {
        "type": "Point",
        "coordinates": [
          10.8987399,
          46.1541551,
          2484
        ]
      }
    },
    {
      "type": "Feature",
      "properties": {
        "kind": "waypoint",
        "name": "Busa dei Sfulmini",
        "show_label": false
      },
      "geometry": {
        "type": "Point",
        "coordinates": [
          10.9043835,
          46.1620484,
          2367
        ]
      }
    },
    {
      "type": "Feature",
      "properties": {
        "kind": "waypoint",
        "name": "Ferrata Spellini",
        "show_label": true
      },
      "geometry": {
        "type": "Point",
        "coordinates": [
          10.9017654,
          46.1648726,
          2484
        ]
      }
    },
    {
      "type": "Feature",
      "properties": {
        "kind": "waypoint",
        "name": "Bocca degli Armi",
        "show_label": true
      },
      "geometry": {
        "type": "Point",
        "coordinates": [
          10.8991483,
          46.1677019,
          2742
        ]
      }
    },
    {
      "type": "Feature",
      "properties": {
        "kind": "waypoint",
        "name": "Bocchette Centrali",
        "show_label": true
      },
      "geometry": {
        "type": "Point",
        "coordinates": [
          10.8962642,
          46.1626989,
          2667
        ]
      }
    },
    {
      "type": "Feature",
      "properties": {
        "kind": "waypoint",
        "name": "Bocca di Brenta",
        "show_label": false
      },
      "geometry": {
        "type": "Point",
        "coordinates": [
          10.8952786,
          46.1567293,
          2559
        ]
      }
    },
    {
      "type": "Feature",
      "properties": {
        "kind": "waypoint",
        "name": "Rifugio Pedrotti",
        "show_label": true
      },
      "geometry": {
        "type": "Point",
        "coordinates": [
          10.8987399,
          46.1541551,
          2484
        ]
      }
    }
  ]
}
