<?xml version="1.0" encoding="UTF-8"?>
<gpx version="1.1" creator="Dolomites 2026" xmlns="http://www.topografix.com/GPX/1/1" xmlns:xsi="http://www.w3.org/2001/XMLSchema-instance" xsi:schemaLocation="http://www.topografix.com/GPX/1/1 http://www.topografix.com/GPX/1/1/gpx.xsd">
  <metadata><name>День 3 · Pedrotti → Palmieri → Agostini → Castiglioni → XII Apostoli</name></metadata>
  <wpt lat="46.1541551" lon="10.8987399"><ele>2485</ele><name>Rifugio Pedrotti</name></wpt>
  <wpt lat="46.1460118" lon="10.8859297"><ele>2300</ele><name>Sentiero Palmieri</name></wpt>
  <wpt lat="46.1424346" lon="10.8694778"><ele>2407</ele><name>Rifugio Agostini</name></wpt>
  <wpt lat="46.144483" lon="10.8614552"><ele>2819</ele><name>Bocchetta dei Due Denti</name></wpt>
  <wpt lat="46.1465664" lon="10.8585489"><ele>2643</ele><name>Ferrata Castiglioni</name></wpt>
  <wpt lat="46.1506526" lon="10.8474143"><ele>2488</ele><name>Rifugio XII Apostoli</name></wpt>
  <trk>
    <name>День 3 · Pedrotti → Palmieri → Agostini → Castiglioni → XII Apostoli</name>
    <trkseg>
      <trkpt lat="46.15423" lon="10.898833"><ele>2484.5</ele></trkpt>
      <trkpt lat="46.154292" lon="10.898731"><ele>2483.75</ele></trkpt>
      <trkpt lat="46.154283" lon="10.898471"><ele>2490</ele></trkpt>
      <trkpt lat="46.15433" lon="10.898389"><ele>2490</ele></trkpt>
      <trkpt lat="46.154338" lon="10.898217"><ele>2491.5</ele></trkpt>
      <trkpt lat="46.154353" lon="10.898149"><ele>2492.25</ele></trkpt>
      <trkpt lat="46.154409" lon="10.898007"><ele>2495</ele></trkpt>
      <trkpt lat="46.154371" lon="10.897945"><ele>2495</ele></trkpt>
      <trkpt lat="46.154228" lon="10.897857"><ele>2492.75</ele></trkpt>
      <trkpt lat="46.154168" lon="10.897735"><ele>2492</ele></trkpt>
      <trkpt lat="46.154078" lon="10.897692"><ele>2490.5</ele></trkpt>
      <trkpt lat="46.153962" lon="10.897605"><ele>2490.5</ele></trkpt>
      <trkpt lat="46.153916" lon="10.897606"><ele>2490</ele></trkpt>
      <trkpt lat="46.153893" lon="10.897573"><ele>2490.75</ele></trkpt>
      <trkpt lat="46.153823" lon="10.897595"><ele>2490.5</ele></trkpt>
      <trkpt lat="46.153829" lon="10.89763"><ele>2489.25</ele></trkpt>
      <trkpt lat="46.153685" lon="10.897711"><ele>2486.25</ele></trkpt>
      <trkpt lat="46.153649" lon="10.897745"><ele>2484.5</ele></trkpt>
      <trkpt lat="46.153492" lon="10.897699"><ele>2484.5</ele></trkpt>
      <trkpt lat="46.153397" lon="10.897623"><ele>2484.75</ele></trkpt>
      <trkpt lat="46.153374" lon="10.897531"><ele>2486.5</ele></trkpt>
      <trkpt lat="46.153246" lon="10.897376"><ele>2485.75</ele></trkpt>
      <trkpt lat="46.153253" lon="10.897336"><ele>2486.5</ele></trkpt>
      <trkpt lat="46.153257" lon="10.897252"><ele>2487.5</ele></trkpt>
      <trkpt lat="46.153251" lon="10.897214"><ele>2487.75</ele></trkpt>
      <trkpt lat="46.153222" lon="10.897145"><ele>2487</ele></trkpt>
      <trkpt lat="46.153225" lon="10.897082"><ele>2487</ele></trkpt>
      <trkpt lat="46.153199" lon="10.897028"><ele>2486.25</ele></trkpt>
      <trkpt lat="46.153163" lon="10.896705"><ele>2488.75</ele></trkpt>
      <trkpt lat="46.153149" lon="10.896607"><ele>2489.5</ele></trkpt>
      <trkpt lat="46.153105" lon="10.896419"><ele>2489.75</ele></trkpt>
      <trkpt lat="46.153075" lon="10.896159"><ele>2487.5</ele></trkpt>
      <trkpt lat="46.153096" lon="10.896032"><ele>2489.25</ele></trkpt>
      <trkpt lat="46.153063" lon="10.896016"><ele>2486</ele></trkpt>
      <trkpt lat="46.15309" lon="10.895757"><ele>2489</ele></trkpt>
      <trkpt lat="46.153069" lon="10.895687"><ele>2485</ele></trkpt>
      <trkpt lat="46.153082" lon="10.895548"><ele>2486.75</ele></trkpt>
      <trkpt lat="46.153122" lon="10.895347"><ele>2488.25</ele></trkpt>
      <trkpt lat="46.153112" lon="10.895304"><ele>2485.25</ele></trkpt>
      <trkpt lat="46.153146" lon="10.895096"><ele>2477.25</ele></trkpt>
      <trkpt lat="46.153242" lon="10.894838"><ele>2471.5</ele></trkpt>
      <trkpt lat="46.153313" lon="10.894829"><ele>2479</ele></trkpt>
      <trkpt lat="46.153338" lon="10.894751"><ele>2477</ele></trkpt>
      <trkpt lat="46.153407" lon="10.894614"><ele>2476.25</ele></trkpt>
      <trkpt lat="46.153388" lon="10.894609"><ele>2474.25</ele></trkpt>
      <trkpt lat="46.1534" lon="10.89458"><ele>2474</ele></trkpt>
      <trkpt lat="46.153491" lon="10.894417"><ele>2476</ele></trkpt>
      <trkpt lat="46.153498" lon="10.894301"><ele>2473.75</ele></trkpt>
      <trkpt lat="46.153583" lon="10.894139"><ele>2476.75</ele></trkpt>
      <trkpt lat="46.153578" lon="10.894046"><ele>2473.75</ele></trkpt>
      <trkpt lat="46.153614" lon="10.893865"><ele>2471.5</ele></trkpt>
      <trkpt lat="46.153662" lon="10.893693"><ele>2472</ele></trkpt>
      <trkpt lat="46.153695" lon="10.893623"><ele>2473</ele></trkpt>
      <trkpt lat="46.153712" lon="10.893521"><ele>2472</ele></trkpt>
      <trkpt lat="46.153801" lon="10.893117"><ele>2467</ele></trkpt>
      <trkpt lat="46.153825" lon="10.892994"><ele>2465.75</ele></trkpt>
      <trkpt lat="46.153877" lon="10.892899"><ele>2466.5</ele></trkpt>
      <trkpt lat="46.153922" lon="10.892653"><ele>2464</ele></trkpt>
      <trkpt lat="46.153975" lon="10.892475"><ele>2462.25</ele></trkpt>
      <trkpt lat="46.15401" lon="10.892397"><ele>2462</ele></trkpt>
      <trkpt lat="46.154064" lon="10.892325"><ele>2463</ele></trkpt>
      <trkpt lat="46.154094" lon="10.892184"><ele>2461.75</ele></trkpt>
      <trkpt lat="46.154141" lon="10.892061"><ele>2462.25</ele></trkpt>
      <trkpt lat="46.154162" lon="10.891945"><ele>2461.75</ele></trkpt>
      <trkpt lat="46.1542" lon="10.891796"><ele>2461.75</ele></trkpt>
      <trkpt lat="46.154192" lon="10.891625"><ele>2459</ele></trkpt>
      <trkpt lat="46.154212" lon="10.891531"><ele>2459.5</ele></trkpt>
      <trkpt lat="46.154232" lon="10.891484"><ele>2460.25</ele></trkpt>
      <trkpt lat="46.154243" lon="10.891378"><ele>2459.75</ele></trkpt>
      <trkpt lat="46.154266" lon="10.891328"><ele>2460.5</ele></trkpt>
      <trkpt lat="46.15427" lon="10.89123"><ele>2459.25</ele></trkpt>
      <trkpt lat="46.15432" lon="10.891139"><ele>2461.25</ele></trkpt>
      <trkpt lat="46.154395" lon="10.891087"><ele>2465</ele></trkpt>
      <trkpt lat="46.154423" lon="10.891036"><ele>2465</ele></trkpt>
      <trkpt lat="46.154482" lon="10.890974"><ele>2466</ele></trkpt>
      <trkpt lat="46.15459" lon="10.890913"><ele>2470.25</ele></trkpt>
      <trkpt lat="46.154642" lon="10.890773"><ele>2470</ele></trkpt>
      <trkpt lat="46.154709" lon="10.890565"><ele>2470.25</ele></trkpt>
      <trkpt lat="46.154708" lon="10.890446"><ele>2469.25</ele></trkpt>
      <trkpt lat="46.154775" lon="10.890379"><ele>2473.25</ele></trkpt>
      <trkpt lat="46.1548" lon="10.890313"><ele>2474.5</ele></trkpt>
      <trkpt lat="46.154744" lon="10.890229"><ele>2470.25</ele></trkpt>
      <trkpt lat="46.154731" lon="10.890182"><ele>2469</ele></trkpt>
      <trkpt lat="46.154723" lon="10.890084"><ele>2468.25</ele></trkpt>
      <trkpt lat="46.15473" lon="10.890049"><ele>2468.5</ele></trkpt>
      <trkpt lat="46.154728" lon="10.889989"><ele>2468.25</ele></trkpt>
      <trkpt lat="46.1547" lon="10.889897"><ele>2467.5</ele></trkpt>
      <trkpt lat="46.15459" lon="10.889651"><ele>2464.75</ele></trkpt>
      <trkpt lat="46.154565" lon="10.889539"><ele>2465</ele></trkpt>
      <trkpt lat="46.154473" lon="10.889373"><ele>2463.5</ele></trkpt>
      <trkpt lat="46.154379" lon="10.889234"><ele>2463</ele></trkpt>
      <trkpt lat="46.154241" lon="10.889142"><ele>2461.25</ele></trkpt>
      <trkpt lat="46.154205" lon="10.889035"><ele>2461.5</ele></trkpt>
      <trkpt lat="46.154101" lon="10.888926"><ele>2460.25</ele></trkpt>
      <trkpt lat="46.153922" lon="10.888808"><ele>2456</ele></trkpt>
      <trkpt lat="46.153918" lon="10.888759"><ele>2455.75</ele></trkpt>
      <trkpt lat="46.153866" lon="10.888763"><ele>2455.75</ele></trkpt>
      <trkpt lat="46.153827" lon="10.88879"><ele>2456.75</ele></trkpt>
      <trkpt lat="46.153824" lon="10.888771"><ele>2457</ele></trkpt>
      <trkpt lat="46.153728" lon="10.888818"><ele>2459.25</ele></trkpt>
      <trkpt lat="46.153715" lon="10.88877"><ele>2460.25</ele></trkpt>
      <trkpt lat="46.15369" lon="10.888757"><ele>2461.25</ele></trkpt>
      <trkpt lat="46.153697" lon="10.888704"><ele>2462</ele></trkpt>
      <trkpt lat="46.153658" lon="10.888595"><ele>2466</ele></trkpt>
      <trkpt lat="46.153629" lon="10.888586"><ele>2467.75</ele></trkpt>
      <trkpt lat="46.153619" lon="10.888519"><ele>2470.75</ele></trkpt>
      <trkpt lat="46.153577" lon="10.888509"><ele>2472.25</ele></trkpt>
      <trkpt lat="46.153276" lon="10.888602"><ele>2475.5</ele></trkpt>
      <trkpt lat="46.153266" lon="10.888638"><ele>2474.75</ele></trkpt>
      <trkpt lat="46.153249" lon="10.888669"><ele>2474</ele></trkpt>
      <trkpt lat="46.153191" lon="10.888731"><ele>2472.5</ele></trkpt>
      <trkpt lat="46.153099" lon="10.888774"><ele>2471</ele></trkpt>
      <trkpt lat="46.153016" lon="10.888782"><ele>2470.5</ele></trkpt>
      <trkpt lat="46.152971" lon="10.888768"><ele>2471</ele></trkpt>
      <trkpt lat="46.152931" lon="10.888767"><ele>2471.25</ele></trkpt>
      <trkpt lat="46.152726" lon="10.888922"><ele>2463.75</ele></trkpt>
      <trkpt lat="46.152593" lon="10.889012"><ele>2460.25</ele></trkpt>
      <trkpt lat="46.152382" lon="10.889042"><ele>2458</ele></trkpt>
      <trkpt lat="46.15219" lon="10.889028"><ele>2457.75</ele></trkpt>
      <trkpt lat="46.152091" lon="10.888992"><ele>2457.75</ele></trkpt>
      <trkpt lat="46.151768" lon="10.888981"><ele>2453.75</ele></trkpt>
      <trkpt lat="46.151662" lon="10.889002"><ele>2451</ele></trkpt>
      <trkpt lat="46.151417" lon="10.888967"><ele>2449.5</ele></trkpt>
      <trkpt lat="46.151372" lon="10.888993"><ele>2448.25</ele></trkpt>
      <trkpt lat="46.151153" lon="10.889058"><ele>2447.75</ele></trkpt>
      <trkpt lat="46.150946" lon="10.889055"><ele>2445.75</ele></trkpt>
      <trkpt lat="46.15081" lon="10.88901"><ele>2446.5</ele></trkpt>
      <trkpt lat="46.150347" lon="10.889321"><ele>2437.75</ele></trkpt>
      <trkpt lat="46.150225" lon="10.889331"><ele>2439.5</ele></trkpt>
      <trkpt lat="46.150203" lon="10.889298"><ele>2441.25</ele></trkpt>
      <trkpt lat="46.150059" lon="10.889443"><ele>2435.25</ele></trkpt>
      <trkpt lat="46.149731" lon="10.889573"><ele>2431</ele></trkpt>
      <trkpt lat="46.14955" lon="10.889631"><ele>2428</ele></trkpt>
      <trkpt lat="46.149387" lon="10.889706"><ele>2425</ele></trkpt>
      <trkpt lat="46.149371" lon="10.889664"><ele>2426</ele></trkpt>
      <trkpt lat="46.149213" lon="10.889801"><ele>2421.75</ele></trkpt>
      <trkpt lat="46.149159" lon="10.889932"><ele>2417.75</ele></trkpt>
      <trkpt lat="46.148998" lon="10.890141"><ele>2424.75</ele></trkpt>
      <trkpt lat="46.148865" lon="10.890498"><ele>2414.75</ele></trkpt>
      <trkpt lat="46.148669" lon="10.890762"><ele>2415.75</ele></trkpt>
      <trkpt lat="46.148616" lon="10.890919"><ele>2411.5</ele></trkpt>
      <trkpt lat="46.148345" lon="10.891405"><ele>2402</ele></trkpt>
      <trkpt lat="46.148244" lon="10.891555"><ele>2398.25</ele></trkpt>
      <trkpt lat="46.14824" lon="10.891618"><ele>2395.5</ele></trkpt>
      <trkpt lat="46.148153" lon="10.891709"><ele>2394</ele></trkpt>
      <trkpt lat="46.147915" lon="10.89185"><ele>2392.75</ele></trkpt>
      <trkpt lat="46.147762" lon="10.891879"><ele>2393.25</ele></trkpt>
      <trkpt lat="46.147478" lon="10.892"><ele>2388</ele></trkpt>
      <trkpt lat="46.14739" lon="10.892004"><ele>2386.75</ele></trkpt>
      <trkpt lat="46.147171" lon="10.891965"><ele>2385.5</ele></trkpt>
      <trkpt lat="46.147117" lon="10.891914"><ele>2386.25</ele></trkpt>
      <trkpt lat="46.14703" lon="10.891939"><ele>2384.25</ele></trkpt>
      <trkpt lat="46.147012" lon="10.89198"><ele>2382.75</ele></trkpt>
      <trkpt lat="46.146884" lon="10.892008"><ele>2381.5</ele></trkpt>
      <trkpt lat="46.146824" lon="10.892003"><ele>2382</ele></trkpt>
      <trkpt lat="46.14676" lon="10.891983"><ele>2383</ele></trkpt>
      <trkpt lat="46.146618" lon="10.892001"><ele>2383.5</ele></trkpt>
      <trkpt lat="46.146469" lon="10.892063"><ele>2382</ele></trkpt>
      <trkpt lat="46.146338" lon="10.892089"><ele>2381</ele></trkpt>
      <trkpt lat="46.146132" lon="10.892052"><ele>2381.5</ele></trkpt>
      <trkpt lat="46.146105" lon="10.892095"><ele>2381</ele></trkpt>
      <trkpt lat="46.146101" lon="10.89217"><ele>2380</ele></trkpt>
      <trkpt lat="46.146026" lon="10.892263"><ele>2379.75</ele></trkpt>
      <trkpt lat="46.145946" lon="10.892307"><ele>2380.25</ele></trkpt>
      <trkpt lat="46.14592" lon="10.89235"><ele>2379.5</ele></trkpt>
      <trkpt lat="46.145889" lon="10.892375"><ele>2379.5</ele></trkpt>
      <trkpt lat="46.145876" lon="10.892409"><ele>2378.75</ele></trkpt>
      <trkpt lat="46.14582" lon="10.892441"><ele>2379.5</ele></trkpt>
      <trkpt lat="46.145796" lon="10.892479"><ele>2379.5</ele></trkpt>
      <trkpt lat="46.145767" lon="10.892559"><ele>2379.25</ele></trkpt>
      <trkpt lat="46.145698" lon="10.892593"><ele>2382</ele></trkpt>
      <trkpt lat="46.145686" lon="10.892652"><ele>2381.25</ele></trkpt>
      <trkpt lat="46.145637" lon="10.892769"><ele>2381</ele></trkpt>
      <trkpt lat="46.145601" lon="10.892798"><ele>2382.25</ele></trkpt>
      <trkpt lat="46.145563" lon="10.892929"><ele>2381.75</ele></trkpt>
      <trkpt lat="46.145424" lon="10.893258"><ele>2377.5</ele></trkpt>
      <trkpt lat="46.145335" lon="10.893416"><ele>2376.75</ele></trkpt>
      <trkpt lat="46.145301" lon="10.89351"><ele>2376.5</ele></trkpt>
      <trkpt lat="46.145291" lon="10.893638"><ele>2375.25</ele></trkpt>
      <trkpt lat="46.145269" lon="10.893718"><ele>2375.5</ele></trkpt>
      <trkpt lat="46.145205" lon="10.893785"><ele>2376.75</ele></trkpt>
      <trkpt lat="46.145002" lon="10.893927"><ele>2379.75</ele></trkpt>
      <trkpt lat="46.14478" lon="10.894357"><ele>2383.5</ele></trkpt>
      <trkpt lat="46.144826" lon="10.894589"><ele>2381.5</ele></trkpt>
      <trkpt lat="46.144828" lon="10.894681"><ele>2381.25</ele></trkpt>
      <trkpt lat="46.14476" lon="10.894882"><ele>2379</ele></trkpt>
      <trkpt lat="46.144744" lon="10.895063"><ele>2375.5</ele></trkpt>
      <trkpt lat="46.144715" lon="10.895122"><ele>2375</ele></trkpt>
      <trkpt lat="46.144722" lon="10.895215"><ele>2373.75</ele></trkpt>
      <trkpt lat="46.144621" lon="10.895337"><ele>2369</ele></trkpt>
      <trkpt lat="46.14454" lon="10.895407"><ele>2366.25</ele></trkpt>
      <trkpt lat="46.144546" lon="10.895427"><ele>2365.5</ele></trkpt>
      <trkpt lat="46.144528" lon="10.895464"><ele>2364.5</ele></trkpt>
      <trkpt lat="46.144534" lon="10.895539"><ele>2362</ele></trkpt>
      <trkpt lat="46.144509" lon="10.895614"><ele>2360.25</ele></trkpt>
      <trkpt lat="46.144495" lon="10.895803"><ele>2355.25</ele></trkpt>
      <trkpt lat="46.144459" lon="10.895993"><ele>2353.25</ele></trkpt>
      <trkpt lat="46.144451" lon="10.896193"><ele>2350</ele></trkpt>
      <trkpt lat="46.144438" lon="10.896225"><ele>2350</ele></trkpt>
      <trkpt lat="46.14447" lon="10.896444"><ele>2343</ele></trkpt>
      <trkpt lat="46.144418" lon="10.896626"><ele>2341.25</ele></trkpt>
      <trkpt lat="46.14441" lon="10.896758"><ele>2339</ele></trkpt>
      <trkpt lat="46.144438" lon="10.896935"><ele>2333.5</ele></trkpt>
      <trkpt lat="46.144372" lon="10.89705"><ele>2337</ele></trkpt>
      <trkpt lat="46.144335" lon="10.897132"><ele>2338.5</ele></trkpt>
      <trkpt lat="46.144287" lon="10.897282"><ele>2339.25</ele></trkpt>
      <trkpt lat="46.144231" lon="10.897315"><ele>2343.25</ele></trkpt>
      <trkpt lat="46.144169" lon="10.897455"><ele>2344.75</ele></trkpt>
      <trkpt lat="46.144126" lon="10.897726"><ele>2341.75</ele></trkpt>
      <trkpt lat="46.1441" lon="10.897827"><ele>2340.75</ele></trkpt>
      <trkpt lat="46.144078" lon="10.897986"><ele>2337.5</ele></trkpt>
      <trkpt lat="46.144057" lon="10.898009"><ele>2338.25</ele></trkpt>
      <trkpt lat="46.144063" lon="10.898066"><ele>2336</ele></trkpt>
      <trkpt lat="46.144035" lon="10.898085"><ele>2337.5</ele></trkpt>
      <trkpt lat="46.144028" lon="10.898232"><ele>2333.75</ele></trkpt>
      <trkpt lat="46.143992" lon="10.898328"><ele>2334</ele></trkpt>
      <trkpt lat="46.143743" lon="10.898811"><ele>2323</ele></trkpt>
      <trkpt lat="46.143667" lon="10.898885"><ele>2325.5</ele></trkpt>
      <trkpt lat="46.143678" lon="10.898933"><ele>2322.5</ele></trkpt>
      <trkpt lat="46.143751" lon="10.899014"><ele>2312.25</ele></trkpt>
      <trkpt lat="46.1438" lon="10.899086"><ele>2303.5</ele></trkpt>
      <trkpt lat="46.143791" lon="10.89915"><ele>2301</ele></trkpt>
      <trkpt lat="46.143772" lon="10.899152"><ele>2303</ele></trkpt>
      <trkpt lat="46.143757" lon="10.899135"><ele>2305.75</ele></trkpt>
      <trkpt lat="46.143767" lon="10.899107"><ele>2306</ele></trkpt>
      <trkpt lat="46.143752" lon="10.899099"><ele>2308</ele></trkpt>
      <trkpt lat="46.1437" lon="10.899232"><ele>2306.25</ele></trkpt>
      <trkpt lat="46.143673" lon="10.899352"><ele>2300.75</ele></trkpt>
      <trkpt lat="46.143667" lon="10.899411"><ele>2297.5</ele></trkpt>
      <trkpt lat="46.143595" lon="10.899427"><ele>2303.5</ele></trkpt>
      <trkpt lat="46.143567" lon="10.899348"><ele>2311.5</ele></trkpt>
      <trkpt lat="46.143527" lon="10.899362"><ele>2313.75</ele></trkpt>
      <trkpt lat="46.143515" lon="10.899478"><ele>2307.25</ele></trkpt>
      <trkpt lat="46.143323" lon="10.899773"><ele>2302.5</ele></trkpt>
      <trkpt lat="46.143315" lon="10.899986"><ele>2302</ele></trkpt>
      <trkpt lat="46.143113" lon="10.900616"><ele>2311.25</ele></trkpt>
      <trkpt lat="46.142909" lon="10.900988"><ele>2322.5</ele></trkpt>
      <trkpt lat="46.142889" lon="10.901124"><ele>2323.5</ele></trkpt>
      <trkpt lat="46.142909" lon="10.901308"><ele>2324.75</ele></trkpt>
      <trkpt lat="46.142872" lon="10.901327"><ele>2326.75</ele></trkpt>
      <trkpt lat="46.142871" lon="10.901516"><ele>2328.75</ele></trkpt>
      <trkpt lat="46.142898" lon="10.901702"><ele>2328.75</ele></trkpt>
      <trkpt lat="46.142861" lon="10.901633"><ele>2330.25</ele></trkpt>
      <trkpt lat="46.142783" lon="10.901581"><ele>2333.75</ele></trkpt>
      <trkpt lat="46.142753" lon="10.901771"><ele>2336.75</ele></trkpt>
      <trkpt lat="46.142726" lon="10.901775"><ele>2337.75</ele></trkpt>
      <trkpt lat="46.142697" lon="10.901753"><ele>2339</ele></trkpt>
      <trkpt lat="46.14268" lon="10.901761"><ele>2339.75</ele></trkpt>
      <trkpt lat="46.142656" lon="10.901789"><ele>2341</ele></trkpt>
      <trkpt lat="46.142634" lon="10.901795"><ele>2342</ele></trkpt>
      <trkpt lat="46.142623" lon="10.901813"><ele>2342.75</ele></trkpt>
      <trkpt lat="46.142588" lon="10.901801"><ele>2344</ele></trkpt>
      <trkpt lat="46.142565" lon="10.901773"><ele>2344.75</ele></trkpt>
      <trkpt lat="46.142528" lon="10.901793"><ele>2346.5</ele></trkpt>
      <trkpt lat="46.142517" lon="10.90183"><ele>2347.5</ele></trkpt>
      <trkpt lat="46.142503" lon="10.901829"><ele>2348</ele></trkpt>
      <trkpt lat="46.142489" lon="10.901841"><ele>2349</ele></trkpt>
      <trkpt lat="46.142482" lon="10.901879"><ele>2350</ele></trkpt>
      <trkpt lat="46.142384" lon="10.9021"><ele>2353</ele></trkpt>
      <trkpt lat="46.142308" lon="10.902172"><ele>2355.5</ele></trkpt>
      <trkpt lat="46.14223" lon="10.902215"><ele>2358.75</ele></trkpt>
      <trkpt lat="46.142224" lon="10.902202"><ele>2359.25</ele></trkpt>
      <trkpt lat="46.14226" lon="10.902153"><ele>2358.5</ele></trkpt>
      <trkpt lat="46.142265" lon="10.902103"><ele>2359.5</ele></trkpt>
      <trkpt lat="46.142245" lon="10.902071"><ele>2361.5</ele></trkpt>
      <trkpt lat="46.142201" lon="10.902099"><ele>2363.25</ele></trkpt>
      <trkpt lat="46.142172" lon="10.902108"><ele>2364.5</ele></trkpt>
      <trkpt lat="46.142154" lon="10.90209"><ele>2366</ele></trkpt>
      <trkpt lat="46.142053" lon="10.902136"><ele>2370.75</ele></trkpt>
      <trkpt lat="46.142044" lon="10.902118"><ele>2371.75</ele></trkpt>
      <trkpt lat="46.14202" lon="10.902114"><ele>2373.25</ele></trkpt>
      <trkpt lat="46.142021" lon="10.902088"><ele>2373.5</ele></trkpt>
      <trkpt lat="46.141957" lon="10.902055"><ele>2377.5</ele></trkpt>
      <trkpt lat="46.141832" lon="10.902153"><ele>2385</ele></trkpt>
      <trkpt lat="46.141777" lon="10.902245"><ele>2386.25</ele></trkpt>
      <trkpt lat="46.14168" lon="10.902293"><ele>2390</ele></trkpt>
      <trkpt lat="46.141587" lon="10.902306"><ele>2391.5</ele></trkpt>
      <trkpt lat="46.141488" lon="10.902337"><ele>2392</ele></trkpt>
      <trkpt lat="46.141352" lon="10.902257"><ele>2396</ele></trkpt>
      <trkpt lat="46.141235" lon="10.90213"><ele>2396.25</ele></trkpt>
      <trkpt lat="46.141155" lon="10.901977"><ele>2398</ele></trkpt>
      <trkpt lat="46.141075" lon="10.90163"><ele>2399.5</ele></trkpt>
      <trkpt lat="46.141047" lon="10.901414"><ele>2402.75</ele></trkpt>
      <trkpt lat="46.141058" lon="10.901249"><ele>2404.5</ele></trkpt>
      <trkpt lat="46.141053" lon="10.901118"><ele>2405.5</ele></trkpt>
      <trkpt lat="46.140996" lon="10.900919"><ele>2406.25</ele></trkpt>
      <trkpt lat="46.14074" lon="10.900521"><ele>2411</ele></trkpt>
      <trkpt lat="46.140723" lon="10.900367"><ele>2410.25</ele></trkpt>
      <trkpt lat="46.140632" lon="10.900197"><ele>2409.75</ele></trkpt>
      <trkpt lat="46.140586" lon="10.900049"><ele>2409.75</ele></trkpt>
      <trkpt lat="46.140552" lon="10.899872"><ele>2410.75</ele></trkpt>
      <trkpt lat="46.140518" lon="10.899798"><ele>2411.75</ele></trkpt>
      <trkpt lat="46.140461" lon="10.899759"><ele>2412.5</ele></trkpt>
      <trkpt lat="46.140347" lon="10.899764"><ele>2413.75</ele></trkpt>
      <trkpt lat="46.140239" lon="10.899702"><ele>2414.75</ele></trkpt>
      <trkpt lat="46.140131" lon="10.899571"><ele>2415.5</ele></trkpt>
      <trkpt lat="46.140074" lon="10.899372"><ele>2417</ele></trkpt>
      <trkpt lat="46.139853" lon="10.899048"><ele>2417.25</ele></trkpt>
      <trkpt lat="46.139779" lon="10.898877"><ele>2416.25</ele></trkpt>
      <trkpt lat="46.139781" lon="10.898711"><ele>2414.25</ele></trkpt>
      <trkpt lat="46.139824" lon="10.898588"><ele>2414.5</ele></trkpt>
      <trkpt lat="46.139875" lon="10.898473"><ele>2415.25</ele></trkpt>
      <trkpt lat="46.139938" lon="10.898365"><ele>2417.25</ele></trkpt>
      <trkpt lat="46.140006" lon="10.898075"><ele>2418.5</ele></trkpt>
      <trkpt lat="46.140017" lon="10.897853"><ele>2417.5</ele></trkpt>
      <trkpt lat="46.140012" lon="10.897529"><ele>2414.75</ele></trkpt>
      <trkpt lat="46.139932" lon="10.897137"><ele>2416.5</ele></trkpt>
      <trkpt lat="46.139864" lon="10.896869"><ele>2420.75</ele></trkpt>
      <trkpt lat="46.139722" lon="10.896562"><ele>2420.75</ele></trkpt>
      <trkpt lat="46.139665" lon="10.896403"><ele>2420.5</ele></trkpt>
      <trkpt lat="46.139631" lon="10.896272"><ele>2421.25</ele></trkpt>
      <trkpt lat="46.139562" lon="10.896221"><ele>2418.5</ele></trkpt>
      <trkpt lat="46.139398" lon="10.896005"><ele>2415</ele></trkpt>
      <trkpt lat="46.139352" lon="10.895903"><ele>2416</ele></trkpt>
      <trkpt lat="46.139329" lon="10.895647"><ele>2418.25</ele></trkpt>
      <trkpt lat="46.139266" lon="10.895425"><ele>2419.75</ele></trkpt>
      <trkpt lat="46.139244" lon="10.895226"><ele>2423</ele></trkpt>
      <trkpt lat="46.139116" lon="10.895023"><ele>2424.25</ele></trkpt>
      <trkpt lat="46.139055" lon="10.894953"><ele>2424</ele></trkpt>
      <trkpt lat="46.138887" lon="10.894809"><ele>2423.25</ele></trkpt>
      <trkpt lat="46.13888" lon="10.894691"><ele>2424.25</ele></trkpt>
      <trkpt lat="46.138852" lon="10.894509"><ele>2422.25</ele></trkpt>
      <trkpt lat="46.138823" lon="10.894395"><ele>2422</ele></trkpt>
      <trkpt lat="46.138772" lon="10.894339"><ele>2421.5</ele></trkpt>
      <trkpt lat="46.138687" lon="10.89431"><ele>2420</ele></trkpt>
      <trkpt lat="46.13862" lon="10.894304"><ele>2418.25</ele></trkpt>
      <trkpt lat="46.138545" lon="10.894312"><ele>2415.25</ele></trkpt>
      <trkpt lat="46.138456" lon="10.894269"><ele>2414.25</ele></trkpt>
      <trkpt lat="46.138343" lon="10.894187"><ele>2415</ele></trkpt>
      <trkpt lat="46.138255" lon="10.894183"><ele>2413.5</ele></trkpt>
      <trkpt lat="46.138192" lon="10.894031"><ele>2409.5</ele></trkpt>
      <trkpt lat="46.138201" lon="10.893931"><ele>2406.75</ele></trkpt>
      <trkpt lat="46.138268" lon="10.893827"><ele>2402.5</ele></trkpt>
      <trkpt lat="46.138263" lon="10.893744"><ele>2397.5</ele></trkpt>
      <trkpt lat="46.1383" lon="10.893709"><ele>2396.75</ele></trkpt>
      <trkpt lat="46.138287" lon="10.893647"><ele>2393</ele></trkpt>
      <trkpt lat="46.138319" lon="10.893604"><ele>2391.75</ele></trkpt>
      <trkpt lat="46.138322" lon="10.893518"><ele>2386.75</ele></trkpt>
      <trkpt lat="46.138347" lon="10.893427"><ele>2382.5</ele></trkpt>
      <trkpt lat="46.138493" lon="10.893155"><ele>2373</ele></trkpt>
      <trkpt lat="46.138607" lon="10.892993"><ele>2370</ele></trkpt>
      <trkpt lat="46.138624" lon="10.892814"><ele>2365.75</ele></trkpt>
      <trkpt lat="46.138624" lon="10.892655"><ele>2362</ele></trkpt>
      <trkpt lat="46.138662" lon="10.892346"><ele>2356</ele></trkpt>
      <trkpt lat="46.138759" lon="10.892072"><ele>2351.75</ele></trkpt>
      <trkpt lat="46.138849" lon="10.891747"><ele>2344</ele></trkpt>
      <trkpt lat="46.138653" lon="10.891845"><ele>2337.25</ele></trkpt>
      <trkpt lat="46.138761" lon="10.891603"><ele>2333.25</ele></trkpt>
      <trkpt lat="46.138948" lon="10.89129"><ele>2327.75</ele></trkpt>
      <trkpt lat="46.139125" lon="10.891074"><ele>2326.25</ele></trkpt>
      <trkpt lat="46.139422" lon="10.890667"><ele>2329.5</ele></trkpt>
      <trkpt lat="46.139617" lon="10.890454"><ele>2340.75</ele></trkpt>
      <trkpt lat="46.13971" lon="10.890375"><ele>2337.25</ele></trkpt>
      <trkpt lat="46.139832" lon="10.890149"><ele>2335.5</ele></trkpt>
      <trkpt lat="46.139943" lon="10.889871"><ele>2319.75</ele></trkpt>
      <trkpt lat="46.140077" lon="10.889269"><ele>2314.75</ele></trkpt>
      <trkpt lat="46.140131" lon="10.88897"><ele>2313.25</ele></trkpt>
      <trkpt lat="46.140175" lon="10.888425"><ele>2312.25</ele></trkpt>
      <trkpt lat="46.14016" lon="10.888361"><ele>2310.25</ele></trkpt>
      <trkpt lat="46.140259" lon="10.887994"><ele>2309</ele></trkpt>
      <trkpt lat="46.140262" lon="10.887827"><ele>2305</ele></trkpt>
      <trkpt lat="46.140359" lon="10.887605"><ele>2302</ele></trkpt>
      <trkpt lat="46.140529" lon="10.887337"><ele>2294.75</ele></trkpt>
      <trkpt lat="46.140643" lon="10.887309"><ele>2297</ele></trkpt>
      <trkpt lat="46.140723" lon="10.887161"><ele>2294</ele></trkpt>
      <trkpt lat="46.14078" lon="10.886638"><ele>2284.5</ele></trkpt>
      <trkpt lat="46.140809" lon="10.886561"><ele>2283.75</ele></trkpt>
      <trkpt lat="46.140983" lon="10.88635"><ele>2290.5</ele></trkpt>
      <trkpt lat="46.141101" lon="10.886129"><ele>2287.25</ele></trkpt>
      <trkpt lat="46.141188" lon="10.886075"><ele>2290.5</ele></trkpt>
      <trkpt lat="46.141601" lon="10.885351"><ele>2292</ele></trkpt>
      <trkpt lat="46.141729" lon="10.885281"><ele>2295.5</ele></trkpt>
      <trkpt lat="46.141902" lon="10.884949"><ele>2293.75</ele></trkpt>
      <trkpt lat="46.142071" lon="10.884675"><ele>2297</ele></trkpt>
      <trkpt lat="46.142123" lon="10.884447"><ele>2297.5</ele></trkpt>
      <trkpt lat="46.142439" lon="10.883821"><ele>2299</ele></trkpt>
      <trkpt lat="46.142519" lon="10.883605"><ele>2300.25</ele></trkpt>
      <trkpt lat="46.142444" lon="10.882768"><ele>2301</ele></trkpt>
      <trkpt lat="46.142385" lon="10.882621"><ele>2298.75</ele></trkpt>
      <trkpt lat="46.142381" lon="10.882411"><ele>2301.25</ele></trkpt>
      <trkpt lat="46.142349" lon="10.88228"><ele>2300.5</ele></trkpt>
      <trkpt lat="46.142359" lon="10.882014"><ele>2302</ele></trkpt>
      <trkpt lat="46.14234" lon="10.881752"><ele>2301.75</ele></trkpt>
      <trkpt lat="46.142364" lon="10.881419"><ele>2302.25</ele></trkpt>
      <trkpt lat="46.142444" lon="10.880848"><ele>2305</ele></trkpt>
      <trkpt lat="46.142464" lon="10.880605"><ele>2304</ele></trkpt>
      <trkpt lat="46.142521" lon="10.880468"><ele>2305.5</ele></trkpt>
      <trkpt lat="46.142651" lon="10.880199"><ele>2305</ele></trkpt>
      <trkpt lat="46.142773" lon="10.880032"><ele>2306.25</ele></trkpt>
      <trkpt lat="46.142815" lon="10.879854"><ele>2307</ele></trkpt>
      <trkpt lat="46.14283" lon="10.879681"><ele>2307.5</ele></trkpt>
      <trkpt lat="46.142788" lon="10.879582"><ele>2307.25</ele></trkpt>
      <trkpt lat="46.142759" lon="10.879364"><ele>2306.75</ele></trkpt>
      <trkpt lat="46.142855" lon="10.879039"><ele>2310.75</ele></trkpt>
      <trkpt lat="46.14286" lon="10.87892"><ele>2310.75</ele></trkpt>
      <trkpt lat="46.142784" lon="10.878822"><ele>2308.75</ele></trkpt>
      <trkpt lat="46.142724" lon="10.878649"><ele>2310.25</ele></trkpt>
      <trkpt lat="46.142632" lon="10.878451"><ele>2308.25</ele></trkpt>
      <trkpt lat="46.142628" lon="10.878388"><ele>2308.75</ele></trkpt>
      <trkpt lat="46.142642" lon="10.878271"><ele>2309.75</ele></trkpt>
      <trkpt lat="46.142707" lon="10.877915"><ele>2311</ele></trkpt>
      <trkpt lat="46.142728" lon="10.877614"><ele>2311.5</ele></trkpt>
      <trkpt lat="46.142693" lon="10.877439"><ele>2310.75</ele></trkpt>
      <trkpt lat="46.142702" lon="10.877259"><ele>2314.25</ele></trkpt>
      <trkpt lat="46.142682" lon="10.877095"><ele>2314.25</ele></trkpt>
      <trkpt lat="46.142645" lon="10.876986"><ele>2312</ele></trkpt>
      <trkpt lat="46.142648" lon="10.876801"><ele>2310.5</ele></trkpt>
      <trkpt lat="46.142677" lon="10.876619"><ele>2310</ele></trkpt>
      <trkpt lat="46.142794" lon="10.876253"><ele>2314.25</ele></trkpt>
      <trkpt lat="46.142898" lon="10.875807"><ele>2315.5</ele></trkpt>
      <trkpt lat="46.142925" lon="10.875587"><ele>2317</ele></trkpt>
      <trkpt lat="46.142931" lon="10.87523"><ele>2320</ele></trkpt>
      <trkpt lat="46.142902" lon="10.874304"><ele>2322</ele></trkpt>
      <trkpt lat="46.142847" lon="10.873973"><ele>2322.75</ele></trkpt>
      <trkpt lat="46.142752" lon="10.873791"><ele>2321.25</ele></trkpt>
      <trkpt lat="46.14274" lon="10.873724"><ele>2321.5</ele></trkpt>
      <trkpt lat="46.142736" lon="10.873625"><ele>2322.75</ele></trkpt>
      <trkpt lat="46.142759" lon="10.873346"><ele>2327.75</ele></trkpt>
      <trkpt lat="46.142838" lon="10.872846"><ele>2338.25</ele></trkpt>
      <trkpt lat="46.14285" lon="10.872357"><ele>2345.75</ele></trkpt>
      <trkpt lat="46.142844" lon="10.871009"><ele>2357.25</ele></trkpt>
      <trkpt lat="46.142816" lon="10.870912"><ele>2357.75</ele></trkpt>
      <trkpt lat="46.142543" lon="10.87048"><ele>2366.5</ele></trkpt>
      <trkpt lat="46.142289" lon="10.870198"><ele>2373.75</ele></trkpt>
      <trkpt lat="46.142089" lon="10.870006"><ele>2376.75</ele></trkpt>
      <trkpt lat="46.142047" lon="10.869945"><ele>2377.75</ele></trkpt>
      <trkpt lat="46.141998" lon="10.869851"><ele>2379</ele></trkpt>
      <trkpt lat="46.141993" lon="10.869812"><ele>2380</ele></trkpt>
      <trkpt lat="46.142002" lon="10.869772"><ele>2381.5</ele></trkpt>
      <trkpt lat="46.142019" lon="10.869746"><ele>2383</ele></trkpt>
      <trkpt lat="46.14204" lon="10.86974"><ele>2384</ele></trkpt>
      <trkpt lat="46.142146" lon="10.869789"><ele>2386.5</ele></trkpt>
      <trkpt lat="46.142323" lon="10.869842"><ele>2389.75</ele></trkpt>
      <trkpt lat="46.14242" lon="10.869825"><ele>2392.75</ele></trkpt>
      <trkpt lat="46.142585" lon="10.86979"><ele>2398</ele></trkpt>
      <trkpt lat="46.142606" lon="10.869769"><ele>2399.25</ele></trkpt>
      <trkpt lat="46.142612" lon="10.869741"><ele>2400.25</ele></trkpt>
      <trkpt lat="46.142604" lon="10.869701"><ele>2401.25</ele></trkpt>
      <trkpt lat="46.142581" lon="10.86965"><ele>2401.75</ele></trkpt>
      <trkpt lat="46.142598" lon="10.869595"><ele>2403.25</ele></trkpt>
      <trkpt lat="46.142601" lon="10.869523"><ele>2404.75</ele></trkpt>
      <trkpt lat="46.142592" lon="10.869467"><ele>2405.75</ele></trkpt>
      <trkpt lat="46.142525" lon="10.86935"><ele>2407</ele></trkpt>
      <trkpt lat="46.142497" lon="10.869326"><ele>2407</ele></trkpt>
      <trkpt lat="46.142525" lon="10.86935"><ele>2407</ele></trkpt>
      <trkpt lat="46.142592" lon="10.869467"><ele>2405.75</ele></trkpt>
      <trkpt lat="46.142601" lon="10.869523"><ele>2404.75</ele></trkpt>
      <trkpt lat="46.142624" lon="10.869494"><ele>2405.75</ele></trkpt>
      <trkpt lat="46.142633" lon="10.869451"><ele>2406.75</ele></trkpt>
      <trkpt lat="46.142698" lon="10.869362"><ele>2409.75</ele></trkpt>
      <trkpt lat="46.142884" lon="10.869331"><ele>2415</ele></trkpt>
      <trkpt lat="46.142941" lon="10.869282"><ele>2417.25</ele></trkpt>
      <trkpt lat="46.142985" lon="10.869148"><ele>2420.5</ele></trkpt>
      <trkpt lat="46.143091" lon="10.869097"><ele>2424.5</ele></trkpt>
      <trkpt lat="46.14308" lon="10.869067"><ele>2425.75</ele></trkpt>
      <trkpt lat="46.143072" lon="10.868978"><ele>2429.25</ele></trkpt>
      <trkpt lat="46.142956" lon="10.868916"><ele>2430</ele></trkpt>
      <trkpt lat="46.142893" lon="10.868827"><ele>2433.5</ele></trkpt>
      <trkpt lat="46.142784" lon="10.868739"><ele>2436.5</ele></trkpt>
      <trkpt lat="46.142772" lon="10.868685"><ele>2439.5</ele></trkpt>
      <trkpt lat="46.14281" lon="10.868629"><ele>2443.25</ele></trkpt>
      <trkpt lat="46.142843" lon="10.868623"><ele>2444.25</ele></trkpt>
      <trkpt lat="46.142961" lon="10.868646"><ele>2444.5</ele></trkpt>
      <trkpt lat="46.143004" lon="10.868625"><ele>2446.25</ele></trkpt>
      <trkpt lat="46.143003" lon="10.868499"><ele>2452.75</ele></trkpt>
      <trkpt lat="46.142926" lon="10.868422"><ele>2455.5</ele></trkpt>
      <trkpt lat="46.142941" lon="10.868333"><ele>2460.25</ele></trkpt>
      <trkpt lat="46.143031" lon="10.868304"><ele>2462.5</ele></trkpt>
      <trkpt lat="46.143134" lon="10.868226"><ele>2468.5</ele></trkpt>
      <trkpt lat="46.14316" lon="10.867908"><ele>2477.5</ele></trkpt>
      <trkpt lat="46.143209" lon="10.867878"><ele>2480.25</ele></trkpt>
      <trkpt lat="46.143245" lon="10.867906"><ele>2481.75</ele></trkpt>
      <trkpt lat="46.143362" lon="10.868029"><ele>2488</ele></trkpt>
      <trkpt lat="46.143425" lon="10.867986"><ele>2492.5</ele></trkpt>
      <trkpt lat="46.143457" lon="10.868035"><ele>2494.75</ele></trkpt>
      <trkpt lat="46.143484" lon="10.867901"><ele>2496</ele></trkpt>
      <trkpt lat="46.143605" lon="10.867652"><ele>2503.5</ele></trkpt>
      <trkpt lat="46.143654" lon="10.867565"><ele>2508.5</ele></trkpt>
      <trkpt lat="46.14373" lon="10.867381"><ele>2515.5</ele></trkpt>
      <trkpt lat="46.143753" lon="10.867296"><ele>2517.75</ele></trkpt>
      <trkpt lat="46.143821" lon="10.867279"><ele>2524.25</ele></trkpt>
      <trkpt lat="46.14387" lon="10.867304"><ele>2528.75</ele></trkpt>
      <trkpt lat="46.143891" lon="10.867369"><ele>2530.5</ele></trkpt>
      <trkpt lat="46.143965" lon="10.86749"><ele>2535.75</ele></trkpt>
      <trkpt lat="46.144096" lon="10.867355"><ele>2545.25</ele></trkpt>
      <trkpt lat="46.1441" lon="10.867302"><ele>2545.5</ele></trkpt>
      <trkpt lat="46.144134" lon="10.867311"><ele>2548</ele></trkpt>
      <trkpt lat="46.144151" lon="10.867362"><ele>2549.25</ele></trkpt>
      <trkpt lat="46.144184" lon="10.86737"><ele>2552</ele></trkpt>
      <trkpt lat="46.144224" lon="10.867285"><ele>2554.5</ele></trkpt>
      <trkpt lat="46.144256" lon="10.867168"><ele>2555.5</ele></trkpt>
      <trkpt lat="46.144293" lon="10.867139"><ele>2557.75</ele></trkpt>
      <trkpt lat="46.144316" lon="10.867032"><ele>2558.75</ele></trkpt>
      <trkpt lat="46.144364" lon="10.866956"><ele>2561.25</ele></trkpt>
      <trkpt lat="46.14458" lon="10.866776"><ele>2570</ele></trkpt>
      <trkpt lat="46.144602" lon="10.866781"><ele>2571.25</ele></trkpt>
      <trkpt lat="46.144676" lon="10.866771"><ele>2575.25</ele></trkpt>
      <trkpt lat="46.14481" lon="10.866642"><ele>2580.25</ele></trkpt>
      <trkpt lat="46.144805" lon="10.866531"><ele>2579.5</ele></trkpt>
      <trkpt lat="46.144829" lon="10.866382"><ele>2580</ele></trkpt>
      <trkpt lat="46.144837" lon="10.866167"><ele>2582.25</ele></trkpt>
      <trkpt lat="46.144876" lon="10.865627"><ele>2592</ele></trkpt>
      <trkpt lat="46.144834" lon="10.865219"><ele>2600.5</ele></trkpt>
      <trkpt lat="46.144784" lon="10.865151"><ele>2600.75</ele></trkpt>
      <trkpt lat="46.144767" lon="10.865033"><ele>2604.75</ele></trkpt>
      <trkpt lat="46.144656" lon="10.865022"><ele>2602.5</ele></trkpt>
      <trkpt lat="46.144594" lon="10.864961"><ele>2603</ele></trkpt>
      <trkpt lat="46.144586" lon="10.864856"><ele>2604.75</ele></trkpt>
      <trkpt lat="46.144511" lon="10.864647"><ele>2606.5</ele></trkpt>
      <trkpt lat="46.144482" lon="10.864495"><ele>2610</ele></trkpt>
      <trkpt lat="46.14441" lon="10.864331"><ele>2613</ele></trkpt>
      <trkpt lat="46.144356" lon="10.864242"><ele>2614.75</ele></trkpt>
      <trkpt lat="46.144267" lon="10.864191"><ele>2616</ele></trkpt>
      <trkpt lat="46.14413" lon="10.864199"><ele>2615.75</ele></trkpt>
      <trkpt lat="46.144067" lon="10.864184"><ele>2616.25</ele></trkpt>
      <trkpt lat="46.144007" lon="10.864135"><ele>2617.5</ele></trkpt>
      <trkpt lat="46.143823" lon="10.86375"><ele>2623.5</ele></trkpt>
      <trkpt lat="46.143756" lon="10.863456"><ele>2629.75</ele></trkpt>
      <trkpt lat="46.143765" lon="10.863321"><ele>2634</ele></trkpt>
      <trkpt lat="46.1438" lon="10.863216"><ele>2637.5</ele></trkpt>
      <trkpt lat="46.143861" lon="10.863145"><ele>2641</ele></trkpt>
      <trkpt lat="46.143891" lon="10.863081"><ele>2643.5</ele></trkpt>
      <trkpt lat="46.143879" lon="10.862892"><ele>2648.75</ele></trkpt>
      <trkpt lat="46.143909" lon="10.862825"><ele>2652</ele></trkpt>
      <trkpt lat="46.144173" lon="10.862993"><ele>2656.25</ele></trkpt>
      <trkpt lat="46.144232" lon="10.862888"><ele>2662</ele></trkpt>
      <trkpt lat="46.144313" lon="10.862892"><ele>2665</ele></trkpt>
      <trkpt lat="46.144382" lon="10.862955"><ele>2666.25</ele></trkpt>
      <trkpt lat="46.144422" lon="10.862926"><ele>2668.75</ele></trkpt>
      <trkpt lat="46.144413" lon="10.862791"><ele>2671.5</ele></trkpt>
      <trkpt lat="46.144486" lon="10.862794"><ele>2675.5</ele></trkpt>
      <trkpt lat="46.144498" lon="10.862716"><ele>2681.25</ele></trkpt>
      <trkpt lat="46.144556" lon="10.862654"><ele>2695.5</ele></trkpt>
      <trkpt lat="46.144545" lon="10.86255"><ele>2705.5</ele></trkpt>
      <trkpt lat="46.144519" lon="10.86247"><ele>2707.75</ele></trkpt>
      <trkpt lat="46.14449" lon="10.862428"><ele>2705.5</ele></trkpt>
      <trkpt lat="46.144482" lon="10.862382"><ele>2710</ele></trkpt>
      <trkpt lat="46.144482" lon="10.862332"><ele>2717.25</ele></trkpt>
      <trkpt lat="46.144456" lon="10.862311"><ele>2714</ele></trkpt>
      <trkpt lat="46.144432" lon="10.862304"><ele>2710.75</ele></trkpt>
      <trkpt lat="46.144417" lon="10.862279"><ele>2712.75</ele></trkpt>
      <trkpt lat="46.144405" lon="10.862193"><ele>2727</ele></trkpt>
      <trkpt lat="46.144438" lon="10.862159"><ele>2740</ele></trkpt>
      <trkpt lat="46.144448" lon="10.862135"><ele>2747.5</ele></trkpt>
      <trkpt lat="46.144403" lon="10.862091"><ele>2754.5</ele></trkpt>
      <trkpt lat="46.144365" lon="10.862029"><ele>2769.5</ele></trkpt>
      <trkpt lat="46.144341" lon="10.862013"><ele>2773.25</ele></trkpt>
      <trkpt lat="46.144306" lon="10.862019"><ele>2769.75</ele></trkpt>
      <trkpt lat="46.144279" lon="10.861994"><ele>2777</ele></trkpt>
      <trkpt lat="46.144303" lon="10.861718"><ele>2810.5</ele></trkpt>
      <trkpt lat="46.1443" lon="10.861608"><ele>2817.75</ele></trkpt>
      <trkpt lat="46.144314" lon="10.861596"><ele>2818.5</ele></trkpt>
      <trkpt lat="46.144382" lon="10.861612"><ele>2818.25</ele></trkpt>
      <trkpt lat="46.144393" lon="10.861573"><ele>2819.5</ele></trkpt>
      <trkpt lat="46.144488" lon="10.861603"><ele>2817.75</ele></trkpt>
      <trkpt lat="46.144495" lon="10.861532"><ele>2818</ele></trkpt>
      <trkpt lat="46.144475" lon="10.861475"><ele>2819</ele></trkpt>
      <trkpt lat="46.144483" lon="10.861455"><ele>2818.75</ele></trkpt>
      <trkpt lat="46.144504" lon="10.861442"><ele>2817.75</ele></trkpt>
      <trkpt lat="46.14463" lon="10.861608"><ele>2815</ele></trkpt>
      <trkpt lat="46.144666" lon="10.861679"><ele>2816.75</ele></trkpt>
      <trkpt lat="46.144721" lon="10.861723"><ele>2820</ele></trkpt>
      <trkpt lat="46.144769" lon="10.861722"><ele>2819.5</ele></trkpt>
      <trkpt lat="46.144828" lon="10.861699"><ele>2817.5</ele></trkpt>
      <trkpt lat="46.144832" lon="10.861635"><ele>2813.25</ele></trkpt>
      <trkpt lat="46.14485" lon="10.861565"><ele>2808.75</ele></trkpt>
      <trkpt lat="46.144896" lon="10.861544"><ele>2806.75</ele></trkpt>
      <trkpt lat="46.144941" lon="10.861491"><ele>2802</ele></trkpt>
      <trkpt lat="46.144947" lon="10.861451"><ele>2799.25</ele></trkpt>
      <trkpt lat="46.144971" lon="10.861411"><ele>2795.5</ele></trkpt>
      <trkpt lat="46.145041" lon="10.861347"><ele>2792.5</ele></trkpt>
      <trkpt lat="46.145088" lon="10.861293"><ele>2791.75</ele></trkpt>
      <trkpt lat="46.145141" lon="10.861211"><ele>2790.25</ele></trkpt>
      <trkpt lat="46.145146" lon="10.861131"><ele>2786.5</ele></trkpt>
      <trkpt lat="46.145138" lon="10.86106"><ele>2783.25</ele></trkpt>
      <trkpt lat="46.145175" lon="10.860936"><ele>2780.25</ele></trkpt>
      <trkpt lat="46.145185" lon="10.86085"><ele>2777.5</ele></trkpt>
      <trkpt lat="46.145186" lon="10.860743"><ele>2772.25</ele></trkpt>
      <trkpt lat="46.145215" lon="10.860706"><ele>2771.75</ele></trkpt>
      <trkpt lat="46.145172" lon="10.860656"><ele>2767.5</ele></trkpt>
      <trkpt lat="46.145201" lon="10.860624"><ele>2767</ele></trkpt>
      <trkpt lat="46.145238" lon="10.860604"><ele>2767.25</ele></trkpt>
      <trkpt lat="46.145265" lon="10.860558"><ele>2765.5</ele></trkpt>
      <trkpt lat="46.145251" lon="10.860512"><ele>2762.75</ele></trkpt>
      <trkpt lat="46.145164" lon="10.860467"><ele>2758</ele></trkpt>
      <trkpt lat="46.145157" lon="10.860398"><ele>2754.75</ele></trkpt>
      <trkpt lat="46.14519" lon="10.860345"><ele>2753.25</ele></trkpt>
      <trkpt lat="46.145216" lon="10.860319"><ele>2752.5</ele></trkpt>
      <trkpt lat="46.145246" lon="10.860255"><ele>2750.25</ele></trkpt>
      <trkpt lat="46.145228" lon="10.860223"><ele>2748.75</ele></trkpt>
      <trkpt lat="46.145232" lon="10.860218"><ele>2748.75</ele></trkpt>
      <trkpt lat="46.145301" lon="10.86014"><ele>2747.25</ele></trkpt>
      <trkpt lat="46.145343" lon="10.860056"><ele>2744</ele></trkpt>
      <trkpt lat="46.145354" lon="10.859956"><ele>2739.5</ele></trkpt>
      <trkpt lat="46.145336" lon="10.859788"><ele>2732.25</ele></trkpt>
      <trkpt lat="46.145353" lon="10.859717"><ele>2729.25</ele></trkpt>
      <trkpt lat="46.145405" lon="10.859686"><ele>2728</ele></trkpt>
      <trkpt lat="46.145448" lon="10.859674"><ele>2727.75</ele></trkpt>
      <trkpt lat="46.145516" lon="10.859637"><ele>2726.5</ele></trkpt>
      <trkpt lat="46.145528" lon="10.859554"><ele>2722.75</ele></trkpt>
      <trkpt lat="46.145563" lon="10.859466"><ele>2719.25</ele></trkpt>
      <trkpt lat="46.145508" lon="10.859407"><ele>2716.25</ele></trkpt>
      <trkpt lat="46.145489" lon="10.859364"><ele>2714.25</ele></trkpt>
      <trkpt lat="46.145504" lon="10.859324"><ele>2713</ele></trkpt>
      <trkpt lat="46.145563" lon="10.859269"><ele>2711.75</ele></trkpt>
      <trkpt lat="46.14557" lon="10.859189"><ele>2709</ele></trkpt>
      <trkpt lat="46.14554" lon="10.859153"><ele>2707</ele></trkpt>
      <trkpt lat="46.14547" lon="10.859138"><ele>2705.5</ele></trkpt>
      <trkpt lat="46.14532" lon="10.859163"><ele>2704.25</ele></trkpt>
      <trkpt lat="46.145055" lon="10.859131"><ele>2702.5</ele></trkpt>
      <trkpt lat="46.144909" lon="10.859039"><ele>2700.75</ele></trkpt>
      <trkpt lat="46.14473" lon="10.858957"><ele>2700.75</ele></trkpt>
      <trkpt lat="46.144663" lon="10.858907"><ele>2700</ele></trkpt>
      <trkpt lat="46.144616" lon="10.858792"><ele>2696.75</ele></trkpt>
      <trkpt lat="46.144616" lon="10.858749"><ele>2695</ele></trkpt>
      <trkpt lat="46.144658" lon="10.858726"><ele>2693</ele></trkpt>
      <trkpt lat="46.144785" lon="10.858821"><ele>2694</ele></trkpt>
      <trkpt lat="46.144938" lon="10.858883"><ele>2693.75</ele></trkpt>
      <trkpt lat="46.144997" lon="10.858888"><ele>2693</ele></trkpt>
      <trkpt lat="46.145027" lon="10.858875"><ele>2692.25</ele></trkpt>
      <trkpt lat="46.145032" lon="10.858824"><ele>2690</ele></trkpt>
      <trkpt lat="46.145018" lon="10.85876"><ele>2687.75</ele></trkpt>
      <trkpt lat="46.14482" lon="10.85849"><ele>2680.25</ele></trkpt>
      <trkpt lat="46.144859" lon="10.858435"><ele>2677.25</ele></trkpt>
      <trkpt lat="46.144889" lon="10.85844"><ele>2677</ele></trkpt>
      <trkpt lat="46.145002" lon="10.858356"><ele>2670.75</ele></trkpt>
      <trkpt lat="46.14512" lon="10.858363"><ele>2667.25</ele></trkpt>
      <trkpt lat="46.145171" lon="10.858339"><ele>2664.5</ele></trkpt>
      <trkpt lat="46.145194" lon="10.85831"><ele>2662.75</ele></trkpt>
      <trkpt lat="46.145198" lon="10.858251"><ele>2660.75</ele></trkpt>
      <trkpt lat="46.145211" lon="10.858188"><ele>2658.5</ele></trkpt>
      <trkpt lat="46.145259" lon="10.858179"><ele>2657</ele></trkpt>
      <trkpt lat="46.14531" lon="10.858211"><ele>2656.5</ele></trkpt>
      <trkpt lat="46.145354" lon="10.858285"><ele>2658</ele></trkpt>
      <trkpt lat="46.145384" lon="10.858309"><ele>2658.25</ele></trkpt>
      <trkpt lat="46.14543" lon="10.858305"><ele>2657</ele></trkpt>
      <trkpt lat="46.145558" lon="10.858214"><ele>2650.75</ele></trkpt>
      <trkpt lat="46.145758" lon="10.858143"><ele>2649.25</ele></trkpt>
      <trkpt lat="46.145837" lon="10.858031"><ele>2644</ele></trkpt>
      <trkpt lat="46.14595" lon="10.857971"><ele>2645</ele></trkpt>
      <trkpt lat="46.146028" lon="10.857887"><ele>2643.25</ele></trkpt>
      <trkpt lat="46.146189" lon="10.857765"><ele>2643</ele></trkpt>
      <trkpt lat="46.14625" lon="10.85766"><ele>2641</ele></trkpt>
      <trkpt lat="46.146339" lon="10.857551"><ele>2640</ele></trkpt>
      <trkpt lat="46.14657" lon="10.857159"><ele>2633</ele></trkpt>
      <trkpt lat="46.146693" lon="10.857038"><ele>2632.25</ele></trkpt>
      <trkpt lat="46.146772" lon="10.856944"><ele>2631.75</ele></trkpt>
      <trkpt lat="46.146825" lon="10.856761"><ele>2629.25</ele></trkpt>
      <trkpt lat="46.146849" lon="10.856563"><ele>2625.75</ele></trkpt>
      <trkpt lat="46.146978" lon="10.856261"><ele>2624.25</ele></trkpt>
      <trkpt lat="46.147208" lon="10.855473"><ele>2606</ele></trkpt>
      <trkpt lat="46.147362" lon="10.855279"><ele>2604</ele></trkpt>
      <trkpt lat="46.147353" lon="10.855205"><ele>2601</ele></trkpt>
      <trkpt lat="46.147456" lon="10.855037"><ele>2596</ele></trkpt>
      <trkpt lat="46.147477" lon="10.854963"><ele>2593.5</ele></trkpt>
      <trkpt lat="46.147516" lon="10.854939"><ele>2593.5</ele></trkpt>
      <trkpt lat="46.147583" lon="10.854734"><ele>2588.75</ele></trkpt>
      <trkpt lat="46.147616" lon="10.854605"><ele>2585.75</ele></trkpt>
      <trkpt lat="46.147664" lon="10.854565"><ele>2585</ele></trkpt>
      <trkpt lat="46.147715" lon="10.854465"><ele>2581.25</ele></trkpt>
      <trkpt lat="46.147765" lon="10.854414"><ele>2579.5</ele></trkpt>
      <trkpt lat="46.147822" lon="10.854326"><ele>2577.25</ele></trkpt>
      <trkpt lat="46.147945" lon="10.854213"><ele>2572.5</ele></trkpt>
      <trkpt lat="46.148097" lon="10.853977"><ele>2564.75</ele></trkpt>
      <trkpt lat="46.148317" lon="10.853749"><ele>2558.25</ele></trkpt>
      <trkpt lat="46.148352" lon="10.853639"><ele>2555.25</ele></trkpt>
      <trkpt lat="46.148391" lon="10.853481"><ele>2554.5</ele></trkpt>
      <trkpt lat="46.148471" lon="10.853336"><ele>2553.5</ele></trkpt>
      <trkpt lat="46.148506" lon="10.853242"><ele>2551.25</ele></trkpt>
      <trkpt lat="46.148556" lon="10.853159"><ele>2548.25</ele></trkpt>
      <trkpt lat="46.148631" lon="10.852912"><ele>2541</ele></trkpt>
      <trkpt lat="46.148705" lon="10.852827"><ele>2539.25</ele></trkpt>
      <trkpt lat="46.148757" lon="10.852709"><ele>2536.25</ele></trkpt>
      <trkpt lat="46.148754" lon="10.852636"><ele>2534.5</ele></trkpt>
      <trkpt lat="46.148758" lon="10.852601"><ele>2533.75</ele></trkpt>
      <trkpt lat="46.148781" lon="10.852587"><ele>2533</ele></trkpt>
      <trkpt lat="46.148791" lon="10.85255"><ele>2532.25</ele></trkpt>
      <trkpt lat="46.148712" lon="10.852389"><ele>2528</ele></trkpt>
      <trkpt lat="46.148704" lon="10.852308"><ele>2525.25</ele></trkpt>
      <trkpt lat="46.148721" lon="10.852199"><ele>2522</ele></trkpt>
      <trkpt lat="46.148827" lon="10.852093"><ele>2521</ele></trkpt>
      <trkpt lat="46.148879" lon="10.851975"><ele>2519.25</ele></trkpt>
      <trkpt lat="46.148893" lon="10.85189"><ele>2518.5</ele></trkpt>
      <trkpt lat="46.148907" lon="10.851857"><ele>2518.25</ele></trkpt>
      <trkpt lat="46.148918" lon="10.851801"><ele>2517.75</ele></trkpt>
      <trkpt lat="46.148914" lon="10.851671"><ele>2517.25</ele></trkpt>
      <trkpt lat="46.148925" lon="10.851536"><ele>2517.75</ele></trkpt>
      <trkpt lat="46.148913" lon="10.851479"><ele>2518.5</ele></trkpt>
      <trkpt lat="46.148919" lon="10.851361"><ele>2519</ele></trkpt>
      <trkpt lat="46.148933" lon="10.851317"><ele>2518.75</ele></trkpt>
      <trkpt lat="46.148907" lon="10.851239"><ele>2520</ele></trkpt>
      <trkpt lat="46.148909" lon="10.851194"><ele>2520</ele></trkpt>
      <trkpt lat="46.148924" lon="10.851164"><ele>2519.75</ele></trkpt>
      <trkpt lat="46.14895" lon="10.85115"><ele>2519.25</ele></trkpt>
      <trkpt lat="46.148938" lon="10.851089"><ele>2519.75</ele></trkpt>
      <trkpt lat="46.148909" lon="10.851038"><ele>2520</ele></trkpt>
      <trkpt lat="46.14891" lon="10.850975"><ele>2519.75</ele></trkpt>
      <trkpt lat="46.148936" lon="10.850818"><ele>2518</ele></trkpt>
      <trkpt lat="46.148938" lon="10.850722"><ele>2516.25</ele></trkpt>
      <trkpt lat="46.148949" lon="10.850682"><ele>2515.25</ele></trkpt>
      <trkpt lat="46.148979" lon="10.850638"><ele>2513.5</ele></trkpt>
      <trkpt lat="46.148978" lon="10.85056"><ele>2512</ele></trkpt>
      <trkpt lat="46.148987" lon="10.850531"><ele>2511.5</ele></trkpt>
      <trkpt lat="46.148981" lon="10.850488"><ele>2511</ele></trkpt>
      <trkpt lat="46.148997" lon="10.850462"><ele>2510.25</ele></trkpt>
      <trkpt lat="46.149015" lon="10.850312"><ele>2508.5</ele></trkpt>
      <trkpt lat="46.149041" lon="10.850248"><ele>2508</ele></trkpt>
      <trkpt lat="46.149058" lon="10.850127"><ele>2508.75</ele></trkpt>
      <trkpt lat="46.149093" lon="10.850036"><ele>2510</ele></trkpt>
      <trkpt lat="46.149103" lon="10.849971"><ele>2510.75</ele></trkpt>
      <trkpt lat="46.149133" lon="10.849869"><ele>2511.25</ele></trkpt>
      <trkpt lat="46.149184" lon="10.849754"><ele>2511.5</ele></trkpt>
      <trkpt lat="46.149232" lon="10.849625"><ele>2509</ele></trkpt>
      <trkpt lat="46.149285" lon="10.849513"><ele>2507</ele></trkpt>
      <trkpt lat="46.149333" lon="10.849442"><ele>2506.25</ele></trkpt>
      <trkpt lat="46.149401" lon="10.84929"><ele>2505.25</ele></trkpt>
      <trkpt lat="46.149415" lon="10.849169"><ele>2505</ele></trkpt>
      <trkpt lat="46.14946" lon="10.849094"><ele>2504.5</ele></trkpt>
      <trkpt lat="46.149444" lon="10.84886"><ele>2504.25</ele></trkpt>
      <trkpt lat="46.149505" lon="10.848742"><ele>2499.5</ele></trkpt>
      <trkpt lat="46.149525" lon="10.848607"><ele>2497.5</ele></trkpt>
      <trkpt lat="46.149542" lon="10.84856"><ele>2497.25</ele></trkpt>
      <trkpt lat="46.149585" lon="10.848488"><ele>2497</ele></trkpt>
      <trkpt lat="46.149629" lon="10.848484"><ele>2496.25</ele></trkpt>
      <trkpt lat="46.149693" lon="10.848432"><ele>2496</ele></trkpt>
      <trkpt lat="46.149697" lon="10.848345"><ele>2497.75</ele></trkpt>
      <trkpt lat="46.149745" lon="10.848226"><ele>2496.5</ele></trkpt>
      <trkpt lat="46.149793" lon="10.848072"><ele>2495</ele></trkpt>
      <trkpt lat="46.149875" lon="10.847845"><ele>2492.75</ele></trkpt>
      <trkpt lat="46.14989" lon="10.847793"><ele>2492.75</ele></trkpt>
      <trkpt lat="46.149939" lon="10.847722"><ele>2492.25</ele></trkpt>
      <trkpt lat="46.150035" lon="10.847674"><ele>2491.5</ele></trkpt>
      <trkpt lat="46.150069" lon="10.847612"><ele>2491.5</ele></trkpt>
      <trkpt lat="46.150128" lon="10.847586"><ele>2491</ele></trkpt>
      <trkpt lat="46.150221" lon="10.847575"><ele>2489.75</ele></trkpt>
      <trkpt lat="46.150343" lon="10.847606"><ele>2488.25</ele></trkpt>
      <trkpt lat="46.150408" lon="10.847659"><ele>2487.25</ele></trkpt>
      <trkpt lat="46.15047" lon="10.847627"><ele>2487.75</ele></trkpt>
      <trkpt lat="46.150532" lon="10.847619"><ele>2487.75</ele></trkpt>
    </trkseg>
  </trk>
</gpx>
