{
  "type": "FeatureCollection",
  "features": [
    {
      "type": "Feature",
      "properties": {
        "kind": "route",
        "name": "День 5 · Detassis → Bocchette Alte → SOSAT → Detassis",
        "distance_km": 10.417,
        "ascent_m": 1433,
        "source": "BRouter / OpenStreetMap"
      },
      "geometry": {
        "type": "LineString",
        "coordinates": [
          [
            10.876274,
            46.175429,
            2176.25
          ],
          [
            10.876403,
            46.175524,
            2176.25
          ],
          [
            10.876418,
            46.175624,
            2174.75
          ],
          [
            10.876503,
            46.175713,
            2173.5
          ],
          [
            10.876537,
            46.175791,
            2173
          ],
          [
            10.8767,
            46.175909,
            2173.75
          ],
          [
            10.876813,
            46.175925,
            2174
          ],
          [
            10.876922,
            46.175954,
            2174.25
          ],
          [
            10.877226,
            46.175984,
            2176
          ],
          [
            10.877489,
            46.175992,
            2177.25
          ],
          [
            10.877574,
            46.176033,
            2178
          ],
          [
            10.877718,
            46.176091,
            2178.75
          ],
          [
            10.877809,
            46.176084,
            2179.5
          ],
          [
            10.877873,
            46.176068,
            2180.25
          ],
          [
            10.877955,
            46.176056,
            2181.25
          ],
          [
            10.878049,
            46.176015,
            2182.5
          ],
          [
            10.878182,
            46.175989,
            2183.75
          ],
          [
            10.878465,
            46.175937,
            2186
          ],
          [
            10.878625,
            46.175921,
            2186.75
          ],
          [
            10.878687,
            46.175937,
            2187.5
          ],
          [
            10.878759,
            46.175976,
            2188.5
          ],
          [
            10.878858,
            46.175985,
            2190
          ],
          [
            10.878927,
            46.175952,
            2190.75
          ],
          [
            10.87963,
            46.176,
            2195
          ],
          [
            10.879688,
            46.176041,
            2195.5
          ],
          [
            10.87991,
            46.176102,
            2196.75
          ],
          [
            10.880017,
            46.176124,
            2197.25
          ],
          [
            10.880391,
            46.17622,
            2203.75
          ],
          [
            10.880522,
            46.176294,
            2206.75
          ],
          [
            10.880647,
            46.176274,
            2211.5
          ],
          [
            10.880968,
            46.176337,
            2220.25
          ],
          [
            10.881096,
            46.176341,
            2224
          ],
          [
            10.881184,
            46.176322,
            2227
          ],
          [
            10.881224,
            46.176296,
            2228.5
          ],
          [
            10.881353,
            46.17632,
            2230.75
          ],
          [
            10.881406,
            46.176346,
            2231.5
          ],
          [
            10.881679,
            46.176322,
            2236
          ],
          [
            10.881743,
            46.176304,
            2237.75
          ],
          [
            10.881858,
            46.176239,
            2240.75
          ],
          [
            10.881991,
            46.176204,
            2244.5
          ],
          [
            10.882189,
            46.176239,
            2251.25
          ],
          [
            10.882288,
            46.176231,
            2255.75
          ],
          [
            10.882358,
            46.17616,
            2259.25
          ],
          [
            10.882408,
            46.176273,
            2262.25
          ],
          [
            10.882471,
            46.176245,
            2265.25
          ],
          [
            10.88256,
            46.176254,
            2268.75
          ],
          [
            10.882754,
            46.176313,
            2273.75
          ],
          [
            10.882966,
            46.17641,
            2278
          ],
          [
            10.882927,
            46.176323,
            2278.25
          ],
          [
            10.883099,
            46.176357,
            2282.25
          ],
          [
            10.88328,
            46.176422,
            2286.75
          ],
          [
            10.883374,
            46.17643,
            2288.75
          ],
          [
            10.883439,
            46.17648,
            2290.25
          ],
          [
            10.883582,
            46.176483,
            2292.75
          ],
          [
            10.883752,
            46.176486,
            2296.5
          ],
          [
            10.883873,
            46.176461,
            2299.5
          ],
          [
            10.883939,
            46.176418,
            2301.5
          ],
          [
            10.884014,
            46.17643,
            2304
          ],
          [
            10.884023,
            46.176538,
            2303.5
          ],
          [
            10.884127,
            46.176558,
            2305.75
          ],
          [
            10.884239,
            46.176536,
            2311
          ],
          [
            10.884327,
            46.176585,
            2313.5
          ],
          [
            10.884401,
            46.176618,
            2315
          ],
          [
            10.884485,
            46.176704,
            2316
          ],
          [
            10.884571,
            46.176731,
            2319
          ],
          [
            10.884632,
            46.176895,
            2320.75
          ],
          [
            10.884603,
            46.176938,
            2320.25
          ],
          [
            10.884692,
            46.176968,
            2322.25
          ],
          [
            10.884829,
            46.177054,
            2327.75
          ],
          [
            10.88494,
            46.177041,
            2330
          ],
          [
            10.884993,
            46.177086,
            2332.25
          ],
          [
            10.885115,
            46.177041,
            2334
          ],
          [
            10.885265,
            46.177071,
            2338.25
          ],
          [
            10.885408,
            46.177145,
            2344.25
          ],
          [
            10.885516,
            46.177153,
            2348
          ],
          [
            10.885494,
            46.177217,
            2348
          ],
          [
            10.885562,
            46.177259,
            2352.5
          ],
          [
            10.885713,
            46.177195,
            2354.5
          ],
          [
            10.885758,
            46.177254,
            2358
          ],
          [
            10.885824,
            46.17723,
            2358.25
          ],
          [
            10.885953,
            46.17723,
            2362.25
          ],
          [
            10.886039,
            46.177287,
            2369.5
          ],
          [
            10.886189,
            46.177252,
            2372
          ],
          [
            10.886253,
            46.177259,
            2374.75
          ],
          [
            10.886271,
            46.177294,
            2378.25
          ],
          [
            10.886164,
            46.177356,
            2379
          ],
          [
            10.88606,
            46.177438,
            2381.5
          ],
          [
            10.88587,
            46.177606,
            2385
          ],
          [
            10.885924,
            46.177626,
            2388
          ],
          [
            10.886035,
            46.177572,
            2389
          ],
          [
            10.88631,
            46.177565,
            2399.25
          ],
          [
            10.886465,
            46.177497,
            2401.75
          ],
          [
            10.886636,
            46.177406,
            2403
          ],
          [
            10.886679,
            46.177416,
            2405.75
          ],
          [
            10.886615,
            46.177494,
            2407.5
          ],
          [
            10.886591,
            46.177533,
            2410.25
          ],
          [
            10.886591,
            46.177553,
            2412
          ],
          [
            10.886734,
            46.177504,
            2414.5
          ],
          [
            10.886838,
            46.177388,
            2412.75
          ],
          [
            10.887027,
            46.177297,
            2415.25
          ],
          [
            10.887298,
            46.17728,
            2425.25
          ],
          [
            10.887454,
            46.177193,
            2429.25
          ],
          [
            10.887612,
            46.177152,
            2437.75
          ],
          [
            10.887711,
            46.177154,
            2441
          ],
          [
            10.88777,
            46.177138,
            2443.5
          ],
          [
            10.887848,
            46.177134,
            2444.75
          ],
          [
            10.887891,
            46.177188,
            2444.25
          ],
          [
            10.887929,
            46.17718,
            2445
          ],
          [
            10.887913,
            46.177119,
            2446.25
          ],
          [
            10.887929,
            46.177097,
            2447
          ],
          [
            10.888049,
            46.177097,
            2449
          ],
          [
            10.888146,
            46.177147,
            2449.75
          ],
          [
            10.888221,
            46.177132,
            2452
          ],
          [
            10.888379,
            46.177134,
            2455
          ],
          [
            10.888473,
            46.177164,
            2454
          ],
          [
            10.888688,
            46.177099,
            2458.25
          ],
          [
            10.888881,
            46.177071,
            2460.5
          ],
          [
            10.888985,
            46.177048,
            2463
          ],
          [
            10.88909,
            46.177061,
            2464.25
          ],
          [
            10.889141,
            46.177091,
            2464.25
          ],
          [
            10.889268,
            46.177132,
            2464.25
          ],
          [
            10.889327,
            46.17711,
            2465.25
          ],
          [
            10.889401,
            46.177112,
            2465.5
          ],
          [
            10.889417,
            46.177031,
            2466
          ],
          [
            10.889755,
            46.176956,
            2465.75
          ],
          [
            10.89045,
            46.176865,
            2470.25
          ],
          [
            10.890609,
            46.176811,
            2472
          ],
          [
            10.890689,
            46.176759,
            2474.25
          ],
          [
            10.890814,
            46.176641,
            2479.75
          ],
          [
            10.89089,
            46.176554,
            2486.75
          ],
          [
            10.890945,
            46.176461,
            2494
          ],
          [
            10.89105,
            46.176332,
            2504.5
          ],
          [
            10.89103,
            46.176263,
            2509.25
          ],
          [
            10.891045,
            46.176166,
            2516.5
          ],
          [
            10.89112,
            46.176107,
            2521.5
          ],
          [
            10.89104,
            46.175989,
            2531.5
          ],
          [
            10.890955,
            46.175951,
            2533.75
          ],
          [
            10.890917,
            46.175772,
            2546.75
          ],
          [
            10.890912,
            46.17572,
            2549.5
          ],
          [
            10.891179,
            46.175715,
            2555.25
          ],
          [
            10.891329,
            46.175693,
            2558.25
          ],
          [
            10.891481,
            46.175712,
            2558.25
          ],
          [
            10.891554,
            46.175749,
            2556.25
          ],
          [
            10.891737,
            46.175747,
            2557.5
          ],
          [
            10.891868,
            46.17569,
            2561.5
          ],
          [
            10.891914,
            46.175678,
            2562.25
          ],
          [
            10.89207,
            46.175689,
            2565.25
          ],
          [
            10.892242,
            46.175717,
            2567.5
          ],
          [
            10.892323,
            46.175739,
            2567
          ],
          [
            10.89244,
            46.175727,
            2569.75
          ],
          [
            10.892505,
            46.175736,
            2570
          ],
          [
            10.892543,
            46.175734,
            2570.75
          ],
          [
            10.892608,
            46.175746,
            2570.75
          ],
          [
            10.89261,
            46.175759,
            2569.5
          ],
          [
            10.892625,
            46.175765,
            2569.25
          ],
          [
            10.892845,
            46.175762,
            2572.25
          ],
          [
            10.892963,
            46.175747,
            2575.25
          ],
          [
            10.893058,
            46.17575,
            2576
          ],
          [
            10.893175,
            46.175735,
            2578.5
          ],
          [
            10.893344,
            46.175752,
            2578.5
          ],
          [
            10.893413,
            46.175768,
            2578
          ],
          [
            10.893502,
            46.175805,
            2576
          ],
          [
            10.893854,
            46.175817,
            2579.5
          ],
          [
            10.894288,
            46.175686,
            2587.25
          ],
          [
            10.894532,
            46.175659,
            2588.75
          ],
          [
            10.894608,
            46.175638,
            2589.5
          ],
          [
            10.894661,
            46.17561,
            2590.5
          ],
          [
            10.894739,
            46.1756,
            2590.75
          ],
          [
            10.894861,
            46.175532,
            2596
          ],
          [
            10.894908,
            46.175472,
            2602.25
          ],
          [
            10.894988,
            46.175414,
            2604.25
          ],
          [
            10.895082,
            46.175411,
            2603
          ],
          [
            10.895202,
            46.17542,
            2601.25
          ],
          [
            10.89549,
            46.175353,
            2604.25
          ],
          [
            10.895594,
            46.175314,
            2606.25
          ],
          [
            10.895745,
            46.175321,
            2606.5
          ],
          [
            10.895811,
            46.175306,
            2607.5
          ],
          [
            10.895876,
            46.17528,
            2608.5
          ],
          [
            10.89595,
            46.175211,
            2613.5
          ],
          [
            10.896094,
            46.175156,
            2616.75
          ],
          [
            10.896139,
            46.175151,
            2617
          ],
          [
            10.896195,
            46.175127,
            2619
          ],
          [
            10.896274,
            46.175111,
            2620.5
          ],
          [
            10.896335,
            46.175113,
            2620.5
          ],
          [
            10.896457,
            46.17514,
            2618.75
          ],
          [
            10.896547,
            46.175091,
            2622
          ],
          [
            10.896636,
            46.175086,
            2622
          ],
          [
            10.896655,
            46.1751,
            2621
          ],
          [
            10.896769,
            46.175088,
            2622.5
          ],
          [
            10.896784,
            46.175082,
            2623
          ],
          [
            10.896954,
            46.175082,
            2624.25
          ],
          [
            10.897011,
            46.175067,
            2626
          ],
          [
            10.897067,
            46.1751,
            2625.75
          ],
          [
            10.897158,
            46.175072,
            2629
          ],
          [
            10.897185,
            46.175022,
            2632
          ],
          [
            10.897249,
            46.174996,
            2635
          ],
          [
            10.897249,
            46.174955,
            2637.5
          ],
          [
            10.897306,
            46.17494,
            2640
          ],
          [
            10.897396,
            46.174873,
            2646
          ],
          [
            10.897424,
            46.174794,
            2651
          ],
          [
            10.897442,
            46.174706,
            2657
          ],
          [
            10.897559,
            46.174697,
            2660.75
          ],
          [
            10.89757,
            46.17469,
            2662
          ],
          [
            10.897682,
            46.174694,
            2665.25
          ],
          [
            10.897729,
            46.174683,
            2668.25
          ],
          [
            10.897758,
            46.174688,
            2668.5
          ],
          [
            10.897802,
            46.174678,
            2671.25
          ],
          [
            10.897853,
            46.174699,
            2669.5
          ],
          [
            10.897896,
            46.174696,
            2671.25
          ],
          [
            10.897875,
            46.174676,
            2673
          ],
          [
            10.89788,
            46.174664,
            2674.75
          ],
          [
            10.897937,
            46.174677,
            2674.25
          ],
          [
            10.897967,
            46.174728,
            2670.5
          ],
          [
            10.898132,
            46.174769,
            2674.25
          ],
          [
            10.898303,
            46.174741,
            2682.5
          ],
          [
            10.898351,
            46.174751,
            2685.25
          ],
          [
            10.898395,
            46.174793,
            2687
          ],
          [
            10.898457,
            46.174754,
            2698.25
          ],
          [
            10.898513,
            46.174732,
            2708.25
          ],
          [
            10.898566,
            46.174675,
            2716.75
          ],
          [
            10.898679,
            46.174617,
            2733
          ],
          [
            10.898721,
            46.174611,
            2740.25
          ],
          [
            10.898762,
            46.174614,
            2748
          ],
          [
            10.898863,
            46.174591,
            2761.75
          ],
          [
            10.899001,
            46.174536,
            2769.25
          ],
          [
            10.899086,
            46.174509,
            2777.25
          ],
          [
            10.899109,
            46.174487,
            2777.5
          ],
          [
            10.899171,
            46.174477,
            2786.25
          ],
          [
            10.899296,
            46.17441,
            2801.75
          ],
          [
            10.899309,
            46.174414,
            2803.25
          ],
          [
            10.899327,
            46.17444,
            2805
          ],
          [
            10.899256,
            46.174523,
            2801.5
          ],
          [
            10.899308,
            46.174548,
            2809
          ],
          [
            10.899428,
            46.174497,
            2820.5
          ],
          [
            10.899583,
            46.174541,
            2838.25
          ],
          [
            10.89966,
            46.174477,
            2843
          ],
          [
            10.899761,
            46.174505,
            2852.75
          ],
          [
            10.899835,
            46.174446,
            2853
          ],
          [
            10.8999,
            46.174475,
            2858.25
          ],
          [
            10.900102,
            46.174519,
            2871.5
          ],
          [
            10.900302,
            46.174521,
            2883
          ],
          [
            10.900431,
            46.1745,
            2894.75
          ],
          [
            10.90068,
            46.174363,
            2907.5
          ],
          [
            10.900822,
            46.174218,
            2905.75
          ],
          [
            10.900937,
            46.174067,
            2905
          ],
          [
            10.901081,
            46.173922,
            2904.75
          ],
          [
            10.901195,
            46.1739,
            2896.5
          ],
          [
            10.901232,
            46.17393,
            2896
          ],
          [
            10.901187,
            46.174004,
            2907.5
          ],
          [
            10.901203,
            46.17404,
            2910
          ],
          [
            10.901273,
            46.174053,
            2906.75
          ],
          [
            10.901364,
            46.174092,
            2905.75
          ],
          [
            10.901474,
            46.17411,
            2910
          ],
          [
            10.901616,
            46.174095,
            2913.5
          ],
          [
            10.901664,
            46.174065,
            2912.25
          ],
          [
            10.901726,
            46.174073,
            2920
          ],
          [
            10.901747,
            46.174086,
            2924
          ],
          [
            10.901922,
            46.173937,
            2921.5
          ],
          [
            10.901973,
            46.173908,
            2921
          ],
          [
            10.902067,
            46.173835,
            2919.5
          ],
          [
            10.90216,
            46.173846,
            2927
          ],
          [
            10.902182,
            46.173904,
            2935.75
          ],
          [
            10.902126,
            46.173941,
            2938.25
          ],
          [
            10.902107,
            46.173971,
            2942.25
          ],
          [
            10.902177,
            46.173993,
            2952
          ],
          [
            10.902292,
            46.173937,
            2950.5
          ],
          [
            10.90234,
            46.173941,
            2955
          ],
          [
            10.902321,
            46.173984,
            2960.5
          ],
          [
            10.902249,
            46.174045,
            2967
          ],
          [
            10.90223,
            46.174077,
            2972
          ],
          [
            10.90196,
            46.17419,
            2963.5
          ],
          [
            10.901943,
            46.174301,
            2972.25
          ],
          [
            10.901761,
            46.174522,
            2975.75
          ],
          [
            10.901751,
            46.174581,
            2977.25
          ],
          [
            10.901782,
            46.174658,
            2981
          ],
          [
            10.901953,
            46.174826,
            2986
          ],
          [
            10.902016,
            46.174992,
            2985.5
          ],
          [
            10.90207,
            46.175046,
            2982
          ],
          [
            10.902084,
            46.175089,
            2978
          ],
          [
            10.902278,
            46.175164,
            2972.25
          ],
          [
            10.902343,
            46.175148,
            2972.75
          ],
          [
            10.902436,
            46.175221,
            2964.5
          ],
          [
            10.902412,
            46.175264,
            2961
          ],
          [
            10.902436,
            46.175276,
            2959.75
          ],
          [
            10.902613,
            46.175466,
            2955.75
          ],
          [
            10.902623,
            46.175539,
            2959
          ],
          [
            10.902578,
            46.175637,
            2961.25
          ],
          [
            10.902481,
            46.175761,
            2962.5
          ],
          [
            10.90245,
            46.175897,
            2957
          ],
          [
            10.902243,
            46.176172,
            2974.75
          ],
          [
            10.902128,
            46.176453,
            2962.5
          ],
          [
            10.90199,
            46.176556,
            2966
          ],
          [
            10.90166,
            46.176784,
            2977
          ],
          [
            10.901569,
            46.176833,
            2970.75
          ],
          [
            10.901467,
            46.176922,
            2980.75
          ],
          [
            10.901469,
            46.177014,
            2985.75
          ],
          [
            10.901571,
            46.177115,
            2977.5
          ],
          [
            10.901568,
            46.177136,
            2977.5
          ],
          [
            10.9015,
            46.177278,
            2982
          ],
          [
            10.901458,
            46.177424,
            2980
          ],
          [
            10.901373,
            46.177518,
            2990.5
          ],
          [
            10.901369,
            46.177572,
            2996.5
          ],
          [
            10.901444,
            46.17764,
            2989.5
          ],
          [
            10.901513,
            46.177743,
            2984.75
          ],
          [
            10.901504,
            46.17781,
            2989.75
          ],
          [
            10.901446,
            46.177884,
            3001.25
          ],
          [
            10.901412,
            46.177916,
            3006.5
          ],
          [
            10.901421,
            46.177937,
            3005.25
          ],
          [
            10.90145,
            46.177954,
            3001.5
          ],
          [
            10.901577,
            46.177955,
            2985.25
          ],
          [
            10.901733,
            46.177977,
            2964.5
          ],
          [
            10.901735,
            46.178001,
            2966
          ],
          [
            10.90158,
            46.178219,
            2995.75
          ],
          [
            10.901608,
            46.178238,
            2992
          ],
          [
            10.901665,
            46.178227,
            2983.5
          ],
          [
            10.901735,
            46.178254,
            2965.5
          ],
          [
            10.901744,
            46.178291,
            2962.25
          ],
          [
            10.901735,
            46.178326,
            2963.75
          ],
          [
            10.9017,
            46.178362,
            2973.5
          ],
          [
            10.901632,
            46.178402,
            2990.25
          ],
          [
            10.901643,
            46.178426,
            2988.5
          ],
          [
            10.901711,
            46.178461,
            2970.25
          ],
          [
            10.901729,
            46.178493,
            2964.5
          ],
          [
            10.901698,
            46.178548,
            2974.75
          ],
          [
            10.901702,
            46.178607,
            2973.5
          ],
          [
            10.901734,
            46.17866,
            2963
          ],
          [
            10.901645,
            46.178736,
            2989.75
          ],
          [
            10.901675,
            46.178807,
            2983.25
          ],
          [
            10.901743,
            46.17886,
            2963.5
          ],
          [
            10.90173,
            46.178938,
            2970.25
          ],
          [
            10.901797,
            46.178996,
            2955.5
          ],
          [
            10.901783,
            46.179099,
            2965.75
          ],
          [
            10.902054,
            46.179201,
            2955.5
          ],
          [
            10.902145,
            46.179266,
            2980.75
          ],
          [
            10.902241,
            46.17926,
            2989
          ],
          [
            10.902544,
            46.179401,
            2997.5
          ],
          [
            10.902576,
            46.179455,
            2997
          ],
          [
            10.902689,
            46.179598,
            2995.25
          ],
          [
            10.902753,
            46.1797,
            2995.5
          ],
          [
            10.902863,
            46.179705,
            2987.75
          ],
          [
            10.90296,
            46.179856,
            2978.5
          ],
          [
            10.903031,
            46.17991,
            2972.5
          ],
          [
            10.903219,
            46.179933,
            2963
          ],
          [
            10.903302,
            46.180029,
            2958.25
          ],
          [
            10.903243,
            46.180118,
            2955.75
          ],
          [
            10.903113,
            46.180369,
            2951.25
          ],
          [
            10.903041,
            46.180554,
            2952.75
          ],
          [
            10.903054,
            46.18066,
            2946.75
          ],
          [
            10.902978,
            46.180763,
            2948.75
          ],
          [
            10.902971,
            46.180863,
            2946.75
          ],
          [
            10.903021,
            46.180948,
            2941.5
          ],
          [
            10.903084,
            46.180982,
            2928.75
          ],
          [
            10.90306,
            46.181059,
            2936.75
          ],
          [
            10.902991,
            46.181156,
            2941.25
          ],
          [
            10.903006,
            46.181234,
            2933.5
          ],
          [
            10.902951,
            46.181335,
            2934
          ],
          [
            10.902895,
            46.181404,
            2938.75
          ],
          [
            10.902812,
            46.181617,
            2935
          ],
          [
            10.902721,
            46.181732,
            2941.25
          ],
          [
            10.902699,
            46.181911,
            2933.5
          ],
          [
            10.902748,
            46.182048,
            2915
          ],
          [
            10.902658,
            46.182203,
            2912
          ],
          [
            10.902547,
            46.182287,
            2918.5
          ],
          [
            10.902474,
            46.182475,
            2911.75
          ],
          [
            10.902471,
            46.182534,
            2908.75
          ],
          [
            10.902508,
            46.182654,
            2904.5
          ],
          [
            10.902724,
            46.182917,
            2889.75
          ],
          [
            10.902667,
            46.182909,
            2891
          ],
          [
            10.902681,
            46.182952,
            2890.75
          ],
          [
            10.902629,
            46.182934,
            2891.25
          ],
          [
            10.902643,
            46.182975,
            2890.75
          ],
          [
            10.902819,
            46.183091,
            2880.25
          ],
          [
            10.902926,
            46.183196,
            2861.25
          ],
          [
            10.902904,
            46.183285,
            2871.25
          ],
          [
            10.90295,
            46.183376,
            2870.75
          ],
          [
            10.903007,
            46.183453,
            2865.5
          ],
          [
            10.903005,
            46.183547,
            2861.25
          ],
          [
            10.902972,
            46.183622,
            2856.75
          ],
          [
            10.902907,
            46.183659,
            2851.25
          ],
          [
            10.902932,
            46.183729,
            2840
          ],
          [
            10.902838,
            46.18374,
            2837.75
          ],
          [
            10.90285,
            46.183788,
            2830
          ],
          [
            10.902891,
            46.183823,
            2824.5
          ],
          [
            10.902802,
            46.183856,
            2818
          ],
          [
            10.902834,
            46.183984,
            2795.75
          ],
          [
            10.902891,
            46.18406,
            2779.25
          ],
          [
            10.902771,
            46.184049,
            2786.25
          ],
          [
            10.902804,
            46.184127,
            2772.25
          ],
          [
            10.902755,
            46.184151,
            2769.25
          ],
          [
            10.902646,
            46.184156,
            2762.5
          ],
          [
            10.902551,
            46.184199,
            2751.25
          ],
          [
            10.902453,
            46.184196,
            2748.5
          ],
          [
            10.902433,
            46.184226,
            2744.75
          ],
          [
            10.902304,
            46.184206,
            2745.75
          ],
          [
            10.902277,
            46.184241,
            2742.5
          ],
          [
            10.902142,
            46.184181,
            2745
          ],
          [
            10.902065,
            46.184166,
            2744.5
          ],
          [
            10.90207,
            46.18424,
            2739.25
          ],
          [
            10.902171,
            46.184333,
            2734.5
          ],
          [
            10.902201,
            46.184413,
            2729
          ],
          [
            10.902126,
            46.184427,
            2726.75
          ],
          [
            10.901854,
            46.184364,
            2725.75
          ],
          [
            10.901773,
            46.184362,
            2723.25
          ],
          [
            10.901639,
            46.184345,
            2720.25
          ],
          [
            10.901597,
            46.18438,
            2717.75
          ],
          [
            10.901498,
            46.18437,
            2716.5
          ],
          [
            10.901478,
            46.184392,
            2715.25
          ],
          [
            10.901491,
            46.184428,
            2714
          ],
          [
            10.901444,
            46.18445,
            2712.25
          ],
          [
            10.901369,
            46.18444,
            2711.5
          ],
          [
            10.901377,
            46.184474,
            2710.25
          ],
          [
            10.901289,
            46.184564,
            2704
          ],
          [
            10.901294,
            46.184654,
            2700.25
          ],
          [
            10.901268,
            46.184717,
            2697.25
          ],
          [
            10.901062,
            46.184835,
            2688.5
          ],
          [
            10.901025,
            46.184897,
            2684.75
          ],
          [
            10.901054,
            46.18503,
            2677.75
          ],
          [
            10.901064,
            46.18522,
            2663.75
          ],
          [
            10.901122,
            46.18534,
            2656.5
          ],
          [
            10.901088,
            46.185428,
            2651
          ],
          [
            10.901028,
            46.185463,
            2647.5
          ],
          [
            10.900995,
            46.185505,
            2644.25
          ],
          [
            10.901008,
            46.185559,
            2642
          ],
          [
            10.900948,
            46.185536,
            2641.5
          ],
          [
            10.90092,
            46.185533,
            2641
          ],
          [
            10.900894,
            46.185549,
            2639.5
          ],
          [
            10.900893,
            46.185593,
            2641
          ],
          [
            10.90087,
            46.185633,
            2642
          ],
          [
            10.900751,
            46.185579,
            2636.75
          ],
          [
            10.900736,
            46.185596,
            2636.5
          ],
          [
            10.900744,
            46.185706,
            2638.25
          ],
          [
            10.900728,
            46.185762,
            2638.25
          ],
          [
            10.900652,
            46.18584,
            2635.25
          ],
          [
            10.900236,
            46.18602,
            2620
          ],
          [
            10.900098,
            46.18606,
            2613
          ],
          [
            10.899632,
            46.186173,
            2595.75
          ],
          [
            10.899097,
            46.186328,
            2576.5
          ],
          [
            10.898788,
            46.186384,
            2556.25
          ],
          [
            10.898348,
            46.186547,
            2541.5
          ],
          [
            10.898086,
            46.186603,
            2530.75
          ],
          [
            10.897856,
            46.186827,
            2523.75
          ],
          [
            10.897642,
            46.186983,
            2519
          ],
          [
            10.897483,
            46.187034,
            2511.5
          ],
          [
            10.897275,
            46.187047,
            2499.25
          ],
          [
            10.897161,
            46.186983,
            2488.75
          ],
          [
            10.89697,
            46.187058,
            2484
          ],
          [
            10.896862,
            46.18703,
            2477.75
          ],
          [
            10.896683,
            46.187186,
            2469.25
          ],
          [
            10.89647,
            46.18732,
            2464.5
          ],
          [
            10.896143,
            46.187491,
            2452.5
          ],
          [
            10.895755,
            46.187649,
            2448.5
          ],
          [
            10.89551,
            46.187738,
            2434.5
          ],
          [
            10.89507,
            46.187948,
            2427.75
          ],
          [
            10.894686,
            46.188061,
            2421
          ],
          [
            10.89432,
            46.188199,
            2415.75
          ],
          [
            10.894161,
            46.188271,
            2414
          ],
          [
            10.893852,
            46.188393,
            2411.5
          ],
          [
            10.893446,
            46.18861,
            2404.75
          ],
          [
            10.89329,
            46.188717,
            2405
          ],
          [
            10.893028,
            46.188881,
            2398.5
          ],
          [
            10.892892,
            46.188957,
            2399.25
          ],
          [
            10.8928,
            46.189027,
            2399.25
          ],
          [
            10.892559,
            46.189167,
            2395.75
          ],
          [
            10.892388,
            46.189295,
            2393.75
          ],
          [
            10.892306,
            46.18938,
            2393.25
          ],
          [
            10.892122,
            46.189405,
            2387.5
          ],
          [
            10.892105,
            46.189443,
            2388
          ],
          [
            10.891822,
            46.189529,
            2381.75
          ],
          [
            10.89156,
            46.18964,
            2376.25
          ],
          [
            10.891222,
            46.189843,
            2371.25
          ],
          [
            10.891104,
            46.189868,
            2367.75
          ],
          [
            10.890785,
            46.189883,
            2359.25
          ],
          [
            10.890308,
            46.190109,
            2350.25
          ],
          [
            10.889649,
            46.190537,
            2336.75
          ],
          [
            10.889557,
            46.190643,
            2336.75
          ],
          [
            10.889512,
            46.190694,
            2336.75
          ],
          [
            10.889054,
            46.190905,
            2329.5
          ],
          [
            10.8888,
            46.191049,
            2328.5
          ],
          [
            10.888704,
            46.191072,
            2327.5
          ],
          [
            10.888774,
            46.191009,
            2326.25
          ],
          [
            10.888796,
            46.190923,
            2322.75
          ],
          [
            10.888922,
            46.190817,
            2322.25
          ],
          [
            10.888989,
            46.190698,
            2319
          ],
          [
            10.889114,
            46.190604,
            2318
          ],
          [
            10.889175,
            46.190516,
            2316.5
          ],
          [
            10.889204,
            46.190501,
            2317.5
          ],
          [
            10.889267,
            46.19045,
            2318.75
          ],
          [
            10.889293,
            46.190409,
            2318.5
          ],
          [
            10.889341,
            46.190383,
            2319.25
          ],
          [
            10.889354,
            46.190335,
            2318
          ],
          [
            10.889464,
            46.190241,
            2319
          ],
          [
            10.889502,
            46.19019,
            2320.75
          ],
          [
            10.889537,
            46.190115,
            2321.5
          ],
          [
            10.889504,
            46.190091,
            2320.25
          ],
          [
            10.889511,
            46.190066,
            2320.25
          ],
          [
            10.889492,
            46.190032,
            2319.75
          ],
          [
            10.889466,
            46.190004,
            2319.25
          ],
          [
            10.88939,
            46.189972,
            2318.75
          ],
          [
            10.889345,
            46.189901,
            2320.25
          ],
          [
            10.889339,
            46.189835,
            2322
          ],
          [
            10.889295,
            46.189797,
            2322.5
          ],
          [
            10.889201,
            46.189781,
            2322.25
          ],
          [
            10.889149,
            46.189741,
            2323.25
          ],
          [
            10.889065,
            46.18973,
            2323.25
          ],
          [
            10.88893,
            46.189636,
            2326
          ],
          [
            10.888787,
            46.189661,
            2324.25
          ],
          [
            10.888681,
            46.189598,
            2326.75
          ],
          [
            10.888464,
            46.189569,
            2327.25
          ],
          [
            10.888127,
            46.189583,
            2323
          ],
          [
            10.887943,
            46.189541,
            2325.5
          ],
          [
            10.887866,
            46.189494,
            2328.5
          ],
          [
            10.887974,
            46.189452,
            2332.5
          ],
          [
            10.887915,
            46.18939,
            2337.5
          ],
          [
            10.887483,
            46.189349,
            2331.75
          ],
          [
            10.887587,
            46.189303,
            2338.5
          ],
          [
            10.887516,
            46.189279,
            2338.75
          ],
          [
            10.887475,
            46.189199,
            2344.25
          ],
          [
            10.887336,
            46.189145,
            2344.75
          ],
          [
            10.887336,
            46.189052,
            2351.5
          ],
          [
            10.887282,
            46.188954,
            2357
          ],
          [
            10.887178,
            46.188904,
            2357.25
          ],
          [
            10.887151,
            46.188839,
            2360.75
          ],
          [
            10.887083,
            46.188792,
            2361.25
          ],
          [
            10.88696,
            46.18873,
            2360.75
          ],
          [
            10.886687,
            46.188651,
            2363.5
          ],
          [
            10.886558,
            46.188581,
            2369.25
          ],
          [
            10.886454,
            46.188578,
            2369.75
          ],
          [
            10.886193,
            46.188596,
            2362.75
          ],
          [
            10.88615,
            46.188568,
            2364.5
          ],
          [
            10.886048,
            46.188579,
            2362.5
          ],
          [
            10.885936,
            46.188583,
            2362.25
          ],
          [
            10.885866,
            46.18856,
            2364.75
          ],
          [
            10.885676,
            46.188562,
            2362.75
          ],
          [
            10.885061,
            46.188527,
            2357
          ],
          [
            10.884726,
            46.188484,
            2356.25
          ],
          [
            10.884619,
            46.188482,
            2356.25
          ],
          [
            10.884457,
            46.188433,
            2360.75
          ],
          [
            10.884342,
            46.188428,
            2361.75
          ],
          [
            10.884138,
            46.188445,
            2360.75
          ],
          [
            10.883833,
            46.188493,
            2359.25
          ],
          [
            10.88371,
            46.188555,
            2354.25
          ],
          [
            10.883578,
            46.188609,
            2350
          ],
          [
            10.883412,
            46.188627,
            2348
          ],
          [
            10.88328,
            46.188629,
            2347.5
          ],
          [
            10.883101,
            46.188605,
            2348.75
          ],
          [
            10.883028,
            46.188549,
            2352.5
          ],
          [
            10.882929,
            46.188519,
            2354
          ],
          [
            10.88291,
            46.188445,
            2359.25
          ],
          [
            10.882806,
            46.18843,
            2359.25
          ],
          [
            10.882752,
            46.188382,
            2362.25
          ],
          [
            10.882489,
            46.18836,
            2361.75
          ],
          [
            10.882226,
            46.188315,
            2364.25
          ],
          [
            10.882055,
            46.188328,
            2362.75
          ],
          [
            10.881982,
            46.1883,
            2364.5
          ],
          [
            10.881676,
            46.188297,
            2368.5
          ],
          [
            10.881561,
            46.188323,
            2369
          ],
          [
            10.881419,
            46.188341,
            2370.75
          ],
          [
            10.88129,
            46.188389,
            2368.5
          ],
          [
            10.881068,
            46.188414,
            2368.75
          ],
          [
            10.880944,
            46.188421,
            2369.5
          ],
          [
            10.880815,
            46.188438,
            2369.5
          ],
          [
            10.880606,
            46.188393,
            2374
          ],
          [
            10.880499,
            46.188384,
            2375.5
          ],
          [
            10.880244,
            46.188419,
            2375.25
          ],
          [
            10.88003,
            46.188419,
            2376.5
          ],
          [
            10.879855,
            46.188449,
            2375.75
          ],
          [
            10.879695,
            46.188449,
            2377.75
          ],
          [
            10.879592,
            46.188436,
            2378.25
          ],
          [
            10.879517,
            46.188406,
            2380
          ],
          [
            10.879456,
            46.188358,
            2382.5
          ],
          [
            10.879421,
            46.188291,
            2385
          ],
          [
            10.879485,
            46.18825,
            2388
          ],
          [
            10.87956,
            46.188226,
            2390.5
          ],
          [
            10.879871,
            46.188219,
            2394.75
          ],
          [
            10.879858,
            46.188176,
            2398
          ],
          [
            10.879831,
            46.187968,
            2410.5
          ],
          [
            10.87977,
            46.187774,
            2418.5
          ],
          [
            10.879729,
            46.187682,
            2420.75
          ],
          [
            10.879584,
            46.18758,
            2423.75
          ],
          [
            10.879512,
            46.18755,
            2424.75
          ],
          [
            10.879329,
            46.187424,
            2430
          ],
          [
            10.87919,
            46.187413,
            2430.25
          ],
          [
            10.879013,
            46.187357,
            2431.75
          ],
          [
            10.878884,
            46.187372,
            2430.5
          ],
          [
            10.878723,
            46.18735,
            2430.5
          ],
          [
            10.878581,
            46.187355,
            2429.5
          ],
          [
            10.878471,
            46.187331,
            2429.5
          ],
          [
            10.878361,
            46.187277,
            2431.75
          ],
          [
            10.878318,
            46.187132,
            2438.25
          ],
          [
            10.878262,
            46.18709,
            2439
          ],
          [
            10.877911,
            46.186952,
            2438.25
          ],
          [
            10.877827,
            46.186848,
            2440.25
          ],
          [
            10.87772,
            46.186787,
            2441
          ],
          [
            10.877688,
            46.186672,
            2443.25
          ],
          [
            10.877637,
            46.186624,
            2443
          ],
          [
            10.877532,
            46.186603,
            2441.25
          ],
          [
            10.87746,
            46.186566,
            2440.5
          ],
          [
            10.877428,
            46.186493,
            2440.75
          ],
          [
            10.877361,
            46.186449,
            2440.25
          ],
          [
            10.877272,
            46.186425,
            2438.75
          ],
          [
            10.877256,
            46.18636,
            2438.75
          ],
          [
            10.877304,
            46.186167,
            2440.5
          ],
          [
            10.877262,
            46.186126,
            2440.75
          ],
          [
            10.877208,
            46.186117,
            2441
          ],
          [
            10.877039,
            46.186137,
            2441.5
          ],
          [
            10.876669,
            46.186143,
            2441.25
          ],
          [
            10.876502,
            46.186068,
            2438.25
          ],
          [
            10.876384,
            46.185968,
            2436.25
          ],
          [
            10.876398,
            46.185847,
            2439
          ],
          [
            10.876235,
            46.185594,
            2441.5
          ],
          [
            10.876173,
            46.185539,
            2441
          ],
          [
            10.876103,
            46.185494,
            2440.5
          ],
          [
            10.876055,
            46.185506,
            2439.75
          ],
          [
            10.875891,
            46.185457,
            2441
          ],
          [
            10.875588,
            46.185403,
            2440.25
          ],
          [
            10.875518,
            46.185339,
            2441.5
          ],
          [
            10.875446,
            46.185311,
            2442
          ],
          [
            10.875352,
            46.185294,
            2441.75
          ],
          [
            10.875194,
            46.185287,
            2441.25
          ],
          [
            10.875105,
            46.18527,
            2441.75
          ],
          [
            10.875008,
            46.185233,
            2443.5
          ],
          [
            10.874885,
            46.185229,
            2443.5
          ],
          [
            10.874424,
            46.185212,
            2443.25
          ],
          [
            10.874378,
            46.185186,
            2443.25
          ],
          [
            10.874405,
            46.18504,
            2446.25
          ],
          [
            10.874475,
            46.184989,
            2447.75
          ],
          [
            10.874563,
            46.184976,
            2449.25
          ],
          [
            10.874684,
            46.184906,
            2449.25
          ],
          [
            10.874727,
            46.184858,
            2449
          ],
          [
            10.874823,
            46.184826,
            2451.25
          ],
          [
            10.874808,
            46.184767,
            2448.75
          ],
          [
            10.874864,
            46.184694,
            2450.75
          ],
          [
            10.874885,
            46.184599,
            2451
          ],
          [
            10.87485,
            46.184533,
            2448.5
          ],
          [
            10.874764,
            46.184416,
            2444.25
          ],
          [
            10.87475,
            46.184361,
            2444.25
          ],
          [
            10.874736,
            46.184151,
            2446.25
          ],
          [
            10.874692,
            46.184012,
            2449.25
          ],
          [
            10.874597,
            46.183875,
            2451
          ],
          [
            10.874469,
            46.18374,
            2446.5
          ],
          [
            10.874464,
            46.183602,
            2446.75
          ],
          [
            10.874341,
            46.183582,
            2441.25
          ],
          [
            10.874268,
            46.183546,
            2440
          ],
          [
            10.874201,
            46.183476,
            2442.75
          ],
          [
            10.87404,
            46.183376,
            2440
          ],
          [
            10.873964,
            46.183283,
            2437
          ],
          [
            10.873954,
            46.18322,
            2438.25
          ],
          [
            10.873909,
            46.183142,
            2437.25
          ],
          [
            10.873954,
            46.183092,
            2442
          ],
          [
            10.873952,
            46.182993,
            2447.75
          ],
          [
            10.873887,
            46.18293,
            2448.75
          ],
          [
            10.873796,
            46.182863,
            2447.25
          ],
          [
            10.873737,
            46.18275,
            2451.5
          ],
          [
            10.873603,
            46.182661,
            2450
          ],
          [
            10.873434,
            46.182572,
            2449
          ],
          [
            10.873187,
            46.182371,
            2447.25
          ],
          [
            10.873138,
            46.18231,
            2448.5
          ],
          [
            10.87313,
            46.182246,
            2451.75
          ],
          [
            10.873156,
            46.182199,
            2452
          ],
          [
            10.873206,
            46.182163,
            2450.75
          ],
          [
            10.8733,
            46.182176,
            2454.25
          ],
          [
            10.873375,
            46.182141,
            2455
          ],
          [
            10.873415,
            46.182052,
            2449.75
          ],
          [
            10.873509,
            46.182048,
            2454.5
          ],
          [
            10.873528,
            46.181996,
            2450.75
          ],
          [
            10.8737,
            46.182,
            2458.25
          ],
          [
            10.87381,
            46.18197,
            2458.75
          ],
          [
            10.87429,
            46.18192,
            2472.25
          ],
          [
            10.874392,
            46.181879,
            2469
          ],
          [
            10.874284,
            46.181816,
            2453
          ],
          [
            10.874319,
            46.181779,
            2448
          ],
          [
            10.874711,
            46.18176,
            2467
          ],
          [
            10.874786,
            46.181697,
            2461
          ],
          [
            10.874595,
            46.18168,
            2447.25
          ],
          [
            10.874443,
            46.18168,
            2439
          ],
          [
            10.874306,
            46.181665,
            2426.75
          ],
          [
            10.874139,
            46.181585,
            2408.25
          ],
          [
            10.874188,
            46.181416,
            2394.25
          ],
          [
            10.874161,
            46.18122,
            2387.5
          ],
          [
            10.874134,
            46.181112,
            2383.75
          ],
          [
            10.874075,
            46.181043,
            2404.5
          ],
          [
            10.873992,
            46.181017,
            2400
          ],
          [
            10.873968,
            46.180967,
            2408.5
          ],
          [
            10.873893,
            46.180934,
            2397.25
          ],
          [
            10.873775,
            46.180859,
            2405.5
          ],
          [
            10.873708,
            46.180842,
            2406.75
          ],
          [
            10.873517,
            46.180744,
            2408
          ],
          [
            10.87341,
            46.180649,
            2410
          ],
          [
            10.873268,
            46.180438,
            2407.75
          ],
          [
            10.873286,
            46.180389,
            2408
          ],
          [
            10.873351,
            46.180319,
            2411
          ],
          [
            10.873429,
            46.180262,
            2411.75
          ],
          [
            10.873606,
            46.180176,
            2409
          ],
          [
            10.873753,
            46.180128,
            2425.25
          ],
          [
            10.873845,
            46.180058,
            2418.25
          ],
          [
            10.87397,
            46.180059,
            2428.25
          ],
          [
            10.874067,
            46.179973,
            2412
          ],
          [
            10.874126,
            46.17997,
            2415.25
          ],
          [
            10.874255,
            46.180011,
            2428.5
          ],
          [
            10.874311,
            46.180055,
            2445.75
          ],
          [
            10.874636,
            46.180035,
            2466.5
          ],
          [
            10.874684,
            46.180012,
            2467.75
          ],
          [
            10.874995,
            46.179812,
            2447.75
          ],
          [
            10.875223,
            46.179691,
            2433
          ],
          [
            10.875317,
            46.179596,
            2433.5
          ],
          [
            10.875483,
            46.17953,
            2431.25
          ],
          [
            10.875711,
            46.179552,
            2436
          ],
          [
            10.875824,
            46.179507,
            2434.25
          ],
          [
            10.875843,
            46.179481,
            2432.75
          ],
          [
            10.875918,
            46.179444,
            2433.5
          ],
          [
            10.875963,
            46.179349,
            2434
          ],
          [
            10.875977,
            46.179243,
            2432.5
          ],
          [
            10.876122,
            46.179164,
            2436
          ],
          [
            10.876362,
            46.179075,
            2437
          ],
          [
            10.876483,
            46.179046,
            2436.5
          ],
          [
            10.87661,
            46.179045,
            2437.5
          ],
          [
            10.876741,
            46.179067,
            2439.75
          ],
          [
            10.876891,
            46.179114,
            2443
          ],
          [
            10.876977,
            46.179023,
            2436.75
          ],
          [
            10.877055,
            46.179023,
            2437.25
          ],
          [
            10.877173,
            46.179084,
            2444
          ],
          [
            10.877229,
            46.179063,
            2442.75
          ],
          [
            10.87731,
            46.179019,
            2441.75
          ],
          [
            10.877302,
            46.178956,
            2435
          ],
          [
            10.877484,
            46.178911,
            2438.25
          ],
          [
            10.877776,
            46.1789,
            2441.25
          ],
          [
            10.878002,
            46.178868,
            2442.5
          ],
          [
            10.878106,
            46.178818,
            2441.5
          ],
          [
            10.878675,
            46.178811,
            2470.5
          ],
          [
            10.878817,
            46.178776,
            2465.5
          ],
          [
            10.87911,
            46.17877,
            2469.5
          ],
          [
            10.879187,
            46.178725,
            2458
          ],
          [
            10.879348,
            46.178718,
            2457.25
          ],
          [
            10.879515,
            46.178761,
            2468.5
          ],
          [
            10.879587,
            46.178803,
            2480.5
          ],
          [
            10.879638,
            46.178796,
            2477.75
          ],
          [
            10.879716,
            46.178738,
            2457
          ],
          [
            10.879933,
            46.178686,
            2443
          ],
          [
            10.880035,
            46.178731,
            2455.25
          ],
          [
            10.88015,
            46.178701,
            2452.5
          ],
          [
            10.880236,
            46.178642,
            2440.75
          ],
          [
            10.880502,
            46.178547,
            2441.5
          ],
          [
            10.880614,
            46.178542,
            2446
          ],
          [
            10.881009,
            46.178432,
            2439.25
          ],
          [
            10.881204,
            46.178404,
            2437.5
          ],
          [
            10.881285,
            46.178404,
            2438.5
          ],
          [
            10.881368,
            46.178378,
            2436
          ],
          [
            10.881443,
            46.178376,
            2437.25
          ],
          [
            10.881534,
            46.178339,
            2433
          ],
          [
            10.881684,
            46.178334,
            2434
          ],
          [
            10.881883,
            46.178302,
            2424.75
          ],
          [
            10.881921,
            46.178313,
            2427.25
          ],
          [
            10.881945,
            46.178432,
            2458.25
          ],
          [
            10.882004,
            46.178387,
            2445
          ],
          [
            10.882089,
            46.178402,
            2447.25
          ],
          [
            10.882181,
            46.178391,
            2442.5
          ],
          [
            10.882229,
            46.178363,
            2434
          ],
          [
            10.882285,
            46.17836,
            2432.75
          ],
          [
            10.882403,
            46.178371,
            2435.25
          ],
          [
            10.882468,
            46.178361,
            2431.5
          ],
          [
            10.882582,
            46.178331,
            2416
          ],
          [
            10.882883,
            46.178283,
            2403
          ],
          [
            10.883047,
            46.178228,
            2400
          ],
          [
            10.88335,
            46.178204,
            2392.5
          ],
          [
            10.883423,
            46.178174,
            2391
          ],
          [
            10.883524,
            46.178161,
            2391.5
          ],
          [
            10.883564,
            46.178159,
            2392.5
          ],
          [
            10.883602,
            46.178159,
            2392.5
          ],
          [
            10.88371,
            46.178183,
            2395.25
          ],
          [
            10.883752,
            46.17822,
            2398.75
          ],
          [
            10.883798,
            46.178226,
            2399.75
          ],
          [
            10.883876,
            46.178202,
            2398.5
          ],
          [
            10.883994,
            46.178185,
            2395.75
          ],
          [
            10.884085,
            46.178185,
            2394.75
          ],
          [
            10.884219,
            46.178228,
            2395.25
          ],
          [
            10.884404,
            46.178358,
            2399.25
          ],
          [
            10.884498,
            46.178404,
            2401.75
          ],
          [
            10.884616,
            46.178421,
            2402
          ],
          [
            10.884833,
            46.178393,
            2408
          ],
          [
            10.884984,
            46.17833,
            2398.25
          ],
          [
            10.885327,
            46.178226,
            2399.5
          ],
          [
            10.885407,
            46.17817,
            2399.75
          ],
          [
            10.885456,
            46.178111,
            2398.75
          ],
          [
            10.885603,
            46.178079,
            2403.25
          ],
          [
            10.8857,
            46.178042,
            2403.25
          ],
          [
            10.885925,
            46.17794,
            2407
          ],
          [
            10.886113,
            46.177815,
            2406.5
          ],
          [
            10.886282,
            46.177732,
            2407.25
          ],
          [
            10.886435,
            46.177667,
            2411.5
          ],
          [
            10.886492,
            46.177617,
            2412
          ],
          [
            10.886591,
            46.177553,
            2412
          ],
          [
            10.886591,
            46.177533,
            2410.25
          ],
          [
            10.886615,
            46.177494,
            2407.5
          ],
          [
            10.886679,
            46.177416,
            2405.75
          ],
          [
            10.886636,
            46.177406,
            2403
          ],
          [
            10.886465,
            46.177497,
            2401.75
          ],
          [
            10.88631,
            46.177565,
            2399.25
          ],
          [
            10.886035,
            46.177572,
            2389
          ],
          [
            10.885924,
            46.177626,
            2388
          ],
          [
            10.88587,
            46.177606,
            2385
          ],
          [
            10.88606,
            46.177438,
            2381.5
          ],
          [
            10.886164,
            46.177356,
            2379
          ],
          [
            10.886271,
            46.177294,
            2378.25
          ],
          [
            10.886253,
            46.177259,
            2374.75
          ],
          [
            10.886189,
            46.177252,
            2372
          ],
          [
            10.886039,
            46.177287,
            2369.5
          ],
          [
            10.885953,
            46.17723,
            2362.25
          ],
          [
            10.885824,
            46.17723,
            2358.25
          ],
          [
            10.885758,
            46.177254,
            2358
          ],
          [
            10.885713,
            46.177195,
            2354.5
          ],
          [
            10.885562,
            46.177259,
            2352.5
          ],
          [
            10.885494,
            46.177217,
            2348
          ],
          [
            10.885516,
            46.177153,
            2348
          ],
          [
            10.885408,
            46.177145,
            2344.25
          ],
          [
            10.885265,
            46.177071,
            2338.25
          ],
          [
            10.885115,
            46.177041,
            2334
          ],
          [
            10.884993,
            46.177086,
            2332.25
          ],
          [
            10.88494,
            46.177041,
            2330
          ],
          [
            10.884829,
            46.177054,
            2327.75
          ],
          [
            10.884692,
            46.176968,
            2322.25
          ],
          [
            10.884603,
            46.176938,
            2320.25
          ],
          [
            10.884632,
            46.176895,
            2320.75
          ],
          [
            10.884571,
            46.176731,
            2319
          ],
          [
            10.884485,
            46.176704,
            2316
          ],
          [
            10.884401,
            46.176618,
            2315
          ],
          [
            10.884327,
            46.176585,
            2313.5
          ],
          [
            10.884239,
            46.176536,
            2311
          ],
          [
            10.884127,
            46.176558,
            2305.75
          ],
          [
            10.884023,
            46.176538,
            2303.5
          ],
          [
            10.884014,
            46.17643,
            2304
          ],
          [
            10.883939,
            46.176418,
            2301.5
          ],
          [
            10.883873,
            46.176461,
            2299.5
          ],
          [
            10.883752,
            46.176486,
            2296.5
          ],
          [
            10.883582,
            46.176483,
            2292.75
          ],
          [
            10.883439,
            46.17648,
            2290.25
          ],
          [
            10.883374,
            46.17643,
            2288.75
          ],
          [
            10.88328,
            46.176422,
            2286.75
          ],
          [
            10.883099,
            46.176357,
            2282.25
          ],
          [
            10.882927,
            46.176323,
            2278.25
          ],
          [
            10.882966,
            46.17641,
            2278
          ],
          [
            10.882754,
            46.176313,
            2273.75
          ],
          [
            10.88256,
            46.176254,
            2268.75
          ],
          [
            10.88242,
            46.176339,
            2263
          ],
          [
            10.882309,
            46.176398,
            2257
          ],
          [
            10.882213,
            46.17654,
            2254.75
          ],
          [
            10.882135,
            46.17656,
            2252.5
          ],
          [
            10.882037,
            46.176566,
            2249.25
          ],
          [
            10.881881,
            46.176592,
            2244.75
          ],
          [
            10.881794,
            46.176644,
            2243.5
          ],
          [
            10.881749,
            46.176729,
            2244.75
          ],
          [
            10.881706,
            46.17677,
            2245.25
          ],
          [
            10.881622,
            46.176791,
            2243.5
          ],
          [
            10.881589,
            46.176831,
            2244
          ],
          [
            10.881511,
            46.176852,
            2241.75
          ],
          [
            10.881459,
            46.176907,
            2241.5
          ],
          [
            10.880961,
            46.176919,
            2232
          ],
          [
            10.880872,
            46.176929,
            2231.5
          ],
          [
            10.880741,
            46.176881,
            2228
          ],
          [
            10.880508,
            46.17681,
            2222
          ],
          [
            10.880229,
            46.176776,
            2216.5
          ],
          [
            10.879993,
            46.176779,
            2213
          ],
          [
            10.879795,
            46.176733,
            2210.25
          ],
          [
            10.879675,
            46.176594,
            2205.75
          ],
          [
            10.87959,
            46.176528,
            2203.5
          ],
          [
            10.879495,
            46.176499,
            2202
          ],
          [
            10.87934,
            46.176416,
            2198.5
          ],
          [
            10.879077,
            46.176358,
            2194.5
          ],
          [
            10.878871,
            46.176233,
            2191
          ],
          [
            10.878644,
            46.17614,
            2186.75
          ],
          [
            10.878429,
            46.176104,
            2184
          ],
          [
            10.878253,
            46.176128,
            2182.5
          ],
          [
            10.878065,
            46.176104,
            2181
          ],
          [
            10.877887,
            46.176095,
            2180
          ],
          [
            10.877873,
            46.176068,
            2180.25
          ],
          [
            10.877809,
            46.176084,
            2179.5
          ],
          [
            10.877718,
            46.176091,
            2178.75
          ],
          [
            10.877574,
            46.176033,
            2178
          ],
          [
            10.877489,
            46.175992,
            2177.25
          ],
          [
            10.877226,
            46.175984,
            2176
          ],
          [
            10.876922,
            46.175954,
            2174.25
          ],
          [
            10.876813,
            46.175925,
            2174
          ],
          [
            10.8767,
            46.175909,
            2173.75
          ],
          [
            10.876537,
            46.175791,
            2173
          ],
          [
            10.876503,
            46.175713,
            2173.5
          ],
          [
            10.876418,
            46.175624,
            2174.75
          ],
          [
            10.876403,
            46.175524,
            2176.25
          ],
          [
            10.876274,
            46.175429,
            2176.25
          ]
        ]
      }
    },
    {
      "type": "Feature",
      "properties": {
        "kind": "waypoint",
        "name": "Bivacco Detassis",
        "show_label": true
      },
      "geometry": {
        "type": "Point",
        "coordinates": [
          10.8759502,
          46.1754782,
          2176
        ]
      }
    },
    {
      "type": "Feature",
      "properties": {
        "kind": "waypoint",
        "name": "Ferrata Oliva Detassis",
        "show_label": true
      },
      "geometry": {
        "type": "Point",
        "coordinates": [
          10.8941539,
          46.1750278,
          2587
        ]
      }
    },
    {
      "type": "Feature",
      "properties": {
        "kind": "waypoint",
        "name": "Bocchette Alte",
        "show_label": true
      },
      "geometry": {
        "type": "Point",
        "coordinates": [
          10.8994092,
          46.1784591,
          3005
        ]
      }
    },
    {
      "type": "Feature",
      "properties": {
        "kind": "waypoint",
        "name": "Bocca di Tuckett",
        "show_label": true
      },
      "geometry": {
        "type": "Point",
        "coordinates": [
          10.9010079,
          46.1855588,
          2642
        ]
      }
    },
    {
      "type": "Feature",
      "properties": {
        "kind": "waypoint",
        "name": "Sentiero SOSAT",
        "show_label": true
      },
      "geometry": {
        "type": "Point",
        "coordinates": [
          10.8887011,
          46.1902827,
          2317
        ]
      }
    },
    {
      "type": "Feature",
      "properties": {
        "kind": "waypoint",
        "name": "Bivacco Detassis",
        "show_label": true
      },
      "geometry": {
        "type": "Point",
        "coordinates": [
          10.8759502,
          46.1754782,
          2176
        ]
      }
    }
  ]
}
