<?xml version="1.0" encoding="UTF-8"?>
<gpx version="1.1" creator="Dolomites 2026" xmlns="http://www.topografix.com/GPX/1/1" xmlns:xsi="http://www.w3.org/2001/XMLSchema-instance" xsi:schemaLocation="http://www.topografix.com/GPX/1/1 http://www.topografix.com/GPX/1/1/gpx.xsd">
  <metadata><name>День 4 · XII Apostoli → Ideale → Brentari → Pedrotti → Detassis</name></metadata>
  <wpt lat="46.1506526" lon="10.8474143"><ele>2488</ele><name>Rifugio XII Apostoli</name></wpt>
  <wpt lat="46.151978" lon="10.8594208"><ele>2702</ele><name>Ferrata dell'Ideale</name></wpt>
  <wpt lat="46.1524385" lon="10.8695836"><ele>2898</ele><name>Bocca d'Ambiez</name></wpt>
  <wpt lat="46.1509848" lon="10.875144"><ele>2882</ele><name>Ferrata Brentari</name></wpt>
  <wpt lat="46.1541551" lon="10.8987399"><ele>2485</ele><name>Rifugio Pedrotti</name></wpt>
  <wpt lat="46.1567293" lon="10.8952786"><ele>2559</ele><name>Bocca di Brenta</name></wpt>
  <wpt lat="46.1754782" lon="10.8759502"><ele>2176</ele><name>Bivacco Detassis</name></wpt>
  <trk>
    <name>День 4 · XII Apostoli → Ideale → Brentari → Pedrotti → Detassis</name>
    <trkseg>
      <trkpt lat="46.150532" lon="10.847619"><ele>2487.75</ele></trkpt>
      <trkpt lat="46.150583" lon="10.847717"><ele>2485</ele></trkpt>
      <trkpt lat="46.150723" lon="10.84809"><ele>2474.75</ele></trkpt>
      <trkpt lat="46.150742" lon="10.848154"><ele>2473.75</ele></trkpt>
      <trkpt lat="46.150756" lon="10.848231"><ele>2473</ele></trkpt>
      <trkpt lat="46.150836" lon="10.848347"><ele>2470.75</ele></trkpt>
      <trkpt lat="46.150882" lon="10.84839"><ele>2471</ele></trkpt>
      <trkpt lat="46.150931" lon="10.848396"><ele>2471.25</ele></trkpt>
      <trkpt lat="46.15106" lon="10.848548"><ele>2471.75</ele></trkpt>
      <trkpt lat="46.15113" lon="10.848535"><ele>2472</ele></trkpt>
      <trkpt lat="46.151196" lon="10.848535"><ele>2471.75</ele></trkpt>
      <trkpt lat="46.151354" lon="10.848626"><ele>2473.25</ele></trkpt>
      <trkpt lat="46.151407" lon="10.848697"><ele>2476.5</ele></trkpt>
      <trkpt lat="46.151494" lon="10.848715"><ele>2478.25</ele></trkpt>
      <trkpt lat="46.151594" lon="10.848683"><ele>2478.25</ele></trkpt>
      <trkpt lat="46.151647" lon="10.848705"><ele>2479.75</ele></trkpt>
      <trkpt lat="46.151703" lon="10.848762"><ele>2481.25</ele></trkpt>
      <trkpt lat="46.15175" lon="10.848888"><ele>2484.75</ele></trkpt>
      <trkpt lat="46.151816" lon="10.849011"><ele>2487.25</ele></trkpt>
      <trkpt lat="46.151849" lon="10.849011"><ele>2486.75</ele></trkpt>
      <trkpt lat="46.151974" lon="10.849283"><ele>2493</ele></trkpt>
      <trkpt lat="46.152015" lon="10.849338"><ele>2494.75</ele></trkpt>
      <trkpt lat="46.152103" lon="10.849396"><ele>2496.75</ele></trkpt>
      <trkpt lat="46.152183" lon="10.849431"><ele>2498.25</ele></trkpt>
      <trkpt lat="46.152206" lon="10.849511"><ele>2500.5</ele></trkpt>
      <trkpt lat="46.15225" lon="10.849564"><ele>2500.75</ele></trkpt>
      <trkpt lat="46.152244" lon="10.849781"><ele>2505.5</ele></trkpt>
      <trkpt lat="46.152319" lon="10.850159"><ele>2506</ele></trkpt>
      <trkpt lat="46.152462" lon="10.850482"><ele>2504</ele></trkpt>
      <trkpt lat="46.152465" lon="10.850564"><ele>2505.25</ele></trkpt>
      <trkpt lat="46.152512" lon="10.850693"><ele>2504.75</ele></trkpt>
      <trkpt lat="46.1525" lon="10.850783"><ele>2506.25</ele></trkpt>
      <trkpt lat="46.152545" lon="10.850891"><ele>2507.25</ele></trkpt>
      <trkpt lat="46.152559" lon="10.850983"><ele>2508.5</ele></trkpt>
      <trkpt lat="46.152639" lon="10.85128"><ele>2513</ele></trkpt>
      <trkpt lat="46.152652" lon="10.851367"><ele>2514.5</ele></trkpt>
      <trkpt lat="46.152677" lon="10.851417"><ele>2515</ele></trkpt>
      <trkpt lat="46.152714" lon="10.851443"><ele>2515.25</ele></trkpt>
      <trkpt lat="46.152711" lon="10.851506"><ele>2516.25</ele></trkpt>
      <trkpt lat="46.152734" lon="10.851657"><ele>2518.75</ele></trkpt>
      <trkpt lat="46.152787" lon="10.851785"><ele>2521.25</ele></trkpt>
      <trkpt lat="46.152849" lon="10.851911"><ele>2524.5</ele></trkpt>
      <trkpt lat="46.152892" lon="10.851944"><ele>2526</ele></trkpt>
      <trkpt lat="46.152969" lon="10.852109"><ele>2530.75</ele></trkpt>
      <trkpt lat="46.152983" lon="10.852204"><ele>2533.25</ele></trkpt>
      <trkpt lat="46.152987" lon="10.852279"><ele>2535</ele></trkpt>
      <trkpt lat="46.153019" lon="10.852379"><ele>2538.5</ele></trkpt>
      <trkpt lat="46.153065" lon="10.852412"><ele>2540.5</ele></trkpt>
      <trkpt lat="46.153055" lon="10.852477"><ele>2542.25</ele></trkpt>
      <trkpt lat="46.153093" lon="10.852534"><ele>2544.75</ele></trkpt>
      <trkpt lat="46.153091" lon="10.852646"><ele>2547</ele></trkpt>
      <trkpt lat="46.153106" lon="10.852717"><ele>2549</ele></trkpt>
      <trkpt lat="46.153116" lon="10.852882"><ele>2552.25</ele></trkpt>
      <trkpt lat="46.15318" lon="10.853002"><ele>2556</ele></trkpt>
      <trkpt lat="46.153249" lon="10.853265"><ele>2562.5</ele></trkpt>
      <trkpt lat="46.153298" lon="10.853512"><ele>2567.25</ele></trkpt>
      <trkpt lat="46.153309" lon="10.85361"><ele>2569</ele></trkpt>
      <trkpt lat="46.153296" lon="10.853713"><ele>2570.75</ele></trkpt>
      <trkpt lat="46.153303" lon="10.853836"><ele>2573.5</ele></trkpt>
      <trkpt lat="46.153325" lon="10.854008"><ele>2578</ele></trkpt>
      <trkpt lat="46.153364" lon="10.854137"><ele>2583.25</ele></trkpt>
      <trkpt lat="46.153374" lon="10.854315"><ele>2586.75</ele></trkpt>
      <trkpt lat="46.153402" lon="10.854451"><ele>2590.5</ele></trkpt>
      <trkpt lat="46.153405" lon="10.854565"><ele>2591.75</ele></trkpt>
      <trkpt lat="46.153442" lon="10.854523"><ele>2593.75</ele></trkpt>
      <trkpt lat="46.153469" lon="10.854526"><ele>2595.5</ele></trkpt>
      <trkpt lat="46.153492" lon="10.854709"><ele>2599</ele></trkpt>
      <trkpt lat="46.153529" lon="10.854821"><ele>2602.75</ele></trkpt>
      <trkpt lat="46.153595" lon="10.854677"><ele>2605.25</ele></trkpt>
      <trkpt lat="46.153629" lon="10.85464"><ele>2605.75</ele></trkpt>
      <trkpt lat="46.153669" lon="10.854636"><ele>2605.5</ele></trkpt>
      <trkpt lat="46.153681" lon="10.854697"><ele>2606</ele></trkpt>
      <trkpt lat="46.153671" lon="10.854825"><ele>2608</ele></trkpt>
      <trkpt lat="46.153676" lon="10.855294"><ele>2616</ele></trkpt>
      <trkpt lat="46.153611" lon="10.856028"><ele>2630</ele></trkpt>
      <trkpt lat="46.153539" lon="10.856378"><ele>2635.25</ele></trkpt>
      <trkpt lat="46.153505" lon="10.856482"><ele>2636.5</ele></trkpt>
      <trkpt lat="46.153479" lon="10.856662"><ele>2640.5</ele></trkpt>
      <trkpt lat="46.153366" lon="10.857046"><ele>2650</ele></trkpt>
      <trkpt lat="46.153363" lon="10.857181"><ele>2654.25</ele></trkpt>
      <trkpt lat="46.153304" lon="10.857366"><ele>2655.75</ele></trkpt>
      <trkpt lat="46.153151" lon="10.857781"><ele>2660.75</ele></trkpt>
      <trkpt lat="46.153108" lon="10.857955"><ele>2668</ele></trkpt>
      <trkpt lat="46.153098" lon="10.858073"><ele>2673</ele></trkpt>
      <trkpt lat="46.153077" lon="10.85809"><ele>2674</ele></trkpt>
      <trkpt lat="46.153071" lon="10.858167"><ele>2677.5</ele></trkpt>
      <trkpt lat="46.153021" lon="10.858237"><ele>2679.5</ele></trkpt>
      <trkpt lat="46.152935" lon="10.858444"><ele>2685.5</ele></trkpt>
      <trkpt lat="46.15283" lon="10.858931"><ele>2701.5</ele></trkpt>
      <trkpt lat="46.1529" lon="10.859139"><ele>2704.5</ele></trkpt>
      <trkpt lat="46.152941" lon="10.859347"><ele>2706.5</ele></trkpt>
      <trkpt lat="46.152956" lon="10.859556"><ele>2708.5</ele></trkpt>
      <trkpt lat="46.152914" lon="10.859869"><ele>2711.75</ele></trkpt>
      <trkpt lat="46.152843" lon="10.860052"><ele>2713</ele></trkpt>
      <trkpt lat="46.152669" lon="10.86074"><ele>2716.25</ele></trkpt>
      <trkpt lat="46.152567" lon="10.86098"><ele>2717.5</ele></trkpt>
      <trkpt lat="46.152555" lon="10.861412"><ele>2729.75</ele></trkpt>
      <trkpt lat="46.152494" lon="10.861478"><ele>2726.75</ele></trkpt>
      <trkpt lat="46.152502" lon="10.861577"><ele>2728.75</ele></trkpt>
      <trkpt lat="46.152573" lon="10.861737"><ele>2735.75</ele></trkpt>
      <trkpt lat="46.152571" lon="10.861882"><ele>2737.75</ele></trkpt>
      <trkpt lat="46.152538" lon="10.862012"><ele>2737.25</ele></trkpt>
      <trkpt lat="46.152596" lon="10.862318"><ele>2746</ele></trkpt>
      <trkpt lat="46.15259" lon="10.862446"><ele>2747.75</ele></trkpt>
      <trkpt lat="46.152556" lon="10.862597"><ele>2749.75</ele></trkpt>
      <trkpt lat="46.152559" lon="10.862819"><ele>2757.5</ele></trkpt>
      <trkpt lat="46.152528" lon="10.86294"><ele>2759</ele></trkpt>
      <trkpt lat="46.152481" lon="10.863012"><ele>2757.25</ele></trkpt>
      <trkpt lat="46.152445" lon="10.863252"><ele>2757.5</ele></trkpt>
      <trkpt lat="46.152444" lon="10.863423"><ele>2757</ele></trkpt>
      <trkpt lat="46.152413" lon="10.863538"><ele>2754.5</ele></trkpt>
      <trkpt lat="46.152367" lon="10.863649"><ele>2752.5</ele></trkpt>
      <trkpt lat="46.152314" lon="10.863718"><ele>2751</ele></trkpt>
      <trkpt lat="46.152286" lon="10.863825"><ele>2749.75</ele></trkpt>
      <trkpt lat="46.152234" lon="10.863897"><ele>2751.5</ele></trkpt>
      <trkpt lat="46.152211" lon="10.864009"><ele>2745</ele></trkpt>
      <trkpt lat="46.152222" lon="10.864085"><ele>2739.5</ele></trkpt>
      <trkpt lat="46.152281" lon="10.864212"><ele>2730.25</ele></trkpt>
      <trkpt lat="46.152309" lon="10.864329"><ele>2727.25</ele></trkpt>
      <trkpt lat="46.152338" lon="10.864763"><ele>2726.25</ele></trkpt>
      <trkpt lat="46.152306" lon="10.865382"><ele>2731</ele></trkpt>
      <trkpt lat="46.152306" lon="10.865685"><ele>2732.75</ele></trkpt>
      <trkpt lat="46.152263" lon="10.86648"><ele>2744.75</ele></trkpt>
      <trkpt lat="46.152259" lon="10.866783"><ele>2752.25</ele></trkpt>
      <trkpt lat="46.152193" lon="10.867013"><ele>2764.5</ele></trkpt>
      <trkpt lat="46.152215" lon="10.867249"><ele>2770.5</ele></trkpt>
      <trkpt lat="46.152317" lon="10.868068"><ele>2797.5</ele></trkpt>
      <trkpt lat="46.152412" lon="10.868212"><ele>2802</ele></trkpt>
      <trkpt lat="46.152541" lon="10.868288"><ele>2802.75</ele></trkpt>
      <trkpt lat="46.152675" lon="10.868253"><ele>2800</ele></trkpt>
      <trkpt lat="46.152855" lon="10.868252"><ele>2798.75</ele></trkpt>
      <trkpt lat="46.152911" lon="10.868298"><ele>2801.25</ele></trkpt>
      <trkpt lat="46.152946" lon="10.868372"><ele>2805</ele></trkpt>
      <trkpt lat="46.153038" lon="10.86838"><ele>2805</ele></trkpt>
      <trkpt lat="46.153137" lon="10.868316"><ele>2835.75</ele></trkpt>
      <trkpt lat="46.153173" lon="10.868268"><ele>2840.25</ele></trkpt>
      <trkpt lat="46.153185" lon="10.868239"><ele>2837.5</ele></trkpt>
      <trkpt lat="46.153196" lon="10.868281"><ele>2851.5</ele></trkpt>
      <trkpt lat="46.153132" lon="10.868484"><ele>2847.75</ele></trkpt>
      <trkpt lat="46.153004" lon="10.868758"><ele>2846.5</ele></trkpt>
      <trkpt lat="46.152941" lon="10.868955"><ele>2875.25</ele></trkpt>
      <trkpt lat="46.152888" lon="10.869054"><ele>2878.75</ele></trkpt>
      <trkpt lat="46.152858" lon="10.869091"><ele>2874.5</ele></trkpt>
      <trkpt lat="46.152829" lon="10.869104"><ele>2866.5</ele></trkpt>
      <trkpt lat="46.152817" lon="10.869132"><ele>2865.25</ele></trkpt>
      <trkpt lat="46.152812" lon="10.869174"><ele>2867.75</ele></trkpt>
      <trkpt lat="46.152784" lon="10.869224"><ele>2862</ele></trkpt>
      <trkpt lat="46.152789" lon="10.869268"><ele>2868.25</ele></trkpt>
      <trkpt lat="46.152769" lon="10.869293"><ele>2867.25</ele></trkpt>
      <trkpt lat="46.152762" lon="10.869317"><ele>2870</ele></trkpt>
      <trkpt lat="46.152739" lon="10.869321"><ele>2871</ele></trkpt>
      <trkpt lat="46.152677" lon="10.869378"><ele>2876.25</ele></trkpt>
      <trkpt lat="46.152686" lon="10.869397"><ele>2877.5</ele></trkpt>
      <trkpt lat="46.152713" lon="10.869403"><ele>2878</ele></trkpt>
      <trkpt lat="46.152726" lon="10.869439"><ele>2881.25</ele></trkpt>
      <trkpt lat="46.152712" lon="10.869472"><ele>2885</ele></trkpt>
      <trkpt lat="46.152681" lon="10.86949"><ele>2886.5</ele></trkpt>
      <trkpt lat="46.152609" lon="10.869511"><ele>2886.75</ele></trkpt>
      <trkpt lat="46.152533" lon="10.869604"><ele>2893.5</ele></trkpt>
      <trkpt lat="46.152491" lon="10.869617"><ele>2893.75</ele></trkpt>
      <trkpt lat="46.152437" lon="10.869585"><ele>2897.5</ele></trkpt>
      <trkpt lat="46.152423" lon="10.869576"><ele>2897.5</ele></trkpt>
      <trkpt lat="46.15238" lon="10.869636"><ele>2903.25</ele></trkpt>
      <trkpt lat="46.152339" lon="10.869708"><ele>2905.25</ele></trkpt>
      <trkpt lat="46.152308" lon="10.869774"><ele>2899.25</ele></trkpt>
      <trkpt lat="46.152237" lon="10.869975"><ele>2864.5</ele></trkpt>
      <trkpt lat="46.152157" lon="10.870074"><ele>2856.25</ele></trkpt>
      <trkpt lat="46.152124" lon="10.870092"><ele>2857.25</ele></trkpt>
      <trkpt lat="46.152137" lon="10.870109"><ele>2853.75</ele></trkpt>
      <trkpt lat="46.152132" lon="10.870131"><ele>2851.5</ele></trkpt>
      <trkpt lat="46.152033" lon="10.87029"><ele>2837.5</ele></trkpt>
      <trkpt lat="46.152064" lon="10.870295"><ele>2835.25</ele></trkpt>
      <trkpt lat="46.15206" lon="10.870315"><ele>2833</ele></trkpt>
      <trkpt lat="46.152033" lon="10.870349"><ele>2830</ele></trkpt>
      <trkpt lat="46.151943" lon="10.870518"><ele>2805</ele></trkpt>
      <trkpt lat="46.151875" lon="10.870562"><ele>2797.5</ele></trkpt>
      <trkpt lat="46.151826" lon="10.870642"><ele>2793.75</ele></trkpt>
      <trkpt lat="46.151846" lon="10.870778"><ele>2790</ele></trkpt>
      <trkpt lat="46.151887" lon="10.870967"><ele>2789</ele></trkpt>
      <trkpt lat="46.151863" lon="10.871074"><ele>2786.5</ele></trkpt>
      <trkpt lat="46.151687" lon="10.871139"><ele>2775.75</ele></trkpt>
      <trkpt lat="46.1513" lon="10.871058"><ele>2758</ele></trkpt>
      <trkpt lat="46.150936" lon="10.871054"><ele>2741</ele></trkpt>
      <trkpt lat="46.150459" lon="10.87121"><ele>2718</ele></trkpt>
      <trkpt lat="46.150275" lon="10.871223"><ele>2710.5</ele></trkpt>
      <trkpt lat="46.150407" lon="10.871597"><ele>2716.25</ele></trkpt>
      <trkpt lat="46.150482" lon="10.872269"><ele>2722.25</ele></trkpt>
      <trkpt lat="46.150436" lon="10.872531"><ele>2725.75</ele></trkpt>
      <trkpt lat="46.150366" lon="10.872715"><ele>2729.25</ele></trkpt>
      <trkpt lat="46.150316" lon="10.872919"><ele>2735.25</ele></trkpt>
      <trkpt lat="46.150308" lon="10.873127"><ele>2746.25</ele></trkpt>
      <trkpt lat="46.15041" lon="10.873268"><ele>2764.5</ele></trkpt>
      <trkpt lat="46.150471" lon="10.873396"><ele>2780.25</ele></trkpt>
      <trkpt lat="46.150498" lon="10.873537"><ele>2794.25</ele></trkpt>
      <trkpt lat="46.150451" lon="10.873853"><ele>2816.75</ele></trkpt>
      <trkpt lat="46.150412" lon="10.873938"><ele>2824</ele></trkpt>
      <trkpt lat="46.150251" lon="10.874041"><ele>2820.5</ele></trkpt>
      <trkpt lat="46.15023" lon="10.874102"><ele>2825.5</ele></trkpt>
      <trkpt lat="46.150248" lon="10.874197"><ele>2835</ele></trkpt>
      <trkpt lat="46.150299" lon="10.874382"><ele>2847</ele></trkpt>
      <trkpt lat="46.150386" lon="10.874457"><ele>2863.25</ele></trkpt>
      <trkpt lat="46.150318" lon="10.874735"><ele>2859.25</ele></trkpt>
      <trkpt lat="46.150324" lon="10.874813"><ele>2860.25</ele></trkpt>
      <trkpt lat="46.15037" lon="10.874883"><ele>2867</ele></trkpt>
      <trkpt lat="46.150396" lon="10.874963"><ele>2871.5</ele></trkpt>
      <trkpt lat="46.150418" lon="10.875111"><ele>2872.25</ele></trkpt>
      <trkpt lat="46.15045" lon="10.87515"><ele>2876.75</ele></trkpt>
      <trkpt lat="46.150454" lon="10.875225"><ele>2875.5</ele></trkpt>
      <trkpt lat="46.150435" lon="10.875312"><ele>2871</ele></trkpt>
      <trkpt lat="46.150493" lon="10.875342"><ele>2881.75</ele></trkpt>
      <trkpt lat="46.150497" lon="10.875415"><ele>2883.25</ele></trkpt>
      <trkpt lat="46.150458" lon="10.875484"><ele>2876</ele></trkpt>
      <trkpt lat="46.150559" lon="10.87587"><ele>2882.5</ele></trkpt>
      <trkpt lat="46.150695" lon="10.876149"><ele>2880.75</ele></trkpt>
      <trkpt lat="46.150774" lon="10.876375"><ele>2873.75</ele></trkpt>
      <trkpt lat="46.150828" lon="10.876464"><ele>2875</ele></trkpt>
      <trkpt lat="46.150854" lon="10.876537"><ele>2872.25</ele></trkpt>
      <trkpt lat="46.150847" lon="10.876708"><ele>2859.75</ele></trkpt>
      <trkpt lat="46.15101" lon="10.876673"><ele>2865.5</ele></trkpt>
      <trkpt lat="46.151147" lon="10.876707"><ele>2868.75</ele></trkpt>
      <trkpt lat="46.15118" lon="10.876925"><ele>2866.5</ele></trkpt>
      <trkpt lat="46.151326" lon="10.877138"><ele>2865.25</ele></trkpt>
      <trkpt lat="46.151387" lon="10.877161"><ele>2866.5</ele></trkpt>
      <trkpt lat="46.15143" lon="10.877149"><ele>2865.75</ele></trkpt>
      <trkpt lat="46.151515" lon="10.877047"><ele>2866</ele></trkpt>
      <trkpt lat="46.151569" lon="10.876953"><ele>2866.25</ele></trkpt>
      <trkpt lat="46.151633" lon="10.876863"><ele>2866.5</ele></trkpt>
      <trkpt lat="46.151665" lon="10.876771"><ele>2867.25</ele></trkpt>
      <trkpt lat="46.151672" lon="10.876655"><ele>2869.75</ele></trkpt>
      <trkpt lat="46.151739" lon="10.876408"><ele>2871</ele></trkpt>
      <trkpt lat="46.15185" lon="10.876138"><ele>2872</ele></trkpt>
      <trkpt lat="46.1519" lon="10.875954"><ele>2874</ele></trkpt>
      <trkpt lat="46.151962" lon="10.875877"><ele>2871.75</ele></trkpt>
      <trkpt lat="46.152039" lon="10.875727"><ele>2871.5</ele></trkpt>
      <trkpt lat="46.152125" lon="10.875629"><ele>2869.75</ele></trkpt>
      <trkpt lat="46.152257" lon="10.8756"><ele>2864.25</ele></trkpt>
      <trkpt lat="46.152293" lon="10.875603"><ele>2863.25</ele></trkpt>
      <trkpt lat="46.15231" lon="10.875576"><ele>2863.75</ele></trkpt>
      <trkpt lat="46.152339" lon="10.875557"><ele>2863.5</ele></trkpt>
      <trkpt lat="46.152413" lon="10.8756"><ele>2860</ele></trkpt>
      <trkpt lat="46.152446" lon="10.875558"><ele>2860.25</ele></trkpt>
      <trkpt lat="46.152589" lon="10.875486"><ele>2859.75</ele></trkpt>
      <trkpt lat="46.152637" lon="10.875505"><ele>2858.75</ele></trkpt>
      <trkpt lat="46.152679" lon="10.875475"><ele>2859.25</ele></trkpt>
      <trkpt lat="46.152736" lon="10.875503"><ele>2857.5</ele></trkpt>
      <trkpt lat="46.152777" lon="10.875507"><ele>2856.75</ele></trkpt>
      <trkpt lat="46.152813" lon="10.875545"><ele>2857.5</ele></trkpt>
      <trkpt lat="46.152902" lon="10.875593"><ele>2861</ele></trkpt>
      <trkpt lat="46.153054" lon="10.875718"><ele>2862.25</ele></trkpt>
      <trkpt lat="46.153121" lon="10.875753"><ele>2861.5</ele></trkpt>
      <trkpt lat="46.153196" lon="10.875856"><ele>2856.25</ele></trkpt>
      <trkpt lat="46.153355" lon="10.87602"><ele>2851.5</ele></trkpt>
      <trkpt lat="46.153571" lon="10.8763"><ele>2840.5</ele></trkpt>
      <trkpt lat="46.153631" lon="10.876549"><ele>2831.25</ele></trkpt>
      <trkpt lat="46.153571" lon="10.876704"><ele>2823.75</ele></trkpt>
      <trkpt lat="46.153546" lon="10.87702"><ele>2807.5</ele></trkpt>
      <trkpt lat="46.153569" lon="10.877192"><ele>2795.5</ele></trkpt>
      <trkpt lat="46.153639" lon="10.877454"><ele>2789</ele></trkpt>
      <trkpt lat="46.153609" lon="10.87814"><ele>2774.25</ele></trkpt>
      <trkpt lat="46.153532" lon="10.878535"><ele>2762.5</ele></trkpt>
      <trkpt lat="46.153442" lon="10.878707"><ele>2755.5</ele></trkpt>
      <trkpt lat="46.153183" lon="10.878766"><ele>2743.75</ele></trkpt>
      <trkpt lat="46.153202" lon="10.878863"><ele>2740.75</ele></trkpt>
      <trkpt lat="46.153215" lon="10.878992"><ele>2735.75</ele></trkpt>
      <trkpt lat="46.153263" lon="10.879131"><ele>2730.25</ele></trkpt>
      <trkpt lat="46.153298" lon="10.879209"><ele>2728</ele></trkpt>
      <trkpt lat="46.153298" lon="10.879332"><ele>2726.25</ele></trkpt>
      <trkpt lat="46.153343" lon="10.879456"><ele>2724.75</ele></trkpt>
      <trkpt lat="46.153408" lon="10.879692"><ele>2719</ele></trkpt>
      <trkpt lat="46.153356" lon="10.879732"><ele>2716.25</ele></trkpt>
      <trkpt lat="46.153436" lon="10.880121"><ele>2706.5</ele></trkpt>
      <trkpt lat="46.153443" lon="10.880435"><ele>2698.25</ele></trkpt>
      <trkpt lat="46.153495" lon="10.880536"><ele>2696.25</ele></trkpt>
      <trkpt lat="46.153557" lon="10.880595"><ele>2695.25</ele></trkpt>
      <trkpt lat="46.15357" lon="10.88073"><ele>2690</ele></trkpt>
      <trkpt lat="46.153642" lon="10.881005"><ele>2683</ele></trkpt>
      <trkpt lat="46.153709" lon="10.881446"><ele>2673.25</ele></trkpt>
      <trkpt lat="46.153798" lon="10.88181"><ele>2664</ele></trkpt>
      <trkpt lat="46.153763" lon="10.881954"><ele>2657.5</ele></trkpt>
      <trkpt lat="46.153869" lon="10.882169"><ele>2652.5</ele></trkpt>
      <trkpt lat="46.153899" lon="10.882304"><ele>2649.5</ele></trkpt>
      <trkpt lat="46.153907" lon="10.882527"><ele>2645.5</ele></trkpt>
      <trkpt lat="46.153888" lon="10.882808"><ele>2640</ele></trkpt>
      <trkpt lat="46.153898" lon="10.882915"><ele>2637.25</ele></trkpt>
      <trkpt lat="46.153944" lon="10.882926"><ele>2636.5</ele></trkpt>
      <trkpt lat="46.153984" lon="10.882965"><ele>2634.75</ele></trkpt>
      <trkpt lat="46.153968" lon="10.883042"><ele>2632.5</ele></trkpt>
      <trkpt lat="46.154028" lon="10.883357"><ele>2620.5</ele></trkpt>
      <trkpt lat="46.154339" lon="10.883784"><ele>2609.5</ele></trkpt>
      <trkpt lat="46.154543" lon="10.883753"><ele>2604.5</ele></trkpt>
      <trkpt lat="46.154567" lon="10.883809"><ele>2602.75</ele></trkpt>
      <trkpt lat="46.154616" lon="10.883861"><ele>2600.5</ele></trkpt>
      <trkpt lat="46.154643" lon="10.883951"><ele>2599</ele></trkpt>
      <trkpt lat="46.154611" lon="10.884066"><ele>2599.25</ele></trkpt>
      <trkpt lat="46.154631" lon="10.884077"><ele>2598.5</ele></trkpt>
      <trkpt lat="46.154674" lon="10.884056"><ele>2597.25</ele></trkpt>
      <trkpt lat="46.154701" lon="10.884094"><ele>2595.75</ele></trkpt>
      <trkpt lat="46.154718" lon="10.884186"><ele>2594</ele></trkpt>
      <trkpt lat="46.154735" lon="10.884395"><ele>2592</ele></trkpt>
      <trkpt lat="46.154782" lon="10.884458"><ele>2590.75</ele></trkpt>
      <trkpt lat="46.154808" lon="10.884521"><ele>2589.75</ele></trkpt>
      <trkpt lat="46.154849" lon="10.884564"><ele>2588.5</ele></trkpt>
      <trkpt lat="46.154916" lon="10.884608"><ele>2586.5</ele></trkpt>
      <trkpt lat="46.154993" lon="10.884636"><ele>2584.25</ele></trkpt>
      <trkpt lat="46.155121" lon="10.884719"><ele>2582.5</ele></trkpt>
      <trkpt lat="46.155175" lon="10.884829"><ele>2577.75</ele></trkpt>
      <trkpt lat="46.15515" lon="10.884888"><ele>2576.25</ele></trkpt>
      <trkpt lat="46.155162" lon="10.884915"><ele>2574.75</ele></trkpt>
      <trkpt lat="46.155234" lon="10.884989"><ele>2568</ele></trkpt>
      <trkpt lat="46.155325" lon="10.885025"><ele>2563.5</ele></trkpt>
      <trkpt lat="46.155351" lon="10.885079"><ele>2561.5</ele></trkpt>
      <trkpt lat="46.155432" lon="10.885127"><ele>2558</ele></trkpt>
      <trkpt lat="46.155455" lon="10.885185"><ele>2555</ele></trkpt>
      <trkpt lat="46.155505" lon="10.885272"><ele>2549.25</ele></trkpt>
      <trkpt lat="46.15565" lon="10.885339"><ele>2546.25</ele></trkpt>
      <trkpt lat="46.155707" lon="10.885417"><ele>2545.75</ele></trkpt>
      <trkpt lat="46.155821" lon="10.885635"><ele>2546.75</ele></trkpt>
      <trkpt lat="46.156018" lon="10.885904"><ele>2544.5</ele></trkpt>
      <trkpt lat="46.156124" lon="10.886082"><ele>2544.5</ele></trkpt>
      <trkpt lat="46.156244" lon="10.886321"><ele>2537.75</ele></trkpt>
      <trkpt lat="46.156307" lon="10.88654"><ele>2534.75</ele></trkpt>
      <trkpt lat="46.156315" lon="10.886848"><ele>2530.25</ele></trkpt>
      <trkpt lat="46.156255" lon="10.88723"><ele>2521.75</ele></trkpt>
      <trkpt lat="46.156284" lon="10.887439"><ele>2523.25</ele></trkpt>
      <trkpt lat="46.156236" lon="10.887597"><ele>2520.25</ele></trkpt>
      <trkpt lat="46.156222" lon="10.887734"><ele>2521</ele></trkpt>
      <trkpt lat="46.156096" lon="10.888003"><ele>2509.25</ele></trkpt>
      <trkpt lat="46.156014" lon="10.888205"><ele>2508.25</ele></trkpt>
      <trkpt lat="46.155993" lon="10.888336"><ele>2509.25</ele></trkpt>
      <trkpt lat="46.15588" lon="10.888398"><ele>2504.5</ele></trkpt>
      <trkpt lat="46.155727" lon="10.888562"><ele>2501.5</ele></trkpt>
      <trkpt lat="46.155535" lon="10.888905"><ele>2499.25</ele></trkpt>
      <trkpt lat="46.155467" lon="10.889191"><ele>2503</ele></trkpt>
      <trkpt lat="46.155387" lon="10.88939"><ele>2500.75</ele></trkpt>
      <trkpt lat="46.155349" lon="10.889505"><ele>2499.75</ele></trkpt>
      <trkpt lat="46.15529" lon="10.889547"><ele>2496</ele></trkpt>
      <trkpt lat="46.155218" lon="10.889881"><ele>2494.75</ele></trkpt>
      <trkpt lat="46.155216" lon="10.890006"><ele>2496</ele></trkpt>
      <trkpt lat="46.155173" lon="10.890041"><ele>2494.5</ele></trkpt>
      <trkpt lat="46.155134" lon="10.890132"><ele>2494</ele></trkpt>
      <trkpt lat="46.155073" lon="10.890344"><ele>2493.25</ele></trkpt>
      <trkpt lat="46.155059" lon="10.890454"><ele>2493.25</ele></trkpt>
      <trkpt lat="46.155024" lon="10.890488"><ele>2491</ele></trkpt>
      <trkpt lat="46.15498" lon="10.890567"><ele>2488.5</ele></trkpt>
      <trkpt lat="46.154957" lon="10.890681"><ele>2488</ele></trkpt>
      <trkpt lat="46.154894" lon="10.890892"><ele>2487.75</ele></trkpt>
      <trkpt lat="46.154827" lon="10.890914"><ele>2484.5</ele></trkpt>
      <trkpt lat="46.154692" lon="10.891192"><ele>2482.25</ele></trkpt>
      <trkpt lat="46.15465" lon="10.89122"><ele>2480.25</ele></trkpt>
      <trkpt lat="46.154615" lon="10.891323"><ele>2479.5</ele></trkpt>
      <trkpt lat="46.154623" lon="10.891396"><ele>2480.75</ele></trkpt>
      <trkpt lat="46.154545" lon="10.891434"><ele>2477.5</ele></trkpt>
      <trkpt lat="46.154433" lon="10.89174"><ele>2474.5</ele></trkpt>
      <trkpt lat="46.154332" lon="10.891895"><ele>2471.25</ele></trkpt>
      <trkpt lat="46.154317" lon="10.891995"><ele>2472.25</ele></trkpt>
      <trkpt lat="46.154159" lon="10.892308"><ele>2467.25</ele></trkpt>
      <trkpt lat="46.154169" lon="10.892374"><ele>2469.5</ele></trkpt>
      <trkpt lat="46.154081" lon="10.892503"><ele>2468</ele></trkpt>
      <trkpt lat="46.154035" lon="10.892548"><ele>2467</ele></trkpt>
      <trkpt lat="46.153993" lon="10.892675"><ele>2468.5</ele></trkpt>
      <trkpt lat="46.15397" lon="10.892797"><ele>2470.25</ele></trkpt>
      <trkpt lat="46.153887" lon="10.892986"><ele>2468.5</ele></trkpt>
      <trkpt lat="46.153801" lon="10.893117"><ele>2467</ele></trkpt>
      <trkpt lat="46.153712" lon="10.893521"><ele>2472</ele></trkpt>
      <trkpt lat="46.153695" lon="10.893623"><ele>2473</ele></trkpt>
      <trkpt lat="46.153662" lon="10.893693"><ele>2472</ele></trkpt>
      <trkpt lat="46.153614" lon="10.893865"><ele>2471.5</ele></trkpt>
      <trkpt lat="46.153578" lon="10.894046"><ele>2473.75</ele></trkpt>
      <trkpt lat="46.153583" lon="10.894139"><ele>2476.75</ele></trkpt>
      <trkpt lat="46.153498" lon="10.894301"><ele>2473.75</ele></trkpt>
      <trkpt lat="46.153491" lon="10.894417"><ele>2476</ele></trkpt>
      <trkpt lat="46.1534" lon="10.89458"><ele>2474</ele></trkpt>
      <trkpt lat="46.153388" lon="10.894609"><ele>2474.25</ele></trkpt>
      <trkpt lat="46.153407" lon="10.894614"><ele>2476.25</ele></trkpt>
      <trkpt lat="46.153338" lon="10.894751"><ele>2477</ele></trkpt>
      <trkpt lat="46.153313" lon="10.894829"><ele>2479</ele></trkpt>
      <trkpt lat="46.153242" lon="10.894838"><ele>2471.5</ele></trkpt>
      <trkpt lat="46.153146" lon="10.895096"><ele>2477.25</ele></trkpt>
      <trkpt lat="46.153112" lon="10.895304"><ele>2485.25</ele></trkpt>
      <trkpt lat="46.153122" lon="10.895347"><ele>2488.25</ele></trkpt>
      <trkpt lat="46.153082" lon="10.895548"><ele>2486.75</ele></trkpt>
      <trkpt lat="46.153069" lon="10.895687"><ele>2485</ele></trkpt>
      <trkpt lat="46.15309" lon="10.895757"><ele>2489</ele></trkpt>
      <trkpt lat="46.153063" lon="10.896016"><ele>2486</ele></trkpt>
      <trkpt lat="46.153096" lon="10.896032"><ele>2489.25</ele></trkpt>
      <trkpt lat="46.153075" lon="10.896159"><ele>2487.5</ele></trkpt>
      <trkpt lat="46.153105" lon="10.896419"><ele>2489.75</ele></trkpt>
      <trkpt lat="46.153149" lon="10.896607"><ele>2489.5</ele></trkpt>
      <trkpt lat="46.153163" lon="10.896705"><ele>2488.75</ele></trkpt>
      <trkpt lat="46.153199" lon="10.897028"><ele>2486.25</ele></trkpt>
      <trkpt lat="46.153225" lon="10.897082"><ele>2487</ele></trkpt>
      <trkpt lat="46.153222" lon="10.897145"><ele>2487</ele></trkpt>
      <trkpt lat="46.153251" lon="10.897214"><ele>2487.75</ele></trkpt>
      <trkpt lat="46.153257" lon="10.897252"><ele>2487.5</ele></trkpt>
      <trkpt lat="46.153253" lon="10.897336"><ele>2486.5</ele></trkpt>
      <trkpt lat="46.153246" lon="10.897376"><ele>2485.75</ele></trkpt>
      <trkpt lat="46.153374" lon="10.897531"><ele>2486.5</ele></trkpt>
      <trkpt lat="46.153397" lon="10.897623"><ele>2484.75</ele></trkpt>
      <trkpt lat="46.153492" lon="10.897699"><ele>2484.5</ele></trkpt>
      <trkpt lat="46.153649" lon="10.897745"><ele>2484.5</ele></trkpt>
      <trkpt lat="46.153685" lon="10.897711"><ele>2486.25</ele></trkpt>
      <trkpt lat="46.153829" lon="10.89763"><ele>2489.25</ele></trkpt>
      <trkpt lat="46.153823" lon="10.897595"><ele>2490.5</ele></trkpt>
      <trkpt lat="46.153893" lon="10.897573"><ele>2490.75</ele></trkpt>
      <trkpt lat="46.153916" lon="10.897606"><ele>2490</ele></trkpt>
      <trkpt lat="46.153962" lon="10.897605"><ele>2490.5</ele></trkpt>
      <trkpt lat="46.154078" lon="10.897692"><ele>2490.5</ele></trkpt>
      <trkpt lat="46.154168" lon="10.897735"><ele>2492</ele></trkpt>
      <trkpt lat="46.154228" lon="10.897857"><ele>2492.75</ele></trkpt>
      <trkpt lat="46.154371" lon="10.897945"><ele>2495</ele></trkpt>
      <trkpt lat="46.154409" lon="10.898007"><ele>2495</ele></trkpt>
      <trkpt lat="46.154353" lon="10.898149"><ele>2492.25</ele></trkpt>
      <trkpt lat="46.154338" lon="10.898217"><ele>2491.5</ele></trkpt>
      <trkpt lat="46.15433" lon="10.898389"><ele>2490</ele></trkpt>
      <trkpt lat="46.154283" lon="10.898471"><ele>2490</ele></trkpt>
      <trkpt lat="46.154292" lon="10.898731"><ele>2483.75</ele></trkpt>
      <trkpt lat="46.15423" lon="10.898833"><ele>2484.75</ele></trkpt>
      <trkpt lat="46.154292" lon="10.898731"><ele>2483.75</ele></trkpt>
      <trkpt lat="46.154283" lon="10.898471"><ele>2490</ele></trkpt>
      <trkpt lat="46.15433" lon="10.898389"><ele>2490</ele></trkpt>
      <trkpt lat="46.154396" lon="10.898474"><ele>2487</ele></trkpt>
      <trkpt lat="46.154476" lon="10.898452"><ele>2483.25</ele></trkpt>
      <trkpt lat="46.154516" lon="10.898369"><ele>2482.75</ele></trkpt>
      <trkpt lat="46.154683" lon="10.897793"><ele>2491.25</ele></trkpt>
      <trkpt lat="46.155206" lon="10.897227"><ele>2500.5</ele></trkpt>
      <trkpt lat="46.155374" lon="10.897089"><ele>2505.25</ele></trkpt>
      <trkpt lat="46.155518" lon="10.896992"><ele>2507.5</ele></trkpt>
      <trkpt lat="46.155671" lon="10.896912"><ele>2506</ele></trkpt>
      <trkpt lat="46.155966" lon="10.896567"><ele>2511.75</ele></trkpt>
      <trkpt lat="46.156113" lon="10.896308"><ele>2517.75</ele></trkpt>
      <trkpt lat="46.156278" lon="10.896069"><ele>2523</ele></trkpt>
      <trkpt lat="46.156397" lon="10.895941"><ele>2521</ele></trkpt>
      <trkpt lat="46.156442" lon="10.895814"><ele>2529.25</ele></trkpt>
      <trkpt lat="46.156496" lon="10.895772"><ele>2532.25</ele></trkpt>
      <trkpt lat="46.15661" lon="10.895752"><ele>2530.75</ele></trkpt>
      <trkpt lat="46.156723" lon="10.895763"><ele>2533.75</ele></trkpt>
      <trkpt lat="46.156794" lon="10.895888"><ele>2533</ele></trkpt>
      <trkpt lat="46.156838" lon="10.895836"><ele>2538</ele></trkpt>
      <trkpt lat="46.156805" lon="10.895733"><ele>2543</ele></trkpt>
      <trkpt lat="46.156752" lon="10.895626"><ele>2544.75</ele></trkpt>
      <trkpt lat="46.15675" lon="10.895449"><ele>2553.75</ele></trkpt>
      <trkpt lat="46.156729" lon="10.895279"><ele>2559</ele></trkpt>
      <trkpt lat="46.156742" lon="10.895186"><ele>2558</ele></trkpt>
      <trkpt lat="46.156965" lon="10.894697"><ele>2530.25</ele></trkpt>
      <trkpt lat="46.157115" lon="10.894454"><ele>2520.75</ele></trkpt>
      <trkpt lat="46.15726" lon="10.894326"><ele>2512.75</ele></trkpt>
      <trkpt lat="46.157412" lon="10.894091"><ele>2505.75</ele></trkpt>
      <trkpt lat="46.157645" lon="10.893841"><ele>2495.75</ele></trkpt>
      <trkpt lat="46.157698" lon="10.893727"><ele>2493.5</ele></trkpt>
      <trkpt lat="46.157807" lon="10.893686"><ele>2490.25</ele></trkpt>
      <trkpt lat="46.157764" lon="10.893505"><ele>2487.25</ele></trkpt>
      <trkpt lat="46.1578" lon="10.893213"><ele>2480.75</ele></trkpt>
      <trkpt lat="46.157954" lon="10.893212"><ele>2478.75</ele></trkpt>
      <trkpt lat="46.158123" lon="10.893449"><ele>2477</ele></trkpt>
      <trkpt lat="46.158218" lon="10.893425"><ele>2473.5</ele></trkpt>
      <trkpt lat="46.158823" lon="10.892795"><ele>2421</ele></trkpt>
      <trkpt lat="46.159296" lon="10.892789"><ele>2399</ele></trkpt>
      <trkpt lat="46.159592" lon="10.892659"><ele>2382.5</ele></trkpt>
      <trkpt lat="46.159674" lon="10.892225"><ele>2369.25</ele></trkpt>
      <trkpt lat="46.159691" lon="10.891785"><ele>2361.75</ele></trkpt>
      <trkpt lat="46.159599" lon="10.891298"><ele>2351.75</ele></trkpt>
      <trkpt lat="46.159699" lon="10.891212"><ele>2351.25</ele></trkpt>
      <trkpt lat="46.159755" lon="10.891072"><ele>2351.25</ele></trkpt>
      <trkpt lat="46.159948" lon="10.89074"><ele>2352.5</ele></trkpt>
      <trkpt lat="46.160063" lon="10.890595"><ele>2352.75</ele></trkpt>
      <trkpt lat="46.160356" lon="10.890431"><ele>2348</ele></trkpt>
      <trkpt lat="46.160492" lon="10.890404"><ele>2346.5</ele></trkpt>
      <trkpt lat="46.160798" lon="10.890511"><ele>2346</ele></trkpt>
      <trkpt lat="46.161199" lon="10.890482"><ele>2337.75</ele></trkpt>
      <trkpt lat="46.161328" lon="10.890521"><ele>2338</ele></trkpt>
      <trkpt lat="46.16143" lon="10.890514"><ele>2336.75</ele></trkpt>
      <trkpt lat="46.161745" lon="10.890419"><ele>2332.75</ele></trkpt>
      <trkpt lat="46.161901" lon="10.890437"><ele>2332.25</ele></trkpt>
      <trkpt lat="46.161967" lon="10.890411"><ele>2331</ele></trkpt>
      <trkpt lat="46.162119" lon="10.890276"><ele>2327</ele></trkpt>
      <trkpt lat="46.162234" lon="10.89022"><ele>2326.25</ele></trkpt>
      <trkpt lat="46.162386" lon="10.890167"><ele>2324</ele></trkpt>
      <trkpt lat="46.162656" lon="10.890096"><ele>2320</ele></trkpt>
      <trkpt lat="46.162973" lon="10.890026"><ele>2313.75</ele></trkpt>
      <trkpt lat="46.163067" lon="10.890068"><ele>2315</ele></trkpt>
      <trkpt lat="46.16313" lon="10.890024"><ele>2314</ele></trkpt>
      <trkpt lat="46.163333" lon="10.889854"><ele>2310.25</ele></trkpt>
      <trkpt lat="46.163382" lon="10.889621"><ele>2306.25</ele></trkpt>
      <trkpt lat="46.163493" lon="10.889377"><ele>2304.75</ele></trkpt>
      <trkpt lat="46.163715" lon="10.889094"><ele>2302.75</ele></trkpt>
      <trkpt lat="46.163838" lon="10.888964"><ele>2300.75</ele></trkpt>
      <trkpt lat="46.164001" lon="10.8889"><ele>2299.5</ele></trkpt>
      <trkpt lat="46.164229" lon="10.888873"><ele>2299.75</ele></trkpt>
      <trkpt lat="46.164547" lon="10.888585"><ele>2297.25</ele></trkpt>
      <trkpt lat="46.164655" lon="10.888434"><ele>2296.5</ele></trkpt>
      <trkpt lat="46.164698" lon="10.888229"><ele>2292</ele></trkpt>
      <trkpt lat="46.164782" lon="10.888145"><ele>2291.75</ele></trkpt>
      <trkpt lat="46.164861" lon="10.88801"><ele>2288.25</ele></trkpt>
      <trkpt lat="46.164962" lon="10.887955"><ele>2288</ele></trkpt>
      <trkpt lat="46.165056" lon="10.887867"><ele>2287.75</ele></trkpt>
      <trkpt lat="46.165125" lon="10.887748"><ele>2285.5</ele></trkpt>
      <trkpt lat="46.165163" lon="10.887639"><ele>2282.25</ele></trkpt>
      <trkpt lat="46.165285" lon="10.887601"><ele>2284.25</ele></trkpt>
      <trkpt lat="46.165393" lon="10.887487"><ele>2283</ele></trkpt>
      <trkpt lat="46.165456" lon="10.887376"><ele>2280.75</ele></trkpt>
      <trkpt lat="46.165609" lon="10.887199"><ele>2279.5</ele></trkpt>
      <trkpt lat="46.165713" lon="10.88712"><ele>2279.25</ele></trkpt>
      <trkpt lat="46.165958" lon="10.886684"><ele>2273.25</ele></trkpt>
      <trkpt lat="46.166135" lon="10.88622"><ele>2263</ele></trkpt>
      <trkpt lat="46.166239" lon="10.886149"><ele>2263.75</ele></trkpt>
      <trkpt lat="46.166319" lon="10.886039"><ele>2261</ele></trkpt>
      <trkpt lat="46.166488" lon="10.88589"><ele>2258.75</ele></trkpt>
      <trkpt lat="46.166544" lon="10.885772"><ele>2255</ele></trkpt>
      <trkpt lat="46.166637" lon="10.885672"><ele>2252.5</ele></trkpt>
      <trkpt lat="46.166796" lon="10.885569"><ele>2259.75</ele></trkpt>
      <trkpt lat="46.166879" lon="10.885474"><ele>2260.25</ele></trkpt>
      <trkpt lat="46.166995" lon="10.885283"><ele>2256.75</ele></trkpt>
      <trkpt lat="46.167132" lon="10.885141"><ele>2258.75</ele></trkpt>
      <trkpt lat="46.167187" lon="10.88515"><ele>2266</ele></trkpt>
      <trkpt lat="46.167299" lon="10.884952"><ele>2258</ele></trkpt>
      <trkpt lat="46.167408" lon="10.884868"><ele>2266.25</ele></trkpt>
      <trkpt lat="46.167542" lon="10.884841"><ele>2283</ele></trkpt>
      <trkpt lat="46.167755" lon="10.88472"><ele>2268.75</ele></trkpt>
      <trkpt lat="46.167839" lon="10.884606"><ele>2266</ele></trkpt>
      <trkpt lat="46.168157" lon="10.883915"><ele>2245.25</ele></trkpt>
      <trkpt lat="46.168312" lon="10.883731"><ele>2246</ele></trkpt>
      <trkpt lat="46.168458" lon="10.883535"><ele>2241.75</ele></trkpt>
      <trkpt lat="46.168727" lon="10.883339"><ele>2239</ele></trkpt>
      <trkpt lat="46.16879" lon="10.883232"><ele>2235.75</ele></trkpt>
      <trkpt lat="46.168872" lon="10.8832"><ele>2236.75</ele></trkpt>
      <trkpt lat="46.168936" lon="10.883237"><ele>2238.25</ele></trkpt>
      <trkpt lat="46.169076" lon="10.883216"><ele>2236.25</ele></trkpt>
      <trkpt lat="46.16919" lon="10.883224"><ele>2238.25</ele></trkpt>
      <trkpt lat="46.169392" lon="10.883046"><ele>2233.75</ele></trkpt>
      <trkpt lat="46.169565" lon="10.882957"><ele>2236</ele></trkpt>
      <trkpt lat="46.169997" lon="10.882683"><ele>2233</ele></trkpt>
      <trkpt lat="46.170138" lon="10.882489"><ele>2231.5</ele></trkpt>
      <trkpt lat="46.170313" lon="10.882334"><ele>2232.5</ele></trkpt>
      <trkpt lat="46.170386" lon="10.882201"><ele>2230</ele></trkpt>
      <trkpt lat="46.170631" lon="10.881818"><ele>2227</ele></trkpt>
      <trkpt lat="46.170687" lon="10.881541"><ele>2222</ele></trkpt>
      <trkpt lat="46.170758" lon="10.881379"><ele>2221.25</ele></trkpt>
      <trkpt lat="46.170875" lon="10.881011"><ele>2218.75</ele></trkpt>
      <trkpt lat="46.17093" lon="10.88096"><ele>2220</ele></trkpt>
      <trkpt lat="46.170953" lon="10.880874"><ele>2219.25</ele></trkpt>
      <trkpt lat="46.170939" lon="10.880757"><ele>2215</ele></trkpt>
      <trkpt lat="46.170968" lon="10.880682"><ele>2214.25</ele></trkpt>
      <trkpt lat="46.171272" lon="10.880329"><ele>2211.5</ele></trkpt>
      <trkpt lat="46.17135" lon="10.88029"><ele>2212.25</ele></trkpt>
      <trkpt lat="46.171565" lon="10.879842"><ele>2203.75</ele></trkpt>
      <trkpt lat="46.171704" lon="10.879783"><ele>2205.75</ele></trkpt>
      <trkpt lat="46.171837" lon="10.879711"><ele>2205</ele></trkpt>
      <trkpt lat="46.17192" lon="10.879641"><ele>2204.25</ele></trkpt>
      <trkpt lat="46.172033" lon="10.879429"><ele>2202</ele></trkpt>
      <trkpt lat="46.172113" lon="10.879218"><ele>2199.25</ele></trkpt>
      <trkpt lat="46.172201" lon="10.879096"><ele>2200</ele></trkpt>
      <trkpt lat="46.172267" lon="10.879043"><ele>2200.5</ele></trkpt>
      <trkpt lat="46.172398" lon="10.878948"><ele>2200.75</ele></trkpt>
      <trkpt lat="46.172501" lon="10.878826"><ele>2199</ele></trkpt>
      <trkpt lat="46.172659" lon="10.878475"><ele>2195</ele></trkpt>
      <trkpt lat="46.172736" lon="10.878349"><ele>2195</ele></trkpt>
      <trkpt lat="46.172972" lon="10.877824"><ele>2190.75</ele></trkpt>
      <trkpt lat="46.173216" lon="10.877525"><ele>2193.25</ele></trkpt>
      <trkpt lat="46.173392" lon="10.877331"><ele>2191.75</ele></trkpt>
      <trkpt lat="46.173497" lon="10.877264"><ele>2191.25</ele></trkpt>
      <trkpt lat="46.173941" lon="10.877072"><ele>2191.25</ele></trkpt>
      <trkpt lat="46.174039" lon="10.876918"><ele>2190</ele></trkpt>
      <trkpt lat="46.174118" lon="10.876882"><ele>2191</ele></trkpt>
      <trkpt lat="46.174196" lon="10.876799"><ele>2192.25</ele></trkpt>
      <trkpt lat="46.174234" lon="10.876643"><ele>2191.75</ele></trkpt>
      <trkpt lat="46.174271" lon="10.876583"><ele>2189.75</ele></trkpt>
      <trkpt lat="46.17486" lon="10.876505"><ele>2185</ele></trkpt>
      <trkpt lat="46.175047" lon="10.876426"><ele>2182</ele></trkpt>
      <trkpt lat="46.175141" lon="10.876319"><ele>2179.5</ele></trkpt>
      <trkpt lat="46.175225" lon="10.876234"><ele>2178.75</ele></trkpt>
      <trkpt lat="46.175429" lon="10.876274"><ele>2176.25</ele></trkpt>
    </trkseg>
  </trk>
</gpx>
