{
  "type": "FeatureCollection",
  "features": [
    {
      "type": "Feature",
      "properties": {
        "kind": "route",
        "name": "День 3 · Pedrotti → Palmieri → Agostini → Castiglioni → XII Apostoli",
        "distance_km": 9.11,
        "ascent_m": 724,
        "source": "BRouter / OpenStreetMap"
      },
      "geometry": {
        "type": "LineString",
        "coordinates": [
          [
            10.898833,
            46.15423,
            2484.5
          ],
          [
            10.898731,
            46.154292,
            2483.75
          ],
          [
            10.898471,
            46.154283,
            2490
          ],
          [
            10.898389,
            46.15433,
            2490
          ],
          [
            10.898217,
            46.154338,
            2491.5
          ],
          [
            10.898149,
            46.154353,
            2492.25
          ],
          [
            10.898007,
            46.154409,
            2495
          ],
          [
            10.897945,
            46.154371,
            2495
          ],
          [
            10.897857,
            46.154228,
            2492.75
          ],
          [
            10.897735,
            46.154168,
            2492
          ],
          [
            10.897692,
            46.154078,
            2490.5
          ],
          [
            10.897605,
            46.153962,
            2490.5
          ],
          [
            10.897606,
            46.153916,
            2490
          ],
          [
            10.897573,
            46.153893,
            2490.75
          ],
          [
            10.897595,
            46.153823,
            2490.5
          ],
          [
            10.89763,
            46.153829,
            2489.25
          ],
          [
            10.897711,
            46.153685,
            2486.25
          ],
          [
            10.897745,
            46.153649,
            2484.5
          ],
          [
            10.897699,
            46.153492,
            2484.5
          ],
          [
            10.897623,
            46.153397,
            2484.75
          ],
          [
            10.897531,
            46.153374,
            2486.5
          ],
          [
            10.897376,
            46.153246,
            2485.75
          ],
          [
            10.897336,
            46.153253,
            2486.5
          ],
          [
            10.897252,
            46.153257,
            2487.5
          ],
          [
            10.897214,
            46.153251,
            2487.75
          ],
          [
            10.897145,
            46.153222,
            2487
          ],
          [
            10.897082,
            46.153225,
            2487
          ],
          [
            10.897028,
            46.153199,
            2486.25
          ],
          [
            10.896705,
            46.153163,
            2488.75
          ],
          [
            10.896607,
            46.153149,
            2489.5
          ],
          [
            10.896419,
            46.153105,
            2489.75
          ],
          [
            10.896159,
            46.153075,
            2487.5
          ],
          [
            10.896032,
            46.153096,
            2489.25
          ],
          [
            10.896016,
            46.153063,
            2486
          ],
          [
            10.895757,
            46.15309,
            2489
          ],
          [
            10.895687,
            46.153069,
            2485
          ],
          [
            10.895548,
            46.153082,
            2486.75
          ],
          [
            10.895347,
            46.153122,
            2488.25
          ],
          [
            10.895304,
            46.153112,
            2485.25
          ],
          [
            10.895096,
            46.153146,
            2477.25
          ],
          [
            10.894838,
            46.153242,
            2471.5
          ],
          [
            10.894829,
            46.153313,
            2479
          ],
          [
            10.894751,
            46.153338,
            2477
          ],
          [
            10.894614,
            46.153407,
            2476.25
          ],
          [
            10.894609,
            46.153388,
            2474.25
          ],
          [
            10.89458,
            46.1534,
            2474
          ],
          [
            10.894417,
            46.153491,
            2476
          ],
          [
            10.894301,
            46.153498,
            2473.75
          ],
          [
            10.894139,
            46.153583,
            2476.75
          ],
          [
            10.894046,
            46.153578,
            2473.75
          ],
          [
            10.893865,
            46.153614,
            2471.5
          ],
          [
            10.893693,
            46.153662,
            2472
          ],
          [
            10.893623,
            46.153695,
            2473
          ],
          [
            10.893521,
            46.153712,
            2472
          ],
          [
            10.893117,
            46.153801,
            2467
          ],
          [
            10.892994,
            46.153825,
            2465.75
          ],
          [
            10.892899,
            46.153877,
            2466.5
          ],
          [
            10.892653,
            46.153922,
            2464
          ],
          [
            10.892475,
            46.153975,
            2462.25
          ],
          [
            10.892397,
            46.15401,
            2462
          ],
          [
            10.892325,
            46.154064,
            2463
          ],
          [
            10.892184,
            46.154094,
            2461.75
          ],
          [
            10.892061,
            46.154141,
            2462.25
          ],
          [
            10.891945,
            46.154162,
            2461.75
          ],
          [
            10.891796,
            46.1542,
            2461.75
          ],
          [
            10.891625,
            46.154192,
            2459
          ],
          [
            10.891531,
            46.154212,
            2459.5
          ],
          [
            10.891484,
            46.154232,
            2460.25
          ],
          [
            10.891378,
            46.154243,
            2459.75
          ],
          [
            10.891328,
            46.154266,
            2460.5
          ],
          [
            10.89123,
            46.15427,
            2459.25
          ],
          [
            10.891139,
            46.15432,
            2461.25
          ],
          [
            10.891087,
            46.154395,
            2465
          ],
          [
            10.891036,
            46.154423,
            2465
          ],
          [
            10.890974,
            46.154482,
            2466
          ],
          [
            10.890913,
            46.15459,
            2470.25
          ],
          [
            10.890773,
            46.154642,
            2470
          ],
          [
            10.890565,
            46.154709,
            2470.25
          ],
          [
            10.890446,
            46.154708,
            2469.25
          ],
          [
            10.890379,
            46.154775,
            2473.25
          ],
          [
            10.890313,
            46.1548,
            2474.5
          ],
          [
            10.890229,
            46.154744,
            2470.25
          ],
          [
            10.890182,
            46.154731,
            2469
          ],
          [
            10.890084,
            46.154723,
            2468.25
          ],
          [
            10.890049,
            46.15473,
            2468.5
          ],
          [
            10.889989,
            46.154728,
            2468.25
          ],
          [
            10.889897,
            46.1547,
            2467.5
          ],
          [
            10.889651,
            46.15459,
            2464.75
          ],
          [
            10.889539,
            46.154565,
            2465
          ],
          [
            10.889373,
            46.154473,
            2463.5
          ],
          [
            10.889234,
            46.154379,
            2463
          ],
          [
            10.889142,
            46.154241,
            2461.25
          ],
          [
            10.889035,
            46.154205,
            2461.5
          ],
          [
            10.888926,
            46.154101,
            2460.25
          ],
          [
            10.888808,
            46.153922,
            2456
          ],
          [
            10.888759,
            46.153918,
            2455.75
          ],
          [
            10.888763,
            46.153866,
            2455.75
          ],
          [
            10.88879,
            46.153827,
            2456.75
          ],
          [
            10.888771,
            46.153824,
            2457
          ],
          [
            10.888818,
            46.153728,
            2459.25
          ],
          [
            10.88877,
            46.153715,
            2460.25
          ],
          [
            10.888757,
            46.15369,
            2461.25
          ],
          [
            10.888704,
            46.153697,
            2462
          ],
          [
            10.888595,
            46.153658,
            2466
          ],
          [
            10.888586,
            46.153629,
            2467.75
          ],
          [
            10.888519,
            46.153619,
            2470.75
          ],
          [
            10.888509,
            46.153577,
            2472.25
          ],
          [
            10.888602,
            46.153276,
            2475.5
          ],
          [
            10.888638,
            46.153266,
            2474.75
          ],
          [
            10.888669,
            46.153249,
            2474
          ],
          [
            10.888731,
            46.153191,
            2472.5
          ],
          [
            10.888774,
            46.153099,
            2471
          ],
          [
            10.888782,
            46.153016,
            2470.5
          ],
          [
            10.888768,
            46.152971,
            2471
          ],
          [
            10.888767,
            46.152931,
            2471.25
          ],
          [
            10.888922,
            46.152726,
            2463.75
          ],
          [
            10.889012,
            46.152593,
            2460.25
          ],
          [
            10.889042,
            46.152382,
            2458
          ],
          [
            10.889028,
            46.15219,
            2457.75
          ],
          [
            10.888992,
            46.152091,
            2457.75
          ],
          [
            10.888981,
            46.151768,
            2453.75
          ],
          [
            10.889002,
            46.151662,
            2451
          ],
          [
            10.888967,
            46.151417,
            2449.5
          ],
          [
            10.888993,
            46.151372,
            2448.25
          ],
          [
            10.889058,
            46.151153,
            2447.75
          ],
          [
            10.889055,
            46.150946,
            2445.75
          ],
          [
            10.88901,
            46.15081,
            2446.5
          ],
          [
            10.889321,
            46.150347,
            2437.75
          ],
          [
            10.889331,
            46.150225,
            2439.5
          ],
          [
            10.889298,
            46.150203,
            2441.25
          ],
          [
            10.889443,
            46.150059,
            2435.25
          ],
          [
            10.889573,
            46.149731,
            2431
          ],
          [
            10.889631,
            46.14955,
            2428
          ],
          [
            10.889706,
            46.149387,
            2425
          ],
          [
            10.889664,
            46.149371,
            2426
          ],
          [
            10.889801,
            46.149213,
            2421.75
          ],
          [
            10.889932,
            46.149159,
            2417.75
          ],
          [
            10.890141,
            46.148998,
            2424.75
          ],
          [
            10.890498,
            46.148865,
            2414.75
          ],
          [
            10.890762,
            46.148669,
            2415.75
          ],
          [
            10.890919,
            46.148616,
            2411.5
          ],
          [
            10.891405,
            46.148345,
            2402
          ],
          [
            10.891555,
            46.148244,
            2398.25
          ],
          [
            10.891618,
            46.14824,
            2395.5
          ],
          [
            10.891709,
            46.148153,
            2394
          ],
          [
            10.89185,
            46.147915,
            2392.75
          ],
          [
            10.891879,
            46.147762,
            2393.25
          ],
          [
            10.892,
            46.147478,
            2388
          ],
          [
            10.892004,
            46.14739,
            2386.75
          ],
          [
            10.891965,
            46.147171,
            2385.5
          ],
          [
            10.891914,
            46.147117,
            2386.25
          ],
          [
            10.891939,
            46.14703,
            2384.25
          ],
          [
            10.89198,
            46.147012,
            2382.75
          ],
          [
            10.892008,
            46.146884,
            2381.5
          ],
          [
            10.892003,
            46.146824,
            2382
          ],
          [
            10.891983,
            46.14676,
            2383
          ],
          [
            10.892001,
            46.146618,
            2383.5
          ],
          [
            10.892063,
            46.146469,
            2382
          ],
          [
            10.892089,
            46.146338,
            2381
          ],
          [
            10.892052,
            46.146132,
            2381.5
          ],
          [
            10.892095,
            46.146105,
            2381
          ],
          [
            10.89217,
            46.146101,
            2380
          ],
          [
            10.892263,
            46.146026,
            2379.75
          ],
          [
            10.892307,
            46.145946,
            2380.25
          ],
          [
            10.89235,
            46.14592,
            2379.5
          ],
          [
            10.892375,
            46.145889,
            2379.5
          ],
          [
            10.892409,
            46.145876,
            2378.75
          ],
          [
            10.892441,
            46.14582,
            2379.5
          ],
          [
            10.892479,
            46.145796,
            2379.5
          ],
          [
            10.892559,
            46.145767,
            2379.25
          ],
          [
            10.892593,
            46.145698,
            2382
          ],
          [
            10.892652,
            46.145686,
            2381.25
          ],
          [
            10.892769,
            46.145637,
            2381
          ],
          [
            10.892798,
            46.145601,
            2382.25
          ],
          [
            10.892929,
            46.145563,
            2381.75
          ],
          [
            10.893258,
            46.145424,
            2377.5
          ],
          [
            10.893416,
            46.145335,
            2376.75
          ],
          [
            10.89351,
            46.145301,
            2376.5
          ],
          [
            10.893638,
            46.145291,
            2375.25
          ],
          [
            10.893718,
            46.145269,
            2375.5
          ],
          [
            10.893785,
            46.145205,
            2376.75
          ],
          [
            10.893927,
            46.145002,
            2379.75
          ],
          [
            10.894357,
            46.14478,
            2383.5
          ],
          [
            10.894589,
            46.144826,
            2381.5
          ],
          [
            10.894681,
            46.144828,
            2381.25
          ],
          [
            10.894882,
            46.14476,
            2379
          ],
          [
            10.895063,
            46.144744,
            2375.5
          ],
          [
            10.895122,
            46.144715,
            2375
          ],
          [
            10.895215,
            46.144722,
            2373.75
          ],
          [
            10.895337,
            46.144621,
            2369
          ],
          [
            10.895407,
            46.14454,
            2366.25
          ],
          [
            10.895427,
            46.144546,
            2365.5
          ],
          [
            10.895464,
            46.144528,
            2364.5
          ],
          [
            10.895539,
            46.144534,
            2362
          ],
          [
            10.895614,
            46.144509,
            2360.25
          ],
          [
            10.895803,
            46.144495,
            2355.25
          ],
          [
            10.895993,
            46.144459,
            2353.25
          ],
          [
            10.896193,
            46.144451,
            2350
          ],
          [
            10.896225,
            46.144438,
            2350
          ],
          [
            10.896444,
            46.14447,
            2343
          ],
          [
            10.896626,
            46.144418,
            2341.25
          ],
          [
            10.896758,
            46.14441,
            2339
          ],
          [
            10.896935,
            46.144438,
            2333.5
          ],
          [
            10.89705,
            46.144372,
            2337
          ],
          [
            10.897132,
            46.144335,
            2338.5
          ],
          [
            10.897282,
            46.144287,
            2339.25
          ],
          [
            10.897315,
            46.144231,
            2343.25
          ],
          [
            10.897455,
            46.144169,
            2344.75
          ],
          [
            10.897726,
            46.144126,
            2341.75
          ],
          [
            10.897827,
            46.1441,
            2340.75
          ],
          [
            10.897986,
            46.144078,
            2337.5
          ],
          [
            10.898009,
            46.144057,
            2338.25
          ],
          [
            10.898066,
            46.144063,
            2336
          ],
          [
            10.898085,
            46.144035,
            2337.5
          ],
          [
            10.898232,
            46.144028,
            2333.75
          ],
          [
            10.898328,
            46.143992,
            2334
          ],
          [
            10.898811,
            46.143743,
            2323
          ],
          [
            10.898885,
            46.143667,
            2325.5
          ],
          [
            10.898933,
            46.143678,
            2322.5
          ],
          [
            10.899014,
            46.143751,
            2312.25
          ],
          [
            10.899086,
            46.1438,
            2303.5
          ],
          [
            10.89915,
            46.143791,
            2301
          ],
          [
            10.899152,
            46.143772,
            2303
          ],
          [
            10.899135,
            46.143757,
            2305.75
          ],
          [
            10.899107,
            46.143767,
            2306
          ],
          [
            10.899099,
            46.143752,
            2308
          ],
          [
            10.899232,
            46.1437,
            2306.25
          ],
          [
            10.899352,
            46.143673,
            2300.75
          ],
          [
            10.899411,
            46.143667,
            2297.5
          ],
          [
            10.899427,
            46.143595,
            2303.5
          ],
          [
            10.899348,
            46.143567,
            2311.5
          ],
          [
            10.899362,
            46.143527,
            2313.75
          ],
          [
            10.899478,
            46.143515,
            2307.25
          ],
          [
            10.899773,
            46.143323,
            2302.5
          ],
          [
            10.899986,
            46.143315,
            2302
          ],
          [
            10.900616,
            46.143113,
            2311.25
          ],
          [
            10.900988,
            46.142909,
            2322.5
          ],
          [
            10.901124,
            46.142889,
            2323.5
          ],
          [
            10.901308,
            46.142909,
            2324.75
          ],
          [
            10.901327,
            46.142872,
            2326.75
          ],
          [
            10.901516,
            46.142871,
            2328.75
          ],
          [
            10.901702,
            46.142898,
            2328.75
          ],
          [
            10.901633,
            46.142861,
            2330.25
          ],
          [
            10.901581,
            46.142783,
            2333.75
          ],
          [
            10.901771,
            46.142753,
            2336.75
          ],
          [
            10.901775,
            46.142726,
            2337.75
          ],
          [
            10.901753,
            46.142697,
            2339
          ],
          [
            10.901761,
            46.14268,
            2339.75
          ],
          [
            10.901789,
            46.142656,
            2341
          ],
          [
            10.901795,
            46.142634,
            2342
          ],
          [
            10.901813,
            46.142623,
            2342.75
          ],
          [
            10.901801,
            46.142588,
            2344
          ],
          [
            10.901773,
            46.142565,
            2344.75
          ],
          [
            10.901793,
            46.142528,
            2346.5
          ],
          [
            10.90183,
            46.142517,
            2347.5
          ],
          [
            10.901829,
            46.142503,
            2348
          ],
          [
            10.901841,
            46.142489,
            2349
          ],
          [
            10.901879,
            46.142482,
            2350
          ],
          [
            10.9021,
            46.142384,
            2353
          ],
          [
            10.902172,
            46.142308,
            2355.5
          ],
          [
            10.902215,
            46.14223,
            2358.75
          ],
          [
            10.902202,
            46.142224,
            2359.25
          ],
          [
            10.902153,
            46.14226,
            2358.5
          ],
          [
            10.902103,
            46.142265,
            2359.5
          ],
          [
            10.902071,
            46.142245,
            2361.5
          ],
          [
            10.902099,
            46.142201,
            2363.25
          ],
          [
            10.902108,
            46.142172,
            2364.5
          ],
          [
            10.90209,
            46.142154,
            2366
          ],
          [
            10.902136,
            46.142053,
            2370.75
          ],
          [
            10.902118,
            46.142044,
            2371.75
          ],
          [
            10.902114,
            46.14202,
            2373.25
          ],
          [
            10.902088,
            46.142021,
            2373.5
          ],
          [
            10.902055,
            46.141957,
            2377.5
          ],
          [
            10.902153,
            46.141832,
            2385
          ],
          [
            10.902245,
            46.141777,
            2386.25
          ],
          [
            10.902293,
            46.14168,
            2390
          ],
          [
            10.902306,
            46.141587,
            2391.5
          ],
          [
            10.902337,
            46.141488,
            2392
          ],
          [
            10.902257,
            46.141352,
            2396
          ],
          [
            10.90213,
            46.141235,
            2396.25
          ],
          [
            10.901977,
            46.141155,
            2398
          ],
          [
            10.90163,
            46.141075,
            2399.5
          ],
          [
            10.901414,
            46.141047,
            2402.75
          ],
          [
            10.901249,
            46.141058,
            2404.5
          ],
          [
            10.901118,
            46.141053,
            2405.5
          ],
          [
            10.900919,
            46.140996,
            2406.25
          ],
          [
            10.900521,
            46.14074,
            2411
          ],
          [
            10.900367,
            46.140723,
            2410.25
          ],
          [
            10.900197,
            46.140632,
            2409.75
          ],
          [
            10.900049,
            46.140586,
            2409.75
          ],
          [
            10.899872,
            46.140552,
            2410.75
          ],
          [
            10.899798,
            46.140518,
            2411.75
          ],
          [
            10.899759,
            46.140461,
            2412.5
          ],
          [
            10.899764,
            46.140347,
            2413.75
          ],
          [
            10.899702,
            46.140239,
            2414.75
          ],
          [
            10.899571,
            46.140131,
            2415.5
          ],
          [
            10.899372,
            46.140074,
            2417
          ],
          [
            10.899048,
            46.139853,
            2417.25
          ],
          [
            10.898877,
            46.139779,
            2416.25
          ],
          [
            10.898711,
            46.139781,
            2414.25
          ],
          [
            10.898588,
            46.139824,
            2414.5
          ],
          [
            10.898473,
            46.139875,
            2415.25
          ],
          [
            10.898365,
            46.139938,
            2417.25
          ],
          [
            10.898075,
            46.140006,
            2418.5
          ],
          [
            10.897853,
            46.140017,
            2417.5
          ],
          [
            10.897529,
            46.140012,
            2414.75
          ],
          [
            10.897137,
            46.139932,
            2416.5
          ],
          [
            10.896869,
            46.139864,
            2420.75
          ],
          [
            10.896562,
            46.139722,
            2420.75
          ],
          [
            10.896403,
            46.139665,
            2420.5
          ],
          [
            10.896272,
            46.139631,
            2421.25
          ],
          [
            10.896221,
            46.139562,
            2418.5
          ],
          [
            10.896005,
            46.139398,
            2415
          ],
          [
            10.895903,
            46.139352,
            2416
          ],
          [
            10.895647,
            46.139329,
            2418.25
          ],
          [
            10.895425,
            46.139266,
            2419.75
          ],
          [
            10.895226,
            46.139244,
            2423
          ],
          [
            10.895023,
            46.139116,
            2424.25
          ],
          [
            10.894953,
            46.139055,
            2424
          ],
          [
            10.894809,
            46.138887,
            2423.25
          ],
          [
            10.894691,
            46.13888,
            2424.25
          ],
          [
            10.894509,
            46.138852,
            2422.25
          ],
          [
            10.894395,
            46.138823,
            2422
          ],
          [
            10.894339,
            46.138772,
            2421.5
          ],
          [
            10.89431,
            46.138687,
            2420
          ],
          [
            10.894304,
            46.13862,
            2418.25
          ],
          [
            10.894312,
            46.138545,
            2415.25
          ],
          [
            10.894269,
            46.138456,
            2414.25
          ],
          [
            10.894187,
            46.138343,
            2415
          ],
          [
            10.894183,
            46.138255,
            2413.5
          ],
          [
            10.894031,
            46.138192,
            2409.5
          ],
          [
            10.893931,
            46.138201,
            2406.75
          ],
          [
            10.893827,
            46.138268,
            2402.5
          ],
          [
            10.893744,
            46.138263,
            2397.5
          ],
          [
            10.893709,
            46.1383,
            2396.75
          ],
          [
            10.893647,
            46.138287,
            2393
          ],
          [
            10.893604,
            46.138319,
            2391.75
          ],
          [
            10.893518,
            46.138322,
            2386.75
          ],
          [
            10.893427,
            46.138347,
            2382.5
          ],
          [
            10.893155,
            46.138493,
            2373
          ],
          [
            10.892993,
            46.138607,
            2370
          ],
          [
            10.892814,
            46.138624,
            2365.75
          ],
          [
            10.892655,
            46.138624,
            2362
          ],
          [
            10.892346,
            46.138662,
            2356
          ],
          [
            10.892072,
            46.138759,
            2351.75
          ],
          [
            10.891747,
            46.138849,
            2344
          ],
          [
            10.891845,
            46.138653,
            2337.25
          ],
          [
            10.891603,
            46.138761,
            2333.25
          ],
          [
            10.89129,
            46.138948,
            2327.75
          ],
          [
            10.891074,
            46.139125,
            2326.25
          ],
          [
            10.890667,
            46.139422,
            2329.5
          ],
          [
            10.890454,
            46.139617,
            2340.75
          ],
          [
            10.890375,
            46.13971,
            2337.25
          ],
          [
            10.890149,
            46.139832,
            2335.5
          ],
          [
            10.889871,
            46.139943,
            2319.75
          ],
          [
            10.889269,
            46.140077,
            2314.75
          ],
          [
            10.88897,
            46.140131,
            2313.25
          ],
          [
            10.888425,
            46.140175,
            2312.25
          ],
          [
            10.888361,
            46.14016,
            2310.25
          ],
          [
            10.887994,
            46.140259,
            2309
          ],
          [
            10.887827,
            46.140262,
            2305
          ],
          [
            10.887605,
            46.140359,
            2302
          ],
          [
            10.887337,
            46.140529,
            2294.75
          ],
          [
            10.887309,
            46.140643,
            2297
          ],
          [
            10.887161,
            46.140723,
            2294
          ],
          [
            10.886638,
            46.14078,
            2284.5
          ],
          [
            10.886561,
            46.140809,
            2283.75
          ],
          [
            10.88635,
            46.140983,
            2290.5
          ],
          [
            10.886129,
            46.141101,
            2287.25
          ],
          [
            10.886075,
            46.141188,
            2290.5
          ],
          [
            10.885351,
            46.141601,
            2292
          ],
          [
            10.885281,
            46.141729,
            2295.5
          ],
          [
            10.884949,
            46.141902,
            2293.75
          ],
          [
            10.884675,
            46.142071,
            2297
          ],
          [
            10.884447,
            46.142123,
            2297.5
          ],
          [
            10.883821,
            46.142439,
            2299
          ],
          [
            10.883605,
            46.142519,
            2300.25
          ],
          [
            10.882768,
            46.142444,
            2301
          ],
          [
            10.882621,
            46.142385,
            2298.75
          ],
          [
            10.882411,
            46.142381,
            2301.25
          ],
          [
            10.88228,
            46.142349,
            2300.5
          ],
          [
            10.882014,
            46.142359,
            2302
          ],
          [
            10.881752,
            46.14234,
            2301.75
          ],
          [
            10.881419,
            46.142364,
            2302.25
          ],
          [
            10.880848,
            46.142444,
            2305
          ],
          [
            10.880605,
            46.142464,
            2304
          ],
          [
            10.880468,
            46.142521,
            2305.5
          ],
          [
            10.880199,
            46.142651,
            2305
          ],
          [
            10.880032,
            46.142773,
            2306.25
          ],
          [
            10.879854,
            46.142815,
            2307
          ],
          [
            10.879681,
            46.14283,
            2307.5
          ],
          [
            10.879582,
            46.142788,
            2307.25
          ],
          [
            10.879364,
            46.142759,
            2306.75
          ],
          [
            10.879039,
            46.142855,
            2310.75
          ],
          [
            10.87892,
            46.14286,
            2310.75
          ],
          [
            10.878822,
            46.142784,
            2308.75
          ],
          [
            10.878649,
            46.142724,
            2310.25
          ],
          [
            10.878451,
            46.142632,
            2308.25
          ],
          [
            10.878388,
            46.142628,
            2308.75
          ],
          [
            10.878271,
            46.142642,
            2309.75
          ],
          [
            10.877915,
            46.142707,
            2311
          ],
          [
            10.877614,
            46.142728,
            2311.5
          ],
          [
            10.877439,
            46.142693,
            2310.75
          ],
          [
            10.877259,
            46.142702,
            2314.25
          ],
          [
            10.877095,
            46.142682,
            2314.25
          ],
          [
            10.876986,
            46.142645,
            2312
          ],
          [
            10.876801,
            46.142648,
            2310.5
          ],
          [
            10.876619,
            46.142677,
            2310
          ],
          [
            10.876253,
            46.142794,
            2314.25
          ],
          [
            10.875807,
            46.142898,
            2315.5
          ],
          [
            10.875587,
            46.142925,
            2317
          ],
          [
            10.87523,
            46.142931,
            2320
          ],
          [
            10.874304,
            46.142902,
            2322
          ],
          [
            10.873973,
            46.142847,
            2322.75
          ],
          [
            10.873791,
            46.142752,
            2321.25
          ],
          [
            10.873724,
            46.14274,
            2321.5
          ],
          [
            10.873625,
            46.142736,
            2322.75
          ],
          [
            10.873346,
            46.142759,
            2327.75
          ],
          [
            10.872846,
            46.142838,
            2338.25
          ],
          [
            10.872357,
            46.14285,
            2345.75
          ],
          [
            10.871009,
            46.142844,
            2357.25
          ],
          [
            10.870912,
            46.142816,
            2357.75
          ],
          [
            10.87048,
            46.142543,
            2366.5
          ],
          [
            10.870198,
            46.142289,
            2373.75
          ],
          [
            10.870006,
            46.142089,
            2376.75
          ],
          [
            10.869945,
            46.142047,
            2377.75
          ],
          [
            10.869851,
            46.141998,
            2379
          ],
          [
            10.869812,
            46.141993,
            2380
          ],
          [
            10.869772,
            46.142002,
            2381.5
          ],
          [
            10.869746,
            46.142019,
            2383
          ],
          [
            10.86974,
            46.14204,
            2384
          ],
          [
            10.869789,
            46.142146,
            2386.5
          ],
          [
            10.869842,
            46.142323,
            2389.75
          ],
          [
            10.869825,
            46.14242,
            2392.75
          ],
          [
            10.86979,
            46.142585,
            2398
          ],
          [
            10.869769,
            46.142606,
            2399.25
          ],
          [
            10.869741,
            46.142612,
            2400.25
          ],
          [
            10.869701,
            46.142604,
            2401.25
          ],
          [
            10.86965,
            46.142581,
            2401.75
          ],
          [
            10.869595,
            46.142598,
            2403.25
          ],
          [
            10.869523,
            46.142601,
            2404.75
          ],
          [
            10.869467,
            46.142592,
            2405.75
          ],
          [
            10.86935,
            46.142525,
            2407
          ],
          [
            10.869326,
            46.142497,
            2407
          ],
          [
            10.86935,
            46.142525,
            2407
          ],
          [
            10.869467,
            46.142592,
            2405.75
          ],
          [
            10.869523,
            46.142601,
            2404.75
          ],
          [
            10.869494,
            46.142624,
            2405.75
          ],
          [
            10.869451,
            46.142633,
            2406.75
          ],
          [
            10.869362,
            46.142698,
            2409.75
          ],
          [
            10.869331,
            46.142884,
            2415
          ],
          [
            10.869282,
            46.142941,
            2417.25
          ],
          [
            10.869148,
            46.142985,
            2420.5
          ],
          [
            10.869097,
            46.143091,
            2424.5
          ],
          [
            10.869067,
            46.14308,
            2425.75
          ],
          [
            10.868978,
            46.143072,
            2429.25
          ],
          [
            10.868916,
            46.142956,
            2430
          ],
          [
            10.868827,
            46.142893,
            2433.5
          ],
          [
            10.868739,
            46.142784,
            2436.5
          ],
          [
            10.868685,
            46.142772,
            2439.5
          ],
          [
            10.868629,
            46.14281,
            2443.25
          ],
          [
            10.868623,
            46.142843,
            2444.25
          ],
          [
            10.868646,
            46.142961,
            2444.5
          ],
          [
            10.868625,
            46.143004,
            2446.25
          ],
          [
            10.868499,
            46.143003,
            2452.75
          ],
          [
            10.868422,
            46.142926,
            2455.5
          ],
          [
            10.868333,
            46.142941,
            2460.25
          ],
          [
            10.868304,
            46.143031,
            2462.5
          ],
          [
            10.868226,
            46.143134,
            2468.5
          ],
          [
            10.867908,
            46.14316,
            2477.5
          ],
          [
            10.867878,
            46.143209,
            2480.25
          ],
          [
            10.867906,
            46.143245,
            2481.75
          ],
          [
            10.868029,
            46.143362,
            2488
          ],
          [
            10.867986,
            46.143425,
            2492.5
          ],
          [
            10.868035,
            46.143457,
            2494.75
          ],
          [
            10.867901,
            46.143484,
            2496
          ],
          [
            10.867652,
            46.143605,
            2503.5
          ],
          [
            10.867565,
            46.143654,
            2508.5
          ],
          [
            10.867381,
            46.14373,
            2515.5
          ],
          [
            10.867296,
            46.143753,
            2517.75
          ],
          [
            10.867279,
            46.143821,
            2524.25
          ],
          [
            10.867304,
            46.14387,
            2528.75
          ],
          [
            10.867369,
            46.143891,
            2530.5
          ],
          [
            10.86749,
            46.143965,
            2535.75
          ],
          [
            10.867355,
            46.144096,
            2545.25
          ],
          [
            10.867302,
            46.1441,
            2545.5
          ],
          [
            10.867311,
            46.144134,
            2548
          ],
          [
            10.867362,
            46.144151,
            2549.25
          ],
          [
            10.86737,
            46.144184,
            2552
          ],
          [
            10.867285,
            46.144224,
            2554.5
          ],
          [
            10.867168,
            46.144256,
            2555.5
          ],
          [
            10.867139,
            46.144293,
            2557.75
          ],
          [
            10.867032,
            46.144316,
            2558.75
          ],
          [
            10.866956,
            46.144364,
            2561.25
          ],
          [
            10.866776,
            46.14458,
            2570
          ],
          [
            10.866781,
            46.144602,
            2571.25
          ],
          [
            10.866771,
            46.144676,
            2575.25
          ],
          [
            10.866642,
            46.14481,
            2580.25
          ],
          [
            10.866531,
            46.144805,
            2579.5
          ],
          [
            10.866382,
            46.144829,
            2580
          ],
          [
            10.866167,
            46.144837,
            2582.25
          ],
          [
            10.865627,
            46.144876,
            2592
          ],
          [
            10.865219,
            46.144834,
            2600.5
          ],
          [
            10.865151,
            46.144784,
            2600.75
          ],
          [
            10.865033,
            46.144767,
            2604.75
          ],
          [
            10.865022,
            46.144656,
            2602.5
          ],
          [
            10.864961,
            46.144594,
            2603
          ],
          [
            10.864856,
            46.144586,
            2604.75
          ],
          [
            10.864647,
            46.144511,
            2606.5
          ],
          [
            10.864495,
            46.144482,
            2610
          ],
          [
            10.864331,
            46.14441,
            2613
          ],
          [
            10.864242,
            46.144356,
            2614.75
          ],
          [
            10.864191,
            46.144267,
            2616
          ],
          [
            10.864199,
            46.14413,
            2615.75
          ],
          [
            10.864184,
            46.144067,
            2616.25
          ],
          [
            10.864135,
            46.144007,
            2617.5
          ],
          [
            10.86375,
            46.143823,
            2623.5
          ],
          [
            10.863456,
            46.143756,
            2629.75
          ],
          [
            10.863321,
            46.143765,
            2634
          ],
          [
            10.863216,
            46.1438,
            2637.5
          ],
          [
            10.863145,
            46.143861,
            2641
          ],
          [
            10.863081,
            46.143891,
            2643.5
          ],
          [
            10.862892,
            46.143879,
            2648.75
          ],
          [
            10.862825,
            46.143909,
            2652
          ],
          [
            10.862993,
            46.144173,
            2656.25
          ],
          [
            10.862888,
            46.144232,
            2662
          ],
          [
            10.862892,
            46.144313,
            2665
          ],
          [
            10.862955,
            46.144382,
            2666.25
          ],
          [
            10.862926,
            46.144422,
            2668.75
          ],
          [
            10.862791,
            46.144413,
            2671.5
          ],
          [
            10.862794,
            46.144486,
            2675.5
          ],
          [
            10.862716,
            46.144498,
            2681.25
          ],
          [
            10.862654,
            46.144556,
            2695.5
          ],
          [
            10.86255,
            46.144545,
            2705.5
          ],
          [
            10.86247,
            46.144519,
            2707.75
          ],
          [
            10.862428,
            46.14449,
            2705.5
          ],
          [
            10.862382,
            46.144482,
            2710
          ],
          [
            10.862332,
            46.144482,
            2717.25
          ],
          [
            10.862311,
            46.144456,
            2714
          ],
          [
            10.862304,
            46.144432,
            2710.75
          ],
          [
            10.862279,
            46.144417,
            2712.75
          ],
          [
            10.862193,
            46.144405,
            2727
          ],
          [
            10.862159,
            46.144438,
            2740
          ],
          [
            10.862135,
            46.144448,
            2747.5
          ],
          [
            10.862091,
            46.144403,
            2754.5
          ],
          [
            10.862029,
            46.144365,
            2769.5
          ],
          [
            10.862013,
            46.144341,
            2773.25
          ],
          [
            10.862019,
            46.144306,
            2769.75
          ],
          [
            10.861994,
            46.144279,
            2777
          ],
          [
            10.861718,
            46.144303,
            2810.5
          ],
          [
            10.861608,
            46.1443,
            2817.75
          ],
          [
            10.861596,
            46.144314,
            2818.5
          ],
          [
            10.861612,
            46.144382,
            2818.25
          ],
          [
            10.861573,
            46.144393,
            2819.5
          ],
          [
            10.861603,
            46.144488,
            2817.75
          ],
          [
            10.861532,
            46.144495,
            2818
          ],
          [
            10.861475,
            46.144475,
            2819
          ],
          [
            10.861455,
            46.144483,
            2818.75
          ],
          [
            10.861442,
            46.144504,
            2817.75
          ],
          [
            10.861608,
            46.14463,
            2815
          ],
          [
            10.861679,
            46.144666,
            2816.75
          ],
          [
            10.861723,
            46.144721,
            2820
          ],
          [
            10.861722,
            46.144769,
            2819.5
          ],
          [
            10.861699,
            46.144828,
            2817.5
          ],
          [
            10.861635,
            46.144832,
            2813.25
          ],
          [
            10.861565,
            46.14485,
            2808.75
          ],
          [
            10.861544,
            46.144896,
            2806.75
          ],
          [
            10.861491,
            46.144941,
            2802
          ],
          [
            10.861451,
            46.144947,
            2799.25
          ],
          [
            10.861411,
            46.144971,
            2795.5
          ],
          [
            10.861347,
            46.145041,
            2792.5
          ],
          [
            10.861293,
            46.145088,
            2791.75
          ],
          [
            10.861211,
            46.145141,
            2790.25
          ],
          [
            10.861131,
            46.145146,
            2786.5
          ],
          [
            10.86106,
            46.145138,
            2783.25
          ],
          [
            10.860936,
            46.145175,
            2780.25
          ],
          [
            10.86085,
            46.145185,
            2777.5
          ],
          [
            10.860743,
            46.145186,
            2772.25
          ],
          [
            10.860706,
            46.145215,
            2771.75
          ],
          [
            10.860656,
            46.145172,
            2767.5
          ],
          [
            10.860624,
            46.145201,
            2767
          ],
          [
            10.860604,
            46.145238,
            2767.25
          ],
          [
            10.860558,
            46.145265,
            2765.5
          ],
          [
            10.860512,
            46.145251,
            2762.75
          ],
          [
            10.860467,
            46.145164,
            2758
          ],
          [
            10.860398,
            46.145157,
            2754.75
          ],
          [
            10.860345,
            46.14519,
            2753.25
          ],
          [
            10.860319,
            46.145216,
            2752.5
          ],
          [
            10.860255,
            46.145246,
            2750.25
          ],
          [
            10.860223,
            46.145228,
            2748.75
          ],
          [
            10.860218,
            46.145232,
            2748.75
          ],
          [
            10.86014,
            46.145301,
            2747.25
          ],
          [
            10.860056,
            46.145343,
            2744
          ],
          [
            10.859956,
            46.145354,
            2739.5
          ],
          [
            10.859788,
            46.145336,
            2732.25
          ],
          [
            10.859717,
            46.145353,
            2729.25
          ],
          [
            10.859686,
            46.145405,
            2728
          ],
          [
            10.859674,
            46.145448,
            2727.75
          ],
          [
            10.859637,
            46.145516,
            2726.5
          ],
          [
            10.859554,
            46.145528,
            2722.75
          ],
          [
            10.859466,
            46.145563,
            2719.25
          ],
          [
            10.859407,
            46.145508,
            2716.25
          ],
          [
            10.859364,
            46.145489,
            2714.25
          ],
          [
            10.859324,
            46.145504,
            2713
          ],
          [
            10.859269,
            46.145563,
            2711.75
          ],
          [
            10.859189,
            46.14557,
            2709
          ],
          [
            10.859153,
            46.14554,
            2707
          ],
          [
            10.859138,
            46.14547,
            2705.5
          ],
          [
            10.859163,
            46.14532,
            2704.25
          ],
          [
            10.859131,
            46.145055,
            2702.5
          ],
          [
            10.859039,
            46.144909,
            2700.75
          ],
          [
            10.858957,
            46.14473,
            2700.75
          ],
          [
            10.858907,
            46.144663,
            2700
          ],
          [
            10.858792,
            46.144616,
            2696.75
          ],
          [
            10.858749,
            46.144616,
            2695
          ],
          [
            10.858726,
            46.144658,
            2693
          ],
          [
            10.858821,
            46.144785,
            2694
          ],
          [
            10.858883,
            46.144938,
            2693.75
          ],
          [
            10.858888,
            46.144997,
            2693
          ],
          [
            10.858875,
            46.145027,
            2692.25
          ],
          [
            10.858824,
            46.145032,
            2690
          ],
          [
            10.85876,
            46.145018,
            2687.75
          ],
          [
            10.85849,
            46.14482,
            2680.25
          ],
          [
            10.858435,
            46.144859,
            2677.25
          ],
          [
            10.85844,
            46.144889,
            2677
          ],
          [
            10.858356,
            46.145002,
            2670.75
          ],
          [
            10.858363,
            46.14512,
            2667.25
          ],
          [
            10.858339,
            46.145171,
            2664.5
          ],
          [
            10.85831,
            46.145194,
            2662.75
          ],
          [
            10.858251,
            46.145198,
            2660.75
          ],
          [
            10.858188,
            46.145211,
            2658.5
          ],
          [
            10.858179,
            46.145259,
            2657
          ],
          [
            10.858211,
            46.14531,
            2656.5
          ],
          [
            10.858285,
            46.145354,
            2658
          ],
          [
            10.858309,
            46.145384,
            2658.25
          ],
          [
            10.858305,
            46.14543,
            2657
          ],
          [
            10.858214,
            46.145558,
            2650.75
          ],
          [
            10.858143,
            46.145758,
            2649.25
          ],
          [
            10.858031,
            46.145837,
            2644
          ],
          [
            10.857971,
            46.14595,
            2645
          ],
          [
            10.857887,
            46.146028,
            2643.25
          ],
          [
            10.857765,
            46.146189,
            2643
          ],
          [
            10.85766,
            46.14625,
            2641
          ],
          [
            10.857551,
            46.146339,
            2640
          ],
          [
            10.857159,
            46.14657,
            2633
          ],
          [
            10.857038,
            46.146693,
            2632.25
          ],
          [
            10.856944,
            46.146772,
            2631.75
          ],
          [
            10.856761,
            46.146825,
            2629.25
          ],
          [
            10.856563,
            46.146849,
            2625.75
          ],
          [
            10.856261,
            46.146978,
            2624.25
          ],
          [
            10.855473,
            46.147208,
            2606
          ],
          [
            10.855279,
            46.147362,
            2604
          ],
          [
            10.855205,
            46.147353,
            2601
          ],
          [
            10.855037,
            46.147456,
            2596
          ],
          [
            10.854963,
            46.147477,
            2593.5
          ],
          [
            10.854939,
            46.147516,
            2593.5
          ],
          [
            10.854734,
            46.147583,
            2588.75
          ],
          [
            10.854605,
            46.147616,
            2585.75
          ],
          [
            10.854565,
            46.147664,
            2585
          ],
          [
            10.854465,
            46.147715,
            2581.25
          ],
          [
            10.854414,
            46.147765,
            2579.5
          ],
          [
            10.854326,
            46.147822,
            2577.25
          ],
          [
            10.854213,
            46.147945,
            2572.5
          ],
          [
            10.853977,
            46.148097,
            2564.75
          ],
          [
            10.853749,
            46.148317,
            2558.25
          ],
          [
            10.853639,
            46.148352,
            2555.25
          ],
          [
            10.853481,
            46.148391,
            2554.5
          ],
          [
            10.853336,
            46.148471,
            2553.5
          ],
          [
            10.853242,
            46.148506,
            2551.25
          ],
          [
            10.853159,
            46.148556,
            2548.25
          ],
          [
            10.852912,
            46.148631,
            2541
          ],
          [
            10.852827,
            46.148705,
            2539.25
          ],
          [
            10.852709,
            46.148757,
            2536.25
          ],
          [
            10.852636,
            46.148754,
            2534.5
          ],
          [
            10.852601,
            46.148758,
            2533.75
          ],
          [
            10.852587,
            46.148781,
            2533
          ],
          [
            10.85255,
            46.148791,
            2532.25
          ],
          [
            10.852389,
            46.148712,
            2528
          ],
          [
            10.852308,
            46.148704,
            2525.25
          ],
          [
            10.852199,
            46.148721,
            2522
          ],
          [
            10.852093,
            46.148827,
            2521
          ],
          [
            10.851975,
            46.148879,
            2519.25
          ],
          [
            10.85189,
            46.148893,
            2518.5
          ],
          [
            10.851857,
            46.148907,
            2518.25
          ],
          [
            10.851801,
            46.148918,
            2517.75
          ],
          [
            10.851671,
            46.148914,
            2517.25
          ],
          [
            10.851536,
            46.148925,
            2517.75
          ],
          [
            10.851479,
            46.148913,
            2518.5
          ],
          [
            10.851361,
            46.148919,
            2519
          ],
          [
            10.851317,
            46.148933,
            2518.75
          ],
          [
            10.851239,
            46.148907,
            2520
          ],
          [
            10.851194,
            46.148909,
            2520
          ],
          [
            10.851164,
            46.148924,
            2519.75
          ],
          [
            10.85115,
            46.14895,
            2519.25
          ],
          [
            10.851089,
            46.148938,
            2519.75
          ],
          [
            10.851038,
            46.148909,
            2520
          ],
          [
            10.850975,
            46.14891,
            2519.75
          ],
          [
            10.850818,
            46.148936,
            2518
          ],
          [
            10.850722,
            46.148938,
            2516.25
          ],
          [
            10.850682,
            46.148949,
            2515.25
          ],
          [
            10.850638,
            46.148979,
            2513.5
          ],
          [
            10.85056,
            46.148978,
            2512
          ],
          [
            10.850531,
            46.148987,
            2511.5
          ],
          [
            10.850488,
            46.148981,
            2511
          ],
          [
            10.850462,
            46.148997,
            2510.25
          ],
          [
            10.850312,
            46.149015,
            2508.5
          ],
          [
            10.850248,
            46.149041,
            2508
          ],
          [
            10.850127,
            46.149058,
            2508.75
          ],
          [
            10.850036,
            46.149093,
            2510
          ],
          [
            10.849971,
            46.149103,
            2510.75
          ],
          [
            10.849869,
            46.149133,
            2511.25
          ],
          [
            10.849754,
            46.149184,
            2511.5
          ],
          [
            10.849625,
            46.149232,
            2509
          ],
          [
            10.849513,
            46.149285,
            2507
          ],
          [
            10.849442,
            46.149333,
            2506.25
          ],
          [
            10.84929,
            46.149401,
            2505.25
          ],
          [
            10.849169,
            46.149415,
            2505
          ],
          [
            10.849094,
            46.14946,
            2504.5
          ],
          [
            10.84886,
            46.149444,
            2504.25
          ],
          [
            10.848742,
            46.149505,
            2499.5
          ],
          [
            10.848607,
            46.149525,
            2497.5
          ],
          [
            10.84856,
            46.149542,
            2497.25
          ],
          [
            10.848488,
            46.149585,
            2497
          ],
          [
            10.848484,
            46.149629,
            2496.25
          ],
          [
            10.848432,
            46.149693,
            2496
          ],
          [
            10.848345,
            46.149697,
            2497.75
          ],
          [
            10.848226,
            46.149745,
            2496.5
          ],
          [
            10.848072,
            46.149793,
            2495
          ],
          [
            10.847845,
            46.149875,
            2492.75
          ],
          [
            10.847793,
            46.14989,
            2492.75
          ],
          [
            10.847722,
            46.149939,
            2492.25
          ],
          [
            10.847674,
            46.150035,
            2491.5
          ],
          [
            10.847612,
            46.150069,
            2491.5
          ],
          [
            10.847586,
            46.150128,
            2491
          ],
          [
            10.847575,
            46.150221,
            2489.75
          ],
          [
            10.847606,
            46.150343,
            2488.25
          ],
          [
            10.847659,
            46.150408,
            2487.25
          ],
          [
            10.847627,
            46.15047,
            2487.75
          ],
          [
            10.847619,
            46.150532,
            2487.75
          ]
        ]
      }
    },
    {
      "type": "Feature",
      "properties": {
        "kind": "waypoint",
        "name": "Rifugio Pedrotti",
        "show_label": true
      },
      "geometry": {
        "type": "Point",
        "coordinates": [
          10.8987399,
          46.1541551,
          2485
        ]
      }
    },
    {
      "type": "Feature",
      "properties": {
        "kind": "waypoint",
        "name": "Sentiero Palmieri",
        "show_label": false
      },
      "geometry": {
        "type": "Point",
        "coordinates": [
          10.8859297,
          46.1460118,
          2300
        ]
      }
    },
    {
      "type": "Feature",
      "properties": {
        "kind": "waypoint",
        "name": "Rifugio Agostini",
        "show_label": true
      },
      "geometry": {
        "type": "Point",
        "coordinates": [
          10.8694778,
          46.1424346,
          2407
        ]
      }
    },
    {
      "type": "Feature",
      "properties": {
        "kind": "waypoint",
        "name": "Bocchetta dei Due Denti",
        "show_label": true
      },
      "geometry": {
        "type": "Point",
        "coordinates": [
          10.8614552,
          46.144483,
          2819
        ]
      }
    },
    {
      "type": "Feature",
      "properties": {
        "kind": "waypoint",
        "name": "Ferrata Castiglioni",
        "show_label": false
      },
      "geometry": {
        "type": "Point",
        "coordinates": [
          10.8585489,
          46.1465664,
          2643
        ]
      }
    },
    {
      "type": "Feature",
      "properties": {
        "kind": "waypoint",
        "name": "Rifugio XII Apostoli",
        "show_label": true
      },
      "geometry": {
        "type": "Point",
        "coordinates": [
          10.8474143,
          46.1506526,
          2488
        ]
      }
    }
  ]
}
