<?xml version="1.0" encoding="UTF-8"?>
<gpx version="1.1" creator="Dolomites 2026" xmlns="http://www.topografix.com/GPX/1/1" xmlns:xsi="http://www.w3.org/2001/XMLSchema-instance" xsi:schemaLocation="http://www.topografix.com/GPX/1/1 http://www.topografix.com/GPX/1/1/gpx.xsd">
  <metadata><name>День 2 · Tuckett → Orsi → Pedrotti → Spellini → Bocchette Centrali → Pedrotti</name></metadata>
  <wpt lat="46.1920149" lon="10.8821454"><ele>2266</ele><name>Rifugio Tuckett</name></wpt>
  <wpt lat="46.1855588" lon="10.9010079"><ele>2642</ele><name>Bocca di Tuckett</name></wpt>
  <wpt lat="46.1541551" lon="10.8987399"><ele>2484</ele><name>Rifugio Pedrotti</name></wpt>
  <wpt lat="46.1620484" lon="10.9043835"><ele>2367</ele><name>Busa dei Sfulmini</name></wpt>
  <wpt lat="46.1648726" lon="10.9017654"><ele>2484</ele><name>Ferrata Spellini</name></wpt>
  <wpt lat="46.1677019" lon="10.8991483"><ele>2742</ele><name>Bocca degli Armi</name></wpt>
  <wpt lat="46.1626989" lon="10.8962642"><ele>2667</ele><name>Bocchette Centrali</name></wpt>
  <wpt lat="46.1567293" lon="10.8952786"><ele>2559</ele><name>Bocca di Brenta</name></wpt>
  <wpt lat="46.1541551" lon="10.8987399"><ele>2484</ele><name>Rifugio Pedrotti</name></wpt>
  <trk>
    <name>День 2 · Tuckett → Orsi → Pedrotti → Spellini → Bocchette Centrali → Pedrotti</name>
    <trkseg>
      <trkpt lat="46.192094" lon="10.882152"><ele>2266</ele></trkpt>
      <trkpt lat="46.19209" lon="10.88224"><ele>2267.5</ele></trkpt>
      <trkpt lat="46.192071" lon="10.882297"><ele>2268.5</ele></trkpt>
      <trkpt lat="46.192025" lon="10.882321"><ele>2270</ele></trkpt>
      <trkpt lat="46.192029" lon="10.882398"><ele>2270.75</ele></trkpt>
      <trkpt lat="46.192062" lon="10.882471"><ele>2270.5</ele></trkpt>
      <trkpt lat="46.192076" lon="10.882571"><ele>2270.75</ele></trkpt>
      <trkpt lat="46.191983" lon="10.882651"><ele>2272.5</ele></trkpt>
      <trkpt lat="46.191977" lon="10.882681"><ele>2272.75</ele></trkpt>
      <trkpt lat="46.191966" lon="10.883122"><ele>2278.25</ele></trkpt>
      <trkpt lat="46.191878" lon="10.883281"><ele>2277.5</ele></trkpt>
      <trkpt lat="46.191868" lon="10.883653"><ele>2282.5</ele></trkpt>
      <trkpt lat="46.191838" lon="10.883867"><ele>2285</ele></trkpt>
      <trkpt lat="46.191774" lon="10.884062"><ele>2284.75</ele></trkpt>
      <trkpt lat="46.191732" lon="10.884267"><ele>2286.25</ele></trkpt>
      <trkpt lat="46.191761" lon="10.884523"><ele>2292.5</ele></trkpt>
      <trkpt lat="46.191746" lon="10.884991"><ele>2299.75</ele></trkpt>
      <trkpt lat="46.191693" lon="10.8851"><ele>2299.25</ele></trkpt>
      <trkpt lat="46.191679" lon="10.885303"><ele>2305.25</ele></trkpt>
      <trkpt lat="46.191534" lon="10.885793"><ele>2308</ele></trkpt>
      <trkpt lat="46.191522" lon="10.886266"><ele>2317.75</ele></trkpt>
      <trkpt lat="46.191413" lon="10.886598"><ele>2316</ele></trkpt>
      <trkpt lat="46.191374" lon="10.887015"><ele>2317.25</ele></trkpt>
      <trkpt lat="46.191395" lon="10.887281"><ele>2321.75</ele></trkpt>
      <trkpt lat="46.191255" lon="10.887845"><ele>2316.75</ele></trkpt>
      <trkpt lat="46.191309" lon="10.888068"><ele>2321.5</ele></trkpt>
      <trkpt lat="46.191288" lon="10.888307"><ele>2321.75</ele></trkpt>
      <trkpt lat="46.191233" lon="10.888513"><ele>2325</ele></trkpt>
      <trkpt lat="46.191181" lon="10.888598"><ele>2327.25</ele></trkpt>
      <trkpt lat="46.191072" lon="10.888704"><ele>2327.5</ele></trkpt>
      <trkpt lat="46.191049" lon="10.8888"><ele>2328.5</ele></trkpt>
      <trkpt lat="46.190905" lon="10.889054"><ele>2329.5</ele></trkpt>
      <trkpt lat="46.190694" lon="10.889512"><ele>2336.75</ele></trkpt>
      <trkpt lat="46.190643" lon="10.889557"><ele>2336.75</ele></trkpt>
      <trkpt lat="46.190537" lon="10.889649"><ele>2336.75</ele></trkpt>
      <trkpt lat="46.190109" lon="10.890308"><ele>2350.25</ele></trkpt>
      <trkpt lat="46.189883" lon="10.890785"><ele>2359.25</ele></trkpt>
      <trkpt lat="46.189868" lon="10.891104"><ele>2367.75</ele></trkpt>
      <trkpt lat="46.189843" lon="10.891222"><ele>2371.25</ele></trkpt>
      <trkpt lat="46.18964" lon="10.89156"><ele>2376.25</ele></trkpt>
      <trkpt lat="46.189529" lon="10.891822"><ele>2381.75</ele></trkpt>
      <trkpt lat="46.189443" lon="10.892105"><ele>2388</ele></trkpt>
      <trkpt lat="46.189405" lon="10.892122"><ele>2387.5</ele></trkpt>
      <trkpt lat="46.18938" lon="10.892306"><ele>2393.25</ele></trkpt>
      <trkpt lat="46.189295" lon="10.892388"><ele>2393.75</ele></trkpt>
      <trkpt lat="46.189167" lon="10.892559"><ele>2395.75</ele></trkpt>
      <trkpt lat="46.189027" lon="10.8928"><ele>2399.25</ele></trkpt>
      <trkpt lat="46.188957" lon="10.892892"><ele>2399.25</ele></trkpt>
      <trkpt lat="46.188881" lon="10.893028"><ele>2398.5</ele></trkpt>
      <trkpt lat="46.188717" lon="10.89329"><ele>2405</ele></trkpt>
      <trkpt lat="46.18861" lon="10.893446"><ele>2404.75</ele></trkpt>
      <trkpt lat="46.188393" lon="10.893852"><ele>2411.5</ele></trkpt>
      <trkpt lat="46.188271" lon="10.894161"><ele>2414</ele></trkpt>
      <trkpt lat="46.188199" lon="10.89432"><ele>2415.75</ele></trkpt>
      <trkpt lat="46.188061" lon="10.894686"><ele>2421</ele></trkpt>
      <trkpt lat="46.187948" lon="10.89507"><ele>2427.75</ele></trkpt>
      <trkpt lat="46.187738" lon="10.89551"><ele>2434.5</ele></trkpt>
      <trkpt lat="46.187649" lon="10.895755"><ele>2448.5</ele></trkpt>
      <trkpt lat="46.187491" lon="10.896143"><ele>2452.5</ele></trkpt>
      <trkpt lat="46.18732" lon="10.89647"><ele>2464.5</ele></trkpt>
      <trkpt lat="46.187186" lon="10.896683"><ele>2469.25</ele></trkpt>
      <trkpt lat="46.18703" lon="10.896862"><ele>2477.75</ele></trkpt>
      <trkpt lat="46.187058" lon="10.89697"><ele>2484</ele></trkpt>
      <trkpt lat="46.186983" lon="10.897161"><ele>2488.75</ele></trkpt>
      <trkpt lat="46.187047" lon="10.897275"><ele>2499.25</ele></trkpt>
      <trkpt lat="46.187034" lon="10.897483"><ele>2511.5</ele></trkpt>
      <trkpt lat="46.186983" lon="10.897642"><ele>2519</ele></trkpt>
      <trkpt lat="46.186827" lon="10.897856"><ele>2523.75</ele></trkpt>
      <trkpt lat="46.186603" lon="10.898086"><ele>2530.75</ele></trkpt>
      <trkpt lat="46.186547" lon="10.898348"><ele>2541.5</ele></trkpt>
      <trkpt lat="46.186384" lon="10.898788"><ele>2556.25</ele></trkpt>
      <trkpt lat="46.186328" lon="10.899097"><ele>2576.5</ele></trkpt>
      <trkpt lat="46.186173" lon="10.899632"><ele>2595.75</ele></trkpt>
      <trkpt lat="46.18606" lon="10.900098"><ele>2613</ele></trkpt>
      <trkpt lat="46.18602" lon="10.900236"><ele>2620</ele></trkpt>
      <trkpt lat="46.18584" lon="10.900652"><ele>2635.25</ele></trkpt>
      <trkpt lat="46.185762" lon="10.900728"><ele>2638.25</ele></trkpt>
      <trkpt lat="46.185706" lon="10.900744"><ele>2638.25</ele></trkpt>
      <trkpt lat="46.185596" lon="10.900736"><ele>2636.5</ele></trkpt>
      <trkpt lat="46.185579" lon="10.900751"><ele>2636.75</ele></trkpt>
      <trkpt lat="46.185633" lon="10.90087"><ele>2642</ele></trkpt>
      <trkpt lat="46.185593" lon="10.900893"><ele>2641</ele></trkpt>
      <trkpt lat="46.185549" lon="10.900894"><ele>2639.5</ele></trkpt>
      <trkpt lat="46.185533" lon="10.90092"><ele>2641</ele></trkpt>
      <trkpt lat="46.185536" lon="10.900948"><ele>2641.5</ele></trkpt>
      <trkpt lat="46.185559" lon="10.901008"><ele>2642</ele></trkpt>
      <trkpt lat="46.185585" lon="10.901203"><ele>2645.75</ele></trkpt>
      <trkpt lat="46.185583" lon="10.901282"><ele>2643.5</ele></trkpt>
      <trkpt lat="46.185558" lon="10.901345"><ele>2633.75</ele></trkpt>
      <trkpt lat="46.18552" lon="10.901737"><ele>2613.75</ele></trkpt>
      <trkpt lat="46.185546" lon="10.901895"><ele>2605</ele></trkpt>
      <trkpt lat="46.185546" lon="10.902252"><ele>2588</ele></trkpt>
      <trkpt lat="46.18551" lon="10.902414"><ele>2581</ele></trkpt>
      <trkpt lat="46.185474" lon="10.902576"><ele>2573.75</ele></trkpt>
      <trkpt lat="46.185489" lon="10.902683"><ele>2572.75</ele></trkpt>
      <trkpt lat="46.185517" lon="10.902788"><ele>2573</ele></trkpt>
      <trkpt lat="46.185494" lon="10.90292"><ele>2565.25</ele></trkpt>
      <trkpt lat="46.18552" lon="10.903016"><ele>2563</ele></trkpt>
      <trkpt lat="46.185442" lon="10.903062"><ele>2555.25</ele></trkpt>
      <trkpt lat="46.185465" lon="10.903241"><ele>2545.25</ele></trkpt>
      <trkpt lat="46.185559" lon="10.903539"><ele>2537.25</ele></trkpt>
      <trkpt lat="46.185537" lon="10.90374"><ele>2532.75</ele></trkpt>
      <trkpt lat="46.185485" lon="10.903775"><ele>2529</ele></trkpt>
      <trkpt lat="46.185465" lon="10.903926"><ele>2525.75</ele></trkpt>
      <trkpt lat="46.185387" lon="10.904151"><ele>2517.5</ele></trkpt>
      <trkpt lat="46.185316" lon="10.90429"><ele>2510.5</ele></trkpt>
      <trkpt lat="46.185257" lon="10.904325"><ele>2507.25</ele></trkpt>
      <trkpt lat="46.18527" lon="10.904381"><ele>2506.5</ele></trkpt>
      <trkpt lat="46.185235" lon="10.904389"><ele>2505.5</ele></trkpt>
      <trkpt lat="46.185218" lon="10.904456"><ele>2503.75</ele></trkpt>
      <trkpt lat="46.185155" lon="10.904443"><ele>2502</ele></trkpt>
      <trkpt lat="46.18509" lon="10.904569"><ele>2497</ele></trkpt>
      <trkpt lat="46.184949" lon="10.904585"><ele>2493.5</ele></trkpt>
      <trkpt lat="46.184861" lon="10.904628"><ele>2490.75</ele></trkpt>
      <trkpt lat="46.184713" lon="10.904658"><ele>2487</ele></trkpt>
      <trkpt lat="46.184526" lon="10.90482"><ele>2477.25</ele></trkpt>
      <trkpt lat="46.184092" lon="10.905119"><ele>2465</ele></trkpt>
      <trkpt lat="46.18387" lon="10.90524"><ele>2467.5</ele></trkpt>
      <trkpt lat="46.183847" lon="10.905358"><ele>2462.25</ele></trkpt>
      <trkpt lat="46.183749" lon="10.905417"><ele>2466.25</ele></trkpt>
      <trkpt lat="46.183662" lon="10.905454"><ele>2469.75</ele></trkpt>
      <trkpt lat="46.183489" lon="10.905634"><ele>2469.75</ele></trkpt>
      <trkpt lat="46.183422" lon="10.905621"><ele>2472.5</ele></trkpt>
      <trkpt lat="46.183357" lon="10.90572"><ele>2470.5</ele></trkpt>
      <trkpt lat="46.182947" lon="10.905867"><ele>2472.25</ele></trkpt>
      <trkpt lat="46.182846" lon="10.905862"><ele>2473.25</ele></trkpt>
      <trkpt lat="46.182755" lon="10.905897"><ele>2472.25</ele></trkpt>
      <trkpt lat="46.182694" lon="10.905902"><ele>2471.75</ele></trkpt>
      <trkpt lat="46.182642" lon="10.905934"><ele>2470.5</ele></trkpt>
      <trkpt lat="46.182559" lon="10.905921"><ele>2470.5</ele></trkpt>
      <trkpt lat="46.182527" lon="10.905964"><ele>2468.75</ele></trkpt>
      <trkpt lat="46.182473" lon="10.905958"><ele>2469</ele></trkpt>
      <trkpt lat="46.182393" lon="10.905999"><ele>2467.25</ele></trkpt>
      <trkpt lat="46.182332" lon="10.906007"><ele>2466.75</ele></trkpt>
      <trkpt lat="46.182265" lon="10.906068"><ele>2464</ele></trkpt>
      <trkpt lat="46.181903" lon="10.906068"><ele>2462.5</ele></trkpt>
      <trkpt lat="46.181702" lon="10.906093"><ele>2460</ele></trkpt>
      <trkpt lat="46.181554" lon="10.906074"><ele>2459.25</ele></trkpt>
      <trkpt lat="46.18132" lon="10.906095"><ele>2455.5</ele></trkpt>
      <trkpt lat="46.181221" lon="10.906039"><ele>2456.25</ele></trkpt>
      <trkpt lat="46.181036" lon="10.905991"><ele>2453.5</ele></trkpt>
      <trkpt lat="46.180889" lon="10.905902"><ele>2451.25</ele></trkpt>
      <trkpt lat="46.180831" lon="10.905891"><ele>2449.25</ele></trkpt>
      <trkpt lat="46.180759" lon="10.905862"><ele>2447.5</ele></trkpt>
      <trkpt lat="46.180674" lon="10.905806"><ele>2446.25</ele></trkpt>
      <trkpt lat="46.180631" lon="10.905749"><ele>2447.75</ele></trkpt>
      <trkpt lat="46.180484" lon="10.905763"><ele>2443.75</ele></trkpt>
      <trkpt lat="46.180371" lon="10.905792"><ele>2441</ele></trkpt>
      <trkpt lat="46.180276" lon="10.905712"><ele>2444</ele></trkpt>
      <trkpt lat="46.180115" lon="10.905645"><ele>2442</ele></trkpt>
      <trkpt lat="46.180005" lon="10.905543"><ele>2442.5</ele></trkpt>
      <trkpt lat="46.179954" lon="10.905396"><ele>2444.75</ele></trkpt>
      <trkpt lat="46.179847" lon="10.905344"><ele>2442.75</ele></trkpt>
      <trkpt lat="46.179642" lon="10.905223"><ele>2441.5</ele></trkpt>
      <trkpt lat="46.179499" lon="10.905194"><ele>2440.75</ele></trkpt>
      <trkpt lat="46.179388" lon="10.90514"><ele>2442.25</ele></trkpt>
      <trkpt lat="46.17927" lon="10.905187"><ele>2440.25</ele></trkpt>
      <trkpt lat="46.179187" lon="10.905156"><ele>2441</ele></trkpt>
      <trkpt lat="46.179008" lon="10.90516"><ele>2443.25</ele></trkpt>
      <trkpt lat="46.178707" lon="10.905208"><ele>2442.25</ele></trkpt>
      <trkpt lat="46.178532" lon="10.905205"><ele>2444</ele></trkpt>
      <trkpt lat="46.1783" lon="10.905401"><ele>2444</ele></trkpt>
      <trkpt lat="46.177944" lon="10.905655"><ele>2445.5</ele></trkpt>
      <trkpt lat="46.17786" lon="10.905666"><ele>2447</ele></trkpt>
      <trkpt lat="46.17745" lon="10.905873"><ele>2450.75</ele></trkpt>
      <trkpt lat="46.177401" lon="10.905972"><ele>2450.5</ele></trkpt>
      <trkpt lat="46.177246" lon="10.906153"><ele>2454</ele></trkpt>
      <trkpt lat="46.177167" lon="10.906329"><ele>2452.5</ele></trkpt>
      <trkpt lat="46.177138" lon="10.906315"><ele>2454.5</ele></trkpt>
      <trkpt lat="46.177102" lon="10.906444"><ele>2451.5</ele></trkpt>
      <trkpt lat="46.176956" lon="10.906516"><ele>2455.5</ele></trkpt>
      <trkpt lat="46.176816" lon="10.906637"><ele>2458.75</ele></trkpt>
      <trkpt lat="46.176705" lon="10.906849"><ele>2461.75</ele></trkpt>
      <trkpt lat="46.176725" lon="10.906951"><ele>2458.5</ele></trkpt>
      <trkpt lat="46.176632" lon="10.907198"><ele>2462.5</ele></trkpt>
      <trkpt lat="46.176463" lon="10.907495"><ele>2471</ele></trkpt>
      <trkpt lat="46.176352" lon="10.907788"><ele>2482.25</ele></trkpt>
      <trkpt lat="46.176305" lon="10.907817"><ele>2485.75</ele></trkpt>
      <trkpt lat="46.17627" lon="10.907828"><ele>2488.5</ele></trkpt>
      <trkpt lat="46.176218" lon="10.907812"><ele>2493.75</ele></trkpt>
      <trkpt lat="46.176185" lon="10.907764"><ele>2499.5</ele></trkpt>
      <trkpt lat="46.176116" lon="10.907723"><ele>2509.75</ele></trkpt>
      <trkpt lat="46.176088" lon="10.907718"><ele>2513.75</ele></trkpt>
      <trkpt lat="46.176051" lon="10.907852"><ele>2508.5</ele></trkpt>
      <trkpt lat="46.175943" lon="10.907943"><ele>2516</ele></trkpt>
      <trkpt lat="46.175895" lon="10.90808"><ele>2513.5</ele></trkpt>
      <trkpt lat="46.175878" lon="10.908187"><ele>2513.5</ele></trkpt>
      <trkpt lat="46.175875" lon="10.908281"><ele>2512</ele></trkpt>
      <trkpt lat="46.175849" lon="10.908375"><ele>2514.25</ele></trkpt>
      <trkpt lat="46.175741" lon="10.908456"><ele>2523</ele></trkpt>
      <trkpt lat="46.17575" lon="10.908566"><ele>2522</ele></trkpt>
      <trkpt lat="46.175807" lon="10.908636"><ele>2519.25</ele></trkpt>
      <trkpt lat="46.175881" lon="10.908711"><ele>2520.25</ele></trkpt>
      <trkpt lat="46.176028" lon="10.908741"><ele>2516.25</ele></trkpt>
      <trkpt lat="46.176084" lon="10.908769"><ele>2515</ele></trkpt>
      <trkpt lat="46.176111" lon="10.90882"><ele>2515.25</ele></trkpt>
      <trkpt lat="46.176103" lon="10.908887"><ele>2517.25</ele></trkpt>
      <trkpt lat="46.175965" lon="10.909046"><ele>2516</ele></trkpt>
      <trkpt lat="46.175895" lon="10.909191"><ele>2514.25</ele></trkpt>
      <trkpt lat="46.175798" lon="10.909263"><ele>2516</ele></trkpt>
      <trkpt lat="46.175607" lon="10.909322"><ele>2518.5</ele></trkpt>
      <trkpt lat="46.175544" lon="10.9093"><ele>2522</ele></trkpt>
      <trkpt lat="46.175446" lon="10.90941"><ele>2516.75</ele></trkpt>
      <trkpt lat="46.175284" lon="10.909445"><ele>2516.75</ele></trkpt>
      <trkpt lat="46.174989" lon="10.909402"><ele>2520.25</ele></trkpt>
      <trkpt lat="46.174879" lon="10.909443"><ele>2517.5</ele></trkpt>
      <trkpt lat="46.174754" lon="10.909454"><ele>2517.25</ele></trkpt>
      <trkpt lat="46.17468" lon="10.90944"><ele>2517.25</ele></trkpt>
      <trkpt lat="46.174534" lon="10.909322"><ele>2522.75</ele></trkpt>
      <trkpt lat="46.174268" lon="10.90926"><ele>2524.5</ele></trkpt>
      <trkpt lat="46.174008" lon="10.909283"><ele>2519.75</ele></trkpt>
      <trkpt lat="46.173829" lon="10.909201"><ele>2522.75</ele></trkpt>
      <trkpt lat="46.173706" lon="10.909197"><ele>2523</ele></trkpt>
      <trkpt lat="46.17351" lon="10.909284"><ele>2517.25</ele></trkpt>
      <trkpt lat="46.17343" lon="10.909228"><ele>2520.25</ele></trkpt>
      <trkpt lat="46.173369" lon="10.909258"><ele>2518</ele></trkpt>
      <trkpt lat="46.173293" lon="10.909223"><ele>2521.5</ele></trkpt>
      <trkpt lat="46.173195" lon="10.909262"><ele>2521.25</ele></trkpt>
      <trkpt lat="46.172986" lon="10.909268"><ele>2532.25</ele></trkpt>
      <trkpt lat="46.172823" lon="10.909376"><ele>2528.75</ele></trkpt>
      <trkpt lat="46.172771" lon="10.909483"><ele>2516.25</ele></trkpt>
      <trkpt lat="46.172782" lon="10.909593"><ele>2505</ele></trkpt>
      <trkpt lat="46.172777" lon="10.90974"><ele>2498.25</ele></trkpt>
      <trkpt lat="46.172843" lon="10.910019"><ele>2522.5</ele></trkpt>
      <trkpt lat="46.172838" lon="10.910317"><ele>2498.25</ele></trkpt>
      <trkpt lat="46.172788" lon="10.910446"><ele>2498</ele></trkpt>
      <trkpt lat="46.172652" lon="10.910491"><ele>2508.75</ele></trkpt>
      <trkpt lat="46.172561" lon="10.910542"><ele>2512.75</ele></trkpt>
      <trkpt lat="46.172411" lon="10.910585"><ele>2517.25</ele></trkpt>
      <trkpt lat="46.172247" lon="10.910588"><ele>2518.75</ele></trkpt>
      <trkpt lat="46.172028" lon="10.91068"><ele>2519.5</ele></trkpt>
      <trkpt lat="46.171855" lon="10.910741"><ele>2515.25</ele></trkpt>
      <trkpt lat="46.171768" lon="10.910727"><ele>2515.25</ele></trkpt>
      <trkpt lat="46.17169" lon="10.910756"><ele>2513.25</ele></trkpt>
      <trkpt lat="46.171683" lon="10.910596"><ele>2517</ele></trkpt>
      <trkpt lat="46.17166" lon="10.910498"><ele>2515.75</ele></trkpt>
      <trkpt lat="46.171653" lon="10.910373"><ele>2513.75</ele></trkpt>
      <trkpt lat="46.171704" lon="10.909929"><ele>2516</ele></trkpt>
      <trkpt lat="46.171685" lon="10.909581"><ele>2509</ele></trkpt>
      <trkpt lat="46.17171" lon="10.909426"><ele>2511</ele></trkpt>
      <trkpt lat="46.171672" lon="10.909257"><ele>2508</ele></trkpt>
      <trkpt lat="46.171487" lon="10.908832"><ele>2500.25</ele></trkpt>
      <trkpt lat="46.171425" lon="10.908665"><ele>2499.25</ele></trkpt>
      <trkpt lat="46.171333" lon="10.908584"><ele>2496</ele></trkpt>
      <trkpt lat="46.170944" lon="10.908477"><ele>2482.75</ele></trkpt>
      <trkpt lat="46.170793" lon="10.908386"><ele>2480.5</ele></trkpt>
      <trkpt lat="46.170663" lon="10.9084"><ele>2476.75</ele></trkpt>
      <trkpt lat="46.170491" lon="10.90844"><ele>2470.75</ele></trkpt>
      <trkpt lat="46.170368" lon="10.908651"><ele>2466.25</ele></trkpt>
      <trkpt lat="46.170296" lon="10.908721"><ele>2464.25</ele></trkpt>
      <trkpt lat="46.170202" lon="10.908666"><ele>2462.75</ele></trkpt>
      <trkpt lat="46.170041" lon="10.908738"><ele>2456.75</ele></trkpt>
      <trkpt lat="46.170035" lon="10.908858"><ele>2455.75</ele></trkpt>
      <trkpt lat="46.169997" lon="10.908893"><ele>2454.75</ele></trkpt>
      <trkpt lat="46.169922" lon="10.908889"><ele>2451.75</ele></trkpt>
      <trkpt lat="46.169832" lon="10.908713"><ele>2448.5</ele></trkpt>
      <trkpt lat="46.169499" lon="10.908156"><ele>2435.75</ele></trkpt>
      <trkpt lat="46.169434" lon="10.908034"><ele>2434.5</ele></trkpt>
      <trkpt lat="46.169398" lon="10.907944"><ele>2434</ele></trkpt>
      <trkpt lat="46.169298" lon="10.907883"><ele>2430.75</ele></trkpt>
      <trkpt lat="46.169228" lon="10.907781"><ele>2429</ele></trkpt>
      <trkpt lat="46.16914" lon="10.907634"><ele>2429</ele></trkpt>
      <trkpt lat="46.169068" lon="10.907446"><ele>2428</ele></trkpt>
      <trkpt lat="46.169065" lon="10.90729"><ele>2428.75</ele></trkpt>
      <trkpt lat="46.168942" lon="10.907068"><ele>2427.75</ele></trkpt>
      <trkpt lat="46.168868" lon="10.907007"><ele>2427.25</ele></trkpt>
      <trkpt lat="46.168754" lon="10.906984"><ele>2424.75</ele></trkpt>
      <trkpt lat="46.168707" lon="10.90694"><ele>2424.75</ele></trkpt>
      <trkpt lat="46.168559" lon="10.90694"><ele>2421.75</ele></trkpt>
      <trkpt lat="46.167711" lon="10.906969"><ele>2416</ele></trkpt>
      <trkpt lat="46.167638" lon="10.907022"><ele>2414.25</ele></trkpt>
      <trkpt lat="46.167533" lon="10.906979"><ele>2415</ele></trkpt>
      <trkpt lat="46.167394" lon="10.906941"><ele>2413.75</ele></trkpt>
      <trkpt lat="46.167292" lon="10.9069"><ele>2412.5</ele></trkpt>
      <trkpt lat="46.16719" lon="10.9068"><ele>2413</ele></trkpt>
      <trkpt lat="46.167112" lon="10.906772"><ele>2412.75</ele></trkpt>
      <trkpt lat="46.167053" lon="10.906771"><ele>2412</ele></trkpt>
      <trkpt lat="46.166982" lon="10.906797"><ele>2409.75</ele></trkpt>
      <trkpt lat="46.166881" lon="10.906871"><ele>2407.5</ele></trkpt>
      <trkpt lat="46.166797" lon="10.906951"><ele>2405.75</ele></trkpt>
      <trkpt lat="46.166678" lon="10.906931"><ele>2409.25</ele></trkpt>
      <trkpt lat="46.166526" lon="10.907006"><ele>2407.5</ele></trkpt>
      <trkpt lat="46.166429" lon="10.907026"><ele>2407.5</ele></trkpt>
      <trkpt lat="46.166208" lon="10.907023"><ele>2405.75</ele></trkpt>
      <trkpt lat="46.165943" lon="10.906999"><ele>2403.75</ele></trkpt>
      <trkpt lat="46.165766" lon="10.906957"><ele>2403.75</ele></trkpt>
      <trkpt lat="46.165657" lon="10.906995"><ele>2401.5</ele></trkpt>
      <trkpt lat="46.165409" lon="10.907224"><ele>2393.5</ele></trkpt>
      <trkpt lat="46.165155" lon="10.907354"><ele>2394.75</ele></trkpt>
      <trkpt lat="46.164996" lon="10.907496"><ele>2393.75</ele></trkpt>
      <trkpt lat="46.164908" lon="10.907518"><ele>2391.75</ele></trkpt>
      <trkpt lat="46.164783" lon="10.907494"><ele>2390</ele></trkpt>
      <trkpt lat="46.164723" lon="10.907512"><ele>2388.75</ele></trkpt>
      <trkpt lat="46.164626" lon="10.907573"><ele>2386.25</ele></trkpt>
      <trkpt lat="46.164529" lon="10.907549"><ele>2384.5</ele></trkpt>
      <trkpt lat="46.164437" lon="10.907483"><ele>2383.75</ele></trkpt>
      <trkpt lat="46.164335" lon="10.907345"><ele>2382.75</ele></trkpt>
      <trkpt lat="46.164289" lon="10.907234"><ele>2382.5</ele></trkpt>
      <trkpt lat="46.164212" lon="10.907096"><ele>2380.5</ele></trkpt>
      <trkpt lat="46.164202" lon="10.906968"><ele>2379.75</ele></trkpt>
      <trkpt lat="46.164167" lon="10.906857"><ele>2378.5</ele></trkpt>
      <trkpt lat="46.164115" lon="10.906791"><ele>2377.25</ele></trkpt>
      <trkpt lat="46.164014" lon="10.906695"><ele>2375</ele></trkpt>
      <trkpt lat="46.163922" lon="10.906545"><ele>2373.5</ele></trkpt>
      <trkpt lat="46.163846" lon="10.906359"><ele>2371.75</ele></trkpt>
      <trkpt lat="46.163841" lon="10.906302"><ele>2372.5</ele></trkpt>
      <trkpt lat="46.163786" lon="10.906165"><ele>2371.25</ele></trkpt>
      <trkpt lat="46.163765" lon="10.906046"><ele>2374.5</ele></trkpt>
      <trkpt lat="46.163805" lon="10.905918"><ele>2387.5</ele></trkpt>
      <trkpt lat="46.163727" lon="10.905681"><ele>2396.25</ele></trkpt>
      <trkpt lat="46.163705" lon="10.905566"><ele>2400.5</ele></trkpt>
      <trkpt lat="46.163644" lon="10.905478"><ele>2384.25</ele></trkpt>
      <trkpt lat="46.163594" lon="10.905434"><ele>2375</ele></trkpt>
      <trkpt lat="46.163513" lon="10.905297"><ele>2375</ele></trkpt>
      <trkpt lat="46.163432" lon="10.905202"><ele>2374</ele></trkpt>
      <trkpt lat="46.163332" lon="10.905144"><ele>2371.75</ele></trkpt>
      <trkpt lat="46.163281" lon="10.905162"><ele>2371.25</ele></trkpt>
      <trkpt lat="46.163224" lon="10.905217"><ele>2369.25</ele></trkpt>
      <trkpt lat="46.163099" lon="10.90527"><ele>2368</ele></trkpt>
      <trkpt lat="46.163028" lon="10.905211"><ele>2369.25</ele></trkpt>
      <trkpt lat="46.162962" lon="10.905111"><ele>2369.75</ele></trkpt>
      <trkpt lat="46.162929" lon="10.905038"><ele>2371.25</ele></trkpt>
      <trkpt lat="46.16285" lon="10.904993"><ele>2368.75</ele></trkpt>
      <trkpt lat="46.162762" lon="10.904967"><ele>2365.5</ele></trkpt>
      <trkpt lat="46.162705" lon="10.904967"><ele>2365</ele></trkpt>
      <trkpt lat="46.162394" lon="10.904813"><ele>2366.5</ele></trkpt>
      <trkpt lat="46.162311" lon="10.904725"><ele>2367</ele></trkpt>
      <trkpt lat="46.162251" lon="10.904619"><ele>2368.75</ele></trkpt>
      <trkpt lat="46.162167" lon="10.904557"><ele>2368</ele></trkpt>
      <trkpt lat="46.162115" lon="10.904533"><ele>2367.25</ele></trkpt>
      <trkpt lat="46.162043" lon="10.904383"><ele>2369</ele></trkpt>
      <trkpt lat="46.162004" lon="10.904387"><ele>2367.5</ele></trkpt>
      <trkpt lat="46.16198" lon="10.904408"><ele>2366.5</ele></trkpt>
      <trkpt lat="46.16193" lon="10.904474"><ele>2363.5</ele></trkpt>
      <trkpt lat="46.161892" lon="10.904541"><ele>2360.75</ele></trkpt>
      <trkpt lat="46.161843" lon="10.904591"><ele>2358.5</ele></trkpt>
      <trkpt lat="46.161838" lon="10.904616"><ele>2357.5</ele></trkpt>
      <trkpt lat="46.161795" lon="10.904619"><ele>2357.25</ele></trkpt>
      <trkpt lat="46.161743" lon="10.904525"><ele>2361.5</ele></trkpt>
      <trkpt lat="46.161676" lon="10.904544"><ele>2360.5</ele></trkpt>
      <trkpt lat="46.16157" lon="10.904647"><ele>2356.5</ele></trkpt>
      <trkpt lat="46.161534" lon="10.904652"><ele>2356.5</ele></trkpt>
      <trkpt lat="46.161454" lon="10.904577"><ele>2357.75</ele></trkpt>
      <trkpt lat="46.161425" lon="10.904522"><ele>2358</ele></trkpt>
      <trkpt lat="46.161363" lon="10.904431"><ele>2358</ele></trkpt>
      <trkpt lat="46.16128" lon="10.904393"><ele>2357.75</ele></trkpt>
      <trkpt lat="46.161011" lon="10.904473"><ele>2355</ele></trkpt>
      <trkpt lat="46.160898" lon="10.904471"><ele>2354.5</ele></trkpt>
      <trkpt lat="46.160851" lon="10.904456"><ele>2354.5</ele></trkpt>
      <trkpt lat="46.160775" lon="10.904397"><ele>2353.25</ele></trkpt>
      <trkpt lat="46.160631" lon="10.904241"><ele>2351.25</ele></trkpt>
      <trkpt lat="46.160487" lon="10.904196"><ele>2351.25</ele></trkpt>
      <trkpt lat="46.16042" lon="10.904199"><ele>2352</ele></trkpt>
      <trkpt lat="46.160163" lon="10.904385"><ele>2354</ele></trkpt>
      <trkpt lat="46.160114" lon="10.904451"><ele>2355</ele></trkpt>
      <trkpt lat="46.160049" lon="10.904726"><ele>2357.25</ele></trkpt>
      <trkpt lat="46.159989" lon="10.904757"><ele>2359.25</ele></trkpt>
      <trkpt lat="46.159947" lon="10.90473"><ele>2362.75</ele></trkpt>
      <trkpt lat="46.159896" lon="10.904674"><ele>2365</ele></trkpt>
      <trkpt lat="46.159818" lon="10.904648"><ele>2367.75</ele></trkpt>
      <trkpt lat="46.159758" lon="10.904702"><ele>2369</ele></trkpt>
      <trkpt lat="46.159708" lon="10.904773"><ele>2368.25</ele></trkpt>
      <trkpt lat="46.15961" lon="10.904773"><ele>2370.25</ele></trkpt>
      <trkpt lat="46.159523" lon="10.904792"><ele>2371.25</ele></trkpt>
      <trkpt lat="46.159339" lon="10.904796"><ele>2370.5</ele></trkpt>
      <trkpt lat="46.159316" lon="10.904742"><ele>2371</ele></trkpt>
      <trkpt lat="46.159309" lon="10.904633"><ele>2374.25</ele></trkpt>
      <trkpt lat="46.159275" lon="10.90455"><ele>2375.5</ele></trkpt>
      <trkpt lat="46.159257" lon="10.904442"><ele>2378.25</ele></trkpt>
      <trkpt lat="46.159208" lon="10.904364"><ele>2377.5</ele></trkpt>
      <trkpt lat="46.159154" lon="10.904249"><ele>2379.25</ele></trkpt>
      <trkpt lat="46.15909" lon="10.904214"><ele>2380.25</ele></trkpt>
      <trkpt lat="46.159025" lon="10.904232"><ele>2379.5</ele></trkpt>
      <trkpt lat="46.158881" lon="10.904407"><ele>2369</ele></trkpt>
      <trkpt lat="46.158815" lon="10.904467"><ele>2365</ele></trkpt>
      <trkpt lat="46.158728" lon="10.904502"><ele>2362.5</ele></trkpt>
      <trkpt lat="46.15865" lon="10.904444"><ele>2364.25</ele></trkpt>
      <trkpt lat="46.158462" lon="10.90419"><ele>2364.75</ele></trkpt>
      <trkpt lat="46.158409" lon="10.904153"><ele>2364.75</ele></trkpt>
      <trkpt lat="46.158315" lon="10.904155"><ele>2361.25</ele></trkpt>
      <trkpt lat="46.158207" lon="10.90412"><ele>2365.5</ele></trkpt>
      <trkpt lat="46.158204" lon="10.904144"><ele>2362.75</ele></trkpt>
      <trkpt lat="46.158222" lon="10.904234"><ele>2355.75</ele></trkpt>
      <trkpt lat="46.158202" lon="10.904334"><ele>2349</ele></trkpt>
      <trkpt lat="46.158158" lon="10.904325"><ele>2349.25</ele></trkpt>
      <trkpt lat="46.158045" lon="10.904257"><ele>2353.5</ele></trkpt>
      <trkpt lat="46.157918" lon="10.904226"><ele>2355</ele></trkpt>
      <trkpt lat="46.157714" lon="10.904254"><ele>2350</ele></trkpt>
      <trkpt lat="46.157634" lon="10.904293"><ele>2346.5</ele></trkpt>
      <trkpt lat="46.157491" lon="10.904309"><ele>2346</ele></trkpt>
      <trkpt lat="46.157443" lon="10.904258"><ele>2345.25</ele></trkpt>
      <trkpt lat="46.157405" lon="10.904157"><ele>2347.75</ele></trkpt>
      <trkpt lat="46.157389" lon="10.904026"><ele>2356.25</ele></trkpt>
      <trkpt lat="46.15734" lon="10.903905"><ele>2358</ele></trkpt>
      <trkpt lat="46.157337" lon="10.903724"><ele>2367.75</ele></trkpt>
      <trkpt lat="46.157326" lon="10.903582"><ele>2373.5</ele></trkpt>
      <trkpt lat="46.15725" lon="10.903441"><ele>2368.75</ele></trkpt>
      <trkpt lat="46.157046" lon="10.903162"><ele>2365.5</ele></trkpt>
      <trkpt lat="46.156999" lon="10.903087"><ele>2365.75</ele></trkpt>
      <trkpt lat="46.156952" lon="10.90307"><ele>2363.75</ele></trkpt>
      <trkpt lat="46.156923" lon="10.903008"><ele>2365.25</ele></trkpt>
      <trkpt lat="46.156881" lon="10.902997"><ele>2363.75</ele></trkpt>
      <trkpt lat="46.156823" lon="10.90289"><ele>2365.75</ele></trkpt>
      <trkpt lat="46.156818" lon="10.90284"><ele>2367.75</ele></trkpt>
      <trkpt lat="46.156769" lon="10.902783"><ele>2367.75</ele></trkpt>
      <trkpt lat="46.156707" lon="10.902629"><ele>2370</ele></trkpt>
      <trkpt lat="46.156615" lon="10.902458"><ele>2369.5</ele></trkpt>
      <trkpt lat="46.156549" lon="10.902287"><ele>2369.5</ele></trkpt>
      <trkpt lat="46.156517" lon="10.902136"><ele>2370.75</ele></trkpt>
      <trkpt lat="46.156508" lon="10.90197"><ele>2373.25</ele></trkpt>
      <trkpt lat="46.156443" lon="10.901794"><ele>2372.5</ele></trkpt>
      <trkpt lat="46.156407" lon="10.901647"><ele>2373.5</ele></trkpt>
      <trkpt lat="46.156395" lon="10.901505"><ele>2376.25</ele></trkpt>
      <trkpt lat="46.156353" lon="10.901403"><ele>2377.5</ele></trkpt>
      <trkpt lat="46.156317" lon="10.901358"><ele>2378.25</ele></trkpt>
      <trkpt lat="46.15627" lon="10.901342"><ele>2377.75</ele></trkpt>
      <trkpt lat="46.15624" lon="10.901295"><ele>2378.75</ele></trkpt>
      <trkpt lat="46.156198" lon="10.901302"><ele>2377.5</ele></trkpt>
      <trkpt lat="46.156148" lon="10.901297"><ele>2376.75</ele></trkpt>
      <trkpt lat="46.156121" lon="10.901242"><ele>2378.5</ele></trkpt>
      <trkpt lat="46.15607" lon="10.90121"><ele>2378.75</ele></trkpt>
      <trkpt lat="46.156016" lon="10.90112"><ele>2381.75</ele></trkpt>
      <trkpt lat="46.155922" lon="10.901062"><ele>2382.5</ele></trkpt>
      <trkpt lat="46.155863" lon="10.901086"><ele>2380.5</ele></trkpt>
      <trkpt lat="46.155814" lon="10.901129"><ele>2377.75</ele></trkpt>
      <trkpt lat="46.15574" lon="10.901104"><ele>2377.75</ele></trkpt>
      <trkpt lat="46.155704" lon="10.90105"><ele>2379.25</ele></trkpt>
      <trkpt lat="46.155644" lon="10.90101"><ele>2379.5</ele></trkpt>
      <trkpt lat="46.15559" lon="10.900952"><ele>2380.25</ele></trkpt>
      <trkpt lat="46.15554" lon="10.900919"><ele>2380</ele></trkpt>
      <trkpt lat="46.155465" lon="10.900821"><ele>2380</ele></trkpt>
      <trkpt lat="46.155373" lon="10.900593"><ele>2382</ele></trkpt>
      <trkpt lat="46.155306" lon="10.900538"><ele>2380.5</ele></trkpt>
      <trkpt lat="46.155253" lon="10.900544"><ele>2379.75</ele></trkpt>
      <trkpt lat="46.155157" lon="10.900599"><ele>2380.75</ele></trkpt>
      <trkpt lat="46.155106" lon="10.900589"><ele>2382</ele></trkpt>
      <trkpt lat="46.155063" lon="10.900622"><ele>2382.75</ele></trkpt>
      <trkpt lat="46.155025" lon="10.90067"><ele>2383</ele></trkpt>
      <trkpt lat="46.154993" lon="10.900665"><ele>2384.25</ele></trkpt>
      <trkpt lat="46.154958" lon="10.900696"><ele>2386.5</ele></trkpt>
      <trkpt lat="46.154898" lon="10.900727"><ele>2390.75</ele></trkpt>
      <trkpt lat="46.154857" lon="10.900828"><ele>2391.75</ele></trkpt>
      <trkpt lat="46.154796" lon="10.900906"><ele>2394.25</ele></trkpt>
      <trkpt lat="46.154745" lon="10.900936"><ele>2397.25</ele></trkpt>
      <trkpt lat="46.154718" lon="10.90109"><ele>2395.75</ele></trkpt>
      <trkpt lat="46.154683" lon="10.901357"><ele>2399.5</ele></trkpt>
      <trkpt lat="46.154655" lon="10.901408"><ele>2401.25</ele></trkpt>
      <trkpt lat="46.154614" lon="10.901536"><ele>2401.25</ele></trkpt>
      <trkpt lat="46.154586" lon="10.901561"><ele>2403</ele></trkpt>
      <trkpt lat="46.154565" lon="10.901558"><ele>2404.5</ele></trkpt>
      <trkpt lat="46.154533" lon="10.901523"><ele>2407.75</ele></trkpt>
      <trkpt lat="46.154518" lon="10.901481"><ele>2409.75</ele></trkpt>
      <trkpt lat="46.154481" lon="10.901481"><ele>2412.5</ele></trkpt>
      <trkpt lat="46.154465" lon="10.901451"><ele>2414.25</ele></trkpt>
      <trkpt lat="46.154436" lon="10.901452"><ele>2416.25</ele></trkpt>
      <trkpt lat="46.154408" lon="10.901404"><ele>2418.25</ele></trkpt>
      <trkpt lat="46.154368" lon="10.901415"><ele>2420</ele></trkpt>
      <trkpt lat="46.154313" lon="10.901541"><ele>2420.25</ele></trkpt>
      <trkpt lat="46.154303" lon="10.90164"><ele>2419</ele></trkpt>
      <trkpt lat="46.154249" lon="10.901649"><ele>2421.25</ele></trkpt>
      <trkpt lat="46.154243" lon="10.901593"><ele>2422.75</ele></trkpt>
      <trkpt lat="46.154248" lon="10.901523"><ele>2423.75</ele></trkpt>
      <trkpt lat="46.154224" lon="10.901499"><ele>2425.25</ele></trkpt>
      <trkpt lat="46.154154" lon="10.901531"><ele>2427.5</ele></trkpt>
      <trkpt lat="46.154115" lon="10.901499"><ele>2429</ele></trkpt>
      <trkpt lat="46.154042" lon="10.901511"><ele>2430.25</ele></trkpt>
      <trkpt lat="46.153998" lon="10.901492"><ele>2431.75</ele></trkpt>
      <trkpt lat="46.15389" lon="10.90154"><ele>2432.5</ele></trkpt>
      <trkpt lat="46.153843" lon="10.901544"><ele>2444.25</ele></trkpt>
      <trkpt lat="46.153866" lon="10.901463"><ele>2442.75</ele></trkpt>
      <trkpt lat="46.153879" lon="10.901375"><ele>2442.25</ele></trkpt>
      <trkpt lat="46.153914" lon="10.901277"><ele>2441.5</ele></trkpt>
      <trkpt lat="46.153955" lon="10.901241"><ele>2441.25</ele></trkpt>
      <trkpt lat="46.15391" lon="10.901207"><ele>2444.25</ele></trkpt>
      <trkpt lat="46.153858" lon="10.901215"><ele>2454.25</ele></trkpt>
      <trkpt lat="46.153926" lon="10.901096"><ele>2447.75</ele></trkpt>
      <trkpt lat="46.153966" lon="10.901063"><ele>2447.25</ele></trkpt>
      <trkpt lat="46.154039" lon="10.901035"><ele>2445</ele></trkpt>
      <trkpt lat="46.154058" lon="10.900979"><ele>2446.5</ele></trkpt>
      <trkpt lat="46.154087" lon="10.900947"><ele>2446.25</ele></trkpt>
      <trkpt lat="46.154087" lon="10.900896"><ele>2448.25</ele></trkpt>
      <trkpt lat="46.154066" lon="10.900853"><ele>2451.25</ele></trkpt>
      <trkpt lat="46.15403" lon="10.900849"><ele>2453</ele></trkpt>
      <trkpt lat="46.153988" lon="10.900864"><ele>2454.5</ele></trkpt>
      <trkpt lat="46.153966" lon="10.900918"><ele>2453.5</ele></trkpt>
      <trkpt lat="46.153934" lon="10.900919"><ele>2455</ele></trkpt>
      <trkpt lat="46.153944" lon="10.900855"><ele>2457.25</ele></trkpt>
      <trkpt lat="46.153937" lon="10.900823"><ele>2458.5</ele></trkpt>
      <trkpt lat="46.153969" lon="10.900592"><ele>2457.75</ele></trkpt>
      <trkpt lat="46.153968" lon="10.900509"><ele>2458.25</ele></trkpt>
      <trkpt lat="46.153952" lon="10.900433"><ele>2459.5</ele></trkpt>
      <trkpt lat="46.153964" lon="10.900374"><ele>2459</ele></trkpt>
      <trkpt lat="46.153862" lon="10.900202"><ele>2465.25</ele></trkpt>
      <trkpt lat="46.153858" lon="10.900113"><ele>2466.75</ele></trkpt>
      <trkpt lat="46.153895" lon="10.900087"><ele>2467</ele></trkpt>
      <trkpt lat="46.153935" lon="10.89999"><ele>2465.75</ele></trkpt>
      <trkpt lat="46.153937" lon="10.89991"><ele>2468</ele></trkpt>
      <trkpt lat="46.153973" lon="10.899781"><ele>2469.25</ele></trkpt>
      <trkpt lat="46.153999" lon="10.899724"><ele>2469</ele></trkpt>
      <trkpt lat="46.154063" lon="10.899634"><ele>2468</ele></trkpt>
      <trkpt lat="46.154083" lon="10.899555"><ele>2470.5</ele></trkpt>
      <trkpt lat="46.154081" lon="10.899473"><ele>2474.5</ele></trkpt>
      <trkpt lat="46.154104" lon="10.89941"><ele>2476</ele></trkpt>
      <trkpt lat="46.154128" lon="10.899266"><ele>2478.75</ele></trkpt>
      <trkpt lat="46.154116" lon="10.899208"><ele>2480</ele></trkpt>
      <trkpt lat="46.15417" lon="10.898939"><ele>2487</ele></trkpt>
      <trkpt lat="46.154227" lon="10.898839"><ele>2484.75</ele></trkpt>
      <trkpt lat="46.15423" lon="10.898833"><ele>2483.75</ele></trkpt>
      <trkpt lat="46.154227" lon="10.898839"><ele>2484.75</ele></trkpt>
      <trkpt lat="46.15417" lon="10.898939"><ele>2487</ele></trkpt>
      <trkpt lat="46.154116" lon="10.899208"><ele>2480</ele></trkpt>
      <trkpt lat="46.154128" lon="10.899266"><ele>2478.75</ele></trkpt>
      <trkpt lat="46.154104" lon="10.89941"><ele>2476</ele></trkpt>
      <trkpt lat="46.154081" lon="10.899473"><ele>2474.5</ele></trkpt>
      <trkpt lat="46.154083" lon="10.899555"><ele>2470.5</ele></trkpt>
      <trkpt lat="46.154063" lon="10.899634"><ele>2468</ele></trkpt>
      <trkpt lat="46.153999" lon="10.899724"><ele>2469</ele></trkpt>
      <trkpt lat="46.153973" lon="10.899781"><ele>2469.25</ele></trkpt>
      <trkpt lat="46.153937" lon="10.89991"><ele>2468</ele></trkpt>
      <trkpt lat="46.153935" lon="10.89999"><ele>2465.75</ele></trkpt>
      <trkpt lat="46.153895" lon="10.900087"><ele>2467</ele></trkpt>
      <trkpt lat="46.153858" lon="10.900113"><ele>2466.75</ele></trkpt>
      <trkpt lat="46.153862" lon="10.900202"><ele>2465.25</ele></trkpt>
      <trkpt lat="46.153964" lon="10.900374"><ele>2459</ele></trkpt>
      <trkpt lat="46.153952" lon="10.900433"><ele>2459.5</ele></trkpt>
      <trkpt lat="46.153968" lon="10.900509"><ele>2458.25</ele></trkpt>
      <trkpt lat="46.153969" lon="10.900592"><ele>2457.75</ele></trkpt>
      <trkpt lat="46.153937" lon="10.900823"><ele>2458.5</ele></trkpt>
      <trkpt lat="46.153944" lon="10.900855"><ele>2457.25</ele></trkpt>
      <trkpt lat="46.153934" lon="10.900919"><ele>2455</ele></trkpt>
      <trkpt lat="46.153966" lon="10.900918"><ele>2453.5</ele></trkpt>
      <trkpt lat="46.153988" lon="10.900864"><ele>2454.5</ele></trkpt>
      <trkpt lat="46.15403" lon="10.900849"><ele>2453</ele></trkpt>
      <trkpt lat="46.154066" lon="10.900853"><ele>2451.25</ele></trkpt>
      <trkpt lat="46.154087" lon="10.900896"><ele>2448.25</ele></trkpt>
      <trkpt lat="46.154087" lon="10.900947"><ele>2446.25</ele></trkpt>
      <trkpt lat="46.154058" lon="10.900979"><ele>2446.5</ele></trkpt>
      <trkpt lat="46.154039" lon="10.901035"><ele>2445</ele></trkpt>
      <trkpt lat="46.153966" lon="10.901063"><ele>2447.25</ele></trkpt>
      <trkpt lat="46.153926" lon="10.901096"><ele>2447.75</ele></trkpt>
      <trkpt lat="46.153858" lon="10.901215"><ele>2454.25</ele></trkpt>
      <trkpt lat="46.15391" lon="10.901207"><ele>2444.25</ele></trkpt>
      <trkpt lat="46.153955" lon="10.901241"><ele>2441.25</ele></trkpt>
      <trkpt lat="46.153914" lon="10.901277"><ele>2441.5</ele></trkpt>
      <trkpt lat="46.153879" lon="10.901375"><ele>2442.25</ele></trkpt>
      <trkpt lat="46.153866" lon="10.901463"><ele>2442.75</ele></trkpt>
      <trkpt lat="46.153843" lon="10.901544"><ele>2444.25</ele></trkpt>
      <trkpt lat="46.15389" lon="10.90154"><ele>2432.5</ele></trkpt>
      <trkpt lat="46.153998" lon="10.901492"><ele>2431.75</ele></trkpt>
      <trkpt lat="46.154042" lon="10.901511"><ele>2430.25</ele></trkpt>
      <trkpt lat="46.154115" lon="10.901499"><ele>2429</ele></trkpt>
      <trkpt lat="46.154154" lon="10.901531"><ele>2427.5</ele></trkpt>
      <trkpt lat="46.154224" lon="10.901499"><ele>2425.25</ele></trkpt>
      <trkpt lat="46.154248" lon="10.901523"><ele>2423.75</ele></trkpt>
      <trkpt lat="46.154243" lon="10.901593"><ele>2422.75</ele></trkpt>
      <trkpt lat="46.154249" lon="10.901649"><ele>2421.25</ele></trkpt>
      <trkpt lat="46.154303" lon="10.90164"><ele>2419</ele></trkpt>
      <trkpt lat="46.154313" lon="10.901541"><ele>2420.25</ele></trkpt>
      <trkpt lat="46.154368" lon="10.901415"><ele>2420</ele></trkpt>
      <trkpt lat="46.154408" lon="10.901404"><ele>2418.25</ele></trkpt>
      <trkpt lat="46.154436" lon="10.901452"><ele>2416.25</ele></trkpt>
      <trkpt lat="46.154465" lon="10.901451"><ele>2414.25</ele></trkpt>
      <trkpt lat="46.154481" lon="10.901481"><ele>2412.5</ele></trkpt>
      <trkpt lat="46.154518" lon="10.901481"><ele>2409.75</ele></trkpt>
      <trkpt lat="46.154533" lon="10.901523"><ele>2407.75</ele></trkpt>
      <trkpt lat="46.154565" lon="10.901558"><ele>2404.5</ele></trkpt>
      <trkpt lat="46.154586" lon="10.901561"><ele>2403</ele></trkpt>
      <trkpt lat="46.154614" lon="10.901536"><ele>2401.25</ele></trkpt>
      <trkpt lat="46.154655" lon="10.901408"><ele>2401.25</ele></trkpt>
      <trkpt lat="46.154683" lon="10.901357"><ele>2399.5</ele></trkpt>
      <trkpt lat="46.154718" lon="10.90109"><ele>2395.75</ele></trkpt>
      <trkpt lat="46.154745" lon="10.900936"><ele>2397.25</ele></trkpt>
      <trkpt lat="46.154796" lon="10.900906"><ele>2394.25</ele></trkpt>
      <trkpt lat="46.154857" lon="10.900828"><ele>2391.75</ele></trkpt>
      <trkpt lat="46.154898" lon="10.900727"><ele>2390.75</ele></trkpt>
      <trkpt lat="46.154958" lon="10.900696"><ele>2386.5</ele></trkpt>
      <trkpt lat="46.154993" lon="10.900665"><ele>2384.25</ele></trkpt>
      <trkpt lat="46.155025" lon="10.90067"><ele>2383</ele></trkpt>
      <trkpt lat="46.155063" lon="10.900622"><ele>2382.75</ele></trkpt>
      <trkpt lat="46.155106" lon="10.900589"><ele>2382</ele></trkpt>
      <trkpt lat="46.155157" lon="10.900599"><ele>2380.75</ele></trkpt>
      <trkpt lat="46.155253" lon="10.900544"><ele>2379.75</ele></trkpt>
      <trkpt lat="46.155306" lon="10.900538"><ele>2380.5</ele></trkpt>
      <trkpt lat="46.155373" lon="10.900593"><ele>2382</ele></trkpt>
      <trkpt lat="46.155465" lon="10.900821"><ele>2380</ele></trkpt>
      <trkpt lat="46.15554" lon="10.900919"><ele>2380</ele></trkpt>
      <trkpt lat="46.15559" lon="10.900952"><ele>2380.25</ele></trkpt>
      <trkpt lat="46.155644" lon="10.90101"><ele>2379.5</ele></trkpt>
      <trkpt lat="46.155704" lon="10.90105"><ele>2379.25</ele></trkpt>
      <trkpt lat="46.15574" lon="10.901104"><ele>2377.75</ele></trkpt>
      <trkpt lat="46.155814" lon="10.901129"><ele>2377.75</ele></trkpt>
      <trkpt lat="46.155863" lon="10.901086"><ele>2380.5</ele></trkpt>
      <trkpt lat="46.155922" lon="10.901062"><ele>2382.5</ele></trkpt>
      <trkpt lat="46.156016" lon="10.90112"><ele>2381.75</ele></trkpt>
      <trkpt lat="46.15607" lon="10.90121"><ele>2378.75</ele></trkpt>
      <trkpt lat="46.156121" lon="10.901242"><ele>2378.5</ele></trkpt>
      <trkpt lat="46.156148" lon="10.901297"><ele>2376.75</ele></trkpt>
      <trkpt lat="46.156198" lon="10.901302"><ele>2377.5</ele></trkpt>
      <trkpt lat="46.15624" lon="10.901295"><ele>2378.75</ele></trkpt>
      <trkpt lat="46.15627" lon="10.901342"><ele>2377.75</ele></trkpt>
      <trkpt lat="46.156317" lon="10.901358"><ele>2378.25</ele></trkpt>
      <trkpt lat="46.156353" lon="10.901403"><ele>2377.5</ele></trkpt>
      <trkpt lat="46.156395" lon="10.901505"><ele>2376.25</ele></trkpt>
      <trkpt lat="46.156407" lon="10.901647"><ele>2373.5</ele></trkpt>
      <trkpt lat="46.156443" lon="10.901794"><ele>2372.5</ele></trkpt>
      <trkpt lat="46.156508" lon="10.90197"><ele>2373.25</ele></trkpt>
      <trkpt lat="46.156517" lon="10.902136"><ele>2370.75</ele></trkpt>
      <trkpt lat="46.156549" lon="10.902287"><ele>2369.5</ele></trkpt>
      <trkpt lat="46.156615" lon="10.902458"><ele>2369.5</ele></trkpt>
      <trkpt lat="46.156707" lon="10.902629"><ele>2370</ele></trkpt>
      <trkpt lat="46.156769" lon="10.902783"><ele>2367.75</ele></trkpt>
      <trkpt lat="46.156818" lon="10.90284"><ele>2367.75</ele></trkpt>
      <trkpt lat="46.156823" lon="10.90289"><ele>2365.75</ele></trkpt>
      <trkpt lat="46.156881" lon="10.902997"><ele>2363.75</ele></trkpt>
      <trkpt lat="46.156923" lon="10.903008"><ele>2365.25</ele></trkpt>
      <trkpt lat="46.156952" lon="10.90307"><ele>2363.75</ele></trkpt>
      <trkpt lat="46.156999" lon="10.903087"><ele>2365.75</ele></trkpt>
      <trkpt lat="46.157046" lon="10.903162"><ele>2365.5</ele></trkpt>
      <trkpt lat="46.15725" lon="10.903441"><ele>2368.75</ele></trkpt>
      <trkpt lat="46.157326" lon="10.903582"><ele>2373.5</ele></trkpt>
      <trkpt lat="46.157337" lon="10.903724"><ele>2367.75</ele></trkpt>
      <trkpt lat="46.15734" lon="10.903905"><ele>2358</ele></trkpt>
      <trkpt lat="46.157389" lon="10.904026"><ele>2356.25</ele></trkpt>
      <trkpt lat="46.157405" lon="10.904157"><ele>2347.75</ele></trkpt>
      <trkpt lat="46.157443" lon="10.904258"><ele>2345.25</ele></trkpt>
      <trkpt lat="46.157491" lon="10.904309"><ele>2346</ele></trkpt>
      <trkpt lat="46.157634" lon="10.904293"><ele>2346.5</ele></trkpt>
      <trkpt lat="46.157714" lon="10.904254"><ele>2350</ele></trkpt>
      <trkpt lat="46.157918" lon="10.904226"><ele>2355</ele></trkpt>
      <trkpt lat="46.158045" lon="10.904257"><ele>2353.5</ele></trkpt>
      <trkpt lat="46.158158" lon="10.904325"><ele>2349.25</ele></trkpt>
      <trkpt lat="46.158202" lon="10.904334"><ele>2349</ele></trkpt>
      <trkpt lat="46.158222" lon="10.904234"><ele>2355.75</ele></trkpt>
      <trkpt lat="46.158204" lon="10.904144"><ele>2362.75</ele></trkpt>
      <trkpt lat="46.158207" lon="10.90412"><ele>2365.5</ele></trkpt>
      <trkpt lat="46.158315" lon="10.904155"><ele>2361.25</ele></trkpt>
      <trkpt lat="46.158409" lon="10.904153"><ele>2364.75</ele></trkpt>
      <trkpt lat="46.158462" lon="10.90419"><ele>2364.75</ele></trkpt>
      <trkpt lat="46.15865" lon="10.904444"><ele>2364.25</ele></trkpt>
      <trkpt lat="46.158728" lon="10.904502"><ele>2362.5</ele></trkpt>
      <trkpt lat="46.158815" lon="10.904467"><ele>2365</ele></trkpt>
      <trkpt lat="46.158881" lon="10.904407"><ele>2369</ele></trkpt>
      <trkpt lat="46.159025" lon="10.904232"><ele>2379.5</ele></trkpt>
      <trkpt lat="46.15909" lon="10.904214"><ele>2380.25</ele></trkpt>
      <trkpt lat="46.159154" lon="10.904249"><ele>2379.25</ele></trkpt>
      <trkpt lat="46.159208" lon="10.904364"><ele>2377.5</ele></trkpt>
      <trkpt lat="46.159257" lon="10.904442"><ele>2378.25</ele></trkpt>
      <trkpt lat="46.159275" lon="10.90455"><ele>2375.5</ele></trkpt>
      <trkpt lat="46.159309" lon="10.904633"><ele>2374.25</ele></trkpt>
      <trkpt lat="46.159316" lon="10.904742"><ele>2371</ele></trkpt>
      <trkpt lat="46.159339" lon="10.904796"><ele>2370.5</ele></trkpt>
      <trkpt lat="46.159523" lon="10.904792"><ele>2371.25</ele></trkpt>
      <trkpt lat="46.15961" lon="10.904773"><ele>2370.25</ele></trkpt>
      <trkpt lat="46.159708" lon="10.904773"><ele>2368.25</ele></trkpt>
      <trkpt lat="46.159758" lon="10.904702"><ele>2369</ele></trkpt>
      <trkpt lat="46.159818" lon="10.904648"><ele>2367.75</ele></trkpt>
      <trkpt lat="46.159896" lon="10.904674"><ele>2365</ele></trkpt>
      <trkpt lat="46.159947" lon="10.90473"><ele>2362.75</ele></trkpt>
      <trkpt lat="46.159989" lon="10.904757"><ele>2359.25</ele></trkpt>
      <trkpt lat="46.160049" lon="10.904726"><ele>2357.25</ele></trkpt>
      <trkpt lat="46.160114" lon="10.904451"><ele>2355</ele></trkpt>
      <trkpt lat="46.160163" lon="10.904385"><ele>2354</ele></trkpt>
      <trkpt lat="46.16042" lon="10.904199"><ele>2352</ele></trkpt>
      <trkpt lat="46.160487" lon="10.904196"><ele>2351.25</ele></trkpt>
      <trkpt lat="46.160631" lon="10.904241"><ele>2351.25</ele></trkpt>
      <trkpt lat="46.160775" lon="10.904397"><ele>2353.25</ele></trkpt>
      <trkpt lat="46.160851" lon="10.904456"><ele>2354.5</ele></trkpt>
      <trkpt lat="46.160898" lon="10.904471"><ele>2354.5</ele></trkpt>
      <trkpt lat="46.161011" lon="10.904473"><ele>2355</ele></trkpt>
      <trkpt lat="46.16128" lon="10.904393"><ele>2357.75</ele></trkpt>
      <trkpt lat="46.161363" lon="10.904431"><ele>2358</ele></trkpt>
      <trkpt lat="46.161425" lon="10.904522"><ele>2358</ele></trkpt>
      <trkpt lat="46.161454" lon="10.904577"><ele>2357.75</ele></trkpt>
      <trkpt lat="46.161534" lon="10.904652"><ele>2356.5</ele></trkpt>
      <trkpt lat="46.16157" lon="10.904647"><ele>2356.5</ele></trkpt>
      <trkpt lat="46.161676" lon="10.904544"><ele>2360.5</ele></trkpt>
      <trkpt lat="46.161743" lon="10.904525"><ele>2361.5</ele></trkpt>
      <trkpt lat="46.161795" lon="10.904619"><ele>2357.25</ele></trkpt>
      <trkpt lat="46.161838" lon="10.904616"><ele>2357.5</ele></trkpt>
      <trkpt lat="46.161843" lon="10.904591"><ele>2358.5</ele></trkpt>
      <trkpt lat="46.161892" lon="10.904541"><ele>2360.75</ele></trkpt>
      <trkpt lat="46.16193" lon="10.904474"><ele>2363.5</ele></trkpt>
      <trkpt lat="46.16198" lon="10.904408"><ele>2366.5</ele></trkpt>
      <trkpt lat="46.162004" lon="10.904387"><ele>2367.5</ele></trkpt>
      <trkpt lat="46.162043" lon="10.904383"><ele>2369</ele></trkpt>
      <trkpt lat="46.162044" lon="10.904386"><ele>2367.25</ele></trkpt>
      <trkpt lat="46.162043" lon="10.904383"><ele>2369</ele></trkpt>
      <trkpt lat="46.162373" lon="10.903915"><ele>2382.25</ele></trkpt>
      <trkpt lat="46.162478" lon="10.90373"><ele>2387.5</ele></trkpt>
      <trkpt lat="46.162529" lon="10.903587"><ele>2390.75</ele></trkpt>
      <trkpt lat="46.162593" lon="10.903722"><ele>2395</ele></trkpt>
      <trkpt lat="46.16276" lon="10.903931"><ele>2403</ele></trkpt>
      <trkpt lat="46.162821" lon="10.903889"><ele>2405.25</ele></trkpt>
      <trkpt lat="46.162833" lon="10.903905"><ele>2405.75</ele></trkpt>
      <trkpt lat="46.16283" lon="10.903952"><ele>2405.5</ele></trkpt>
      <trkpt lat="46.162837" lon="10.903992"><ele>2405.75</ele></trkpt>
      <trkpt lat="46.162865" lon="10.904023"><ele>2406.5</ele></trkpt>
      <trkpt lat="46.162911" lon="10.904033"><ele>2408</ele></trkpt>
      <trkpt lat="46.162931" lon="10.904022"><ele>2408.5</ele></trkpt>
      <trkpt lat="46.162953" lon="10.903991"><ele>2409.25</ele></trkpt>
      <trkpt lat="46.162979" lon="10.904004"><ele>2410</ele></trkpt>
      <trkpt lat="46.163019" lon="10.904054"><ele>2411.25</ele></trkpt>
      <trkpt lat="46.163051" lon="10.90407"><ele>2412</ele></trkpt>
      <trkpt lat="46.163087" lon="10.90407"><ele>2412.75</ele></trkpt>
      <trkpt lat="46.163134" lon="10.904046"><ele>2413.75</ele></trkpt>
      <trkpt lat="46.16317" lon="10.904017"><ele>2414.75</ele></trkpt>
      <trkpt lat="46.163229" lon="10.904006"><ele>2416.25</ele></trkpt>
      <trkpt lat="46.163336" lon="10.904034"><ele>2417.75</ele></trkpt>
      <trkpt lat="46.163503" lon="10.903951"><ele>2421.75</ele></trkpt>
      <trkpt lat="46.163617" lon="10.903945"><ele>2423.25</ele></trkpt>
      <trkpt lat="46.163683" lon="10.903915"><ele>2426</ele></trkpt>
      <trkpt lat="46.163788" lon="10.90376"><ele>2427.5</ele></trkpt>
      <trkpt lat="46.163836" lon="10.903758"><ele>2429</ele></trkpt>
      <trkpt lat="46.163863" lon="10.903801"><ele>2430.5</ele></trkpt>
      <trkpt lat="46.163885" lon="10.903818"><ele>2431.5</ele></trkpt>
      <trkpt lat="46.16393" lon="10.903798"><ele>2433</ele></trkpt>
      <trkpt lat="46.164139" lon="10.90374"><ele>2440.75</ele></trkpt>
      <trkpt lat="46.164256" lon="10.903717"><ele>2447.25</ele></trkpt>
      <trkpt lat="46.164426" lon="10.903569"><ele>2453.25</ele></trkpt>
      <trkpt lat="46.164485" lon="10.903505"><ele>2466.25</ele></trkpt>
      <trkpt lat="46.164552" lon="10.903408"><ele>2486.25</ele></trkpt>
      <trkpt lat="46.16459" lon="10.903267"><ele>2494.75</ele></trkpt>
      <trkpt lat="46.164616" lon="10.903111"><ele>2496.75</ele></trkpt>
      <trkpt lat="46.164664" lon="10.902936"><ele>2496.75</ele></trkpt>
      <trkpt lat="46.164761" lon="10.902535"><ele>2483.5</ele></trkpt>
      <trkpt lat="46.164785" lon="10.902414"><ele>2482</ele></trkpt>
      <trkpt lat="46.164823" lon="10.902376"><ele>2484.75</ele></trkpt>
      <trkpt lat="46.164841" lon="10.902332"><ele>2484.75</ele></trkpt>
      <trkpt lat="46.164841" lon="10.902276"><ele>2482.5</ele></trkpt>
      <trkpt lat="46.164857" lon="10.902189"><ele>2481.25</ele></trkpt>
      <trkpt lat="46.164901" lon="10.902151"><ele>2483.75</ele></trkpt>
      <trkpt lat="46.164976" lon="10.902164"><ele>2488.25</ele></trkpt>
      <trkpt lat="46.165023" lon="10.902118"><ele>2490.5</ele></trkpt>
      <trkpt lat="46.165127" lon="10.902044"><ele>2495.5</ele></trkpt>
      <trkpt lat="46.165439" lon="10.901895"><ele>2508.25</ele></trkpt>
      <trkpt lat="46.165521" lon="10.90179"><ele>2511.75</ele></trkpt>
      <trkpt lat="46.165541" lon="10.901745"><ele>2512.5</ele></trkpt>
      <trkpt lat="46.165546" lon="10.901609"><ele>2513</ele></trkpt>
      <trkpt lat="46.165583" lon="10.901466"><ele>2516.5</ele></trkpt>
      <trkpt lat="46.165621" lon="10.901447"><ele>2518.5</ele></trkpt>
      <trkpt lat="46.165711" lon="10.901451"><ele>2523</ele></trkpt>
      <trkpt lat="46.165745" lon="10.90146"><ele>2524.75</ele></trkpt>
      <trkpt lat="46.165765" lon="10.901485"><ele>2525.5</ele></trkpt>
      <trkpt lat="46.165796" lon="10.90146"><ele>2527.25</ele></trkpt>
      <trkpt lat="46.165795" lon="10.901413"><ele>2527.75</ele></trkpt>
      <trkpt lat="46.165783" lon="10.901365"><ele>2528</ele></trkpt>
      <trkpt lat="46.165797" lon="10.901325"><ele>2530</ele></trkpt>
      <trkpt lat="46.165831" lon="10.901318"><ele>2532</ele></trkpt>
      <trkpt lat="46.165864" lon="10.901332"><ele>2533.25</ele></trkpt>
      <trkpt lat="46.165969" lon="10.901409"><ele>2537</ele></trkpt>
      <trkpt lat="46.16613" lon="10.901487"><ele>2545.25</ele></trkpt>
      <trkpt lat="46.166169" lon="10.901381"><ele>2548.5</ele></trkpt>
      <trkpt lat="46.166194" lon="10.901256"><ele>2552.75</ele></trkpt>
      <trkpt lat="46.166194" lon="10.901196"><ele>2554</ele></trkpt>
      <trkpt lat="46.166165" lon="10.901046"><ele>2556.75</ele></trkpt>
      <trkpt lat="46.166057" lon="10.900782"><ele>2561.5</ele></trkpt>
      <trkpt lat="46.16606" lon="10.90075"><ele>2562.75</ele></trkpt>
      <trkpt lat="46.166093" lon="10.900732"><ele>2565.25</ele></trkpt>
      <trkpt lat="46.166189" lon="10.900738"><ele>2569</ele></trkpt>
      <trkpt lat="46.166399" lon="10.900703"><ele>2580</ele></trkpt>
      <trkpt lat="46.166494" lon="10.900657"><ele>2597.25</ele></trkpt>
      <trkpt lat="46.166525" lon="10.900696"><ele>2597.75</ele></trkpt>
      <trkpt lat="46.166562" lon="10.900759"><ele>2595</ele></trkpt>
      <trkpt lat="46.166595" lon="10.900854"><ele>2587.25</ele></trkpt>
      <trkpt lat="46.166612" lon="10.900787"><ele>2596</ele></trkpt>
      <trkpt lat="46.166602" lon="10.900746"><ele>2601.25</ele></trkpt>
      <trkpt lat="46.166513" lon="10.900355"><ele>2624.75</ele></trkpt>
      <trkpt lat="46.16671" lon="10.90008"><ele>2651.5</ele></trkpt>
      <trkpt lat="46.167013" lon="10.899949"><ele>2676.25</ele></trkpt>
      <trkpt lat="46.167149" lon="10.899818"><ele>2682.5</ele></trkpt>
      <trkpt lat="46.167359" lon="10.899492"><ele>2719.75</ele></trkpt>
      <trkpt lat="46.167696" lon="10.899229"><ele>2742.5</ele></trkpt>
      <trkpt lat="46.167702" lon="10.899148"><ele>2741.5</ele></trkpt>
      <trkpt lat="46.167676" lon="10.899156"><ele>2740.25</ele></trkpt>
      <trkpt lat="46.167648" lon="10.899113"><ele>2743</ele></trkpt>
      <trkpt lat="46.167588" lon="10.898991"><ele>2755.75</ele></trkpt>
      <trkpt lat="46.167555" lon="10.89903"><ele>2752.5</ele></trkpt>
      <trkpt lat="46.167505" lon="10.898928"><ele>2768.75</ele></trkpt>
      <trkpt lat="46.167217" lon="10.899264"><ele>2754.25</ele></trkpt>
      <trkpt lat="46.16712" lon="10.89928"><ele>2758</ele></trkpt>
      <trkpt lat="46.16707" lon="10.899339"><ele>2743.5</ele></trkpt>
      <trkpt lat="46.167022" lon="10.899331"><ele>2749.5</ele></trkpt>
      <trkpt lat="46.166986" lon="10.899296"><ele>2764</ele></trkpt>
      <trkpt lat="46.166911" lon="10.899264"><ele>2772.25</ele></trkpt>
      <trkpt lat="46.166872" lon="10.899202"><ele>2785.75</ele></trkpt>
      <trkpt lat="46.166862" lon="10.899154"><ele>2796.5</ele></trkpt>
      <trkpt lat="46.166834" lon="10.899079"><ele>2796.25</ele></trkpt>
      <trkpt lat="46.166799" lon="10.89902"><ele>2793</ele></trkpt>
      <trkpt lat="46.166632" lon="10.898934"><ele>2762.75</ele></trkpt>
      <trkpt lat="46.16655" lon="10.898794"><ele>2761.25</ele></trkpt>
      <trkpt lat="46.166522" lon="10.898733"><ele>2761.25</ele></trkpt>
      <trkpt lat="46.166496" lon="10.898617"><ele>2765</ele></trkpt>
      <trkpt lat="46.166474" lon="10.898564"><ele>2761</ele></trkpt>
      <trkpt lat="46.166489" lon="10.898483"><ele>2765.75</ele></trkpt>
      <trkpt lat="46.166533" lon="10.898403"><ele>2776.25</ele></trkpt>
      <trkpt lat="46.166548" lon="10.898277"><ele>2781.25</ele></trkpt>
      <trkpt lat="46.166504" lon="10.898049"><ele>2776.75</ele></trkpt>
      <trkpt lat="46.166488" lon="10.897734"><ele>2775.75</ele></trkpt>
      <trkpt lat="46.166342" lon="10.897202"><ele>2790.25</ele></trkpt>
      <trkpt lat="46.166283" lon="10.897115"><ele>2791.75</ele></trkpt>
      <trkpt lat="46.166209" lon="10.897039"><ele>2793.25</ele></trkpt>
      <trkpt lat="46.166156" lon="10.897059"><ele>2790.5</ele></trkpt>
      <trkpt lat="46.166097" lon="10.897227"><ele>2778.25</ele></trkpt>
      <trkpt lat="46.16592" lon="10.897378"><ele>2779.75</ele></trkpt>
      <trkpt lat="46.16581" lon="10.897545"><ele>2774.5</ele></trkpt>
      <trkpt lat="46.165709" lon="10.897569"><ele>2757.25</ele></trkpt>
      <trkpt lat="46.165655" lon="10.897303"><ele>2746.75</ele></trkpt>
      <trkpt lat="46.165602" lon="10.896934"><ele>2747.75</ele></trkpt>
      <trkpt lat="46.165392" lon="10.896579"><ele>2764</ele></trkpt>
      <trkpt lat="46.165325" lon="10.896255"><ele>2784.5</ele></trkpt>
      <trkpt lat="46.165189" lon="10.896064"><ele>2768</ele></trkpt>
      <trkpt lat="46.165157" lon="10.895962"><ele>2769</ele></trkpt>
      <trkpt lat="46.165153" lon="10.895836"><ele>2777.5</ele></trkpt>
      <trkpt lat="46.165118" lon="10.89575"><ele>2773.25</ele></trkpt>
      <trkpt lat="46.165016" lon="10.895661"><ele>2762.5</ele></trkpt>
      <trkpt lat="46.164973" lon="10.895584"><ele>2762.5</ele></trkpt>
      <trkpt lat="46.164917" lon="10.895243"><ele>2762.5</ele></trkpt>
      <trkpt lat="46.164843" lon="10.895208"><ele>2752.5</ele></trkpt>
      <trkpt lat="46.164815" lon="10.89494"><ele>2752</ele></trkpt>
      <trkpt lat="46.164824" lon="10.894809"><ele>2755.25</ele></trkpt>
      <trkpt lat="46.164745" lon="10.894599"><ele>2746.75</ele></trkpt>
      <trkpt lat="46.164653" lon="10.894562"><ele>2743</ele></trkpt>
      <trkpt lat="46.164536" lon="10.894606"><ele>2734.75</ele></trkpt>
      <trkpt lat="46.164461" lon="10.894652"><ele>2727.5</ele></trkpt>
      <trkpt lat="46.16433" lon="10.894705"><ele>2731</ele></trkpt>
      <trkpt lat="46.164252" lon="10.894763"><ele>2731</ele></trkpt>
      <trkpt lat="46.1642" lon="10.894826"><ele>2733.25</ele></trkpt>
      <trkpt lat="46.164161" lon="10.894818"><ele>2737.25</ele></trkpt>
      <trkpt lat="46.164111" lon="10.894792"><ele>2737.25</ele></trkpt>
      <trkpt lat="46.164063" lon="10.89474"><ele>2740.5</ele></trkpt>
      <trkpt lat="46.163866" lon="10.894829"><ele>2729.5</ele></trkpt>
      <trkpt lat="46.163778" lon="10.894819"><ele>2736.25</ele></trkpt>
      <trkpt lat="46.163618" lon="10.894862"><ele>2731.25</ele></trkpt>
      <trkpt lat="46.163571" lon="10.894831"><ele>2738.75</ele></trkpt>
      <trkpt lat="46.163531" lon="10.894851"><ele>2730.5</ele></trkpt>
      <trkpt lat="46.163465" lon="10.894794"><ele>2737</ele></trkpt>
      <trkpt lat="46.163401" lon="10.8947"><ele>2737.75</ele></trkpt>
      <trkpt lat="46.16335" lon="10.894586"><ele>2731</ele></trkpt>
      <trkpt lat="46.163209" lon="10.894611"><ele>2728.5</ele></trkpt>
      <trkpt lat="46.16298" lon="10.894755"><ele>2722.5</ele></trkpt>
      <trkpt lat="46.162812" lon="10.894999"><ele>2699</ele></trkpt>
      <trkpt lat="46.162676" lon="10.895039"><ele>2684.5</ele></trkpt>
      <trkpt lat="46.16264" lon="10.895171"><ele>2672</ele></trkpt>
      <trkpt lat="46.162602" lon="10.895207"><ele>2667</ele></trkpt>
      <trkpt lat="46.162496" lon="10.895144"><ele>2665.75</ele></trkpt>
      <trkpt lat="46.162461" lon="10.895078"><ele>2668.5</ele></trkpt>
      <trkpt lat="46.162379" lon="10.894979"><ele>2672.75</ele></trkpt>
      <trkpt lat="46.16232" lon="10.894957"><ele>2673.5</ele></trkpt>
      <trkpt lat="46.162246" lon="10.895041"><ele>2659.25</ele></trkpt>
      <trkpt lat="46.162184" lon="10.895195"><ele>2639.5</ele></trkpt>
      <trkpt lat="46.162049" lon="10.895294"><ele>2634.75</ele></trkpt>
      <trkpt lat="46.161987" lon="10.89535"><ele>2630</ele></trkpt>
      <trkpt lat="46.161898" lon="10.895361"><ele>2629.5</ele></trkpt>
      <trkpt lat="46.161864" lon="10.895348"><ele>2630</ele></trkpt>
      <trkpt lat="46.161783" lon="10.895356"><ele>2628.75</ele></trkpt>
      <trkpt lat="46.16175" lon="10.895339"><ele>2627.5</ele></trkpt>
      <trkpt lat="46.161734" lon="10.895294"><ele>2624.5</ele></trkpt>
      <trkpt lat="46.161711" lon="10.895277"><ele>2621.5</ele></trkpt>
      <trkpt lat="46.161685" lon="10.895264"><ele>2618</ele></trkpt>
      <trkpt lat="46.16167" lon="10.895281"><ele>2618.5</ele></trkpt>
      <trkpt lat="46.161625" lon="10.89525"><ele>2623.5</ele></trkpt>
      <trkpt lat="46.161614" lon="10.895227"><ele>2623.5</ele></trkpt>
      <trkpt lat="46.161617" lon="10.895192"><ele>2619.5</ele></trkpt>
      <trkpt lat="46.161627" lon="10.895167"><ele>2615</ele></trkpt>
      <trkpt lat="46.161601" lon="10.8951"><ele>2614.25</ele></trkpt>
      <trkpt lat="46.161605" lon="10.895058"><ele>2609.25</ele></trkpt>
      <trkpt lat="46.161558" lon="10.894951"><ele>2611.25</ele></trkpt>
      <trkpt lat="46.161479" lon="10.894822"><ele>2618</ele></trkpt>
      <trkpt lat="46.161429" lon="10.894654"><ele>2611.75</ele></trkpt>
      <trkpt lat="46.161397" lon="10.894578"><ele>2608.25</ele></trkpt>
      <trkpt lat="46.161276" lon="10.89441"><ele>2601</ele></trkpt>
      <trkpt lat="46.161254" lon="10.894334"><ele>2593</ele></trkpt>
      <trkpt lat="46.161219" lon="10.894269"><ele>2590</ele></trkpt>
      <trkpt lat="46.161174" lon="10.894222"><ele>2592.5</ele></trkpt>
      <trkpt lat="46.161064" lon="10.894145"><ele>2598.75</ele></trkpt>
      <trkpt lat="46.161041" lon="10.894095"><ele>2591</ele></trkpt>
      <trkpt lat="46.16103" lon="10.894008"><ele>2575.5</ele></trkpt>
      <trkpt lat="46.160982" lon="10.893984"><ele>2578.25</ele></trkpt>
      <trkpt lat="46.160946" lon="10.893948"><ele>2578</ele></trkpt>
      <trkpt lat="46.160931" lon="10.893876"><ele>2570</ele></trkpt>
      <trkpt lat="46.160891" lon="10.893824"><ele>2570.25</ele></trkpt>
      <trkpt lat="46.160752" lon="10.893686"><ele>2568.25</ele></trkpt>
      <trkpt lat="46.160655" lon="10.893627"><ele>2566.75</ele></trkpt>
      <trkpt lat="46.160559" lon="10.893526"><ele>2563.75</ele></trkpt>
      <trkpt lat="46.160458" lon="10.893481"><ele>2569.5</ele></trkpt>
      <trkpt lat="46.160379" lon="10.893412"><ele>2567.25</ele></trkpt>
      <trkpt lat="46.16033" lon="10.893297"><ele>2552</ele></trkpt>
      <trkpt lat="46.160292" lon="10.893254"><ele>2545.75</ele></trkpt>
      <trkpt lat="46.160251" lon="10.893241"><ele>2542.75</ele></trkpt>
      <trkpt lat="46.160203" lon="10.89319"><ele>2525.75</ele></trkpt>
      <trkpt lat="46.160138" lon="10.893218"><ele>2528.75</ele></trkpt>
      <trkpt lat="46.160063" lon="10.893202"><ele>2515.5</ele></trkpt>
      <trkpt lat="46.159944" lon="10.893221"><ele>2511</ele></trkpt>
      <trkpt lat="46.159933" lon="10.893357"><ele>2570.75</ele></trkpt>
      <trkpt lat="46.159914" lon="10.893387"><ele>2571.75</ele></trkpt>
      <trkpt lat="46.159887" lon="10.893382"><ele>2565.75</ele></trkpt>
      <trkpt lat="46.159846" lon="10.893357"><ele>2552.75</ele></trkpt>
      <trkpt lat="46.159768" lon="10.893363"><ele>2538</ele></trkpt>
      <trkpt lat="46.159675" lon="10.893433"><ele>2543</ele></trkpt>
      <trkpt lat="46.159697" lon="10.893526"><ele>2570.25</ele></trkpt>
      <trkpt lat="46.159677" lon="10.893559"><ele>2577.75</ele></trkpt>
      <trkpt lat="46.159517" lon="10.893505"><ele>2550</ele></trkpt>
      <trkpt lat="46.159429" lon="10.893539"><ele>2552.25</ele></trkpt>
      <trkpt lat="46.159384" lon="10.893639"><ele>2567.5</ele></trkpt>
      <trkpt lat="46.159198" lon="10.893745"><ele>2546.5</ele></trkpt>
      <trkpt lat="46.159156" lon="10.89384"><ele>2559</ele></trkpt>
      <trkpt lat="46.159091" lon="10.893835"><ele>2548.25</ele></trkpt>
      <trkpt lat="46.159007" lon="10.893899"><ele>2546</ele></trkpt>
      <trkpt lat="46.158791" lon="10.894016"><ele>2556</ele></trkpt>
      <trkpt lat="46.158506" lon="10.894202"><ele>2559.75</ele></trkpt>
      <trkpt lat="46.1584" lon="10.894299"><ele>2578.5</ele></trkpt>
      <trkpt lat="46.158235" lon="10.894385"><ele>2582.75</ele></trkpt>
      <trkpt lat="46.158149" lon="10.894413"><ele>2573.5</ele></trkpt>
      <trkpt lat="46.157822" lon="10.894546"><ele>2582</ele></trkpt>
      <trkpt lat="46.157696" lon="10.894585"><ele>2580.25</ele></trkpt>
      <trkpt lat="46.157575" lon="10.894636"><ele>2559.25</ele></trkpt>
      <trkpt lat="46.157248" lon="10.894873"><ele>2559.25</ele></trkpt>
      <trkpt lat="46.157088" lon="10.894938"><ele>2554.5</ele></trkpt>
      <trkpt lat="46.156901" lon="10.895031"><ele>2549</ele></trkpt>
      <trkpt lat="46.156742" lon="10.895186"><ele>2558</ele></trkpt>
      <trkpt lat="46.156729" lon="10.895279"><ele>2559</ele></trkpt>
      <trkpt lat="46.15675" lon="10.895449"><ele>2553.75</ele></trkpt>
      <trkpt lat="46.156752" lon="10.895626"><ele>2544.75</ele></trkpt>
      <trkpt lat="46.156805" lon="10.895733"><ele>2543</ele></trkpt>
      <trkpt lat="46.156838" lon="10.895836"><ele>2538</ele></trkpt>
      <trkpt lat="46.156794" lon="10.895888"><ele>2533</ele></trkpt>
      <trkpt lat="46.156723" lon="10.895763"><ele>2533.75</ele></trkpt>
      <trkpt lat="46.15661" lon="10.895752"><ele>2530.75</ele></trkpt>
      <trkpt lat="46.156496" lon="10.895772"><ele>2532.25</ele></trkpt>
      <trkpt lat="46.156442" lon="10.895814"><ele>2529.25</ele></trkpt>
      <trkpt lat="46.156397" lon="10.895941"><ele>2521</ele></trkpt>
      <trkpt lat="46.156278" lon="10.896069"><ele>2523</ele></trkpt>
      <trkpt lat="46.156113" lon="10.896308"><ele>2517.75</ele></trkpt>
      <trkpt lat="46.155966" lon="10.896567"><ele>2511.75</ele></trkpt>
      <trkpt lat="46.155671" lon="10.896912"><ele>2506</ele></trkpt>
      <trkpt lat="46.155518" lon="10.896992"><ele>2507.5</ele></trkpt>
      <trkpt lat="46.155374" lon="10.897089"><ele>2505.25</ele></trkpt>
      <trkpt lat="46.155206" lon="10.897227"><ele>2500.5</ele></trkpt>
      <trkpt lat="46.154683" lon="10.897793"><ele>2491.25</ele></trkpt>
      <trkpt lat="46.154516" lon="10.898369"><ele>2482.75</ele></trkpt>
      <trkpt lat="46.154476" lon="10.898452"><ele>2483.25</ele></trkpt>
      <trkpt lat="46.154396" lon="10.898474"><ele>2487</ele></trkpt>
      <trkpt lat="46.15433" lon="10.898389"><ele>2490</ele></trkpt>
      <trkpt lat="46.154283" lon="10.898471"><ele>2490</ele></trkpt>
      <trkpt lat="46.154292" lon="10.898731"><ele>2483.75</ele></trkpt>
      <trkpt lat="46.15423" lon="10.898833"><ele>2484.75</ele></trkpt>
    </trkseg>
  </trk>
</gpx>
