<?xml version="1.0" encoding="UTF-8"?>
<gpx version="1.1" creator="Dolomites 2026" xmlns="http://www.topografix.com/GPX/1/1" xmlns:xsi="http://www.w3.org/2001/XMLSchema-instance" xsi:schemaLocation="http://www.topografix.com/GPX/1/1 http://www.topografix.com/GPX/1/1/gpx.xsd">
  <metadata><name>День 6 · Detassis → Casinei → Vallesinella → Madonna di Campiglio</name></metadata>
  <wpt lat="46.1754782" lon="10.8759502"><ele>2176</ele><name>Bivacco Detassis</name></wpt>
  <wpt lat="46.199955" lon="10.858336"><ele>1825</ele><name>Rifugio Casinei</name></wpt>
  <wpt lat="46.206787" lon="10.851327"><ele>1512</ele><name>Vallesinella</name></wpt>
  <wpt lat="46.2269942" lon="10.8270157"><ele>1496</ele><name>Madonna di Campiglio</name></wpt>
  <trk>
    <name>День 6 · Detassis → Casinei → Vallesinella → Madonna di Campiglio</name>
    <trkseg>
      <trkpt lat="46.175429" lon="10.876274"><ele>2176.25</ele></trkpt>
      <trkpt lat="46.175524" lon="10.876403"><ele>2176.25</ele></trkpt>
      <trkpt lat="46.175624" lon="10.876418"><ele>2174.75</ele></trkpt>
      <trkpt lat="46.175713" lon="10.876503"><ele>2173.5</ele></trkpt>
      <trkpt lat="46.175791" lon="10.876537"><ele>2173</ele></trkpt>
      <trkpt lat="46.175909" lon="10.8767"><ele>2173.75</ele></trkpt>
      <trkpt lat="46.176054" lon="10.876706"><ele>2173.25</ele></trkpt>
      <trkpt lat="46.176175" lon="10.876605"><ele>2171.75</ele></trkpt>
      <trkpt lat="46.176221" lon="10.876575"><ele>2171</ele></trkpt>
      <trkpt lat="46.17626" lon="10.876565"><ele>2170.75</ele></trkpt>
      <trkpt lat="46.17641" lon="10.87657"><ele>2170.5</ele></trkpt>
      <trkpt lat="46.176506" lon="10.87656"><ele>2169.75</ele></trkpt>
      <trkpt lat="46.176639" lon="10.876568"><ele>2169.75</ele></trkpt>
      <trkpt lat="46.176677" lon="10.876563"><ele>2169.5</ele></trkpt>
      <trkpt lat="46.176781" lon="10.876603"><ele>2170.5</ele></trkpt>
      <trkpt lat="46.176895" lon="10.876583"><ele>2169.75</ele></trkpt>
      <trkpt lat="46.17694" lon="10.876558"><ele>2168.5</ele></trkpt>
      <trkpt lat="46.177036" lon="10.876535"><ele>2168.75</ele></trkpt>
      <trkpt lat="46.177121" lon="10.876478"><ele>2167</ele></trkpt>
      <trkpt lat="46.177199" lon="10.876458"><ele>2167</ele></trkpt>
      <trkpt lat="46.177264" lon="10.876403"><ele>2166.5</ele></trkpt>
      <trkpt lat="46.177294" lon="10.87632"><ele>2165.25</ele></trkpt>
      <trkpt lat="46.177337" lon="10.876143"><ele>2162.5</ele></trkpt>
      <trkpt lat="46.177354" lon="10.876033"><ele>2161.25</ele></trkpt>
      <trkpt lat="46.177356" lon="10.875937"><ele>2159.5</ele></trkpt>
      <trkpt lat="46.177377" lon="10.87581"><ele>2158.75</ele></trkpt>
      <trkpt lat="46.177398" lon="10.875722"><ele>2159.25</ele></trkpt>
      <trkpt lat="46.177422" lon="10.875647"><ele>2160</ele></trkpt>
      <trkpt lat="46.177495" lon="10.875472"><ele>2162</ele></trkpt>
      <trkpt lat="46.177534" lon="10.875406"><ele>2163.25</ele></trkpt>
      <trkpt lat="46.177551" lon="10.875338"><ele>2162.75</ele></trkpt>
      <trkpt lat="46.177566" lon="10.875209"><ele>2161.25</ele></trkpt>
      <trkpt lat="46.177623" lon="10.875054"><ele>2162.5</ele></trkpt>
      <trkpt lat="46.177651" lon="10.875004"><ele>2163.25</ele></trkpt>
      <trkpt lat="46.177696" lon="10.874977"><ele>2165</ele></trkpt>
      <trkpt lat="46.177722" lon="10.874947"><ele>2165.5</ele></trkpt>
      <trkpt lat="46.17781" lon="10.874899"><ele>2169</ele></trkpt>
      <trkpt lat="46.177843" lon="10.874859"><ele>2169.5</ele></trkpt>
      <trkpt lat="46.177914" lon="10.874828"><ele>2172.25</ele></trkpt>
      <trkpt lat="46.17799" lon="10.874729"><ele>2172.5</ele></trkpt>
      <trkpt lat="46.178067" lon="10.874535"><ele>2170.75</ele></trkpt>
      <trkpt lat="46.178155" lon="10.874228"><ele>2171.25</ele></trkpt>
      <trkpt lat="46.178162" lon="10.874183"><ele>2171.25</ele></trkpt>
      <trkpt lat="46.17817" lon="10.873953"><ele>2168.25</ele></trkpt>
      <trkpt lat="46.178142" lon="10.873781"><ele>2163.75</ele></trkpt>
      <trkpt lat="46.178143" lon="10.873561"><ele>2160.75</ele></trkpt>
      <trkpt lat="46.178132" lon="10.873344"><ele>2155.75</ele></trkpt>
      <trkpt lat="46.178171" lon="10.873169"><ele>2153.25</ele></trkpt>
      <trkpt lat="46.17823" lon="10.87305"><ele>2152.25</ele></trkpt>
      <trkpt lat="46.178345" lon="10.872991"><ele>2154.75</ele></trkpt>
      <trkpt lat="46.178523" lon="10.872672"><ele>2147.25</ele></trkpt>
      <trkpt lat="46.178649" lon="10.872562"><ele>2152</ele></trkpt>
      <trkpt lat="46.178735" lon="10.872362"><ele>2147</ele></trkpt>
      <trkpt lat="46.178894" lon="10.872254"><ele>2143</ele></trkpt>
      <trkpt lat="46.179045" lon="10.871951"><ele>2136.75</ele></trkpt>
      <trkpt lat="46.179174" lon="10.87182"><ele>2134.75</ele></trkpt>
      <trkpt lat="46.179246" lon="10.87159"><ele>2124.25</ele></trkpt>
      <trkpt lat="46.179321" lon="10.871496"><ele>2124</ele></trkpt>
      <trkpt lat="46.179437" lon="10.871205"><ele>2114.25</ele></trkpt>
      <trkpt lat="46.179612" lon="10.871095"><ele>2116</ele></trkpt>
      <trkpt lat="46.179723" lon="10.871078"><ele>2119.25</ele></trkpt>
      <trkpt lat="46.179799" lon="10.871026"><ele>2118.5</ele></trkpt>
      <trkpt lat="46.179868" lon="10.870924"><ele>2113.75</ele></trkpt>
      <trkpt lat="46.180057" lon="10.87074"><ele>2109.75</ele></trkpt>
      <trkpt lat="46.180232" lon="10.870792"><ele>2113</ele></trkpt>
      <trkpt lat="46.180363" lon="10.870773"><ele>2114.5</ele></trkpt>
      <trkpt lat="46.180466" lon="10.870686"><ele>2114.25</ele></trkpt>
      <trkpt lat="46.180496" lon="10.870613"><ele>2113.25</ele></trkpt>
      <trkpt lat="46.180535" lon="10.870419"><ele>2110.5</ele></trkpt>
      <trkpt lat="46.1808" lon="10.87033"><ele>2110.25</ele></trkpt>
      <trkpt lat="46.180876" lon="10.870314"><ele>2112</ele></trkpt>
      <trkpt lat="46.180996" lon="10.870204"><ele>2112.5</ele></trkpt>
      <trkpt lat="46.181002" lon="10.87012"><ele>2108.25</ele></trkpt>
      <trkpt lat="46.181029" lon="10.870026"><ele>2104.5</ele></trkpt>
      <trkpt lat="46.181067" lon="10.869938"><ele>2102.25</ele></trkpt>
      <trkpt lat="46.181098" lon="10.869907"><ele>2102.5</ele></trkpt>
      <trkpt lat="46.181253" lon="10.869817"><ele>2123.25</ele></trkpt>
      <trkpt lat="46.181317" lon="10.86963"><ele>2122</ele></trkpt>
      <trkpt lat="46.181362" lon="10.869546"><ele>2121.25</ele></trkpt>
      <trkpt lat="46.181384" lon="10.869474"><ele>2117.25</ele></trkpt>
      <trkpt lat="46.181411" lon="10.869412"><ele>2114.5</ele></trkpt>
      <trkpt lat="46.181468" lon="10.869364"><ele>2117.25</ele></trkpt>
      <trkpt lat="46.181585" lon="10.869292"><ele>2123</ele></trkpt>
      <trkpt lat="46.181662" lon="10.869202"><ele>2127.5</ele></trkpt>
      <trkpt lat="46.181696" lon="10.869194"><ele>2127.5</ele></trkpt>
      <trkpt lat="46.181746" lon="10.869166"><ele>2123.5</ele></trkpt>
      <trkpt lat="46.181795" lon="10.869119"><ele>2118</ele></trkpt>
      <trkpt lat="46.181832" lon="10.869115"><ele>2118</ele></trkpt>
      <trkpt lat="46.182153" lon="10.869167"><ele>2113.25</ele></trkpt>
      <trkpt lat="46.182205" lon="10.869166"><ele>2110.75</ele></trkpt>
      <trkpt lat="46.18231" lon="10.869241"><ele>2115</ele></trkpt>
      <trkpt lat="46.182385" lon="10.869268"><ele>2115.75</ele></trkpt>
      <trkpt lat="46.182518" lon="10.8693"><ele>2117.25</ele></trkpt>
      <trkpt lat="46.182547" lon="10.869255"><ele>2116.25</ele></trkpt>
      <trkpt lat="46.182618" lon="10.86908"><ele>2110.75</ele></trkpt>
      <trkpt lat="46.182669" lon="10.869018"><ele>2112</ele></trkpt>
      <trkpt lat="46.18271" lon="10.86899"><ele>2114.75</ele></trkpt>
      <trkpt lat="46.182778" lon="10.868993"><ele>2121.5</ele></trkpt>
      <trkpt lat="46.182872" lon="10.868949"><ele>2119.75</ele></trkpt>
      <trkpt lat="46.182936" lon="10.868953"><ele>2119.75</ele></trkpt>
      <trkpt lat="46.183064" lon="10.868922"><ele>2117.5</ele></trkpt>
      <trkpt lat="46.183107" lon="10.868943"><ele>2118.5</ele></trkpt>
      <trkpt lat="46.183165" lon="10.868955"><ele>2119</ele></trkpt>
      <trkpt lat="46.183195" lon="10.868943"><ele>2118.25</ele></trkpt>
      <trkpt lat="46.183346" lon="10.868919"><ele>2116.25</ele></trkpt>
      <trkpt lat="46.183577" lon="10.86881"><ele>2117.25</ele></trkpt>
      <trkpt lat="46.183659" lon="10.868793"><ele>2118</ele></trkpt>
      <trkpt lat="46.183834" lon="10.868783"><ele>2118.75</ele></trkpt>
      <trkpt lat="46.183869" lon="10.868764"><ele>2118.5</ele></trkpt>
      <trkpt lat="46.18391" lon="10.868742"><ele>2118.5</ele></trkpt>
      <trkpt lat="46.183958" lon="10.868693"><ele>2118</ele></trkpt>
      <trkpt lat="46.183975" lon="10.868621"><ele>2116</ele></trkpt>
      <trkpt lat="46.184002" lon="10.868564"><ele>2114.25</ele></trkpt>
      <trkpt lat="46.184029" lon="10.868527"><ele>2113</ele></trkpt>
      <trkpt lat="46.184113" lon="10.868513"><ele>2113.75</ele></trkpt>
      <trkpt lat="46.184191" lon="10.868444"><ele>2111.75</ele></trkpt>
      <trkpt lat="46.184275" lon="10.868343"><ele>2108.25</ele></trkpt>
      <trkpt lat="46.184328" lon="10.868328"><ele>2107.75</ele></trkpt>
      <trkpt lat="46.184483" lon="10.868175"><ele>2103</ele></trkpt>
      <trkpt lat="46.184617" lon="10.868055"><ele>2100.25</ele></trkpt>
      <trkpt lat="46.184726" lon="10.867893"><ele>2096</ele></trkpt>
      <trkpt lat="46.184778" lon="10.867883"><ele>2096.75</ele></trkpt>
      <trkpt lat="46.18487" lon="10.867749"><ele>2092.75</ele></trkpt>
      <trkpt lat="46.184915" lon="10.867722"><ele>2092</ele></trkpt>
      <trkpt lat="46.184957" lon="10.867727"><ele>2092.75</ele></trkpt>
      <trkpt lat="46.185012" lon="10.867709"><ele>2092.5</ele></trkpt>
      <trkpt lat="46.185056" lon="10.867672"><ele>2091.75</ele></trkpt>
      <trkpt lat="46.185136" lon="10.867584"><ele>2089.5</ele></trkpt>
      <trkpt lat="46.18522" lon="10.86746"><ele>2086.25</ele></trkpt>
      <trkpt lat="46.185279" lon="10.86733"><ele>2082.5</ele></trkpt>
      <trkpt lat="46.185306" lon="10.867287"><ele>2081.25</ele></trkpt>
      <trkpt lat="46.18534" lon="10.867249"><ele>2080.5</ele></trkpt>
      <trkpt lat="46.185367" lon="10.867195"><ele>2078.25</ele></trkpt>
      <trkpt lat="46.185419" lon="10.867128"><ele>2076</ele></trkpt>
      <trkpt lat="46.185501" lon="10.8671"><ele>2076.5</ele></trkpt>
      <trkpt lat="46.185567" lon="10.866955"><ele>2070.5</ele></trkpt>
      <trkpt lat="46.185627" lon="10.86691"><ele>2068.5</ele></trkpt>
      <trkpt lat="46.185706" lon="10.86691"><ele>2069</ele></trkpt>
      <trkpt lat="46.185833" lon="10.866893"><ele>2069</ele></trkpt>
      <trkpt lat="46.185978" lon="10.86691"><ele>2069.5</ele></trkpt>
      <trkpt lat="46.186074" lon="10.866887"><ele>2068.25</ele></trkpt>
      <trkpt lat="46.186295" lon="10.866869"><ele>2068.25</ele></trkpt>
      <trkpt lat="46.186387" lon="10.866782"><ele>2064.75</ele></trkpt>
      <trkpt lat="46.186536" lon="10.866763"><ele>2062</ele></trkpt>
      <trkpt lat="46.186636" lon="10.866681"><ele>2057</ele></trkpt>
      <trkpt lat="46.186751" lon="10.866658"><ele>2055.5</ele></trkpt>
      <trkpt lat="46.186793" lon="10.866586"><ele>2051.5</ele></trkpt>
      <trkpt lat="46.186943" lon="10.866545"><ele>2048</ele></trkpt>
      <trkpt lat="46.187053" lon="10.866469"><ele>2049.5</ele></trkpt>
      <trkpt lat="46.18711" lon="10.866386"><ele>2045.5</ele></trkpt>
      <trkpt lat="46.187182" lon="10.866203"><ele>2038.75</ele></trkpt>
      <trkpt lat="46.187279" lon="10.866156"><ele>2041.25</ele></trkpt>
      <trkpt lat="46.187377" lon="10.866076"><ele>2043.75</ele></trkpt>
      <trkpt lat="46.187442" lon="10.865954"><ele>2044</ele></trkpt>
      <trkpt lat="46.187469" lon="10.865864"><ele>2042.75</ele></trkpt>
      <trkpt lat="46.187496" lon="10.865847"><ele>2044</ele></trkpt>
      <trkpt lat="46.187552" lon="10.865771"><ele>2049.75</ele></trkpt>
      <trkpt lat="46.187511" lon="10.865687"><ele>2049</ele></trkpt>
      <trkpt lat="46.187491" lon="10.865632"><ele>2048.75</ele></trkpt>
      <trkpt lat="46.187432" lon="10.865581"><ele>2043.5</ele></trkpt>
      <trkpt lat="46.187457" lon="10.865508"><ele>2046.75</ele></trkpt>
      <trkpt lat="46.187482" lon="10.865343"><ele>2049.25</ele></trkpt>
      <trkpt lat="46.187636" lon="10.86519"><ele>2050.75</ele></trkpt>
      <trkpt lat="46.187696" lon="10.865153"><ele>2051.75</ele></trkpt>
      <trkpt lat="46.187733" lon="10.86519"><ele>2055</ele></trkpt>
      <trkpt lat="46.187781" lon="10.865256"><ele>2059.25</ele></trkpt>
      <trkpt lat="46.18796" lon="10.865276"><ele>2071</ele></trkpt>
      <trkpt lat="46.188028" lon="10.865205"><ele>2067.75</ele></trkpt>
      <trkpt lat="46.188206" lon="10.86514"><ele>2066</ele></trkpt>
      <trkpt lat="46.188311" lon="10.865152"><ele>2070.5</ele></trkpt>
      <trkpt lat="46.188381" lon="10.865147"><ele>2070.5</ele></trkpt>
      <trkpt lat="46.188459" lon="10.865015"><ele>2059.5</ele></trkpt>
      <trkpt lat="46.188559" lon="10.865008"><ele>2059.75</ele></trkpt>
      <trkpt lat="46.188626" lon="10.865077"><ele>2064.25</ele></trkpt>
      <trkpt lat="46.188789" lon="10.865175"><ele>2061.5</ele></trkpt>
      <trkpt lat="46.189038" lon="10.865349"><ele>2057.25</ele></trkpt>
      <trkpt lat="46.189388" lon="10.865693"><ele>2055.25</ele></trkpt>
      <trkpt lat="46.189493" lon="10.865838"><ele>2054</ele></trkpt>
      <trkpt lat="46.189679" lon="10.866032"><ele>2050.75</ele></trkpt>
      <trkpt lat="46.189729" lon="10.866152"><ele>2051</ele></trkpt>
      <trkpt lat="46.189886" lon="10.866274"><ele>2050</ele></trkpt>
      <trkpt lat="46.190067" lon="10.866373"><ele>2047.75</ele></trkpt>
      <trkpt lat="46.190163" lon="10.866502"><ele>2050</ele></trkpt>
      <trkpt lat="46.190245" lon="10.866487"><ele>2047.5</ele></trkpt>
      <trkpt lat="46.190315" lon="10.866485"><ele>2045.75</ele></trkpt>
      <trkpt lat="46.190376" lon="10.866513"><ele>2045.5</ele></trkpt>
      <trkpt lat="46.190427" lon="10.866501"><ele>2043.75</ele></trkpt>
      <trkpt lat="46.190558" lon="10.866496"><ele>2040.5</ele></trkpt>
      <trkpt lat="46.190613" lon="10.866485"><ele>2040.25</ele></trkpt>
      <trkpt lat="46.1907" lon="10.866561"><ele>2043.5</ele></trkpt>
      <trkpt lat="46.190794" lon="10.866527"><ele>2042.25</ele></trkpt>
      <trkpt lat="46.190899" lon="10.866519"><ele>2043.25</ele></trkpt>
      <trkpt lat="46.191083" lon="10.86652"><ele>2046.5</ele></trkpt>
      <trkpt lat="46.191138" lon="10.866547"><ele>2048</ele></trkpt>
      <trkpt lat="46.191255" lon="10.866566"><ele>2048.75</ele></trkpt>
      <trkpt lat="46.191313" lon="10.866553"><ele>2048.75</ele></trkpt>
      <trkpt lat="46.191462" lon="10.866586"><ele>2048.5</ele></trkpt>
      <trkpt lat="46.191548" lon="10.866556"><ele>2048</ele></trkpt>
      <trkpt lat="46.191619" lon="10.866493"><ele>2047.75</ele></trkpt>
      <trkpt lat="46.1917" lon="10.866398"><ele>2047.5</ele></trkpt>
      <trkpt lat="46.191746" lon="10.866394"><ele>2047.25</ele></trkpt>
      <trkpt lat="46.191783" lon="10.86632"><ele>2047.25</ele></trkpt>
      <trkpt lat="46.191887" lon="10.866274"><ele>2046.25</ele></trkpt>
      <trkpt lat="46.191956" lon="10.866092"><ele>2045.75</ele></trkpt>
      <trkpt lat="46.192077" lon="10.865931"><ele>2044.5</ele></trkpt>
      <trkpt lat="46.192192" lon="10.865874"><ele>2042.75</ele></trkpt>
      <trkpt lat="46.192221" lon="10.865847"><ele>2042.25</ele></trkpt>
      <trkpt lat="46.192234" lon="10.865822"><ele>2042.25</ele></trkpt>
      <trkpt lat="46.19229" lon="10.865659"><ele>2042.25</ele></trkpt>
      <trkpt lat="46.192295" lon="10.865485"><ele>2040</ele></trkpt>
      <trkpt lat="46.192329" lon="10.865287"><ele>2039</ele></trkpt>
      <trkpt lat="46.192359" lon="10.865211"><ele>2038.25</ele></trkpt>
      <trkpt lat="46.192398" lon="10.865161"><ele>2037.5</ele></trkpt>
      <trkpt lat="46.192573" lon="10.865104"><ele>2036.25</ele></trkpt>
      <trkpt lat="46.192649" lon="10.865044"><ele>2033.5</ele></trkpt>
      <trkpt lat="46.192666" lon="10.865044"><ele>2033.5</ele></trkpt>
      <trkpt lat="46.192704" lon="10.865071"><ele>2034.5</ele></trkpt>
      <trkpt lat="46.192719" lon="10.8651"><ele>2035.75</ele></trkpt>
      <trkpt lat="46.192729" lon="10.865105"><ele>2035.75</ele></trkpt>
      <trkpt lat="46.192789" lon="10.865077"><ele>2035</ele></trkpt>
      <trkpt lat="46.192911" lon="10.86493"><ele>2031.5</ele></trkpt>
      <trkpt lat="46.19311" lon="10.864813"><ele>2031.25</ele></trkpt>
      <trkpt lat="46.193222" lon="10.864723"><ele>2030.25</ele></trkpt>
      <trkpt lat="46.193368" lon="10.864518"><ele>2021.75</ele></trkpt>
      <trkpt lat="46.193429" lon="10.86445"><ele>2018</ele></trkpt>
      <trkpt lat="46.193614" lon="10.864318"><ele>2014</ele></trkpt>
      <trkpt lat="46.193728" lon="10.864269"><ele>2013</ele></trkpt>
      <trkpt lat="46.193823" lon="10.86419"><ele>2010</ele></trkpt>
      <trkpt lat="46.193863" lon="10.864146"><ele>2008.5</ele></trkpt>
      <trkpt lat="46.193969" lon="10.864099"><ele>2007.25</ele></trkpt>
      <trkpt lat="46.194079" lon="10.864026"><ele>2005</ele></trkpt>
      <trkpt lat="46.194161" lon="10.863986"><ele>2004</ele></trkpt>
      <trkpt lat="46.194252" lon="10.863923"><ele>2003.25</ele></trkpt>
      <trkpt lat="46.194326" lon="10.863833"><ele>2001.25</ele></trkpt>
      <trkpt lat="46.194452" lon="10.863724"><ele>1998.75</ele></trkpt>
      <trkpt lat="46.194573" lon="10.863667"><ele>1998</ele></trkpt>
      <trkpt lat="46.194673" lon="10.863575"><ele>1995.75</ele></trkpt>
      <trkpt lat="46.194827" lon="10.86339"><ele>1991.75</ele></trkpt>
      <trkpt lat="46.194939" lon="10.863208"><ele>1989</ele></trkpt>
      <trkpt lat="46.195175" lon="10.862888"><ele>1983</ele></trkpt>
      <trkpt lat="46.195264" lon="10.862778"><ele>1981.5</ele></trkpt>
      <trkpt lat="46.195389" lon="10.862561"><ele>1978.5</ele></trkpt>
      <trkpt lat="46.195523" lon="10.862374"><ele>1974.5</ele></trkpt>
      <trkpt lat="46.195626" lon="10.862261"><ele>1972.25</ele></trkpt>
      <trkpt lat="46.195723" lon="10.86214"><ele>1968.25</ele></trkpt>
      <trkpt lat="46.195899" lon="10.861987"><ele>1964.5</ele></trkpt>
      <trkpt lat="46.196059" lon="10.861861"><ele>1960.25</ele></trkpt>
      <trkpt lat="46.196148" lon="10.861816"><ele>1959.25</ele></trkpt>
      <trkpt lat="46.19628" lon="10.86169"><ele>1954.25</ele></trkpt>
      <trkpt lat="46.196332" lon="10.861649"><ele>1953</ele></trkpt>
      <trkpt lat="46.19638" lon="10.861627"><ele>1952.75</ele></trkpt>
      <trkpt lat="46.196506" lon="10.861547"><ele>1951.5</ele></trkpt>
      <trkpt lat="46.196718" lon="10.861314"><ele>1944.5</ele></trkpt>
      <trkpt lat="46.196826" lon="10.861173"><ele>1940</ele></trkpt>
      <trkpt lat="46.197115" lon="10.860923"><ele>1934.5</ele></trkpt>
      <trkpt lat="46.197671" lon="10.860569"><ele>1924</ele></trkpt>
      <trkpt lat="46.197874" lon="10.86039"><ele>1919</ele></trkpt>
      <trkpt lat="46.197984" lon="10.86027"><ele>1915.75</ele></trkpt>
      <trkpt lat="46.19803" lon="10.860235"><ele>1915.25</ele></trkpt>
      <trkpt lat="46.198094" lon="10.860147"><ele>1914</ele></trkpt>
      <trkpt lat="46.198164" lon="10.860005"><ele>1910.5</ele></trkpt>
      <trkpt lat="46.198185" lon="10.859982"><ele>1910.25</ele></trkpt>
      <trkpt lat="46.198283" lon="10.859788"><ele>1906.5</ele></trkpt>
      <trkpt lat="46.198327" lon="10.859723"><ele>1905.75</ele></trkpt>
      <trkpt lat="46.198427" lon="10.859527"><ele>1900</ele></trkpt>
      <trkpt lat="46.198499" lon="10.859445"><ele>1898.5</ele></trkpt>
      <trkpt lat="46.198545" lon="10.859171"><ele>1890.75</ele></trkpt>
      <trkpt lat="46.198568" lon="10.859067"><ele>1888.25</ele></trkpt>
      <trkpt lat="46.198577" lon="10.858943"><ele>1885</ele></trkpt>
      <trkpt lat="46.198605" lon="10.85888"><ele>1884.5</ele></trkpt>
      <trkpt lat="46.198662" lon="10.858804"><ele>1881.5</ele></trkpt>
      <trkpt lat="46.198721" lon="10.858866"><ele>1880.5</ele></trkpt>
      <trkpt lat="46.198741" lon="10.858778"><ele>1878.5</ele></trkpt>
      <trkpt lat="46.198768" lon="10.85871"><ele>1876.25</ele></trkpt>
      <trkpt lat="46.198833" lon="10.858764"><ele>1875</ele></trkpt>
      <trkpt lat="46.198864" lon="10.858776"><ele>1874</ele></trkpt>
      <trkpt lat="46.198908" lon="10.858825"><ele>1873.5</ele></trkpt>
      <trkpt lat="46.19895" lon="10.858836"><ele>1872.5</ele></trkpt>
      <trkpt lat="46.199004" lon="10.858817"><ele>1870.5</ele></trkpt>
      <trkpt lat="46.199041" lon="10.858773"><ele>1868.75</ele></trkpt>
      <trkpt lat="46.199056" lon="10.858729"><ele>1867.25</ele></trkpt>
      <trkpt lat="46.199069" lon="10.858652"><ele>1865.25</ele></trkpt>
      <trkpt lat="46.199164" lon="10.858642"><ele>1861.75</ele></trkpt>
      <trkpt lat="46.199212" lon="10.858657"><ele>1860.25</ele></trkpt>
      <trkpt lat="46.199249" lon="10.858682"><ele>1859.5</ele></trkpt>
      <trkpt lat="46.199324" lon="10.858711"><ele>1857</ele></trkpt>
      <trkpt lat="46.199478" lon="10.858745"><ele>1851</ele></trkpt>
      <trkpt lat="46.199536" lon="10.858789"><ele>1848.5</ele></trkpt>
      <trkpt lat="46.199589" lon="10.859008"><ele>1846.5</ele></trkpt>
      <trkpt lat="46.199612" lon="10.859134"><ele>1845</ele></trkpt>
      <trkpt lat="46.199644" lon="10.859202"><ele>1842.25</ele></trkpt>
      <trkpt lat="46.19968" lon="10.859146"><ele>1839.5</ele></trkpt>
      <trkpt lat="46.199688" lon="10.85906"><ele>1839.25</ele></trkpt>
      <trkpt lat="46.199764" lon="10.858902"><ele>1835.5</ele></trkpt>
      <trkpt lat="46.199824" lon="10.858807"><ele>1832.75</ele></trkpt>
      <trkpt lat="46.199885" lon="10.858664"><ele>1829.75</ele></trkpt>
      <trkpt lat="46.19998" lon="10.858561"><ele>1824</ele></trkpt>
      <trkpt lat="46.199955" lon="10.858336"><ele>1824.75</ele></trkpt>
      <trkpt lat="46.199991" lon="10.85829"><ele>1823</ele></trkpt>
      <trkpt lat="46.200082" lon="10.858117"><ele>1818.5</ele></trkpt>
      <trkpt lat="46.200211" lon="10.85796"><ele>1812.75</ele></trkpt>
      <trkpt lat="46.20027" lon="10.85792"><ele>1810.75</ele></trkpt>
      <trkpt lat="46.200312" lon="10.857914"><ele>1807.75</ele></trkpt>
      <trkpt lat="46.200373" lon="10.858011"><ele>1803</ele></trkpt>
      <trkpt lat="46.200422" lon="10.858416"><ele>1796.5</ele></trkpt>
      <trkpt lat="46.200454" lon="10.858593"><ele>1791.75</ele></trkpt>
      <trkpt lat="46.200408" lon="10.8588"><ele>1792.25</ele></trkpt>
      <trkpt lat="46.200396" lon="10.858974"><ele>1790.75</ele></trkpt>
      <trkpt lat="46.200422" lon="10.859267"><ele>1785.75</ele></trkpt>
      <trkpt lat="46.200399" lon="10.859414"><ele>1786.5</ele></trkpt>
      <trkpt lat="46.200444" lon="10.859731"><ele>1781.75</ele></trkpt>
      <trkpt lat="46.200481" lon="10.859813"><ele>1778.5</ele></trkpt>
      <trkpt lat="46.200547" lon="10.860254"><ele>1773.25</ele></trkpt>
      <trkpt lat="46.200568" lon="10.860324"><ele>1772.5</ele></trkpt>
      <trkpt lat="46.200641" lon="10.860482"><ele>1769</ele></trkpt>
      <trkpt lat="46.200664" lon="10.860489"><ele>1767.5</ele></trkpt>
      <trkpt lat="46.200684" lon="10.860459"><ele>1766</ele></trkpt>
      <trkpt lat="46.200688" lon="10.860325"><ele>1765</ele></trkpt>
      <trkpt lat="46.200753" lon="10.86018"><ele>1760.25</ele></trkpt>
      <trkpt lat="46.200772" lon="10.860099"><ele>1758.5</ele></trkpt>
      <trkpt lat="46.200785" lon="10.860068"><ele>1757.5</ele></trkpt>
      <trkpt lat="46.200814" lon="10.860105"><ele>1755.75</ele></trkpt>
      <trkpt lat="46.200843" lon="10.860293"><ele>1755.25</ele></trkpt>
      <trkpt lat="46.200915" lon="10.860444"><ele>1751.75</ele></trkpt>
      <trkpt lat="46.201005" lon="10.860547"><ele>1747</ele></trkpt>
      <trkpt lat="46.201094" lon="10.860675"><ele>1742.25</ele></trkpt>
      <trkpt lat="46.201194" lon="10.860788"><ele>1739</ele></trkpt>
      <trkpt lat="46.201265" lon="10.860805"><ele>1736.5</ele></trkpt>
      <trkpt lat="46.201291" lon="10.8607"><ele>1734.75</ele></trkpt>
      <trkpt lat="46.201333" lon="10.860297"><ele>1728.75</ele></trkpt>
      <trkpt lat="46.201368" lon="10.860127"><ele>1725.25</ele></trkpt>
      <trkpt lat="46.201432" lon="10.859901"><ele>1719.25</ele></trkpt>
      <trkpt lat="46.201462" lon="10.859722"><ele>1715.5</ele></trkpt>
      <trkpt lat="46.201505" lon="10.859224"><ele>1707.25</ele></trkpt>
      <trkpt lat="46.201545" lon="10.859073"><ele>1704</ele></trkpt>
      <trkpt lat="46.201569" lon="10.858916"><ele>1701.75</ele></trkpt>
      <trkpt lat="46.201604" lon="10.858775"><ele>1699</ele></trkpt>
      <trkpt lat="46.201704" lon="10.858455"><ele>1694</ele></trkpt>
      <trkpt lat="46.201762" lon="10.858242"><ele>1691.75</ele></trkpt>
      <trkpt lat="46.201801" lon="10.857994"><ele>1688</ele></trkpt>
      <trkpt lat="46.2018" lon="10.857951"><ele>1687.5</ele></trkpt>
      <trkpt lat="46.201814" lon="10.857802"><ele>1684.25</ele></trkpt>
      <trkpt lat="46.201798" lon="10.857703"><ele>1683.75</ele></trkpt>
      <trkpt lat="46.201811" lon="10.857554"><ele>1680.75</ele></trkpt>
      <trkpt lat="46.201844" lon="10.857413"><ele>1677.75</ele></trkpt>
      <trkpt lat="46.201937" lon="10.857286"><ele>1672</ele></trkpt>
      <trkpt lat="46.202001" lon="10.857119"><ele>1670</ele></trkpt>
      <trkpt lat="46.202016" lon="10.857065"><ele>1669</ele></trkpt>
      <trkpt lat="46.202061" lon="10.857023"><ele>1665.75</ele></trkpt>
      <trkpt lat="46.20208" lon="10.856938"><ele>1664.25</ele></trkpt>
      <trkpt lat="46.202115" lon="10.856866"><ele>1661.5</ele></trkpt>
      <trkpt lat="46.202146" lon="10.856861"><ele>1659.25</ele></trkpt>
      <trkpt lat="46.202224" lon="10.857096"><ele>1655</ele></trkpt>
      <trkpt lat="46.202252" lon="10.85712"><ele>1653.75</ele></trkpt>
      <trkpt lat="46.202347" lon="10.857161"><ele>1649</ele></trkpt>
      <trkpt lat="46.202352" lon="10.857221"><ele>1649</ele></trkpt>
      <trkpt lat="46.202359" lon="10.857227"><ele>1648.5</ele></trkpt>
      <trkpt lat="46.20238" lon="10.857215"><ele>1647.25</ele></trkpt>
      <trkpt lat="46.202405" lon="10.857304"><ele>1644.5</ele></trkpt>
      <trkpt lat="46.202395" lon="10.857359"><ele>1644.25</ele></trkpt>
      <trkpt lat="46.202363" lon="10.85744"><ele>1644.75</ele></trkpt>
      <trkpt lat="46.202353" lon="10.857486"><ele>1644.5</ele></trkpt>
      <trkpt lat="46.202362" lon="10.857495"><ele>1644</ele></trkpt>
      <trkpt lat="46.202455" lon="10.857453"><ele>1639.75</ele></trkpt>
      <trkpt lat="46.202544" lon="10.857397"><ele>1636.75</ele></trkpt>
      <trkpt lat="46.202646" lon="10.857169"><ele>1636.75</ele></trkpt>
      <trkpt lat="46.202775" lon="10.856936"><ele>1631</ele></trkpt>
      <trkpt lat="46.203207" lon="10.857003"><ele>1626</ele></trkpt>
      <trkpt lat="46.203452" lon="10.856944"><ele>1619</ele></trkpt>
      <trkpt lat="46.203549" lon="10.856799"><ele>1615.5</ele></trkpt>
      <trkpt lat="46.203623" lon="10.856584"><ele>1610.75</ele></trkpt>
      <trkpt lat="46.203656" lon="10.856375"><ele>1605.5</ele></trkpt>
      <trkpt lat="46.203701" lon="10.856182"><ele>1600.5</ele></trkpt>
      <trkpt lat="46.203786" lon="10.856091"><ele>1596.25</ele></trkpt>
      <trkpt lat="46.203868" lon="10.855866"><ele>1588.25</ele></trkpt>
      <trkpt lat="46.203868" lon="10.855688"><ele>1585.5</ele></trkpt>
      <trkpt lat="46.204009" lon="10.855469"><ele>1579</ele></trkpt>
      <trkpt lat="46.204132" lon="10.855109"><ele>1570.5</ele></trkpt>
      <trkpt lat="46.204228" lon="10.854878"><ele>1563.75</ele></trkpt>
      <trkpt lat="46.20431" lon="10.854385"><ele>1552.75</ele></trkpt>
      <trkpt lat="46.204354" lon="10.854052"><ele>1547.25</ele></trkpt>
      <trkpt lat="46.204503" lon="10.853848"><ele>1541.75</ele></trkpt>
      <trkpt lat="46.204699" lon="10.853777"><ele>1536.5</ele></trkpt>
      <trkpt lat="46.205" lon="10.85358"><ele>1528.5</ele></trkpt>
      <trkpt lat="46.205164" lon="10.853387"><ele>1522.75</ele></trkpt>
      <trkpt lat="46.205253" lon="10.85299"><ele>1518.75</ele></trkpt>
      <trkpt lat="46.205346" lon="10.852245"><ele>1513.5</ele></trkpt>
      <trkpt lat="46.205438" lon="10.852249"><ele>1511.5</ele></trkpt>
      <trkpt lat="46.205494" lon="10.852289"><ele>1510</ele></trkpt>
      <trkpt lat="46.205574" lon="10.852432"><ele>1511.5</ele></trkpt>
      <trkpt lat="46.20567" lon="10.852424"><ele>1512.75</ele></trkpt>
      <trkpt lat="46.205696" lon="10.852404"><ele>1513.25</ele></trkpt>
      <trkpt lat="46.205752" lon="10.852234"><ele>1513.25</ele></trkpt>
      <trkpt lat="46.205852" lon="10.852162"><ele>1515</ele></trkpt>
      <trkpt lat="46.205914" lon="10.852173"><ele>1515.75</ele></trkpt>
      <trkpt lat="46.206038" lon="10.852158"><ele>1517.5</ele></trkpt>
      <trkpt lat="46.206098" lon="10.852155"><ele>1518.25</ele></trkpt>
      <trkpt lat="46.206187" lon="10.85208"><ele>1517.75</ele></trkpt>
      <trkpt lat="46.20643" lon="10.851794"><ele>1515.75</ele></trkpt>
      <trkpt lat="46.206528" lon="10.851668"><ele>1514.5</ele></trkpt>
      <trkpt lat="46.206787" lon="10.851327"><ele>1512</ele></trkpt>
      <trkpt lat="46.206909" lon="10.851137"><ele>1509.25</ele></trkpt>
      <trkpt lat="46.206995" lon="10.850895"><ele>1507.75</ele></trkpt>
      <trkpt lat="46.207068" lon="10.850681"><ele>1507.25</ele></trkpt>
      <trkpt lat="46.207099" lon="10.850591"><ele>1506.5</ele></trkpt>
      <trkpt lat="46.207188" lon="10.850502"><ele>1505</ele></trkpt>
      <trkpt lat="46.207663" lon="10.849965"><ele>1502</ele></trkpt>
      <trkpt lat="46.207996" lon="10.849643"><ele>1503.5</ele></trkpt>
      <trkpt lat="46.208225" lon="10.849215"><ele>1501.5</ele></trkpt>
      <trkpt lat="46.208627" lon="10.848268"><ele>1502.25</ele></trkpt>
      <trkpt lat="46.208714" lon="10.847704"><ele>1502</ele></trkpt>
      <trkpt lat="46.208842" lon="10.847337"><ele>1502.5</ele></trkpt>
      <trkpt lat="46.208911" lon="10.846791"><ele>1500.5</ele></trkpt>
      <trkpt lat="46.209071" lon="10.846363"><ele>1501.5</ele></trkpt>
      <trkpt lat="46.209346" lon="10.845004"><ele>1499</ele></trkpt>
      <trkpt lat="46.20955" lon="10.844516"><ele>1503.75</ele></trkpt>
      <trkpt lat="46.209621" lon="10.843993"><ele>1499.5</ele></trkpt>
      <trkpt lat="46.209809" lon="10.843618"><ele>1504.5</ele></trkpt>
      <trkpt lat="46.209759" lon="10.843323"><ele>1507.5</ele></trkpt>
      <trkpt lat="46.209671" lon="10.84314"><ele>1503</ele></trkpt>
      <trkpt lat="46.209675" lon="10.842912"><ele>1502.25</ele></trkpt>
      <trkpt lat="46.209784" lon="10.842633"><ele>1504</ele></trkpt>
      <trkpt lat="46.209919" lon="10.8418"><ele>1505.75</ele></trkpt>
      <trkpt lat="46.209883" lon="10.840793"><ele>1505.5</ele></trkpt>
      <trkpt lat="46.209798" lon="10.840414"><ele>1508.75</ele></trkpt>
      <trkpt lat="46.2096" lon="10.840162"><ele>1501</ele></trkpt>
      <trkpt lat="46.209576" lon="10.839881"><ele>1499.25</ele></trkpt>
      <trkpt lat="46.209665" lon="10.83962"><ele>1501.5</ele></trkpt>
      <trkpt lat="46.209623" lon="10.838655"><ele>1504.25</ele></trkpt>
      <trkpt lat="46.209313" lon="10.836746"><ele>1502.75</ele></trkpt>
      <trkpt lat="46.209018" lon="10.835574"><ele>1497.5</ele></trkpt>
      <trkpt lat="46.20891" lon="10.833971"><ele>1494.75</ele></trkpt>
      <trkpt lat="46.20927" lon="10.832386"><ele>1494.5</ele></trkpt>
      <trkpt lat="46.209942" lon="10.831135"><ele>1497.25</ele></trkpt>
      <trkpt lat="46.210398" lon="10.83047"><ele>1491.75</ele></trkpt>
      <trkpt lat="46.211044" lon="10.830036"><ele>1492</ele></trkpt>
      <trkpt lat="46.211367" lon="10.829878"><ele>1494.25</ele></trkpt>
      <trkpt lat="46.21188" lon="10.829405"><ele>1491.25</ele></trkpt>
      <trkpt lat="46.212262" lon="10.829281"><ele>1496</ele></trkpt>
      <trkpt lat="46.212653" lon="10.82922"><ele>1499.75</ele></trkpt>
      <trkpt lat="46.212964" lon="10.828972"><ele>1496.75</ele></trkpt>
      <trkpt lat="46.214255" lon="10.828639"><ele>1504.75</ele></trkpt>
      <trkpt lat="46.215169" lon="10.828381"><ele>1503.25</ele></trkpt>
      <trkpt lat="46.215641" lon="10.828375"><ele>1505.5</ele></trkpt>
      <trkpt lat="46.216182" lon="10.828286"><ele>1504.25</ele></trkpt>
      <trkpt lat="46.216453" lon="10.828228"><ele>1504.25</ele></trkpt>
      <trkpt lat="46.216569" lon="10.82822"><ele>1505</ele></trkpt>
      <trkpt lat="46.216692" lon="10.828226"><ele>1506</ele></trkpt>
      <trkpt lat="46.216826" lon="10.828248"><ele>1505.75</ele></trkpt>
      <trkpt lat="46.21705" lon="10.828312"><ele>1506.25</ele></trkpt>
      <trkpt lat="46.217285" lon="10.828357"><ele>1506.5</ele></trkpt>
      <trkpt lat="46.217434" lon="10.828363"><ele>1505.75</ele></trkpt>
      <trkpt lat="46.217532" lon="10.828357"><ele>1504.5</ele></trkpt>
      <trkpt lat="46.217642" lon="10.828365"><ele>1503.5</ele></trkpt>
      <trkpt lat="46.217754" lon="10.828387"><ele>1503</ele></trkpt>
      <trkpt lat="46.218231" lon="10.828571"><ele>1504</ele></trkpt>
      <trkpt lat="46.218305" lon="10.828576"><ele>1503.5</ele></trkpt>
      <trkpt lat="46.21838" lon="10.828568"><ele>1503</ele></trkpt>
      <trkpt lat="46.21872" lon="10.828504"><ele>1501</ele></trkpt>
      <trkpt lat="46.218862" lon="10.828482"><ele>1501</ele></trkpt>
      <trkpt lat="46.218962" lon="10.828433"><ele>1499.75</ele></trkpt>
      <trkpt lat="46.219265" lon="10.828381"><ele>1499</ele></trkpt>
      <trkpt lat="46.219357" lon="10.828325"><ele>1498</ele></trkpt>
      <trkpt lat="46.219438" lon="10.828297"><ele>1498</ele></trkpt>
      <trkpt lat="46.219483" lon="10.828299"><ele>1497.75</ele></trkpt>
      <trkpt lat="46.219628" lon="10.828332"><ele>1498.25</ele></trkpt>
      <trkpt lat="46.22017" lon="10.828536"><ele>1498.75</ele></trkpt>
      <trkpt lat="46.220232" lon="10.828546"><ele>1498.75</ele></trkpt>
      <trkpt lat="46.220286" lon="10.828538"><ele>1498.25</ele></trkpt>
      <trkpt lat="46.220407" lon="10.828496"><ele>1498</ele></trkpt>
      <trkpt lat="46.220572" lon="10.828421"><ele>1497.5</ele></trkpt>
      <trkpt lat="46.220651" lon="10.828398"><ele>1497</ele></trkpt>
      <trkpt lat="46.220901" lon="10.828354"><ele>1495.75</ele></trkpt>
      <trkpt lat="46.221195" lon="10.828329"><ele>1493.5</ele></trkpt>
      <trkpt lat="46.221278" lon="10.82832"><ele>1493.25</ele></trkpt>
      <trkpt lat="46.221361" lon="10.828309"><ele>1492.75</ele></trkpt>
      <trkpt lat="46.221477" lon="10.828279"><ele>1492.5</ele></trkpt>
      <trkpt lat="46.221646" lon="10.828213"><ele>1492.5</ele></trkpt>
      <trkpt lat="46.221693" lon="10.828194"><ele>1492.25</ele></trkpt>
      <trkpt lat="46.222071" lon="10.828033"><ele>1490.75</ele></trkpt>
      <trkpt lat="46.222209" lon="10.828004"><ele>1490.5</ele></trkpt>
      <trkpt lat="46.222398" lon="10.828001"><ele>1490.25</ele></trkpt>
      <trkpt lat="46.222871" lon="10.828034"><ele>1490.5</ele></trkpt>
      <trkpt lat="46.222943" lon="10.828029"><ele>1490.5</ele></trkpt>
      <trkpt lat="46.223128" lon="10.827985"><ele>1490.25</ele></trkpt>
      <trkpt lat="46.223193" lon="10.827985"><ele>1490.25</ele></trkpt>
      <trkpt lat="46.223256" lon="10.827996"><ele>1490.5</ele></trkpt>
      <trkpt lat="46.223389" lon="10.828053"><ele>1491</ele></trkpt>
      <trkpt lat="46.223421" lon="10.828063"><ele>1491.25</ele></trkpt>
      <trkpt lat="46.224287" lon="10.828141"><ele>1492.5</ele></trkpt>
      <trkpt lat="46.224594" lon="10.828167"><ele>1493.5</ele></trkpt>
      <trkpt lat="46.224713" lon="10.828169"><ele>1493.75</ele></trkpt>
      <trkpt lat="46.224803" lon="10.828153"><ele>1493.75</ele></trkpt>
      <trkpt lat="46.224892" lon="10.828111"><ele>1493.75</ele></trkpt>
      <trkpt lat="46.224991" lon="10.828045"><ele>1494</ele></trkpt>
      <trkpt lat="46.225106" lon="10.827948"><ele>1494.75</ele></trkpt>
      <trkpt lat="46.225345" lon="10.827691"><ele>1496.25</ele></trkpt>
      <trkpt lat="46.225388" lon="10.827656"><ele>1496.25</ele></trkpt>
      <trkpt lat="46.225461" lon="10.827599"><ele>1496.25</ele></trkpt>
      <trkpt lat="46.225517" lon="10.827557"><ele>1495.75</ele></trkpt>
      <trkpt lat="46.225551" lon="10.827591"><ele>1496.25</ele></trkpt>
      <trkpt lat="46.225592" lon="10.827591"><ele>1496.25</ele></trkpt>
      <trkpt lat="46.225611" lon="10.827577"><ele>1496</ele></trkpt>
      <trkpt lat="46.225635" lon="10.827528"><ele>1495.5</ele></trkpt>
      <trkpt lat="46.22569" lon="10.827555"><ele>1496</ele></trkpt>
      <trkpt lat="46.225807" lon="10.827633"><ele>1496.75</ele></trkpt>
      <trkpt lat="46.226024" lon="10.827868"><ele>1498.25</ele></trkpt>
      <trkpt lat="46.226164" lon="10.828028"><ele>1498</ele></trkpt>
      <trkpt lat="46.226216" lon="10.828083"><ele>1498.5</ele></trkpt>
      <trkpt lat="46.226231" lon="10.828083"><ele>1498.5</ele></trkpt>
      <trkpt lat="46.226239" lon="10.828031"><ele>1498.25</ele></trkpt>
      <trkpt lat="46.226245" lon="10.827998"><ele>1498</ele></trkpt>
      <trkpt lat="46.226268" lon="10.827942"><ele>1497.75</ele></trkpt>
      <trkpt lat="46.2262" lon="10.827862"><ele>1497.5</ele></trkpt>
      <trkpt lat="46.226143" lon="10.827764"><ele>1497.75</ele></trkpt>
      <trkpt lat="46.226088" lon="10.827653"><ele>1497.75</ele></trkpt>
      <trkpt lat="46.226074" lon="10.827593"><ele>1497.75</ele></trkpt>
      <trkpt lat="46.226084" lon="10.827519"><ele>1497.75</ele></trkpt>
      <trkpt lat="46.226145" lon="10.82737"><ele>1497.5</ele></trkpt>
      <trkpt lat="46.226184" lon="10.827201"><ele>1497.25</ele></trkpt>
      <trkpt lat="46.226198" lon="10.827166"><ele>1497</ele></trkpt>
      <trkpt lat="46.226229" lon="10.827113"><ele>1497</ele></trkpt>
      <trkpt lat="46.226281" lon="10.827058"><ele>1496.75</ele></trkpt>
      <trkpt lat="46.226341" lon="10.827022"><ele>1496.5</ele></trkpt>
      <trkpt lat="46.2264" lon="10.827014"><ele>1496.25</ele></trkpt>
      <trkpt lat="46.226579" lon="10.827038"><ele>1496.25</ele></trkpt>
      <trkpt lat="46.226677" lon="10.827007"><ele>1496.5</ele></trkpt>
      <trkpt lat="46.226714" lon="10.827004"><ele>1496.25</ele></trkpt>
      <trkpt lat="46.226831" lon="10.827054"><ele>1496</ele></trkpt>
      <trkpt lat="46.226947" lon="10.827076"><ele>1496</ele></trkpt>
      <trkpt lat="46.226961" lon="10.827088"><ele>1496.25</ele></trkpt>
    </trkseg>
  </trk>
</gpx>
