{
  "type": "FeatureCollection",
  "features": [
    {
      "type": "Feature",
      "properties": {
        "kind": "route",
        "name": "День 5 · Dal Bianco → Passo delle Selle",
        "distance_km": 11.066,
        "ascent_m": 1206,
        "source": "BRouter / OpenStreetMap"
      },
      "geometry": {
        "type": "LineString",
        "coordinates": [
          [
            11.845366,
            46.429115,
            2725.3
          ],
          [
            11.84532,
            46.429084,
            2727.8
          ],
          [
            11.845298,
            46.428918,
            2735
          ],
          [
            11.845259,
            46.428853,
            2738.5
          ],
          [
            11.845001,
            46.428649,
            2751
          ],
          [
            11.844922,
            46.428451,
            2760.3
          ],
          [
            11.845168,
            46.42833,
            2767
          ],
          [
            11.845175,
            46.428252,
            2771.8
          ],
          [
            11.8451,
            46.428153,
            2777
          ],
          [
            11.845198,
            46.428132,
            2779
          ],
          [
            11.845183,
            46.427985,
            2791.5
          ],
          [
            11.845524,
            46.427875,
            2803.3
          ],
          [
            11.845514,
            46.427751,
            2808
          ],
          [
            11.845404,
            46.427704,
            2811
          ],
          [
            11.845136,
            46.427484,
            2818.3
          ],
          [
            11.844804,
            46.427176,
            2828
          ],
          [
            11.843779,
            46.426684,
            2876.5
          ],
          [
            11.843643,
            46.426536,
            2885.3
          ],
          [
            11.843605,
            46.426513,
            2887.5
          ],
          [
            11.843535,
            46.426486,
            2891.5
          ],
          [
            11.843393,
            46.426541,
            2898.5
          ],
          [
            11.843321,
            46.426544,
            2902.5
          ],
          [
            11.84325,
            46.426425,
            2907
          ],
          [
            11.843258,
            46.426323,
            2909
          ],
          [
            11.843282,
            46.42632,
            2908
          ],
          [
            11.843283,
            46.426261,
            2909.8
          ],
          [
            11.843219,
            46.426168,
            2916.3
          ],
          [
            11.843144,
            46.426162,
            2920.5
          ],
          [
            11.843124,
            46.426106,
            2923.3
          ],
          [
            11.843039,
            46.426017,
            2931
          ],
          [
            11.842912,
            46.426061,
            2935.8
          ],
          [
            11.842858,
            46.426054,
            2938.5
          ],
          [
            11.842826,
            46.425966,
            2942.8
          ],
          [
            11.842798,
            46.425947,
            2944.8
          ],
          [
            11.842764,
            46.425885,
            2947.8
          ],
          [
            11.842665,
            46.425869,
            2950.8
          ],
          [
            11.842599,
            46.425867,
            2952.5
          ],
          [
            11.842575,
            46.425837,
            2953.3
          ],
          [
            11.842783,
            46.42549,
            2962.3
          ],
          [
            11.842725,
            46.425442,
            2959.3
          ],
          [
            11.842851,
            46.425344,
            2960.5
          ],
          [
            11.842959,
            46.42529,
            2964
          ],
          [
            11.843529,
            46.42523,
            2958.8
          ],
          [
            11.844116,
            46.425108,
            2951.5
          ],
          [
            11.844459,
            46.425085,
            2955.3
          ],
          [
            11.844919,
            46.425137,
            2953.8
          ],
          [
            11.845064,
            46.425103,
            2956
          ],
          [
            11.845162,
            46.425089,
            2957.8
          ],
          [
            11.845287,
            46.424982,
            2965.3
          ],
          [
            11.845458,
            46.424883,
            2965.3
          ],
          [
            11.845703,
            46.424782,
            2974.8
          ],
          [
            11.845938,
            46.424579,
            2984.3
          ],
          [
            11.846125,
            46.424581,
            2989.3
          ],
          [
            11.84629,
            46.424469,
            3000
          ],
          [
            11.84646,
            46.424338,
            2997.3
          ],
          [
            11.84629,
            46.424469,
            3000
          ],
          [
            11.846125,
            46.424581,
            2989.3
          ],
          [
            11.845938,
            46.424579,
            2984.3
          ],
          [
            11.845703,
            46.424782,
            2974.8
          ],
          [
            11.845458,
            46.424883,
            2965.3
          ],
          [
            11.845287,
            46.424982,
            2965.3
          ],
          [
            11.845162,
            46.425089,
            2957.8
          ],
          [
            11.845064,
            46.425103,
            2956
          ],
          [
            11.844919,
            46.425137,
            2953.8
          ],
          [
            11.844805,
            46.424923,
            2951
          ],
          [
            11.844629,
            46.424704,
            2935.5
          ],
          [
            11.844397,
            46.424615,
            2927.3
          ],
          [
            11.843863,
            46.424544,
            2912.3
          ],
          [
            11.843257,
            46.424466,
            2896
          ],
          [
            11.842986,
            46.424371,
            2886.3
          ],
          [
            11.842395,
            46.424301,
            2874.5
          ],
          [
            11.842339,
            46.424271,
            2872.5
          ],
          [
            11.842248,
            46.424275,
            2871.3
          ],
          [
            11.842181,
            46.424295,
            2871.3
          ],
          [
            11.842025,
            46.424284,
            2869.5
          ],
          [
            11.841891,
            46.424247,
            2866.5
          ],
          [
            11.84177,
            46.424181,
            2863.3
          ],
          [
            11.841693,
            46.424168,
            2862.3
          ],
          [
            11.841453,
            46.424061,
            2854
          ],
          [
            11.841423,
            46.424011,
            2852.5
          ],
          [
            11.841381,
            46.423905,
            2850
          ],
          [
            11.841238,
            46.423854,
            2848.3
          ],
          [
            11.840982,
            46.423659,
            2841.3
          ],
          [
            11.840919,
            46.423509,
            2836.3
          ],
          [
            11.84074,
            46.423417,
            2831.5
          ],
          [
            11.840484,
            46.423423,
            2827.5
          ],
          [
            11.840242,
            46.423369,
            2823.3
          ],
          [
            11.83983,
            46.423422,
            2814
          ],
          [
            11.839557,
            46.423375,
            2807.5
          ],
          [
            11.839224,
            46.423259,
            2798.3
          ],
          [
            11.839029,
            46.423241,
            2791
          ],
          [
            11.838962,
            46.423265,
            2788.3
          ],
          [
            11.838823,
            46.423249,
            2782.8
          ],
          [
            11.838632,
            46.423175,
            2774.8
          ],
          [
            11.838533,
            46.423125,
            2770.8
          ],
          [
            11.838418,
            46.423112,
            2766
          ],
          [
            11.838179,
            46.423191,
            2758
          ],
          [
            11.837869,
            46.423214,
            2755.3
          ],
          [
            11.837507,
            46.423163,
            2751.3
          ],
          [
            11.837303,
            46.423181,
            2750.5
          ],
          [
            11.836848,
            46.422976,
            2743
          ],
          [
            11.836419,
            46.422814,
            2738.8
          ],
          [
            11.836253,
            46.42267,
            2737
          ],
          [
            11.836176,
            46.422575,
            2736
          ],
          [
            11.835966,
            46.42249,
            2732.5
          ],
          [
            11.835864,
            46.422489,
            2730.3
          ],
          [
            11.83583,
            46.422431,
            2727.8
          ],
          [
            11.835719,
            46.422461,
            2724
          ],
          [
            11.835606,
            46.422327,
            2717.5
          ],
          [
            11.835548,
            46.422222,
            2714.8
          ],
          [
            11.835627,
            46.421996,
            2707.3
          ],
          [
            11.835492,
            46.421876,
            2702
          ],
          [
            11.835305,
            46.421731,
            2699.3
          ],
          [
            11.83518,
            46.421475,
            2697
          ],
          [
            11.835149,
            46.421357,
            2696.5
          ],
          [
            11.834902,
            46.421131,
            2694.5
          ],
          [
            11.834534,
            46.42091,
            2688.5
          ],
          [
            11.834516,
            46.42081,
            2688.3
          ],
          [
            11.834269,
            46.42044,
            2680.3
          ],
          [
            11.834107,
            46.42035,
            2677
          ],
          [
            11.833869,
            46.420133,
            2671
          ],
          [
            11.833762,
            46.420103,
            2669.5
          ],
          [
            11.833692,
            46.420073,
            2668.8
          ],
          [
            11.833562,
            46.419914,
            2667
          ],
          [
            11.833573,
            46.419795,
            2666.3
          ],
          [
            11.833462,
            46.419665,
            2667.3
          ],
          [
            11.833209,
            46.419556,
            2665.8
          ],
          [
            11.833179,
            46.419493,
            2665
          ],
          [
            11.833171,
            46.419408,
            2664.3
          ],
          [
            11.833122,
            46.419283,
            2660.3
          ],
          [
            11.833129,
            46.419214,
            2659.3
          ],
          [
            11.833112,
            46.419178,
            2658
          ],
          [
            11.833089,
            46.419155,
            2657
          ],
          [
            11.833026,
            46.419111,
            2654.8
          ],
          [
            11.832896,
            46.419136,
            2651.8
          ],
          [
            11.832883,
            46.419184,
            2651.5
          ],
          [
            11.832682,
            46.419177,
            2646
          ],
          [
            11.832426,
            46.419134,
            2637.8
          ],
          [
            11.832329,
            46.419126,
            2635.8
          ],
          [
            11.832239,
            46.419081,
            2632.8
          ],
          [
            11.832226,
            46.419011,
            2630.5
          ],
          [
            11.832266,
            46.41897,
            2629.5
          ],
          [
            11.832265,
            46.418917,
            2627.8
          ],
          [
            11.832336,
            46.41886,
            2621
          ],
          [
            11.832371,
            46.418817,
            2612.8
          ],
          [
            11.832384,
            46.418779,
            2605.5
          ],
          [
            11.832503,
            46.418691,
            2593
          ],
          [
            11.832738,
            46.418601,
            2592.3
          ],
          [
            11.832803,
            46.418557,
            2590.8
          ],
          [
            11.832949,
            46.418426,
            2580.8
          ],
          [
            11.832978,
            46.418433,
            2582.5
          ],
          [
            11.833001,
            46.418395,
            2578.8
          ],
          [
            11.833037,
            46.418379,
            2578
          ],
          [
            11.833025,
            46.418318,
            2571.8
          ],
          [
            11.833061,
            46.418285,
            2572.3
          ],
          [
            11.833047,
            46.418188,
            2570
          ],
          [
            11.833076,
            46.41815,
            2570.3
          ],
          [
            11.833024,
            46.41794,
            2569
          ],
          [
            11.832965,
            46.417923,
            2568.3
          ],
          [
            11.832896,
            46.417851,
            2568.3
          ],
          [
            11.832874,
            46.417799,
            2569
          ],
          [
            11.832726,
            46.417735,
            2567
          ],
          [
            11.832463,
            46.417549,
            2562.5
          ],
          [
            11.832448,
            46.417455,
            2560.5
          ],
          [
            11.832355,
            46.417423,
            2557.5
          ],
          [
            11.832308,
            46.417378,
            2554.8
          ],
          [
            11.832313,
            46.416962,
            2548.5
          ],
          [
            11.832222,
            46.416876,
            2550
          ],
          [
            11.832105,
            46.416877,
            2548.5
          ],
          [
            11.83188,
            46.416846,
            2545
          ],
          [
            11.831716,
            46.416867,
            2541
          ],
          [
            11.831495,
            46.416831,
            2534.8
          ],
          [
            11.831456,
            46.416807,
            2533.5
          ],
          [
            11.83142,
            46.416732,
            2532.3
          ],
          [
            11.831318,
            46.416629,
            2529.3
          ],
          [
            11.831181,
            46.416246,
            2523.3
          ],
          [
            11.830919,
            46.416078,
            2515.8
          ],
          [
            11.830219,
            46.415998,
            2507
          ],
          [
            11.829577,
            46.415991,
            2499
          ],
          [
            11.829476,
            46.416027,
            2497.5
          ],
          [
            11.829377,
            46.415981,
            2499
          ],
          [
            11.8293,
            46.415935,
            2501
          ],
          [
            11.829161,
            46.415818,
            2505.5
          ],
          [
            11.829329,
            46.415668,
            2511.3
          ],
          [
            11.829198,
            46.414718,
            2536.8
          ],
          [
            11.82914,
            46.4146,
            2538
          ],
          [
            11.828959,
            46.414472,
            2539
          ],
          [
            11.828968,
            46.414129,
            2536
          ],
          [
            11.828818,
            46.413902,
            2530
          ],
          [
            11.828617,
            46.413632,
            2533.5
          ],
          [
            11.828494,
            46.413447,
            2536.5
          ],
          [
            11.828354,
            46.413144,
            2538.8
          ],
          [
            11.828333,
            46.412944,
            2542.3
          ],
          [
            11.828172,
            46.412803,
            2546.8
          ],
          [
            11.827914,
            46.412511,
            2553.8
          ],
          [
            11.827842,
            46.412465,
            2555.8
          ],
          [
            11.827713,
            46.412354,
            2560.5
          ],
          [
            11.827576,
            46.41221,
            2565.3
          ],
          [
            11.827394,
            46.412082,
            2571
          ],
          [
            11.827134,
            46.411932,
            2578
          ],
          [
            11.826817,
            46.411823,
            2586.8
          ],
          [
            11.826501,
            46.411699,
            2597.3
          ],
          [
            11.826179,
            46.411564,
            2607.5
          ],
          [
            11.825975,
            46.41142,
            2615.5
          ],
          [
            11.825927,
            46.41122,
            2622
          ],
          [
            11.825841,
            46.410995,
            2631.3
          ],
          [
            11.825865,
            46.410976,
            2631.8
          ],
          [
            11.825844,
            46.410872,
            2636.3
          ],
          [
            11.825858,
            46.410841,
            2637.3
          ],
          [
            11.825821,
            46.4108,
            2640
          ],
          [
            11.825653,
            46.410789,
            2646.3
          ],
          [
            11.825599,
            46.410734,
            2649.3
          ],
          [
            11.825363,
            46.410648,
            2657
          ],
          [
            11.82526,
            46.410561,
            2659.3
          ],
          [
            11.825142,
            46.41055,
            2661.8
          ],
          [
            11.825067,
            46.41051,
            2663.8
          ],
          [
            11.825075,
            46.410432,
            2664
          ],
          [
            11.82513,
            46.410374,
            2662.8
          ],
          [
            11.82511,
            46.410251,
            2665
          ],
          [
            11.824953,
            46.410205,
            2671.5
          ],
          [
            11.824641,
            46.410128,
            2680.5
          ],
          [
            11.824351,
            46.409988,
            2678.8
          ],
          [
            11.824185,
            46.409941,
            2677.5
          ],
          [
            11.824076,
            46.409957,
            2678
          ],
          [
            11.823998,
            46.409926,
            2677.8
          ],
          [
            11.823873,
            46.41,
            2679
          ],
          [
            11.823903,
            46.410067,
            2682.3
          ],
          [
            11.823825,
            46.410091,
            2684
          ],
          [
            11.823692,
            46.410111,
            2685.5
          ],
          [
            11.823617,
            46.41011,
            2686
          ],
          [
            11.823608,
            46.410109,
            2686
          ],
          [
            11.823362,
            46.410065,
            2684.8
          ],
          [
            11.823292,
            46.409994,
            2681.5
          ],
          [
            11.82323,
            46.409964,
            2680.3
          ],
          [
            11.823196,
            46.409886,
            2678.3
          ],
          [
            11.823142,
            46.40989,
            2676.3
          ],
          [
            11.823071,
            46.40988,
            2673.5
          ],
          [
            11.823049,
            46.409878,
            2672.5
          ],
          [
            11.823032,
            46.409866,
            2671.5
          ],
          [
            11.823005,
            46.409823,
            2668.3
          ],
          [
            11.822869,
            46.409764,
            2660.5
          ],
          [
            11.822816,
            46.409751,
            2658
          ],
          [
            11.822723,
            46.409689,
            2652
          ],
          [
            11.822642,
            46.409646,
            2647.8
          ],
          [
            11.822598,
            46.409629,
            2645.5
          ],
          [
            11.822597,
            46.409621,
            2645
          ],
          [
            11.822696,
            46.409525,
            2641.5
          ],
          [
            11.822697,
            46.409512,
            2640.8
          ],
          [
            11.822564,
            46.409469,
            2634.3
          ],
          [
            11.822477,
            46.409452,
            2631.3
          ],
          [
            11.822362,
            46.409416,
            2628.5
          ],
          [
            11.822314,
            46.409347,
            2623.8
          ],
          [
            11.822282,
            46.409315,
            2621.5
          ],
          [
            11.822257,
            46.409276,
            2618.8
          ],
          [
            11.822219,
            46.409212,
            2614
          ],
          [
            11.822092,
            46.409062,
            2604.3
          ],
          [
            11.82207,
            46.408978,
            2598.5
          ],
          [
            11.822012,
            46.408929,
            2595.5
          ],
          [
            11.82201,
            46.408916,
            2594.5
          ],
          [
            11.821952,
            46.408893,
            2593.3
          ],
          [
            11.821968,
            46.408876,
            2592
          ],
          [
            11.822002,
            46.408871,
            2591.5
          ],
          [
            11.821817,
            46.408579,
            2573.8
          ],
          [
            11.821756,
            46.408432,
            2565
          ],
          [
            11.82181,
            46.408242,
            2553
          ],
          [
            11.821815,
            46.408098,
            2545
          ],
          [
            11.821792,
            46.407974,
            2538.3
          ],
          [
            11.821736,
            46.407941,
            2537
          ],
          [
            11.82169,
            46.407887,
            2534.3
          ],
          [
            11.821614,
            46.407775,
            2527.8
          ],
          [
            11.821244,
            46.407652,
            2518.3
          ],
          [
            11.821073,
            46.40764,
            2515.3
          ],
          [
            11.820893,
            46.407651,
            2512.5
          ],
          [
            11.820832,
            46.407686,
            2513.5
          ],
          [
            11.820741,
            46.407709,
            2512.8
          ],
          [
            11.820669,
            46.407704,
            2510.3
          ],
          [
            11.820486,
            46.40767,
            2504.8
          ],
          [
            11.820342,
            46.407654,
            2503.3
          ],
          [
            11.820043,
            46.407642,
            2504.3
          ],
          [
            11.819923,
            46.407607,
            2504
          ],
          [
            11.819668,
            46.407466,
            2499
          ],
          [
            11.819582,
            46.407441,
            2498
          ],
          [
            11.819602,
            46.4074,
            2494.8
          ],
          [
            11.819009,
            46.407281,
            2487.5
          ],
          [
            11.818599,
            46.407264,
            2484
          ],
          [
            11.818433,
            46.407277,
            2483.3
          ],
          [
            11.818215,
            46.407462,
            2492.8
          ],
          [
            11.817757,
            46.407493,
            2500
          ],
          [
            11.817622,
            46.407467,
            2501.3
          ],
          [
            11.817318,
            46.407522,
            2509.5
          ],
          [
            11.817007,
            46.407555,
            2515
          ],
          [
            11.816495,
            46.407716,
            2525.5
          ],
          [
            11.816303,
            46.407847,
            2531.3
          ],
          [
            11.816229,
            46.407815,
            2529.3
          ],
          [
            11.815871,
            46.407907,
            2533.5
          ],
          [
            11.815796,
            46.40803,
            2538.5
          ],
          [
            11.815729,
            46.40807,
            2539.8
          ],
          [
            11.815586,
            46.40809,
            2539.5
          ],
          [
            11.815459,
            46.408121,
            2541.8
          ],
          [
            11.815291,
            46.408152,
            2543.8
          ],
          [
            11.815173,
            46.408217,
            2547
          ],
          [
            11.814855,
            46.408192,
            2550.8
          ],
          [
            11.814696,
            46.408226,
            2553.8
          ],
          [
            11.814605,
            46.408272,
            2555.3
          ],
          [
            11.814567,
            46.408341,
            2556
          ],
          [
            11.814408,
            46.408357,
            2559.5
          ],
          [
            11.814274,
            46.408406,
            2563.5
          ],
          [
            11.814161,
            46.408396,
            2564.5
          ],
          [
            11.814035,
            46.408411,
            2567.8
          ],
          [
            11.813891,
            46.408462,
            2572
          ],
          [
            11.813851,
            46.408438,
            2572.5
          ],
          [
            11.813639,
            46.408507,
            2578
          ],
          [
            11.813608,
            46.408487,
            2578.5
          ],
          [
            11.813511,
            46.408541,
            2580.8
          ],
          [
            11.813421,
            46.408563,
            2582.5
          ],
          [
            11.813208,
            46.408643,
            2589.3
          ],
          [
            11.813151,
            46.408642,
            2590.8
          ],
          [
            11.813076,
            46.408626,
            2592
          ],
          [
            11.812998,
            46.408622,
            2594.3
          ],
          [
            11.812852,
            46.408587,
            2599
          ],
          [
            11.812728,
            46.408622,
            2603.3
          ],
          [
            11.8127,
            46.408681,
            2606
          ],
          [
            11.812635,
            46.408722,
            2609.3
          ],
          [
            11.812463,
            46.408788,
            2615.3
          ],
          [
            11.812389,
            46.408773,
            2616.8
          ],
          [
            11.81229,
            46.40879,
            2618.8
          ],
          [
            11.812224,
            46.408792,
            2620.3
          ],
          [
            11.812129,
            46.408832,
            2623.5
          ],
          [
            11.812098,
            46.40876,
            2625.8
          ],
          [
            11.812113,
            46.408678,
            2626.5
          ],
          [
            11.812166,
            46.40859,
            2625.8
          ],
          [
            11.812166,
            46.408542,
            2627.3
          ],
          [
            11.812107,
            46.408517,
            2630.5
          ],
          [
            11.812042,
            46.40854,
            2632.8
          ],
          [
            11.811925,
            46.408618,
            2635.8
          ],
          [
            11.811896,
            46.408558,
            2638.8
          ],
          [
            11.811887,
            46.408449,
            2642.8
          ],
          [
            11.811961,
            46.408368,
            2642
          ],
          [
            11.811974,
            46.408273,
            2644.8
          ],
          [
            11.812005,
            46.408177,
            2646.8
          ],
          [
            11.812047,
            46.408116,
            2647.5
          ],
          [
            11.81212,
            46.408031,
            2648
          ],
          [
            11.812135,
            46.407947,
            2651
          ],
          [
            11.812202,
            46.407886,
            2650.5
          ],
          [
            11.812259,
            46.40781,
            2651
          ],
          [
            11.812294,
            46.407683,
            2654.3
          ],
          [
            11.812334,
            46.407607,
            2655.5
          ],
          [
            11.812383,
            46.407559,
            2655.8
          ],
          [
            11.812363,
            46.407503,
            2658.8
          ],
          [
            11.812394,
            46.407449,
            2661.3
          ],
          [
            11.812427,
            46.407337,
            2667.8
          ],
          [
            11.812544,
            46.407184,
            2672.3
          ],
          [
            11.812515,
            46.407164,
            2674.5
          ],
          [
            11.812524,
            46.407074,
            2677.8
          ],
          [
            11.812427,
            46.407016,
            2683.8
          ],
          [
            11.812416,
            46.406978,
            2685.8
          ],
          [
            11.812458,
            46.406905,
            2687.3
          ],
          [
            11.81244,
            46.40683,
            2691.3
          ],
          [
            11.812456,
            46.406791,
            2692.5
          ],
          [
            11.812398,
            46.406727,
            2697
          ],
          [
            11.812429,
            46.406623,
            2699.8
          ],
          [
            11.812434,
            46.406565,
            2701
          ],
          [
            11.812491,
            46.406534,
            2700.5
          ],
          [
            11.812507,
            46.406513,
            2700.5
          ],
          [
            11.812425,
            46.40644,
            2704
          ],
          [
            11.812297,
            46.406346,
            2709.5
          ],
          [
            11.812288,
            46.406291,
            2712
          ],
          [
            11.812217,
            46.406234,
            2715.3
          ],
          [
            11.812098,
            46.406173,
            2720
          ],
          [
            11.812022,
            46.406093,
            2724.5
          ],
          [
            11.812025,
            46.406012,
            2728.5
          ],
          [
            11.812014,
            46.405957,
            2731.5
          ],
          [
            11.811952,
            46.40591,
            2734.8
          ],
          [
            11.811892,
            46.405832,
            2739
          ],
          [
            11.811949,
            46.405722,
            2742.5
          ],
          [
            11.811958,
            46.405682,
            2743.8
          ],
          [
            11.811919,
            46.405638,
            2745
          ],
          [
            11.811901,
            46.405563,
            2747.3
          ],
          [
            11.811927,
            46.405493,
            2749
          ],
          [
            11.811903,
            46.405417,
            2750.5
          ],
          [
            11.811916,
            46.405317,
            2752.8
          ],
          [
            11.811885,
            46.40524,
            2753.8
          ],
          [
            11.811799,
            46.405149,
            2754.5
          ],
          [
            11.811764,
            46.405078,
            2755.3
          ],
          [
            11.811699,
            46.405,
            2756
          ],
          [
            11.811637,
            46.404946,
            2756.8
          ],
          [
            11.811609,
            46.404863,
            2758
          ],
          [
            11.811534,
            46.404702,
            2760
          ],
          [
            11.811512,
            46.404615,
            2760.8
          ],
          [
            11.811372,
            46.404504,
            2760.8
          ],
          [
            11.811408,
            46.404367,
            2760.8
          ],
          [
            11.811436,
            46.404342,
            2761
          ],
          [
            11.811434,
            46.404295,
            2760.8
          ],
          [
            11.811414,
            46.40425,
            2760.3
          ],
          [
            11.811373,
            46.404244,
            2760.3
          ],
          [
            11.811175,
            46.404215,
            2760.8
          ],
          [
            11.811056,
            46.404285,
            2763.3
          ],
          [
            11.810938,
            46.404412,
            2768
          ],
          [
            11.810888,
            46.404448,
            2770
          ],
          [
            11.810648,
            46.404583,
            2785
          ],
          [
            11.810438,
            46.404586,
            2798.5
          ],
          [
            11.810305,
            46.404548,
            2803.5
          ],
          [
            11.81,
            46.404574,
            2813
          ],
          [
            11.809798,
            46.40458,
            2796
          ],
          [
            11.80973,
            46.404625,
            2797.3
          ],
          [
            11.809601,
            46.404601,
            2782.8
          ],
          [
            11.809348,
            46.404574,
            2755.3
          ],
          [
            11.809021,
            46.404617,
            2731.5
          ],
          [
            11.808673,
            46.404818,
            2751.3
          ],
          [
            11.80814,
            46.404761,
            2748.5
          ],
          [
            11.807713,
            46.404383,
            2746.3
          ],
          [
            11.807397,
            46.404433,
            2748.5
          ],
          [
            11.807056,
            46.404792,
            2758.5
          ],
          [
            11.807136,
            46.405036,
            2772.8
          ],
          [
            11.807221,
            46.405293,
            2791.5
          ],
          [
            11.806849,
            46.405551,
            2816.3
          ],
          [
            11.806526,
            46.405674,
            2823.8
          ],
          [
            11.80636,
            46.405872,
            2830.3
          ],
          [
            11.806183,
            46.405885,
            2828.3
          ],
          [
            11.806072,
            46.405672,
            2816
          ],
          [
            11.805883,
            46.405618,
            2815.8
          ],
          [
            11.805794,
            46.405683,
            2827.5
          ],
          [
            11.80519,
            46.405561,
            2831.3
          ],
          [
            11.804549,
            46.405355,
            2846
          ],
          [
            11.804236,
            46.405165,
            2844.8
          ],
          [
            11.803895,
            46.404988,
            2841.5
          ],
          [
            11.803603,
            46.404698,
            2838.3
          ],
          [
            11.803444,
            46.404362,
            2819.3
          ],
          [
            11.803024,
            46.404355,
            2826
          ],
          [
            11.802645,
            46.404313,
            2807.5
          ],
          [
            11.801998,
            46.404346,
            2791.5
          ],
          [
            11.801645,
            46.404353,
            2777.3
          ],
          [
            11.801191,
            46.404181,
            2773.5
          ],
          [
            11.800738,
            46.404113,
            2779.5
          ],
          [
            11.800312,
            46.403934,
            2789.8
          ],
          [
            11.799951,
            46.403876,
            2795.5
          ],
          [
            11.799737,
            46.404041,
            2784.3
          ],
          [
            11.799636,
            46.404043,
            2783
          ],
          [
            11.799378,
            46.404215,
            2777.5
          ],
          [
            11.799269,
            46.404329,
            2774.5
          ],
          [
            11.799094,
            46.404355,
            2777
          ],
          [
            11.79888,
            46.40458,
            2777
          ],
          [
            11.798624,
            46.404683,
            2782.3
          ],
          [
            11.798469,
            46.404712,
            2788.8
          ],
          [
            11.798321,
            46.404766,
            2795.5
          ],
          [
            11.798262,
            46.404867,
            2800.8
          ],
          [
            11.798042,
            46.404964,
            2814
          ],
          [
            11.798062,
            46.40525,
            2821.8
          ],
          [
            11.797822,
            46.405346,
            2823.5
          ],
          [
            11.797691,
            46.405457,
            2820
          ],
          [
            11.79776,
            46.405563,
            2818.3
          ],
          [
            11.797581,
            46.406051,
            2805
          ],
          [
            11.797683,
            46.406215,
            2793
          ],
          [
            11.797509,
            46.406284,
            2798.5
          ],
          [
            11.797474,
            46.406445,
            2786.8
          ],
          [
            11.797262,
            46.406477,
            2784.8
          ],
          [
            11.797144,
            46.406614,
            2772.8
          ],
          [
            11.796929,
            46.406602,
            2767
          ],
          [
            11.796663,
            46.406322,
            2760.5
          ],
          [
            11.796299,
            46.405892,
            2751
          ],
          [
            11.796089,
            46.405865,
            2742.3
          ],
          [
            11.795851,
            46.405776,
            2743
          ],
          [
            11.795564,
            46.405763,
            2742.8
          ],
          [
            11.795379,
            46.405655,
            2744
          ],
          [
            11.795149,
            46.405638,
            2741.8
          ],
          [
            11.794704,
            46.405334,
            2726.5
          ],
          [
            11.794351,
            46.404947,
            2683.8
          ],
          [
            11.794112,
            46.404761,
            2660.3
          ],
          [
            11.79362,
            46.404883,
            2667.3
          ],
          [
            11.792829,
            46.405363,
            2664.3
          ],
          [
            11.792373,
            46.40529,
            2670
          ],
          [
            11.792101,
            46.40508,
            2660
          ],
          [
            11.791906,
            46.404989,
            2656
          ],
          [
            11.791391,
            46.405126,
            2657
          ],
          [
            11.791163,
            46.405048,
            2651
          ],
          [
            11.790946,
            46.404926,
            2649.8
          ],
          [
            11.79071,
            46.404868,
            2653.8
          ],
          [
            11.790567,
            46.404752,
            2652.8
          ],
          [
            11.790399,
            46.404758,
            2656.5
          ],
          [
            11.790175,
            46.404732,
            2662.5
          ],
          [
            11.790055,
            46.404694,
            2664.3
          ],
          [
            11.79,
            46.40464,
            2662.5
          ],
          [
            11.789907,
            46.404601,
            2663.3
          ],
          [
            11.789761,
            46.404574,
            2667.3
          ],
          [
            11.789718,
            46.40461,
            2669.5
          ],
          [
            11.789603,
            46.404618,
            2667.5
          ],
          [
            11.789554,
            46.404577,
            2667
          ],
          [
            11.789482,
            46.404548,
            2667.3
          ],
          [
            11.789327,
            46.404521,
            2670.5
          ],
          [
            11.789201,
            46.404473,
            2676.8
          ],
          [
            11.788938,
            46.404314,
            2680.5
          ],
          [
            11.788884,
            46.40427,
            2680
          ],
          [
            11.78883,
            46.404182,
            2678
          ],
          [
            11.788905,
            46.404063,
            2669
          ],
          [
            11.788781,
            46.404027,
            2681.3
          ],
          [
            11.788746,
            46.404032,
            2685
          ],
          [
            11.788629,
            46.403991,
            2698.5
          ],
          [
            11.788577,
            46.403997,
            2701
          ],
          [
            11.788433,
            46.403984,
            2703
          ],
          [
            11.788377,
            46.404026,
            2701.3
          ],
          [
            11.788076,
            46.403898,
            2698
          ],
          [
            11.788038,
            46.403772,
            2709.3
          ],
          [
            11.787693,
            46.40367,
            2698
          ],
          [
            11.787585,
            46.403663,
            2700
          ],
          [
            11.78736,
            46.403694,
            2700.5
          ],
          [
            11.787281,
            46.40369,
            2701.5
          ],
          [
            11.787176,
            46.403657,
            2702.5
          ],
          [
            11.787118,
            46.403633,
            2702
          ],
          [
            11.786975,
            46.403532,
            2699.8
          ],
          [
            11.786863,
            46.403489,
            2699
          ],
          [
            11.786834,
            46.403437,
            2699.8
          ],
          [
            11.786431,
            46.403247,
            2697
          ],
          [
            11.786305,
            46.40317,
            2698.3
          ],
          [
            11.786239,
            46.403149,
            2698.3
          ],
          [
            11.785851,
            46.403116,
            2697
          ],
          [
            11.785514,
            46.403102,
            2697.8
          ],
          [
            11.785414,
            46.403114,
            2697.8
          ],
          [
            11.785324,
            46.403099,
            2698.3
          ],
          [
            11.785143,
            46.403102,
            2699.8
          ],
          [
            11.784888,
            46.403021,
            2700.3
          ],
          [
            11.784835,
            46.403057,
            2702.8
          ],
          [
            11.784851,
            46.40309,
            2702.8
          ],
          [
            11.784725,
            46.403156,
            2705.3
          ],
          [
            11.784723,
            46.403207,
            2706
          ],
          [
            11.78474,
            46.403248,
            2706.3
          ],
          [
            11.784719,
            46.403267,
            2707
          ],
          [
            11.784647,
            46.403274,
            2708.3
          ],
          [
            11.784532,
            46.403272,
            2710.3
          ],
          [
            11.784444,
            46.403255,
            2711.3
          ],
          [
            11.78432,
            46.403275,
            2714
          ],
          [
            11.784256,
            46.40323,
            2713.8
          ],
          [
            11.784099,
            46.403206,
            2714.5
          ],
          [
            11.784009,
            46.403186,
            2714.5
          ],
          [
            11.783744,
            46.403081,
            2716.8
          ],
          [
            11.783717,
            46.40305,
            2716.3
          ],
          [
            11.783666,
            46.403029,
            2714.5
          ],
          [
            11.783612,
            46.403044,
            2715.3
          ],
          [
            11.783426,
            46.402997,
            2708.5
          ],
          [
            11.783352,
            46.402958,
            2704.8
          ],
          [
            11.783273,
            46.402957,
            2704.3
          ],
          [
            11.782885,
            46.402987,
            2706.3
          ],
          [
            11.782795,
            46.40303,
            2707
          ],
          [
            11.782786,
            46.403056,
            2706.8
          ],
          [
            11.782706,
            46.403036,
            2706.8
          ],
          [
            11.782629,
            46.403062,
            2707.3
          ],
          [
            11.782565,
            46.403111,
            2706
          ],
          [
            11.782306,
            46.403188,
            2704.8
          ],
          [
            11.782244,
            46.403162,
            2706.3
          ],
          [
            11.782045,
            46.403201,
            2703
          ],
          [
            11.781822,
            46.403099,
            2704.5
          ],
          [
            11.7816,
            46.403122,
            2714
          ],
          [
            11.781464,
            46.40316,
            2721.8
          ],
          [
            11.781545,
            46.403207,
            2718
          ],
          [
            11.781135,
            46.403228,
            2717
          ],
          [
            11.781086,
            46.403295,
            2717
          ],
          [
            11.780985,
            46.403478,
            2716.5
          ],
          [
            11.780908,
            46.403501,
            2716.5
          ],
          [
            11.780803,
            46.403502,
            2715.3
          ],
          [
            11.780722,
            46.40349,
            2717
          ],
          [
            11.780631,
            46.403522,
            2720.8
          ],
          [
            11.780585,
            46.403562,
            2723.8
          ],
          [
            11.780428,
            46.403574,
            2731.3
          ],
          [
            11.780349,
            46.403565,
            2734.8
          ],
          [
            11.780214,
            46.403538,
            2737.5
          ],
          [
            11.780165,
            46.403521,
            2737.5
          ],
          [
            11.780135,
            46.403523,
            2738
          ],
          [
            11.780056,
            46.403579,
            2743
          ],
          [
            11.78001,
            46.403586,
            2744.3
          ],
          [
            11.779861,
            46.403644,
            2742
          ],
          [
            11.779822,
            46.403674,
            2741.3
          ],
          [
            11.779849,
            46.40372,
            2740.3
          ],
          [
            11.779697,
            46.403801,
            2744
          ],
          [
            11.779645,
            46.403808,
            2744.5
          ],
          [
            11.779404,
            46.403881,
            2750
          ],
          [
            11.779279,
            46.403893,
            2748.8
          ],
          [
            11.779209,
            46.403917,
            2746.5
          ],
          [
            11.779195,
            46.403958,
            2743.8
          ],
          [
            11.77918,
            46.403961,
            2743.3
          ],
          [
            11.779168,
            46.403938,
            2744.8
          ],
          [
            11.779125,
            46.403898,
            2746.8
          ],
          [
            11.779074,
            46.403882,
            2746.3
          ],
          [
            11.77903,
            46.403835,
            2743
          ],
          [
            11.778973,
            46.403822,
            2741.5
          ],
          [
            11.778937,
            46.40376,
            2738.3
          ],
          [
            11.77889,
            46.403731,
            2736.5
          ],
          [
            11.778839,
            46.403712,
            2735
          ],
          [
            11.778835,
            46.403675,
            2733.3
          ],
          [
            11.778761,
            46.403586,
            2728.8
          ],
          [
            11.778666,
            46.40359,
            2728.8
          ],
          [
            11.778638,
            46.40363,
            2730.5
          ],
          [
            11.778639,
            46.403716,
            2732.5
          ],
          [
            11.778595,
            46.403732,
            2731.5
          ],
          [
            11.778566,
            46.403757,
            2730.5
          ],
          [
            11.778512,
            46.403756,
            2727.3
          ],
          [
            11.778468,
            46.403765,
            2725.3
          ],
          [
            11.778313,
            46.403819,
            2720.5
          ],
          [
            11.778268,
            46.403851,
            2721
          ],
          [
            11.778233,
            46.403862,
            2720.8
          ],
          [
            11.778139,
            46.403842,
            2717.5
          ],
          [
            11.778106,
            46.403799,
            2715.3
          ],
          [
            11.778024,
            46.403768,
            2712.5
          ],
          [
            11.777986,
            46.403744,
            2711.3
          ],
          [
            11.77795,
            46.403701,
            2710
          ],
          [
            11.777857,
            46.403556,
            2707
          ],
          [
            11.777809,
            46.40353,
            2706.5
          ],
          [
            11.777676,
            46.403491,
            2704.5
          ],
          [
            11.777566,
            46.403429,
            2703.5
          ],
          [
            11.777489,
            46.403364,
            2704.3
          ],
          [
            11.777486,
            46.403329,
            2704.3
          ],
          [
            11.777463,
            46.403297,
            2702
          ],
          [
            11.77736,
            46.403253,
            2698.8
          ],
          [
            11.777328,
            46.403248,
            2698.3
          ],
          [
            11.777302,
            46.403232,
            2697.5
          ],
          [
            11.777227,
            46.403208,
            2696.8
          ],
          [
            11.777143,
            46.403131,
            2693.8
          ],
          [
            11.777009,
            46.403038,
            2690.8
          ],
          [
            11.776951,
            46.403029,
            2690.5
          ],
          [
            11.776954,
            46.402998,
            2688.8
          ],
          [
            11.776925,
            46.402987,
            2687.8
          ],
          [
            11.776901,
            46.402929,
            2684.5
          ],
          [
            11.776823,
            46.402891,
            2682.3
          ],
          [
            11.776738,
            46.402897,
            2682
          ],
          [
            11.776671,
            46.402892,
            2681.3
          ],
          [
            11.7766,
            46.402845,
            2679.3
          ],
          [
            11.776555,
            46.402754,
            2676.8
          ],
          [
            11.776512,
            46.402726,
            2675.5
          ],
          [
            11.77641,
            46.402721,
            2674.8
          ],
          [
            11.776354,
            46.402703,
            2674
          ],
          [
            11.776255,
            46.402634,
            2672.5
          ],
          [
            11.776197,
            46.402604,
            2672.3
          ],
          [
            11.776099,
            46.402531,
            2672
          ],
          [
            11.776058,
            46.402488,
            2671.5
          ],
          [
            11.775985,
            46.402439,
            2671
          ],
          [
            11.775973,
            46.402424,
            2671
          ],
          [
            11.775913,
            46.402402,
            2671.5
          ],
          [
            11.775892,
            46.402381,
            2671.8
          ],
          [
            11.775782,
            46.402353,
            2673.5
          ],
          [
            11.775734,
            46.402294,
            2674.8
          ],
          [
            11.775693,
            46.402269,
            2675.8
          ],
          [
            11.775655,
            46.402193,
            2677.5
          ],
          [
            11.775637,
            46.402173,
            2678
          ],
          [
            11.775539,
            46.402157,
            2680.5
          ],
          [
            11.775506,
            46.402145,
            2681.5
          ],
          [
            11.775498,
            46.40209,
            2683
          ],
          [
            11.775423,
            46.402107,
            2684.3
          ],
          [
            11.775402,
            46.402094,
            2685.3
          ],
          [
            11.775409,
            46.402044,
            2686.5
          ],
          [
            11.775381,
            46.402025,
            2687.5
          ],
          [
            11.775332,
            46.402026,
            2688.8
          ],
          [
            11.775291,
            46.402013,
            2690.3
          ],
          [
            11.775275,
            46.401977,
            2691.8
          ],
          [
            11.775288,
            46.401949,
            2692.5
          ],
          [
            11.775279,
            46.401937,
            2692.5
          ],
          [
            11.775232,
            46.401942,
            2693.5
          ],
          [
            11.775144,
            46.401927,
            2695
          ],
          [
            11.775102,
            46.401818,
            2693.8
          ],
          [
            11.775066,
            46.401805,
            2694.8
          ],
          [
            11.774998,
            46.401833,
            2697
          ],
          [
            11.774937,
            46.401807,
            2698.8
          ],
          [
            11.774904,
            46.401772,
            2699.8
          ],
          [
            11.774809,
            46.401777,
            2702.8
          ],
          [
            11.77476,
            46.401733,
            2705
          ],
          [
            11.774728,
            46.401747,
            2706
          ],
          [
            11.77469,
            46.401733,
            2707
          ],
          [
            11.774662,
            46.401711,
            2708.3
          ],
          [
            11.774658,
            46.401687,
            2708.8
          ],
          [
            11.774631,
            46.401646,
            2709.8
          ],
          [
            11.774611,
            46.401587,
            2710.5
          ],
          [
            11.774592,
            46.401566,
            2711
          ],
          [
            11.774523,
            46.401529,
            2714
          ],
          [
            11.7745,
            46.401493,
            2715.8
          ],
          [
            11.774503,
            46.401464,
            2716
          ],
          [
            11.774494,
            46.401435,
            2717
          ],
          [
            11.774404,
            46.401406,
            2721.3
          ],
          [
            11.774402,
            46.401337,
            2721.5
          ],
          [
            11.774362,
            46.401299,
            2722.8
          ],
          [
            11.774354,
            46.401281,
            2723
          ],
          [
            11.774309,
            46.401274,
            2724.5
          ],
          [
            11.774225,
            46.401298,
            2726.8
          ],
          [
            11.774188,
            46.401297,
            2728
          ],
          [
            11.774168,
            46.401281,
            2728.8
          ],
          [
            11.774169,
            46.401258,
            2729.3
          ],
          [
            11.774144,
            46.401236,
            2729.8
          ],
          [
            11.774115,
            46.401238,
            2729.8
          ],
          [
            11.774078,
            46.401256,
            2729.8
          ],
          [
            11.774041,
            46.401247,
            2730
          ],
          [
            11.774029,
            46.401214,
            2730.5
          ],
          [
            11.774005,
            46.401197,
            2730.8
          ],
          [
            11.77391,
            46.401255,
            2730.8
          ],
          [
            11.773754,
            46.40131,
            2729.5
          ],
          [
            11.773725,
            46.4013,
            2728.8
          ],
          [
            11.773727,
            46.401273,
            2728
          ],
          [
            11.773774,
            46.401169,
            2726.8
          ],
          [
            11.773762,
            46.401128,
            2725.3
          ],
          [
            11.77373,
            46.401115,
            2723.5
          ],
          [
            11.773681,
            46.401128,
            2721.8
          ],
          [
            11.773658,
            46.40115,
            2721.8
          ],
          [
            11.773628,
            46.401161,
            2721
          ],
          [
            11.773275,
            46.401161,
            2701.3
          ],
          [
            11.773223,
            46.401188,
            2699.5
          ],
          [
            11.773169,
            46.401183,
            2697
          ],
          [
            11.773121,
            46.401187,
            2695
          ],
          [
            11.772976,
            46.401119,
            2690
          ],
          [
            11.772878,
            46.401112,
            2685.5
          ],
          [
            11.772804,
            46.401121,
            2681.5
          ],
          [
            11.772739,
            46.401096,
            2679.5
          ],
          [
            11.77265,
            46.4011,
            2677
          ],
          [
            11.772553,
            46.401087,
            2674.5
          ],
          [
            11.772468,
            46.401099,
            2672
          ],
          [
            11.772494,
            46.401131,
            2671
          ],
          [
            11.772435,
            46.401155,
            2667.3
          ],
          [
            11.772339,
            46.401116,
            2667.8
          ],
          [
            11.772258,
            46.401112,
            2665.8
          ],
          [
            11.772185,
            46.401151,
            2661
          ],
          [
            11.772075,
            46.401155,
            2659.3
          ],
          [
            11.772028,
            46.401146,
            2659.3
          ],
          [
            11.771826,
            46.401144,
            2660
          ],
          [
            11.771553,
            46.401178,
            2657.8
          ],
          [
            11.771519,
            46.401202,
            2656.3
          ],
          [
            11.771494,
            46.401254,
            2654.5
          ],
          [
            11.771463,
            46.401264,
            2654.3
          ],
          [
            11.771368,
            46.401331,
            2654.8
          ],
          [
            11.771326,
            46.401352,
            2654.8
          ],
          [
            11.771266,
            46.401346,
            2654.8
          ],
          [
            11.771226,
            46.40133,
            2654.5
          ],
          [
            11.771082,
            46.401317,
            2654
          ],
          [
            11.770933,
            46.401318,
            2655.3
          ],
          [
            11.770814,
            46.401332,
            2657
          ],
          [
            11.770772,
            46.40133,
            2658.5
          ],
          [
            11.770692,
            46.401361,
            2662
          ],
          [
            11.770587,
            46.401371,
            2666.3
          ],
          [
            11.770247,
            46.40136,
            2668.5
          ],
          [
            11.770145,
            46.401414,
            2668.3
          ],
          [
            11.770017,
            46.401467,
            2662.5
          ],
          [
            11.769949,
            46.40146,
            2664.5
          ],
          [
            11.769886,
            46.401437,
            2668.8
          ],
          [
            11.769769,
            46.401444,
            2667.8
          ],
          [
            11.769674,
            46.401477,
            2665.8
          ],
          [
            11.769466,
            46.401491,
            2672.8
          ],
          [
            11.769278,
            46.401452,
            2677.3
          ],
          [
            11.769222,
            46.401463,
            2677
          ],
          [
            11.769158,
            46.401488,
            2677.3
          ],
          [
            11.768985,
            46.401523,
            2680.5
          ],
          [
            11.76894,
            46.401558,
            2681.5
          ],
          [
            11.76893,
            46.401585,
            2681.8
          ],
          [
            11.768881,
            46.40162,
            2683
          ],
          [
            11.768739,
            46.401626,
            2687
          ],
          [
            11.768652,
            46.401632,
            2689.8
          ],
          [
            11.768513,
            46.401593,
            2694.3
          ],
          [
            11.768411,
            46.401529,
            2694.3
          ],
          [
            11.768183,
            46.401429,
            2695.5
          ],
          [
            11.768113,
            46.40142,
            2697.5
          ],
          [
            11.768106,
            46.401436,
            2698.8
          ],
          [
            11.768078,
            46.401453,
            2700.8
          ],
          [
            11.767988,
            46.401423,
            2699.3
          ],
          [
            11.767969,
            46.401439,
            2700
          ],
          [
            11.767834,
            46.40138,
            2696.8
          ],
          [
            11.767799,
            46.401332,
            2695.8
          ],
          [
            11.767684,
            46.401283,
            2693.8
          ],
          [
            11.767585,
            46.401218,
            2695
          ],
          [
            11.767522,
            46.401198,
            2696.5
          ],
          [
            11.767454,
            46.401104,
            2699.3
          ],
          [
            11.767346,
            46.401038,
            2691.3
          ],
          [
            11.767311,
            46.401024,
            2689.5
          ],
          [
            11.767272,
            46.400983,
            2688.3
          ],
          [
            11.76726,
            46.400939,
            2688.5
          ],
          [
            11.767209,
            46.40086,
            2689.5
          ],
          [
            11.767023,
            46.400792,
            2681.5
          ],
          [
            11.766907,
            46.400775,
            2677.3
          ],
          [
            11.766836,
            46.400725,
            2673.3
          ],
          [
            11.766813,
            46.40068,
            2673.5
          ],
          [
            11.766821,
            46.400652,
            2674.3
          ],
          [
            11.766848,
            46.400642,
            2675
          ],
          [
            11.766868,
            46.400622,
            2675.8
          ],
          [
            11.766867,
            46.40057,
            2676.3
          ],
          [
            11.766848,
            46.40055,
            2675.8
          ],
          [
            11.766824,
            46.400544,
            2675.3
          ],
          [
            11.766792,
            46.400519,
            2674
          ],
          [
            11.766756,
            46.400458,
            2671.5
          ],
          [
            11.76671,
            46.400448,
            2671.8
          ],
          [
            11.766674,
            46.40041,
            2671.5
          ],
          [
            11.766561,
            46.400402,
            2667.8
          ],
          [
            11.766514,
            46.400385,
            2666
          ],
          [
            11.766443,
            46.400344,
            2663.5
          ],
          [
            11.766386,
            46.400273,
            2661.5
          ],
          [
            11.766346,
            46.400268,
            2659.3
          ],
          [
            11.766304,
            46.400268,
            2657.3
          ],
          [
            11.766281,
            46.400255,
            2655.8
          ],
          [
            11.766237,
            46.400245,
            2653.5
          ],
          [
            11.766186,
            46.400242,
            2651
          ],
          [
            11.766077,
            46.400199,
            2646.8
          ],
          [
            11.765989,
            46.400175,
            2645
          ],
          [
            11.765848,
            46.400157,
            2642.5
          ],
          [
            11.765568,
            46.400171,
            2644.5
          ],
          [
            11.765511,
            46.400186,
            2646
          ],
          [
            11.765421,
            46.400193,
            2648.8
          ],
          [
            11.765397,
            46.400187,
            2649.3
          ],
          [
            11.765397,
            46.400152,
            2649
          ],
          [
            11.765352,
            46.400165,
            2650.5
          ],
          [
            11.765295,
            46.400172,
            2652.3
          ],
          [
            11.765248,
            46.400155,
            2653.3
          ],
          [
            11.765062,
            46.400159,
            2658.5
          ],
          [
            11.764961,
            46.400148,
            2661
          ],
          [
            11.764894,
            46.400109,
            2661.8
          ],
          [
            11.764842,
            46.400128,
            2663.5
          ],
          [
            11.76477,
            46.400179,
            2667
          ],
          [
            11.76456,
            46.400204,
            2674
          ],
          [
            11.764489,
            46.400205,
            2676.3
          ],
          [
            11.764346,
            46.400182,
            2679.5
          ],
          [
            11.764243,
            46.400142,
            2682.3
          ],
          [
            11.764194,
            46.400149,
            2684
          ],
          [
            11.764021,
            46.400191,
            2684.8
          ],
          [
            11.763976,
            46.40019,
            2685
          ],
          [
            11.763946,
            46.400162,
            2685.3
          ],
          [
            11.763958,
            46.400118,
            2685.3
          ],
          [
            11.763957,
            46.400059,
            2685.5
          ],
          [
            11.763923,
            46.400042,
            2685.8
          ],
          [
            11.763897,
            46.400013,
            2685.8
          ],
          [
            11.763884,
            46.399978,
            2684
          ],
          [
            11.763819,
            46.399896,
            2676.8
          ],
          [
            11.763742,
            46.399867,
            2674.8
          ],
          [
            11.763521,
            46.399832,
            2674.3
          ],
          [
            11.763309,
            46.399785,
            2676.3
          ],
          [
            11.763269,
            46.399729,
            2679.3
          ],
          [
            11.763293,
            46.399666,
            2678
          ],
          [
            11.763246,
            46.399594,
            2673.8
          ],
          [
            11.763225,
            46.399551,
            2672
          ],
          [
            11.763222,
            46.399487,
            2670
          ],
          [
            11.763261,
            46.399467,
            2668
          ],
          [
            11.763263,
            46.399429,
            2665.5
          ],
          [
            11.763214,
            46.399389,
            2663.8
          ],
          [
            11.763168,
            46.399363,
            2663
          ],
          [
            11.763142,
            46.399334,
            2661
          ],
          [
            11.763124,
            46.39929,
            2657
          ],
          [
            11.763152,
            46.399254,
            2652.5
          ],
          [
            11.763092,
            46.399238,
            2652.3
          ],
          [
            11.763082,
            46.399217,
            2650
          ],
          [
            11.763112,
            46.399188,
            2646.5
          ],
          [
            11.763298,
            46.399145,
            2640
          ],
          [
            11.763225,
            46.399098,
            2636.3
          ],
          [
            11.763033,
            46.399038,
            2633
          ],
          [
            11.762936,
            46.398962,
            2627.5
          ],
          [
            11.762915,
            46.398922,
            2624.3
          ],
          [
            11.762906,
            46.398862,
            2619.8
          ],
          [
            11.762909,
            46.398804,
            2615.8
          ],
          [
            11.762896,
            46.398747,
            2612.3
          ],
          [
            11.762852,
            46.398752,
            2613
          ],
          [
            11.762797,
            46.398741,
            2613
          ],
          [
            11.762758,
            46.398712,
            2610.5
          ],
          [
            11.762772,
            46.39867,
            2608
          ],
          [
            11.76285,
            46.398521,
            2597.5
          ],
          [
            11.762651,
            46.398496,
            2593.5
          ],
          [
            11.762584,
            46.398453,
            2588.8
          ],
          [
            11.762565,
            46.398422,
            2586.3
          ],
          [
            11.762673,
            46.39828,
            2580.8
          ],
          [
            11.762664,
            46.398252,
            2578.5
          ],
          [
            11.762672,
            46.398219,
            2576.3
          ],
          [
            11.762664,
            46.39815,
            2571.3
          ],
          [
            11.762673,
            46.398096,
            2567.5
          ],
          [
            11.762663,
            46.398074,
            2566
          ],
          [
            11.762549,
            46.398105,
            2566.5
          ],
          [
            11.762545,
            46.398052,
            2563.3
          ],
          [
            11.762522,
            46.398008,
            2561
          ],
          [
            11.762518,
            46.397969,
            2559.5
          ],
          [
            11.762529,
            46.397892,
            2556.3
          ],
          [
            11.762557,
            46.397856,
            2554.5
          ],
          [
            11.762568,
            46.397794,
            2551.5
          ],
          [
            11.762588,
            46.397773,
            2550
          ],
          [
            11.762531,
            46.397739,
            2549.8
          ],
          [
            11.762526,
            46.397709,
            2548.8
          ],
          [
            11.762577,
            46.39763,
            2544.5
          ],
          [
            11.762567,
            46.397597,
            2543.5
          ],
          [
            11.762569,
            46.397494,
            2539.3
          ],
          [
            11.762606,
            46.397421,
            2535.5
          ],
          [
            11.762533,
            46.397398,
            2537
          ],
          [
            11.762563,
            46.397346,
            2534.3
          ],
          [
            11.762578,
            46.397213,
            2529.8
          ],
          [
            11.762599,
            46.397183,
            2529
          ],
          [
            11.762651,
            46.397167,
            2528.3
          ],
          [
            11.762658,
            46.397142,
            2528.3
          ],
          [
            11.762657,
            46.397024,
            2527.5
          ]
        ]
      }
    },
    {
      "type": "Feature",
      "properties": {
        "kind": "waypoint",
        "name": "Bivacco Dal Bianco",
        "show_label": true
      },
      "geometry": {
        "type": "Point",
        "coordinates": [
          11.845366,
          46.429115,
          2725
        ]
      }
    },
    {
      "type": "Feature",
      "properties": {
        "kind": "waypoint",
        "name": "Cima Ombretta Orientale",
        "show_label": true
      },
      "geometry": {
        "type": "Point",
        "coordinates": [
          11.846478,
          46.424326,
          3011
        ]
      }
    },
    {
      "type": "Feature",
      "properties": {
        "kind": "waypoint",
        "name": "Ferrata Ombretta / 650",
        "show_label": false
      },
      "geometry": {
        "type": "Point",
        "coordinates": [
          11.832738,
          46.418601,
          2630
        ]
      }
    },
    {
      "type": "Feature",
      "properties": {
        "kind": "waypoint",
        "name": "Passo Cirelle",
        "show_label": true
      },
      "geometry": {
        "type": "Point",
        "coordinates": [
          11.823617,
          46.41011,
          2683
        ]
      }
    },
    {
      "type": "Feature",
      "properties": {
        "kind": "waypoint",
        "name": "Forcella Laghet",
        "show_label": true
      },
      "geometry": {
        "type": "Point",
        "coordinates": [
          11.811376,
          46.404239,
          2760
        ]
      }
    },
    {
      "type": "Feature",
      "properties": {
        "kind": "waypoint",
        "name": "Bepi Zac",
        "show_label": false
      },
      "geometry": {
        "type": "Point",
        "coordinates": [
          11.780985,
          46.403478,
          2660
        ]
      }
    },
    {
      "type": "Feature",
      "properties": {
        "kind": "waypoint",
        "name": "Passo delle Selle",
        "show_label": true
      },
      "geometry": {
        "type": "Point",
        "coordinates": [
          11.762657,
          46.397024,
          2528
        ]
      }
    }
  ]
}
