{
  "type": "FeatureCollection",
  "features": [
    {
      "type": "Feature",
      "properties": {
        "kind": "route",
        "name": "Варіант B · Seceda",
        "distance_km": 11.894,
        "ascent_m": 693,
        "source": "BRouter / OpenStreetMap"
      },
      "geometry": {
        "type": "LineString",
        "coordinates": [
          [
            11.724347,
            46.597936,
            2457.3
          ],
          [
            11.724423,
            46.597838,
            2456.8
          ],
          [
            11.724455,
            46.597791,
            2456.3
          ],
          [
            11.724778,
            46.597928,
            2454.3
          ],
          [
            11.72465,
            46.597776,
            2453.5
          ],
          [
            11.724565,
            46.597613,
            2451
          ],
          [
            11.724528,
            46.597466,
            2449
          ],
          [
            11.724518,
            46.597247,
            2450
          ],
          [
            11.724609,
            46.596973,
            2448.8
          ],
          [
            11.724636,
            46.596792,
            2446.8
          ],
          [
            11.724609,
            46.596536,
            2442.8
          ],
          [
            11.724614,
            46.596453,
            2440.5
          ],
          [
            11.724638,
            46.596395,
            2438.5
          ],
          [
            11.724713,
            46.596379,
            2436.8
          ],
          [
            11.724826,
            46.596424,
            2435.8
          ],
          [
            11.724962,
            46.59654,
            2435
          ],
          [
            11.725039,
            46.596658,
            2434.3
          ],
          [
            11.72508,
            46.596853,
            2433
          ],
          [
            11.725143,
            46.596964,
            2431
          ],
          [
            11.725262,
            46.597026,
            2428.3
          ],
          [
            11.72546,
            46.597113,
            2424
          ],
          [
            11.725833,
            46.597333,
            2417.5
          ],
          [
            11.725907,
            46.597365,
            2416.5
          ],
          [
            11.726013,
            46.597393,
            2415
          ],
          [
            11.726359,
            46.597468,
            2412.5
          ],
          [
            11.726779,
            46.597588,
            2413
          ],
          [
            11.726846,
            46.597591,
            2413
          ],
          [
            11.727172,
            46.597553,
            2412.5
          ],
          [
            11.727318,
            46.597569,
            2412
          ],
          [
            11.727393,
            46.597583,
            2411.5
          ],
          [
            11.727597,
            46.597666,
            2410
          ],
          [
            11.727778,
            46.597714,
            2408
          ],
          [
            11.72831,
            46.59783,
            2399.5
          ],
          [
            11.728699,
            46.597887,
            2394
          ],
          [
            11.72918,
            46.597903,
            2388
          ],
          [
            11.729335,
            46.597899,
            2385.3
          ],
          [
            11.729424,
            46.597866,
            2383.3
          ],
          [
            11.72945,
            46.597822,
            2381.8
          ],
          [
            11.729461,
            46.597708,
            2379.5
          ],
          [
            11.729444,
            46.597399,
            2374
          ],
          [
            11.729414,
            46.597346,
            2372.8
          ],
          [
            11.72934,
            46.597262,
            2371
          ],
          [
            11.729108,
            46.597141,
            2368.3
          ],
          [
            11.7289,
            46.597022,
            2365.8
          ],
          [
            11.728809,
            46.596955,
            2364.8
          ],
          [
            11.728747,
            46.596897,
            2364
          ],
          [
            11.728708,
            46.596843,
            2363.3
          ],
          [
            11.728684,
            46.59677,
            2361.5
          ],
          [
            11.728699,
            46.596545,
            2354.8
          ],
          [
            11.728692,
            46.596484,
            2353.3
          ],
          [
            11.72867,
            46.596418,
            2352
          ],
          [
            11.728632,
            46.596355,
            2351.3
          ],
          [
            11.728554,
            46.596271,
            2350.5
          ],
          [
            11.728451,
            46.596186,
            2349.5
          ],
          [
            11.728237,
            46.596045,
            2348
          ],
          [
            11.728185,
            46.595999,
            2347.5
          ],
          [
            11.728122,
            46.595896,
            2345.3
          ],
          [
            11.727884,
            46.595655,
            2341.8
          ],
          [
            11.727804,
            46.595606,
            2340.8
          ],
          [
            11.7276,
            46.595514,
            2339.3
          ],
          [
            11.727449,
            46.595437,
            2338.5
          ],
          [
            11.727252,
            46.595344,
            2336.3
          ],
          [
            11.727205,
            46.595273,
            2334.3
          ],
          [
            11.727209,
            46.595159,
            2333.3
          ],
          [
            11.727202,
            46.595119,
            2333
          ],
          [
            11.727183,
            46.595081,
            2332.8
          ],
          [
            11.727139,
            46.595043,
            2333
          ],
          [
            11.727052,
            46.594993,
            2332.8
          ],
          [
            11.726663,
            46.594802,
            2327.5
          ],
          [
            11.726601,
            46.594737,
            2326.3
          ],
          [
            11.726563,
            46.594682,
            2326.3
          ],
          [
            11.726553,
            46.594624,
            2325.5
          ],
          [
            11.726532,
            46.594349,
            2322.5
          ],
          [
            11.726533,
            46.594177,
            2322.3
          ],
          [
            11.726499,
            46.594089,
            2322
          ],
          [
            11.72642,
            46.593966,
            2321.5
          ],
          [
            11.726412,
            46.593914,
            2321
          ],
          [
            11.726423,
            46.593872,
            2320
          ],
          [
            11.726528,
            46.593669,
            2316.5
          ],
          [
            11.726562,
            46.593535,
            2314.5
          ],
          [
            11.726568,
            46.593417,
            2312.5
          ],
          [
            11.726561,
            46.593323,
            2311
          ],
          [
            11.726527,
            46.593164,
            2310
          ],
          [
            11.72653,
            46.593112,
            2309.8
          ],
          [
            11.726547,
            46.593061,
            2309
          ],
          [
            11.726579,
            46.593016,
            2308
          ],
          [
            11.726642,
            46.592963,
            2306
          ],
          [
            11.726722,
            46.592932,
            2304.3
          ],
          [
            11.726786,
            46.592921,
            2303.5
          ],
          [
            11.726847,
            46.592921,
            2302.8
          ],
          [
            11.726896,
            46.592938,
            2302
          ],
          [
            11.727218,
            46.59315,
            2296.8
          ],
          [
            11.72734,
            46.593272,
            2295
          ],
          [
            11.727565,
            46.593409,
            2293.3
          ],
          [
            11.727746,
            46.59346,
            2292.5
          ],
          [
            11.72794,
            46.593476,
            2293.3
          ],
          [
            11.728126,
            46.59344,
            2294
          ],
          [
            11.728327,
            46.593431,
            2294.5
          ],
          [
            11.728606,
            46.593526,
            2291.8
          ],
          [
            11.72875,
            46.593582,
            2293.5
          ],
          [
            11.728801,
            46.593608,
            2294.8
          ],
          [
            11.728827,
            46.593637,
            2295
          ],
          [
            11.728829,
            46.593669,
            2295.3
          ],
          [
            11.728819,
            46.59371,
            2295.3
          ],
          [
            11.728778,
            46.593806,
            2295.8
          ],
          [
            11.728783,
            46.593839,
            2296
          ],
          [
            11.728823,
            46.593883,
            2296
          ],
          [
            11.728889,
            46.593933,
            2295.8
          ],
          [
            11.729164,
            46.594095,
            2289.3
          ],
          [
            11.72935,
            46.594234,
            2285.5
          ],
          [
            11.729739,
            46.594555,
            2285
          ],
          [
            11.730324,
            46.594946,
            2278.3
          ],
          [
            11.730474,
            46.595005,
            2275.8
          ],
          [
            11.730871,
            46.594969,
            2267.3
          ],
          [
            11.731216,
            46.594966,
            2260
          ],
          [
            11.731457,
            46.595011,
            2257
          ],
          [
            11.731804,
            46.594993,
            2250.8
          ],
          [
            11.732222,
            46.595035,
            2244.8
          ],
          [
            11.732587,
            46.595014,
            2238.3
          ],
          [
            11.732706,
            46.595035,
            2237.5
          ],
          [
            11.732932,
            46.595091,
            2235.5
          ],
          [
            11.733168,
            46.595131,
            2233.3
          ],
          [
            11.733403,
            46.595154,
            2231.8
          ],
          [
            11.73356,
            46.595188,
            2231
          ],
          [
            11.73367,
            46.595212,
            2230.3
          ],
          [
            11.733782,
            46.595237,
            2229.5
          ],
          [
            11.734019,
            46.595331,
            2229
          ],
          [
            11.734342,
            46.59541,
            2225.8
          ],
          [
            11.734553,
            46.595497,
            2224.8
          ],
          [
            11.734741,
            46.595479,
            2222.5
          ],
          [
            11.734828,
            46.595452,
            2221
          ],
          [
            11.734896,
            46.595405,
            2219
          ],
          [
            11.735046,
            46.595273,
            2213
          ],
          [
            11.735149,
            46.595234,
            2210.8
          ],
          [
            11.735262,
            46.595229,
            2209
          ],
          [
            11.735452,
            46.595204,
            2206
          ],
          [
            11.735555,
            46.59518,
            2204.5
          ],
          [
            11.735622,
            46.595085,
            2202.8
          ],
          [
            11.735617,
            46.594995,
            2201.8
          ],
          [
            11.735654,
            46.594899,
            2201.5
          ],
          [
            11.735751,
            46.594687,
            2201
          ],
          [
            11.735753,
            46.594309,
            2199.8
          ],
          [
            11.735794,
            46.594208,
            2199.3
          ],
          [
            11.735904,
            46.594094,
            2198.3
          ],
          [
            11.736013,
            46.594034,
            2198
          ],
          [
            11.736108,
            46.593992,
            2197.5
          ],
          [
            11.736199,
            46.59399,
            2195.5
          ],
          [
            11.736448,
            46.594053,
            2189.3
          ],
          [
            11.736555,
            46.59404,
            2187.5
          ],
          [
            11.736625,
            46.593992,
            2185.8
          ],
          [
            11.736673,
            46.5939,
            2184
          ],
          [
            11.736757,
            46.593827,
            2183.5
          ],
          [
            11.736926,
            46.593723,
            2180
          ],
          [
            11.737194,
            46.593572,
            2175.3
          ],
          [
            11.7374,
            46.593522,
            2171.5
          ],
          [
            11.737511,
            46.593523,
            2169.5
          ],
          [
            11.7378,
            46.593612,
            2167.8
          ],
          [
            11.737862,
            46.593619,
            2167.5
          ],
          [
            11.737923,
            46.593595,
            2167
          ],
          [
            11.738204,
            46.593398,
            2161.3
          ],
          [
            11.738366,
            46.593217,
            2156
          ],
          [
            11.738379,
            46.593134,
            2154
          ],
          [
            11.738375,
            46.593053,
            2152.3
          ],
          [
            11.738284,
            46.592843,
            2151.5
          ],
          [
            11.738163,
            46.592447,
            2148.3
          ],
          [
            11.738082,
            46.592202,
            2144.5
          ],
          [
            11.738068,
            46.592095,
            2143
          ],
          [
            11.738111,
            46.591956,
            2141.3
          ],
          [
            11.738187,
            46.591821,
            2139.8
          ],
          [
            11.738259,
            46.591589,
            2137
          ],
          [
            11.738328,
            46.591485,
            2136.3
          ],
          [
            11.738484,
            46.591311,
            2135
          ],
          [
            11.738508,
            46.591235,
            2134.3
          ],
          [
            11.738505,
            46.590726,
            2125
          ],
          [
            11.738454,
            46.590482,
            2117.5
          ],
          [
            11.738658,
            46.590534,
            2119.3
          ],
          [
            11.738884,
            46.590506,
            2117
          ],
          [
            11.739146,
            46.590504,
            2116.3
          ],
          [
            11.739802,
            46.590547,
            2111.8
          ],
          [
            11.739967,
            46.590569,
            2110.8
          ],
          [
            11.740116,
            46.590569,
            2109.5
          ],
          [
            11.740874,
            46.590562,
            2106.5
          ],
          [
            11.741163,
            46.590526,
            2106.8
          ],
          [
            11.741359,
            46.590567,
            2107.3
          ],
          [
            11.741602,
            46.590597,
            2110.3
          ],
          [
            11.741762,
            46.590645,
            2112.3
          ],
          [
            11.741829,
            46.590702,
            2113.3
          ],
          [
            11.741943,
            46.590744,
            2113.5
          ],
          [
            11.742077,
            46.590752,
            2115.3
          ],
          [
            11.742133,
            46.590735,
            2115.8
          ],
          [
            11.742247,
            46.590617,
            2117
          ],
          [
            11.742478,
            46.590476,
            2115.5
          ],
          [
            11.74262,
            46.59038,
            2114.3
          ],
          [
            11.742834,
            46.590328,
            2115.5
          ],
          [
            11.742995,
            46.590267,
            2116.8
          ],
          [
            11.743065,
            46.590227,
            2117.5
          ],
          [
            11.743094,
            46.590168,
            2117.8
          ],
          [
            11.743064,
            46.590069,
            2115.8
          ],
          [
            11.743068,
            46.589925,
            2114.5
          ],
          [
            11.743082,
            46.58983,
            2114
          ],
          [
            11.743107,
            46.589774,
            2113.8
          ],
          [
            11.743155,
            46.589724,
            2113.5
          ],
          [
            11.743223,
            46.589692,
            2112.8
          ],
          [
            11.743301,
            46.58968,
            2112.8
          ],
          [
            11.743478,
            46.589683,
            2113.3
          ],
          [
            11.743691,
            46.589705,
            2114.3
          ],
          [
            11.743828,
            46.589708,
            2114.3
          ],
          [
            11.743975,
            46.589686,
            2114.3
          ],
          [
            11.74412,
            46.589612,
            2113.3
          ],
          [
            11.744191,
            46.58955,
            2112.3
          ],
          [
            11.744304,
            46.589508,
            2112.5
          ],
          [
            11.744369,
            46.589476,
            2112.5
          ],
          [
            11.744624,
            46.589433,
            2115
          ],
          [
            11.744795,
            46.589432,
            2115.8
          ],
          [
            11.745108,
            46.589479,
            2118
          ],
          [
            11.745665,
            46.589086,
            2121.5
          ],
          [
            11.74628,
            46.588816,
            2116
          ],
          [
            11.746588,
            46.58894,
            2120
          ],
          [
            11.746766,
            46.5888,
            2116.8
          ],
          [
            11.746874,
            46.588552,
            2112.3
          ],
          [
            11.747366,
            46.588266,
            2105.5
          ],
          [
            11.747706,
            46.588297,
            2098
          ],
          [
            11.748147,
            46.588367,
            2091.5
          ],
          [
            11.748599,
            46.588508,
            2088.8
          ],
          [
            11.74927,
            46.588518,
            2081
          ],
          [
            11.749666,
            46.588604,
            2076.5
          ],
          [
            11.749859,
            46.588543,
            2074
          ],
          [
            11.750171,
            46.588519,
            2072.5
          ],
          [
            11.750585,
            46.588389,
            2069.8
          ],
          [
            11.750871,
            46.588457,
            2069.3
          ],
          [
            11.751637,
            46.588319,
            2066.5
          ],
          [
            11.75198,
            46.588187,
            2067
          ],
          [
            11.752196,
            46.588158,
            2067.3
          ],
          [
            11.752412,
            46.588117,
            2065
          ],
          [
            11.753047,
            46.58815,
            2063.5
          ],
          [
            11.753436,
            46.58829,
            2060.3
          ],
          [
            11.753574,
            46.588329,
            2057.8
          ],
          [
            11.753725,
            46.588217,
            2053
          ],
          [
            11.754071,
            46.588063,
            2047
          ],
          [
            11.754306,
            46.588076,
            2048.8
          ],
          [
            11.754722,
            46.587987,
            2049.5
          ],
          [
            11.75479,
            46.587952,
            2047.8
          ],
          [
            11.754933,
            46.58799,
            2047
          ],
          [
            11.755055,
            46.587973,
            2045.5
          ],
          [
            11.755343,
            46.587932,
            2043
          ],
          [
            11.755568,
            46.587958,
            2045.5
          ],
          [
            11.755864,
            46.587888,
            2045.5
          ],
          [
            11.75594,
            46.587875,
            2045.8
          ],
          [
            11.755981,
            46.587839,
            2045
          ],
          [
            11.756097,
            46.587761,
            2044.3
          ],
          [
            11.756436,
            46.587672,
            2046.8
          ],
          [
            11.756523,
            46.587643,
            2045.8
          ],
          [
            11.756765,
            46.587631,
            2043.5
          ],
          [
            11.756941,
            46.587668,
            2042.8
          ],
          [
            11.757023,
            46.587698,
            2043.3
          ],
          [
            11.757141,
            46.587758,
            2044.3
          ],
          [
            11.757623,
            46.587896,
            2042.8
          ],
          [
            11.757702,
            46.587889,
            2041.8
          ],
          [
            11.75777,
            46.587807,
            2039.5
          ],
          [
            11.757868,
            46.587719,
            2038.8
          ],
          [
            11.757979,
            46.587605,
            2038.3
          ],
          [
            11.757995,
            46.587589,
            2038.3
          ],
          [
            11.758069,
            46.587497,
            2037.8
          ],
          [
            11.758067,
            46.587436,
            2036.3
          ],
          [
            11.758148,
            46.587361,
            2034.8
          ],
          [
            11.758175,
            46.587298,
            2033.8
          ],
          [
            11.758174,
            46.587244,
            2032.5
          ],
          [
            11.758183,
            46.587216,
            2032
          ],
          [
            11.758189,
            46.587196,
            2031.3
          ],
          [
            11.758242,
            46.587169,
            2031
          ],
          [
            11.758321,
            46.587165,
            2032
          ],
          [
            11.758404,
            46.587192,
            2031.3
          ],
          [
            11.758487,
            46.587258,
            2030.5
          ],
          [
            11.758565,
            46.587353,
            2030
          ],
          [
            11.75868,
            46.587444,
            2029
          ],
          [
            11.758797,
            46.58747,
            2028.3
          ],
          [
            11.759092,
            46.587517,
            2027
          ],
          [
            11.759124,
            46.587515,
            2026.5
          ],
          [
            11.759339,
            46.587458,
            2021.8
          ],
          [
            11.759387,
            46.587451,
            2020.8
          ],
          [
            11.759485,
            46.587452,
            2019.3
          ],
          [
            11.759529,
            46.587444,
            2018.3
          ],
          [
            11.759554,
            46.58754,
            2019.8
          ],
          [
            11.759596,
            46.587634,
            2021.3
          ],
          [
            11.759667,
            46.587727,
            2022.5
          ],
          [
            11.759675,
            46.587797,
            2023.8
          ],
          [
            11.759656,
            46.587852,
            2025
          ],
          [
            11.759562,
            46.588014,
            2028.5
          ],
          [
            11.759707,
            46.588062,
            2027
          ],
          [
            11.760024,
            46.588123,
            2027
          ],
          [
            11.760263,
            46.588213,
            2025.5
          ],
          [
            11.760316,
            46.588207,
            2025
          ],
          [
            11.760361,
            46.588214,
            2024.8
          ],
          [
            11.76041,
            46.588253,
            2024.3
          ],
          [
            11.760438,
            46.588288,
            2024
          ],
          [
            11.76049,
            46.588296,
            2023.5
          ],
          [
            11.760649,
            46.588452,
            2022.3
          ],
          [
            11.760699,
            46.588545,
            2021.8
          ],
          [
            11.760786,
            46.588599,
            2021.3
          ],
          [
            11.761009,
            46.588684,
            2020
          ],
          [
            11.761134,
            46.588854,
            2018.3
          ],
          [
            11.76129,
            46.589155,
            2016
          ],
          [
            11.76132,
            46.589183,
            2015.8
          ],
          [
            11.761427,
            46.589221,
            2014.3
          ],
          [
            11.761533,
            46.589281,
            2015.3
          ],
          [
            11.761588,
            46.58928,
            2015
          ],
          [
            11.761682,
            46.589238,
            2014.3
          ],
          [
            11.761714,
            46.589231,
            2014.5
          ],
          [
            11.762266,
            46.589304,
            2024.3
          ],
          [
            11.762372,
            46.589296,
            2025
          ],
          [
            11.762528,
            46.589306,
            2026.8
          ],
          [
            11.762587,
            46.589327,
            2027.8
          ],
          [
            11.762617,
            46.589353,
            2029.5
          ],
          [
            11.762627,
            46.589373,
            2030.8
          ],
          [
            11.762603,
            46.589394,
            2032
          ],
          [
            11.762484,
            46.589436,
            2033.3
          ],
          [
            11.762428,
            46.589476,
            2034.3
          ],
          [
            11.762264,
            46.589562,
            2036.3
          ],
          [
            11.762227,
            46.589594,
            2037.5
          ],
          [
            11.76222,
            46.589615,
            2038.5
          ],
          [
            11.762245,
            46.58963,
            2039.5
          ],
          [
            11.762294,
            46.589636,
            2040.5
          ],
          [
            11.76233,
            46.589656,
            2041.8
          ],
          [
            11.762371,
            46.589669,
            2043
          ],
          [
            11.762414,
            46.589675,
            2043.8
          ],
          [
            11.762405,
            46.589701,
            2044.8
          ],
          [
            11.762405,
            46.589719,
            2045.8
          ],
          [
            11.762498,
            46.589786,
            2047.5
          ],
          [
            11.762542,
            46.589784,
            2048
          ],
          [
            11.762557,
            46.5898,
            2048.5
          ],
          [
            11.76259,
            46.589855,
            2049.5
          ],
          [
            11.762662,
            46.589894,
            2050.8
          ],
          [
            11.762705,
            46.589936,
            2052
          ],
          [
            11.76278,
            46.589984,
            2053.8
          ],
          [
            11.762806,
            46.590017,
            2053.8
          ],
          [
            11.76284,
            46.590037,
            2053.8
          ],
          [
            11.762959,
            46.590053,
            2055.8
          ],
          [
            11.762998,
            46.590038,
            2057.5
          ],
          [
            11.763025,
            46.590012,
            2059.5
          ],
          [
            11.763068,
            46.590009,
            2060.8
          ],
          [
            11.763132,
            46.590026,
            2062
          ],
          [
            11.763167,
            46.590012,
            2063.5
          ],
          [
            11.763268,
            46.589945,
            2066.3
          ],
          [
            11.763335,
            46.589924,
            2067.8
          ],
          [
            11.763391,
            46.589916,
            2068.8
          ],
          [
            11.763416,
            46.589925,
            2069.3
          ],
          [
            11.763506,
            46.590089,
            2070.3
          ],
          [
            11.763607,
            46.590179,
            2071.8
          ],
          [
            11.763706,
            46.590188,
            2074.3
          ],
          [
            11.763785,
            46.590215,
            2076.5
          ],
          [
            11.763907,
            46.590264,
            2079.8
          ],
          [
            11.764014,
            46.590334,
            2077.8
          ],
          [
            11.764215,
            46.590393,
            2077
          ],
          [
            11.76429,
            46.59036,
            2077.3
          ],
          [
            11.764386,
            46.590353,
            2077
          ],
          [
            11.764517,
            46.590395,
            2076.5
          ],
          [
            11.764656,
            46.590424,
            2076.5
          ],
          [
            11.764721,
            46.590472,
            2076.5
          ],
          [
            11.766527,
            46.591949,
            2088.5
          ],
          [
            11.766756,
            46.592101,
            2090.8
          ],
          [
            11.767184,
            46.59234,
            2096.3
          ],
          [
            11.767228,
            46.592372,
            2096.3
          ],
          [
            11.767447,
            46.592495,
            2095
          ],
          [
            11.76783,
            46.592614,
            2099
          ],
          [
            11.768149,
            46.592828,
            2100.8
          ],
          [
            11.768332,
            46.592932,
            2103.3
          ],
          [
            11.768723,
            46.593221,
            2105.8
          ],
          [
            11.768799,
            46.593249,
            2106.3
          ],
          [
            11.768859,
            46.593263,
            2106.8
          ],
          [
            11.76899,
            46.593263,
            2107.8
          ],
          [
            11.76912,
            46.593248,
            2109.3
          ],
          [
            11.769246,
            46.593256,
            2110
          ],
          [
            11.769331,
            46.593286,
            2109.8
          ],
          [
            11.769373,
            46.593311,
            2109.3
          ],
          [
            11.769379,
            46.593331,
            2108.5
          ],
          [
            11.769396,
            46.593367,
            2108.8
          ],
          [
            11.769466,
            46.593411,
            2109.8
          ],
          [
            11.769803,
            46.593517,
            2113
          ],
          [
            11.769927,
            46.593586,
            2112.8
          ],
          [
            11.769997,
            46.593577,
            2113.5
          ],
          [
            11.770061,
            46.593602,
            2113.5
          ],
          [
            11.770119,
            46.59368,
            2114.3
          ],
          [
            11.770237,
            46.59374,
            2115.5
          ],
          [
            11.770294,
            46.593804,
            2116.5
          ],
          [
            11.770341,
            46.593831,
            2116.8
          ],
          [
            11.770642,
            46.59395,
            2119
          ],
          [
            11.77085,
            46.593988,
            2121
          ],
          [
            11.770982,
            46.594038,
            2122.5
          ],
          [
            11.771239,
            46.594078,
            2124.8
          ],
          [
            11.771341,
            46.594101,
            2126
          ],
          [
            11.771474,
            46.594144,
            2127.8
          ],
          [
            11.771586,
            46.594172,
            2129
          ],
          [
            11.771664,
            46.594207,
            2130.3
          ],
          [
            11.771741,
            46.594224,
            2131
          ],
          [
            11.771993,
            46.594251,
            2134
          ],
          [
            11.77271,
            46.594415,
            2142.3
          ],
          [
            11.772808,
            46.594427,
            2143.3
          ],
          [
            11.773085,
            46.594435,
            2147.3
          ],
          [
            11.773671,
            46.59448,
            2154.8
          ],
          [
            11.773836,
            46.594433,
            2158
          ],
          [
            11.774044,
            46.594359,
            2161.8
          ],
          [
            11.774271,
            46.594307,
            2165.5
          ],
          [
            11.774528,
            46.594245,
            2169.5
          ],
          [
            11.774913,
            46.594067,
            2179
          ],
          [
            11.775156,
            46.59387,
            2185.5
          ],
          [
            11.775314,
            46.593731,
            2191
          ],
          [
            11.775503,
            46.593641,
            2195
          ],
          [
            11.775662,
            46.593611,
            2199
          ],
          [
            11.775805,
            46.593524,
            2203.5
          ],
          [
            11.77596,
            46.593446,
            2206.3
          ],
          [
            11.776213,
            46.593355,
            2208.8
          ],
          [
            11.776478,
            46.593248,
            2213.8
          ],
          [
            11.776669,
            46.593126,
            2217
          ],
          [
            11.776944,
            46.59297,
            2222.8
          ],
          [
            11.777085,
            46.59296,
            2224.5
          ],
          [
            11.777231,
            46.592926,
            2227
          ],
          [
            11.777507,
            46.592794,
            2233
          ],
          [
            11.777781,
            46.592792,
            2238
          ],
          [
            11.777949,
            46.592799,
            2240.5
          ],
          [
            11.778288,
            46.592837,
            2246.3
          ],
          [
            11.778513,
            46.59288,
            2247.5
          ],
          [
            11.778795,
            46.592912,
            2248.3
          ],
          [
            11.779602,
            46.592732,
            2260.3
          ],
          [
            11.77969,
            46.592732,
            2260.3
          ],
          [
            11.779766,
            46.592712,
            2262
          ],
          [
            11.77998,
            46.592694,
            2266.3
          ],
          [
            11.78017,
            46.592658,
            2270.5
          ],
          [
            11.78026,
            46.592648,
            2271.8
          ],
          [
            11.780385,
            46.592652,
            2274
          ],
          [
            11.780452,
            46.59263,
            2276.5
          ],
          [
            11.780544,
            46.592655,
            2277.5
          ],
          [
            11.780636,
            46.592648,
            2280.3
          ],
          [
            11.780708,
            46.592661,
            2282
          ],
          [
            11.780865,
            46.592611,
            2287.8
          ],
          [
            11.780875,
            46.59257,
            2289
          ],
          [
            11.780947,
            46.592567,
            2290.5
          ],
          [
            11.780994,
            46.592552,
            2291.8
          ],
          [
            11.781091,
            46.592559,
            2293.5
          ],
          [
            11.781144,
            46.592555,
            2294.3
          ],
          [
            11.781247,
            46.592511,
            2295.5
          ],
          [
            11.781292,
            46.59247,
            2296.8
          ],
          [
            11.781318,
            46.592422,
            2298.8
          ],
          [
            11.781352,
            46.592401,
            2299.8
          ],
          [
            11.781519,
            46.592398,
            2302
          ],
          [
            11.781542,
            46.592419,
            2301.5
          ],
          [
            11.781629,
            46.592423,
            2302.5
          ],
          [
            11.781868,
            46.592458,
            2307
          ],
          [
            11.782007,
            46.592502,
            2309
          ],
          [
            11.782236,
            46.592559,
            2317.5
          ],
          [
            11.782266,
            46.59258,
            2318.5
          ],
          [
            11.782343,
            46.592578,
            2320.3
          ],
          [
            11.782616,
            46.592659,
            2326
          ],
          [
            11.782734,
            46.592556,
            2327.8
          ],
          [
            11.782885,
            46.592506,
            2330.8
          ],
          [
            11.783027,
            46.592441,
            2335.3
          ],
          [
            11.783076,
            46.592367,
            2338.5
          ],
          [
            11.783132,
            46.592326,
            2340.3
          ],
          [
            11.783139,
            46.592267,
            2342
          ],
          [
            11.783074,
            46.592204,
            2343.3
          ],
          [
            11.783058,
            46.592084,
            2345
          ],
          [
            11.783111,
            46.591986,
            2347.3
          ],
          [
            11.7831,
            46.591895,
            2348
          ],
          [
            11.783146,
            46.591847,
            2349.3
          ],
          [
            11.783243,
            46.591708,
            2351
          ],
          [
            11.7834,
            46.591572,
            2351.8
          ],
          [
            11.783556,
            46.591513,
            2353
          ],
          [
            11.783684,
            46.591403,
            2352.3
          ],
          [
            11.784033,
            46.591299,
            2356.3
          ],
          [
            11.784381,
            46.591265,
            2357
          ],
          [
            11.784674,
            46.59114,
            2358.5
          ],
          [
            11.784972,
            46.591057,
            2362.8
          ],
          [
            11.785226,
            46.591042,
            2364.5
          ],
          [
            11.785353,
            46.591078,
            2365
          ],
          [
            11.785803,
            46.591046,
            2366.3
          ],
          [
            11.786006,
            46.590945,
            2365.5
          ],
          [
            11.786197,
            46.590947,
            2366.8
          ],
          [
            11.786854,
            46.590857,
            2369.8
          ],
          [
            11.787188,
            46.590774,
            2374.5
          ],
          [
            11.787552,
            46.590803,
            2375.5
          ],
          [
            11.787765,
            46.590734,
            2377
          ],
          [
            11.787973,
            46.590621,
            2379.5
          ],
          [
            11.788021,
            46.590458,
            2382.5
          ],
          [
            11.788158,
            46.590377,
            2385.3
          ],
          [
            11.788252,
            46.590395,
            2386.3
          ],
          [
            11.788487,
            46.590203,
            2393
          ],
          [
            11.788532,
            46.590085,
            2396.8
          ],
          [
            11.788485,
            46.589974,
            2399.3
          ],
          [
            11.78852,
            46.589915,
            2401.8
          ],
          [
            11.788652,
            46.589942,
            2403
          ],
          [
            11.788621,
            46.58985,
            2405
          ],
          [
            11.788616,
            46.589738,
            2408.5
          ],
          [
            11.788683,
            46.589724,
            2411.3
          ],
          [
            11.788602,
            46.589592,
            2414
          ],
          [
            11.788628,
            46.589477,
            2419
          ],
          [
            11.7888,
            46.589354,
            2428.3
          ],
          [
            11.788755,
            46.589325,
            2428.5
          ],
          [
            11.788734,
            46.589279,
            2430
          ],
          [
            11.788749,
            46.589196,
            2433.8
          ],
          [
            11.788732,
            46.589063,
            2439.8
          ],
          [
            11.788759,
            46.589001,
            2443.3
          ],
          [
            11.788959,
            46.588963,
            2449
          ],
          [
            11.789154,
            46.588973,
            2453.5
          ],
          [
            11.789256,
            46.588997,
            2455.5
          ],
          [
            11.789334,
            46.589004,
            2457.8
          ],
          [
            11.789446,
            46.589024,
            2460.5
          ],
          [
            11.789441,
            46.588959,
            2462.5
          ],
          [
            11.789593,
            46.588934,
            2468.5
          ],
          [
            11.789609,
            46.588865,
            2472.3
          ],
          [
            11.789862,
            46.588941,
            2478
          ],
          [
            11.789944,
            46.588955,
            2480.8
          ],
          [
            11.79001,
            46.58899,
            2482.8
          ],
          [
            11.790071,
            46.589005,
            2485.3
          ],
          [
            11.790129,
            46.58905,
            2487.3
          ],
          [
            11.790179,
            46.589111,
            2488.8
          ],
          [
            11.790232,
            46.589127,
            2491
          ],
          [
            11.790277,
            46.589116,
            2493.3
          ],
          [
            11.790337,
            46.589058,
            2496.8
          ],
          [
            11.790505,
            46.588922,
            2505.5
          ],
          [
            11.790573,
            46.588821,
            2509.8
          ],
          [
            11.790632,
            46.588779,
            2510.5
          ],
          [
            11.790824,
            46.588951,
            2518.5
          ],
          [
            11.790885,
            46.589184,
            2525.5
          ],
          [
            11.790854,
            46.589445,
            2535.3
          ],
          [
            11.791,
            46.589369,
            2533.8
          ],
          [
            11.790998,
            46.589534,
            2542.3
          ],
          [
            11.79101,
            46.589661,
            2548.5
          ],
          [
            11.79097,
            46.589859,
            2559.8
          ],
          [
            11.791052,
            46.590035,
            2567.5
          ],
          [
            11.791166,
            46.590111,
            2568.3
          ],
          [
            11.791385,
            46.590178,
            2574.8
          ],
          [
            11.791477,
            46.590228,
            2579.5
          ],
          [
            11.791572,
            46.590352,
            2582.5
          ],
          [
            11.791583,
            46.590439,
            2582
          ],
          [
            11.791533,
            46.590512,
            2580.5
          ],
          [
            11.79155,
            46.590585,
            2580.3
          ],
          [
            11.791638,
            46.590708,
            2582.5
          ],
          [
            11.791717,
            46.590773,
            2582.8
          ],
          [
            11.791971,
            46.591477,
            2578.5
          ],
          [
            11.792581,
            46.592028,
            2578
          ],
          [
            11.792784,
            46.592232,
            2590
          ],
          [
            11.79343,
            46.5925,
            2577.5
          ],
          [
            11.79372,
            46.592747,
            2586.8
          ],
          [
            11.794025,
            46.592805,
            2581
          ],
          [
            11.794555,
            46.593088,
            2592
          ],
          [
            11.795067,
            46.593292,
            2602.5
          ],
          [
            11.79549,
            46.593087,
            2595.3
          ],
          [
            11.795708,
            46.593153,
            2599.5
          ],
          [
            11.795815,
            46.593209,
            2599.3
          ],
          [
            11.795894,
            46.593244,
            2597.8
          ],
          [
            11.796045,
            46.59322,
            2594
          ],
          [
            11.79614,
            46.593233,
            2591.5
          ],
          [
            11.796233,
            46.593214,
            2589.3
          ],
          [
            11.79628,
            46.593246,
            2588
          ],
          [
            11.796475,
            46.593183,
            2583
          ],
          [
            11.796573,
            46.593199,
            2580
          ],
          [
            11.796626,
            46.593235,
            2579
          ],
          [
            11.796654,
            46.593229,
            2578
          ],
          [
            11.796669,
            46.593174,
            2577
          ],
          [
            11.797196,
            46.593124,
            2563.3
          ],
          [
            11.797571,
            46.592995,
            2553.3
          ],
          [
            11.797708,
            46.593002,
            2552.5
          ],
          [
            11.797851,
            46.592961,
            2550.5
          ],
          [
            11.797997,
            46.59297,
            2549.5
          ],
          [
            11.798284,
            46.592941,
            2545.8
          ],
          [
            11.798426,
            46.592945,
            2544
          ],
          [
            11.79851,
            46.592921,
            2543
          ],
          [
            11.798616,
            46.592927,
            2542
          ],
          [
            11.798686,
            46.592945,
            2541.3
          ],
          [
            11.798807,
            46.592929,
            2539.8
          ],
          [
            11.799388,
            46.592972,
            2536.5
          ],
          [
            11.800266,
            46.593023,
            2522.3
          ],
          [
            11.800817,
            46.592936,
            2517
          ],
          [
            11.801362,
            46.592907,
            2507
          ],
          [
            11.801696,
            46.592834,
            2495.8
          ],
          [
            11.801795,
            46.59263,
            2488.5
          ],
          [
            11.80189,
            46.592644,
            2485.8
          ],
          [
            11.801964,
            46.592734,
            2483.8
          ],
          [
            11.80223,
            46.592877,
            2476
          ],
          [
            11.802516,
            46.592798,
            2464
          ],
          [
            11.802835,
            46.592798,
            2451.8
          ],
          [
            11.803147,
            46.592936,
            2447
          ],
          [
            11.80335,
            46.59295,
            2441.8
          ],
          [
            11.803561,
            46.593015,
            2439.5
          ],
          [
            11.80388,
            46.593015,
            2435.5
          ],
          [
            11.804136,
            46.593007,
            2437
          ],
          [
            11.80488,
            46.592855,
            2435.8
          ],
          [
            11.805543,
            46.592787,
            2438
          ],
          [
            11.805905,
            46.592666,
            2442.8
          ],
          [
            11.806019,
            46.592538,
            2444.5
          ],
          [
            11.806338,
            46.592489,
            2446.5
          ],
          [
            11.807079,
            46.592409,
            2452.3
          ],
          [
            11.807325,
            46.592425,
            2455
          ],
          [
            11.807595,
            46.592396,
            2457.5
          ],
          [
            11.808126,
            46.592164,
            2457.5
          ],
          [
            11.808369,
            46.592116,
            2459.5
          ],
          [
            11.808966,
            46.591949,
            2454.8
          ],
          [
            11.809591,
            46.591857,
            2453.5
          ],
          [
            11.811131,
            46.59185,
            2458.3
          ],
          [
            11.811628,
            46.5917,
            2462.3
          ],
          [
            11.812047,
            46.591648,
            2460.8
          ],
          [
            11.812637,
            46.591651,
            2462
          ],
          [
            11.812999,
            46.591661,
            2462
          ],
          [
            11.813275,
            46.591583,
            2460.8
          ],
          [
            11.813475,
            46.591599,
            2458
          ],
          [
            11.813705,
            46.591697,
            2454.3
          ],
          [
            11.81388,
            46.591755,
            2451.5
          ],
          [
            11.813992,
            46.591778,
            2452
          ],
          [
            11.814159,
            46.591749,
            2448.8
          ],
          [
            11.81437,
            46.591758,
            2447.5
          ],
          [
            11.814506,
            46.591736,
            2444.8
          ],
          [
            11.814806,
            46.591705,
            2439.5
          ],
          [
            11.815252,
            46.591815,
            2439
          ],
          [
            11.815435,
            46.591812,
            2435.5
          ],
          [
            11.816089,
            46.591873,
            2433.8
          ],
          [
            11.816422,
            46.591874,
            2432.3
          ],
          [
            11.816746,
            46.591834,
            2429.8
          ],
          [
            11.817332,
            46.591646,
            2424.8
          ],
          [
            11.817462,
            46.591498,
            2422.5
          ],
          [
            11.817608,
            46.591396,
            2421.5
          ],
          [
            11.817634,
            46.591387,
            2421.3
          ],
          [
            11.817761,
            46.591168,
            2418.5
          ],
          [
            11.817706,
            46.590616,
            2414
          ],
          [
            11.81749,
            46.590141,
            2412.3
          ],
          [
            11.817372,
            46.589884,
            2411.5
          ],
          [
            11.817324,
            46.589736,
            2411
          ],
          [
            11.817318,
            46.589593,
            2411.3
          ],
          [
            11.817394,
            46.589391,
            2412.8
          ],
          [
            11.817541,
            46.588886,
            2416.5
          ],
          [
            11.817621,
            46.588689,
            2417.5
          ],
          [
            11.817972,
            46.58826,
            2422.3
          ],
          [
            11.8183,
            46.588137,
            2426.8
          ],
          [
            11.818666,
            46.588093,
            2428.5
          ],
          [
            11.81902,
            46.588129,
            2430.3
          ],
          [
            11.819198,
            46.588178,
            2432.5
          ],
          [
            11.819308,
            46.58824,
            2436.3
          ],
          [
            11.819368,
            46.588266,
            2437.5
          ],
          [
            11.819427,
            46.588231,
            2435.8
          ],
          [
            11.819499,
            46.588169,
            2434.8
          ],
          [
            11.820025,
            46.588079,
            2440.8
          ],
          [
            11.820487,
            46.588109,
            2447
          ],
          [
            11.820909,
            46.58819,
            2450.8
          ],
          [
            11.82149,
            46.588196,
            2451
          ],
          [
            11.822821,
            46.588128,
            2456.3
          ],
          [
            11.823622,
            46.588214,
            2460.3
          ],
          [
            11.8237,
            46.58825,
            2460.3
          ],
          [
            11.82376,
            46.588306,
            2461.8
          ],
          [
            11.823808,
            46.588321,
            2462
          ],
          [
            11.823999,
            46.588292,
            2460.5
          ],
          [
            11.824345,
            46.588202,
            2461.8
          ],
          [
            11.824501,
            46.588191,
            2463.8
          ],
          [
            11.82466,
            46.588135,
            2464.3
          ],
          [
            11.824774,
            46.588145,
            2466.8
          ],
          [
            11.825292,
            46.588004,
            2469.3
          ],
          [
            11.825581,
            46.588004,
            2472.5
          ],
          [
            11.825866,
            46.587933,
            2470.3
          ],
          [
            11.826107,
            46.587904,
            2470.5
          ],
          [
            11.826294,
            46.587916,
            2471
          ],
          [
            11.826425,
            46.587955,
            2473.5
          ],
          [
            11.826641,
            46.588,
            2474
          ],
          [
            11.826938,
            46.588133,
            2475.8
          ],
          [
            11.827288,
            46.588321,
            2476.5
          ],
          [
            11.827355,
            46.588407,
            2478
          ],
          [
            11.827499,
            46.588507,
            2477.5
          ],
          [
            11.827599,
            46.588529,
            2476.3
          ],
          [
            11.827751,
            46.588597,
            2476.5
          ],
          [
            11.827935,
            46.588751,
            2477.3
          ],
          [
            11.828023,
            46.588766,
            2476.5
          ],
          [
            11.828208,
            46.588879,
            2476.3
          ],
          [
            11.828314,
            46.588978,
            2475.5
          ],
          [
            11.828422,
            46.589088,
            2475
          ],
          [
            11.828452,
            46.589169,
            2475.8
          ],
          [
            11.82844,
            46.58946,
            2476.5
          ],
          [
            11.828522,
            46.589653,
            2477
          ],
          [
            11.828592,
            46.589857,
            2479.3
          ],
          [
            11.828735,
            46.589933,
            2479.5
          ],
          [
            11.828844,
            46.58997,
            2479.5
          ],
          [
            11.829031,
            46.59001,
            2479.5
          ],
          [
            11.829216,
            46.590026,
            2479
          ],
          [
            11.829263,
            46.590032,
            2478.5
          ]
        ]
      }
    },
    {
      "type": "Feature",
      "properties": {
        "kind": "waypoint",
        "name": "Seceda"
      },
      "geometry": {
        "type": "Point",
        "coordinates": [
          11.724347,
          46.597936,
          2493
        ]
      }
    },
    {
      "type": "Feature",
      "properties": {
        "kind": "waypoint",
        "name": "Forces de Siëles"
      },
      "geometry": {
        "type": "Point",
        "coordinates": [
          11.790632,
          46.588779,
          2510
        ]
      }
    },
    {
      "type": "Feature",
      "properties": {
        "kind": "waypoint",
        "name": "Rifugio Puez"
      },
      "geometry": {
        "type": "Point",
        "coordinates": [
          11.829263,
          46.590032,
          2479
        ]
      }
    }
  ]
}
