<?xml version="1.0" encoding="UTF-8"?>
<gpx version="1.1" creator="Dolomites 2026" xmlns="http://www.topografix.com/GPX/1/1" xmlns:xsi="http://www.w3.org/2001/XMLSchema-instance" xsi:schemaLocation="http://www.topografix.com/GPX/1/1 http://www.topografix.com/GPX/1/1/gpx.xsd">
  <metadata><name>День 2 · Puez → Boè</name></metadata>
  <wpt lat="46.590032" lon="11.829263"><ele>2479</ele><name>Rifugio Puez</name></wpt>
  <wpt lat="46.564576" lon="11.822758"><ele>2528</ele><name>Passo Crespeina</name></wpt>
  <wpt lat="46.561132" lon="11.815924"><ele>2469</ele><name>Furcela de Cir</name></wpt>
  <wpt lat="46.549819" lon="11.808389"><ele>2121</ele><name>Passo Gardena</name></wpt>
  <wpt lat="46.53951" lon="11.827487"><ele>2360</ele><name>Brigata Tridentina</name></wpt>
  <wpt lat="46.536422" lon="11.821805"><ele>2587</ele><name>Rifugio Pisciadù</name></wpt>
  <wpt lat="46.514696" lon="11.823167"><ele>2869</ele><name>Rifugio Boè</name></wpt>
  <trk>
    <name>День 2 · Puez → Boè</name>
    <trkseg>
      <trkpt lat="46.590032" lon="11.829261"><ele>2478.8</ele></trkpt>
      <trkpt lat="46.590048" lon="11.829374"><ele>2478.5</ele></trkpt>
      <trkpt lat="46.590036" lon="11.829476"><ele>2478.3</ele></trkpt>
      <trkpt lat="46.590005" lon="11.829576"><ele>2478.8</ele></trkpt>
      <trkpt lat="46.589965" lon="11.829572"><ele>2478.5</ele></trkpt>
      <trkpt lat="46.58986" lon="11.829604"><ele>2477.5</ele></trkpt>
      <trkpt lat="46.589756" lon="11.829581"><ele>2476.3</ele></trkpt>
      <trkpt lat="46.589683" lon="11.829544"><ele>2474.8</ele></trkpt>
      <trkpt lat="46.589633" lon="11.829535"><ele>2473.8</ele></trkpt>
      <trkpt lat="46.589586" lon="11.82957"><ele>2473.5</ele></trkpt>
      <trkpt lat="46.589548" lon="11.829668"><ele>2474.5</ele></trkpt>
      <trkpt lat="46.589483" lon="11.829741"><ele>2475</ele></trkpt>
      <trkpt lat="46.589404" lon="11.829781"><ele>2474.5</ele></trkpt>
      <trkpt lat="46.589303" lon="11.829869"><ele>2474.5</ele></trkpt>
      <trkpt lat="46.589068" lon="11.83016"><ele>2479.8</ele></trkpt>
      <trkpt lat="46.588881" lon="11.830242"><ele>2479.5</ele></trkpt>
      <trkpt lat="46.588663" lon="11.83036"><ele>2480.3</ele></trkpt>
      <trkpt lat="46.588569" lon="11.830387"><ele>2479.8</ele></trkpt>
      <trkpt lat="46.588452" lon="11.830433"><ele>2479.8</ele></trkpt>
      <trkpt lat="46.588217" lon="11.830462"><ele>2477.5</ele></trkpt>
      <trkpt lat="46.588104" lon="11.830426"><ele>2475.8</ele></trkpt>
      <trkpt lat="46.588014" lon="11.830415"><ele>2475.3</ele></trkpt>
      <trkpt lat="46.587906" lon="11.830387"><ele>2475</ele></trkpt>
      <trkpt lat="46.587794" lon="11.830415"><ele>2475.3</ele></trkpt>
      <trkpt lat="46.587666" lon="11.830467"><ele>2474</ele></trkpt>
      <trkpt lat="46.587486" lon="11.830599"><ele>2471.5</ele></trkpt>
      <trkpt lat="46.587404" lon="11.830702"><ele>2465</ele></trkpt>
      <trkpt lat="46.587378" lon="11.830784"><ele>2464.5</ele></trkpt>
      <trkpt lat="46.587341" lon="11.830835"><ele>2463</ele></trkpt>
      <trkpt lat="46.587308" lon="11.830946"><ele>2464.5</ele></trkpt>
      <trkpt lat="46.587279" lon="11.831124"><ele>2469.3</ele></trkpt>
      <trkpt lat="46.587287" lon="11.831229"><ele>2469.5</ele></trkpt>
      <trkpt lat="46.587274" lon="11.831349"><ele>2469.3</ele></trkpt>
      <trkpt lat="46.58721" lon="11.83162"><ele>2468.5</ele></trkpt>
      <trkpt lat="46.587134" lon="11.831787"><ele>2468</ele></trkpt>
      <trkpt lat="46.587124" lon="11.831869"><ele>2468.5</ele></trkpt>
      <trkpt lat="46.587092" lon="11.831926"><ele>2468</ele></trkpt>
      <trkpt lat="46.587091" lon="11.83202"><ele>2468.5</ele></trkpt>
      <trkpt lat="46.587065" lon="11.832115"><ele>2468.3</ele></trkpt>
      <trkpt lat="46.587062" lon="11.832182"><ele>2468.5</ele></trkpt>
      <trkpt lat="46.587028" lon="11.832349"><ele>2467.5</ele></trkpt>
      <trkpt lat="46.586999" lon="11.832364"><ele>2466.5</ele></trkpt>
      <trkpt lat="46.58698" lon="11.832397"><ele>2465.8</ele></trkpt>
      <trkpt lat="46.586989" lon="11.832472"><ele>2465.8</ele></trkpt>
      <trkpt lat="46.586984" lon="11.832624"><ele>2466</ele></trkpt>
      <trkpt lat="46.586972" lon="11.832673"><ele>2465.8</ele></trkpt>
      <trkpt lat="46.586943" lon="11.832694"><ele>2464.5</ele></trkpt>
      <trkpt lat="46.586937" lon="11.832727"><ele>2464</ele></trkpt>
      <trkpt lat="46.586942" lon="11.832767"><ele>2464.8</ele></trkpt>
      <trkpt lat="46.586916" lon="11.83299"><ele>2464.5</ele></trkpt>
      <trkpt lat="46.58688" lon="11.8331"><ele>2463</ele></trkpt>
      <trkpt lat="46.586815" lon="11.833188"><ele>2459.8</ele></trkpt>
      <trkpt lat="46.586707" lon="11.833315"><ele>2453.5</ele></trkpt>
      <trkpt lat="46.586672" lon="11.833419"><ele>2454</ele></trkpt>
      <trkpt lat="46.586657" lon="11.833512"><ele>2455.5</ele></trkpt>
      <trkpt lat="46.586659" lon="11.833589"><ele>2458.5</ele></trkpt>
      <trkpt lat="46.586634" lon="11.833695"><ele>2457.5</ele></trkpt>
      <trkpt lat="46.586563" lon="11.83393"><ele>2454.3</ele></trkpt>
      <trkpt lat="46.586552" lon="11.833997"><ele>2454.8</ele></trkpt>
      <trkpt lat="46.586527" lon="11.834004"><ele>2453</ele></trkpt>
      <trkpt lat="46.586505" lon="11.833958"><ele>2450.5</ele></trkpt>
      <trkpt lat="46.586486" lon="11.833963"><ele>2449.3</ele></trkpt>
      <trkpt lat="46.586456" lon="11.834068"><ele>2449.5</ele></trkpt>
      <trkpt lat="46.586418" lon="11.834151"><ele>2448.5</ele></trkpt>
      <trkpt lat="46.586383" lon="11.834209"><ele>2446.3</ele></trkpt>
      <trkpt lat="46.586378" lon="11.834287"><ele>2445.8</ele></trkpt>
      <trkpt lat="46.586393" lon="11.834369"><ele>2445.8</ele></trkpt>
      <trkpt lat="46.586584" lon="11.834802"><ele>2445</ele></trkpt>
      <trkpt lat="46.586619" lon="11.834993"><ele>2441.3</ele></trkpt>
      <trkpt lat="46.58664" lon="11.835156"><ele>2440.3</ele></trkpt>
      <trkpt lat="46.586623" lon="11.835433"><ele>2438.3</ele></trkpt>
      <trkpt lat="46.586564" lon="11.835511"><ele>2436.3</ele></trkpt>
      <trkpt lat="46.586479" lon="11.835605"><ele>2433.8</ele></trkpt>
      <trkpt lat="46.586416" lon="11.835713"><ele>2432.5</ele></trkpt>
      <trkpt lat="46.58632" lon="11.835951"><ele>2430.5</ele></trkpt>
      <trkpt lat="46.586276" lon="11.836076"><ele>2429</ele></trkpt>
      <trkpt lat="46.586246" lon="11.836208"><ele>2428.5</ele></trkpt>
      <trkpt lat="46.586232" lon="11.836333"><ele>2429.3</ele></trkpt>
      <trkpt lat="46.586269" lon="11.836471"><ele>2432.8</ele></trkpt>
      <trkpt lat="46.586253" lon="11.836594"><ele>2431.5</ele></trkpt>
      <trkpt lat="46.586232" lon="11.836671"><ele>2430.5</ele></trkpt>
      <trkpt lat="46.58623" lon="11.836775"><ele>2432.3</ele></trkpt>
      <trkpt lat="46.586202" lon="11.836863"><ele>2432.5</ele></trkpt>
      <trkpt lat="46.586167" lon="11.83695"><ele>2433</ele></trkpt>
      <trkpt lat="46.586119" lon="11.837022"><ele>2432</ele></trkpt>
      <trkpt lat="46.586059" lon="11.837183"><ele>2431</ele></trkpt>
      <trkpt lat="46.586011" lon="11.837244"><ele>2430</ele></trkpt>
      <trkpt lat="46.585861" lon="11.837368"><ele>2427.5</ele></trkpt>
      <trkpt lat="46.585799" lon="11.837425"><ele>2428.3</ele></trkpt>
      <trkpt lat="46.585627" lon="11.837454"><ele>2428</ele></trkpt>
      <trkpt lat="46.58558" lon="11.837438"><ele>2427.3</ele></trkpt>
      <trkpt lat="46.585468" lon="11.837357"><ele>2427</ele></trkpt>
      <trkpt lat="46.585374" lon="11.83724"><ele>2425.5</ele></trkpt>
      <trkpt lat="46.585349" lon="11.837194"><ele>2424.8</ele></trkpt>
      <trkpt lat="46.585319" lon="11.837173"><ele>2425.3</ele></trkpt>
      <trkpt lat="46.585288" lon="11.837171"><ele>2426.3</ele></trkpt>
      <trkpt lat="46.58526" lon="11.837153"><ele>2427</ele></trkpt>
      <trkpt lat="46.585236" lon="11.837092"><ele>2427</ele></trkpt>
      <trkpt lat="46.58518" lon="11.837062"><ele>2427.8</ele></trkpt>
      <trkpt lat="46.58513" lon="11.83705"><ele>2428.5</ele></trkpt>
      <trkpt lat="46.585061" lon="11.836969"><ele>2427.3</ele></trkpt>
      <trkpt lat="46.5849" lon="11.836895"><ele>2424.8</ele></trkpt>
      <trkpt lat="46.584686" lon="11.836982"><ele>2428.8</ele></trkpt>
      <trkpt lat="46.584619" lon="11.837032"><ele>2429.5</ele></trkpt>
      <trkpt lat="46.584534" lon="11.83705"><ele>2428.8</ele></trkpt>
      <trkpt lat="46.584424" lon="11.837139"><ele>2429.8</ele></trkpt>
      <trkpt lat="46.584382" lon="11.837153"><ele>2429.5</ele></trkpt>
      <trkpt lat="46.584276" lon="11.83716"><ele>2427.8</ele></trkpt>
      <trkpt lat="46.584232" lon="11.837181"><ele>2427.5</ele></trkpt>
      <trkpt lat="46.584139" lon="11.837247"><ele>2428</ele></trkpt>
      <trkpt lat="46.584073" lon="11.837273"><ele>2426.5</ele></trkpt>
      <trkpt lat="46.583973" lon="11.837368"><ele>2426.3</ele></trkpt>
      <trkpt lat="46.583781" lon="11.837457"><ele>2422.8</ele></trkpt>
      <trkpt lat="46.583691" lon="11.837553"><ele>2423.5</ele></trkpt>
      <trkpt lat="46.583646" lon="11.837567"><ele>2422.3</ele></trkpt>
      <trkpt lat="46.583544" lon="11.837645"><ele>2422.3</ele></trkpt>
      <trkpt lat="46.583489" lon="11.837719"><ele>2423.8</ele></trkpt>
      <trkpt lat="46.583339" lon="11.837741"><ele>2423</ele></trkpt>
      <trkpt lat="46.583082" lon="11.837762"><ele>2421.8</ele></trkpt>
      <trkpt lat="46.583054" lon="11.837775"><ele>2421.8</ele></trkpt>
      <trkpt lat="46.583028" lon="11.837804"><ele>2421.8</ele></trkpt>
      <trkpt lat="46.582977" lon="11.837918"><ele>2423</ele></trkpt>
      <trkpt lat="46.582953" lon="11.837946"><ele>2423</ele></trkpt>
      <trkpt lat="46.582924" lon="11.837962"><ele>2422.8</ele></trkpt>
      <trkpt lat="46.582844" lon="11.837966"><ele>2421.5</ele></trkpt>
      <trkpt lat="46.582696" lon="11.83804"><ele>2421.5</ele></trkpt>
      <trkpt lat="46.582655" lon="11.838052"><ele>2421.8</ele></trkpt>
      <trkpt lat="46.582575" lon="11.838122"><ele>2423.3</ele></trkpt>
      <trkpt lat="46.582515" lon="11.838146"><ele>2423.5</ele></trkpt>
      <trkpt lat="46.58248" lon="11.83815"><ele>2423.8</ele></trkpt>
      <trkpt lat="46.582397" lon="11.838203"><ele>2425</ele></trkpt>
      <trkpt lat="46.582332" lon="11.838213"><ele>2425.3</ele></trkpt>
      <trkpt lat="46.582293" lon="11.838234"><ele>2425.8</ele></trkpt>
      <trkpt lat="46.582265" lon="11.838267"><ele>2426.5</ele></trkpt>
      <trkpt lat="46.582192" lon="11.838274"><ele>2426.5</ele></trkpt>
      <trkpt lat="46.582116" lon="11.838252"><ele>2425.5</ele></trkpt>
      <trkpt lat="46.582028" lon="11.838247"><ele>2424.5</ele></trkpt>
      <trkpt lat="46.581934" lon="11.838254"><ele>2423.5</ele></trkpt>
      <trkpt lat="46.581747" lon="11.838241"><ele>2421.3</ele></trkpt>
      <trkpt lat="46.581642" lon="11.838279"><ele>2420.5</ele></trkpt>
      <trkpt lat="46.581553" lon="11.838277"><ele>2419</ele></trkpt>
      <trkpt lat="46.581455" lon="11.838304"><ele>2418.3</ele></trkpt>
      <trkpt lat="46.581294" lon="11.838248"><ele>2414.8</ele></trkpt>
      <trkpt lat="46.581128" lon="11.838244"><ele>2412.8</ele></trkpt>
      <trkpt lat="46.581034" lon="11.838312"><ele>2413</ele></trkpt>
      <trkpt lat="46.580888" lon="11.838348"><ele>2411.3</ele></trkpt>
      <trkpt lat="46.580841" lon="11.838367"><ele>2410.8</ele></trkpt>
      <trkpt lat="46.58075" lon="11.838383"><ele>2410.3</ele></trkpt>
      <trkpt lat="46.580714" lon="11.838414"><ele>2410.5</ele></trkpt>
      <trkpt lat="46.580678" lon="11.83846"><ele>2411.3</ele></trkpt>
      <trkpt lat="46.580608" lon="11.838482"><ele>2410.8</ele></trkpt>
      <trkpt lat="46.580561" lon="11.838538"><ele>2411.3</ele></trkpt>
      <trkpt lat="46.58035" lon="11.83865"><ele>2410</ele></trkpt>
      <trkpt lat="46.580279" lon="11.838768"><ele>2410.3</ele></trkpt>
      <trkpt lat="46.580249" lon="11.838796"><ele>2410</ele></trkpt>
      <trkpt lat="46.580178" lon="11.838822"><ele>2409.3</ele></trkpt>
      <trkpt lat="46.580164" lon="11.838836"><ele>2409.3</ele></trkpt>
      <trkpt lat="46.580118" lon="11.838848"><ele>2408.8</ele></trkpt>
      <trkpt lat="46.580054" lon="11.838795"><ele>2406.8</ele></trkpt>
      <trkpt lat="46.579963" lon="11.838809"><ele>2406.3</ele></trkpt>
      <trkpt lat="46.579845" lon="11.838741"><ele>2404.8</ele></trkpt>
      <trkpt lat="46.579806" lon="11.838692"><ele>2403.5</ele></trkpt>
      <trkpt lat="46.579759" lon="11.838591"><ele>2401.5</ele></trkpt>
      <trkpt lat="46.579719" lon="11.838602"><ele>2401.8</ele></trkpt>
      <trkpt lat="46.579674" lon="11.838638"><ele>2402.5</ele></trkpt>
      <trkpt lat="46.579599" lon="11.838662"><ele>2403</ele></trkpt>
      <trkpt lat="46.579549" lon="11.838619"><ele>2402</ele></trkpt>
      <trkpt lat="46.579497" lon="11.838598"><ele>2401.5</ele></trkpt>
      <trkpt lat="46.579453" lon="11.838553"><ele>2399.5</ele></trkpt>
      <trkpt lat="46.579398" lon="11.838543"><ele>2399.8</ele></trkpt>
      <trkpt lat="46.579325" lon="11.838552"><ele>2400.8</ele></trkpt>
      <trkpt lat="46.579256" lon="11.838544"><ele>2401</ele></trkpt>
      <trkpt lat="46.579186" lon="11.838481"><ele>2400</ele></trkpt>
      <trkpt lat="46.579147" lon="11.838466"><ele>2399.8</ele></trkpt>
      <trkpt lat="46.579102" lon="11.838462"><ele>2399.5</ele></trkpt>
      <trkpt lat="46.57902" lon="11.838405"><ele>2398.5</ele></trkpt>
      <trkpt lat="46.578884" lon="11.838379"><ele>2398.5</ele></trkpt>
      <trkpt lat="46.578843" lon="11.838349"><ele>2397.5</ele></trkpt>
      <trkpt lat="46.578717" lon="11.838319"><ele>2395.8</ele></trkpt>
      <trkpt lat="46.578642" lon="11.838329"><ele>2395.3</ele></trkpt>
      <trkpt lat="46.57859" lon="11.838316"><ele>2394.5</ele></trkpt>
      <trkpt lat="46.578428" lon="11.838245"><ele>2392</ele></trkpt>
      <trkpt lat="46.578261" lon="11.838225"><ele>2390.5</ele></trkpt>
      <trkpt lat="46.578175" lon="11.838263"><ele>2390.3</ele></trkpt>
      <trkpt lat="46.578124" lon="11.838253"><ele>2390</ele></trkpt>
      <trkpt lat="46.57807" lon="11.838231"><ele>2389.5</ele></trkpt>
      <trkpt lat="46.577969" lon="11.838212"><ele>2389.3</ele></trkpt>
      <trkpt lat="46.577783" lon="11.838153"><ele>2388.5</ele></trkpt>
      <trkpt lat="46.577731" lon="11.838118"><ele>2388</ele></trkpt>
      <trkpt lat="46.577678" lon="11.838108"><ele>2387.8</ele></trkpt>
      <trkpt lat="46.577577" lon="11.838057"><ele>2387.3</ele></trkpt>
      <trkpt lat="46.577525" lon="11.83802"><ele>2387</ele></trkpt>
      <trkpt lat="46.577408" lon="11.83807"><ele>2382.5</ele></trkpt>
      <trkpt lat="46.577261" lon="11.838051"><ele>2375</ele></trkpt>
      <trkpt lat="46.577232" lon="11.838112"><ele>2374.8</ele></trkpt>
      <trkpt lat="46.577196" lon="11.838066"><ele>2371</ele></trkpt>
      <trkpt lat="46.577178" lon="11.838126"><ele>2370.8</ele></trkpt>
      <trkpt lat="46.577167" lon="11.838071"><ele>2368.5</ele></trkpt>
      <trkpt lat="46.577152" lon="11.838096"><ele>2367.8</ele></trkpt>
      <trkpt lat="46.577147" lon="11.837929"><ele>2369.3</ele></trkpt>
      <trkpt lat="46.57709" lon="11.837818"><ele>2367</ele></trkpt>
      <trkpt lat="46.577037" lon="11.83763"><ele>2366.3</ele></trkpt>
      <trkpt lat="46.576984" lon="11.837576"><ele>2366.5</ele></trkpt>
      <trkpt lat="46.576831" lon="11.837507"><ele>2370.3</ele></trkpt>
      <trkpt lat="46.576455" lon="11.837426"><ele>2371.3</ele></trkpt>
      <trkpt lat="46.576398" lon="11.83738"><ele>2372.3</ele></trkpt>
      <trkpt lat="46.576315" lon="11.837227"><ele>2376</ele></trkpt>
      <trkpt lat="46.576269" lon="11.837179"><ele>2375.5</ele></trkpt>
      <trkpt lat="46.576231" lon="11.837162"><ele>2374.5</ele></trkpt>
      <trkpt lat="46.575872" lon="11.837077"><ele>2373.3</ele></trkpt>
      <trkpt lat="46.575796" lon="11.837012"><ele>2375.5</ele></trkpt>
      <trkpt lat="46.575696" lon="11.836983"><ele>2376.8</ele></trkpt>
      <trkpt lat="46.575529" lon="11.836828"><ele>2380.3</ele></trkpt>
      <trkpt lat="46.575363" lon="11.83673"><ele>2382.3</ele></trkpt>
      <trkpt lat="46.575291" lon="11.836645"><ele>2383.3</ele></trkpt>
      <trkpt lat="46.575237" lon="11.836548"><ele>2385.5</ele></trkpt>
      <trkpt lat="46.575178" lon="11.836499"><ele>2387</ele></trkpt>
      <trkpt lat="46.574891" lon="11.836254"><ele>2393.3</ele></trkpt>
      <trkpt lat="46.574797" lon="11.836008"><ele>2397.3</ele></trkpt>
      <trkpt lat="46.574734" lon="11.835762"><ele>2399</ele></trkpt>
      <trkpt lat="46.574653" lon="11.83567"><ele>2400</ele></trkpt>
      <trkpt lat="46.57461" lon="11.835496"><ele>2400.3</ele></trkpt>
      <trkpt lat="46.574612" lon="11.835068"><ele>2397.3</ele></trkpt>
      <trkpt lat="46.574527" lon="11.834636"><ele>2398.3</ele></trkpt>
      <trkpt lat="46.574431" lon="11.834349"><ele>2398</ele></trkpt>
      <trkpt lat="46.574217" lon="11.833799"><ele>2400.8</ele></trkpt>
      <trkpt lat="46.57412" lon="11.833667"><ele>2402.5</ele></trkpt>
      <trkpt lat="46.574058" lon="11.833652"><ele>2403</ele></trkpt>
      <trkpt lat="46.573935" lon="11.83367"><ele>2403</ele></trkpt>
      <trkpt lat="46.573876" lon="11.833638"><ele>2403.8</ele></trkpt>
      <trkpt lat="46.573841" lon="11.833589"><ele>2405.5</ele></trkpt>
      <trkpt lat="46.573837" lon="11.833515"><ele>2407.3</ele></trkpt>
      <trkpt lat="46.573807" lon="11.833379"><ele>2410.5</ele></trkpt>
      <trkpt lat="46.573574" lon="11.833171"><ele>2414</ele></trkpt>
      <trkpt lat="46.573427" lon="11.833054"><ele>2413.5</ele></trkpt>
      <trkpt lat="46.573363" lon="11.832935"><ele>2413.3</ele></trkpt>
      <trkpt lat="46.57327" lon="11.832883"><ele>2413.3</ele></trkpt>
      <trkpt lat="46.573178" lon="11.832854"><ele>2414</ele></trkpt>
      <trkpt lat="46.573053" lon="11.832846"><ele>2415.3</ele></trkpt>
      <trkpt lat="46.572957" lon="11.832778"><ele>2414.8</ele></trkpt>
      <trkpt lat="46.572801" lon="11.832709"><ele>2413.8</ele></trkpt>
      <trkpt lat="46.572333" lon="11.832457"><ele>2417.5</ele></trkpt>
      <trkpt lat="46.572093" lon="11.832435"><ele>2420</ele></trkpt>
      <trkpt lat="46.571968" lon="11.832365"><ele>2422</ele></trkpt>
      <trkpt lat="46.571417" lon="11.83154"><ele>2424.8</ele></trkpt>
      <trkpt lat="46.571242" lon="11.831427"><ele>2425.5</ele></trkpt>
      <trkpt lat="46.571035" lon="11.831405"><ele>2425</ele></trkpt>
      <trkpt lat="46.570857" lon="11.831201"><ele>2423</ele></trkpt>
      <trkpt lat="46.570438" lon="11.830837"><ele>2420.5</ele></trkpt>
      <trkpt lat="46.570099" lon="11.830325"><ele>2418.3</ele></trkpt>
      <trkpt lat="46.569936" lon="11.829877"><ele>2420.8</ele></trkpt>
      <trkpt lat="46.569809" lon="11.829812"><ele>2424.3</ele></trkpt>
      <trkpt lat="46.569723" lon="11.829663"><ele>2426</ele></trkpt>
      <trkpt lat="46.569563" lon="11.829637"><ele>2427.8</ele></trkpt>
      <trkpt lat="46.569391" lon="11.829517"><ele>2429.3</ele></trkpt>
      <trkpt lat="46.569237" lon="11.829507"><ele>2430.8</ele></trkpt>
      <trkpt lat="46.569084" lon="11.829459"><ele>2431.3</ele></trkpt>
      <trkpt lat="46.568955" lon="11.82938"><ele>2430</ele></trkpt>
      <trkpt lat="46.568838" lon="11.829344"><ele>2428.5</ele></trkpt>
      <trkpt lat="46.568698" lon="11.829391"><ele>2426</ele></trkpt>
      <trkpt lat="46.568597" lon="11.829389"><ele>2423.5</ele></trkpt>
      <trkpt lat="46.568396" lon="11.829485"><ele>2413.3</ele></trkpt>
      <trkpt lat="46.568324" lon="11.829545"><ele>2410.5</ele></trkpt>
      <trkpt lat="46.568202" lon="11.829692"><ele>2409.5</ele></trkpt>
      <trkpt lat="46.568164" lon="11.829718"><ele>2409</ele></trkpt>
      <trkpt lat="46.56813" lon="11.829702"><ele>2407.8</ele></trkpt>
      <trkpt lat="46.568088" lon="11.829621"><ele>2405</ele></trkpt>
      <trkpt lat="46.568093" lon="11.829583"><ele>2404.5</ele></trkpt>
      <trkpt lat="46.568077" lon="11.82955"><ele>2403.5</ele></trkpt>
      <trkpt lat="46.568047" lon="11.829556"><ele>2403</ele></trkpt>
      <trkpt lat="46.568019" lon="11.829562"><ele>2403.5</ele></trkpt>
      <trkpt lat="46.567928" lon="11.829548"><ele>2404</ele></trkpt>
      <trkpt lat="46.567771" lon="11.829618"><ele>2407</ele></trkpt>
      <trkpt lat="46.567666" lon="11.829571"><ele>2406.5</ele></trkpt>
      <trkpt lat="46.567575" lon="11.829496"><ele>2405.5</ele></trkpt>
      <trkpt lat="46.567471" lon="11.82947"><ele>2405.5</ele></trkpt>
      <trkpt lat="46.56742" lon="11.829406"><ele>2404.5</ele></trkpt>
      <trkpt lat="46.567393" lon="11.829318"><ele>2402.8</ele></trkpt>
      <trkpt lat="46.567332" lon="11.829258"><ele>2401.8</ele></trkpt>
      <trkpt lat="46.567187" lon="11.829178"><ele>2401.3</ele></trkpt>
      <trkpt lat="46.567146" lon="11.829101"><ele>2400.8</ele></trkpt>
      <trkpt lat="46.567086" lon="11.829105"><ele>2402.5</ele></trkpt>
      <trkpt lat="46.566977" lon="11.828801"><ele>2399.8</ele></trkpt>
      <trkpt lat="46.566834" lon="11.82864"><ele>2399.8</ele></trkpt>
      <trkpt lat="46.566693" lon="11.828452"><ele>2400.8</ele></trkpt>
      <trkpt lat="46.566549" lon="11.82829"><ele>2402.3</ele></trkpt>
      <trkpt lat="46.566354" lon="11.82805"><ele>2402.3</ele></trkpt>
      <trkpt lat="46.566305" lon="11.827866"><ele>2401</ele></trkpt>
      <trkpt lat="46.566207" lon="11.827649"><ele>2401.3</ele></trkpt>
      <trkpt lat="46.566203" lon="11.827599"><ele>2401</ele></trkpt>
      <trkpt lat="46.566134" lon="11.827417"><ele>2402</ele></trkpt>
      <trkpt lat="46.566076" lon="11.82715"><ele>2403</ele></trkpt>
      <trkpt lat="46.566055" lon="11.826987"><ele>2403</ele></trkpt>
      <trkpt lat="46.566048" lon="11.826863"><ele>2403.3</ele></trkpt>
      <trkpt lat="46.566005" lon="11.826555"><ele>2405.3</ele></trkpt>
      <trkpt lat="46.565945" lon="11.826341"><ele>2407.3</ele></trkpt>
      <trkpt lat="46.565939" lon="11.826231"><ele>2408</ele></trkpt>
      <trkpt lat="46.565925" lon="11.825529"><ele>2418.3</ele></trkpt>
      <trkpt lat="46.566032" lon="11.825575"><ele>2418.5</ele></trkpt>
      <trkpt lat="46.566089" lon="11.82557"><ele>2419.3</ele></trkpt>
      <trkpt lat="46.566115" lon="11.825518"><ele>2420.3</ele></trkpt>
      <trkpt lat="46.566106" lon="11.825404"><ele>2421.5</ele></trkpt>
      <trkpt lat="46.566037" lon="11.82527"><ele>2422.8</ele></trkpt>
      <trkpt lat="46.56592" lon="11.825159"><ele>2424.8</ele></trkpt>
      <trkpt lat="46.565776" lon="11.824932"><ele>2434.3</ele></trkpt>
      <trkpt lat="46.565746" lon="11.824852"><ele>2437</ele></trkpt>
      <trkpt lat="46.565639" lon="11.824799"><ele>2441.3</ele></trkpt>
      <trkpt lat="46.565497" lon="11.824802"><ele>2445.5</ele></trkpt>
      <trkpt lat="46.565482" lon="11.824716"><ele>2450</ele></trkpt>
      <trkpt lat="46.565507" lon="11.824564"><ele>2455.8</ele></trkpt>
      <trkpt lat="46.565531" lon="11.824366"><ele>2463.5</ele></trkpt>
      <trkpt lat="46.565637" lon="11.824227"><ele>2467.8</ele></trkpt>
      <trkpt lat="46.565648" lon="11.824159"><ele>2470.8</ele></trkpt>
      <trkpt lat="46.565473" lon="11.824106"><ele>2476.8</ele></trkpt>
      <trkpt lat="46.565512" lon="11.8238"><ele>2486.5</ele></trkpt>
      <trkpt lat="46.565433" lon="11.823818"><ele>2489</ele></trkpt>
      <trkpt lat="46.565409" lon="11.823645"><ele>2495.5</ele></trkpt>
      <trkpt lat="46.565233" lon="11.823729"><ele>2499.5</ele></trkpt>
      <trkpt lat="46.565141" lon="11.823642"><ele>2505.8</ele></trkpt>
      <trkpt lat="46.565129" lon="11.823494"><ele>2509</ele></trkpt>
      <trkpt lat="46.565046" lon="11.823253"><ele>2515</ele></trkpt>
      <trkpt lat="46.56502" lon="11.823237"><ele>2516</ele></trkpt>
      <trkpt lat="46.565003" lon="11.823182"><ele>2516.8</ele></trkpt>
      <trkpt lat="46.564954" lon="11.823127"><ele>2518.8</ele></trkpt>
      <trkpt lat="46.564918" lon="11.823132"><ele>2519.8</ele></trkpt>
      <trkpt lat="46.564886" lon="11.823204"><ele>2520.3</ele></trkpt>
      <trkpt lat="46.564846" lon="11.823206"><ele>2521.5</ele></trkpt>
      <trkpt lat="46.564677" lon="11.822918"><ele>2525.5</ele></trkpt>
      <trkpt lat="46.564576" lon="11.822758"><ele>2523.5</ele></trkpt>
      <trkpt lat="46.564572" lon="11.822745"><ele>2523.3</ele></trkpt>
      <trkpt lat="46.564557" lon="11.82267"><ele>2521.3</ele></trkpt>
      <trkpt lat="46.564574" lon="11.822597"><ele>2520.3</ele></trkpt>
      <trkpt lat="46.564568" lon="11.822534"><ele>2518.8</ele></trkpt>
      <trkpt lat="46.564611" lon="11.822468"><ele>2519.5</ele></trkpt>
      <trkpt lat="46.56458" lon="11.822398"><ele>2515.8</ele></trkpt>
      <trkpt lat="46.564598" lon="11.822306"><ele>2514.3</ele></trkpt>
      <trkpt lat="46.56456" lon="11.822296"><ele>2511.5</ele></trkpt>
      <trkpt lat="46.564576" lon="11.822097"><ele>2506.5</ele></trkpt>
      <trkpt lat="46.564547" lon="11.82208"><ele>2504</ele></trkpt>
      <trkpt lat="46.564575" lon="11.82201"><ele>2503.8</ele></trkpt>
      <trkpt lat="46.564531" lon="11.821975"><ele>2499.8</ele></trkpt>
      <trkpt lat="46.564554" lon="11.821877"><ele>2498.8</ele></trkpt>
      <trkpt lat="46.564526" lon="11.821861"><ele>2496.3</ele></trkpt>
      <trkpt lat="46.564541" lon="11.821765"><ele>2495</ele></trkpt>
      <trkpt lat="46.564512" lon="11.821745"><ele>2492.5</ele></trkpt>
      <trkpt lat="46.564519" lon="11.821694"><ele>2491.8</ele></trkpt>
      <trkpt lat="46.564463" lon="11.821686"><ele>2487.8</ele></trkpt>
      <trkpt lat="46.564425" lon="11.821647"><ele>2484.3</ele></trkpt>
      <trkpt lat="46.564222" lon="11.821774"><ele>2477</ele></trkpt>
      <trkpt lat="46.564154" lon="11.821781"><ele>2474</ele></trkpt>
      <trkpt lat="46.564115" lon="11.82175"><ele>2473</ele></trkpt>
      <trkpt lat="46.564062" lon="11.821715"><ele>2471.5</ele></trkpt>
      <trkpt lat="46.563971" lon="11.821691"><ele>2470.3</ele></trkpt>
      <trkpt lat="46.562587" lon="11.820314"><ele>2450.8</ele></trkpt>
      <trkpt lat="46.562434" lon="11.819818"><ele>2444.8</ele></trkpt>
      <trkpt lat="46.56224" lon="11.819513"><ele>2446.5</ele></trkpt>
      <trkpt lat="46.56215" lon="11.819319"><ele>2448.8</ele></trkpt>
      <trkpt lat="46.562089" lon="11.819081"><ele>2448</ele></trkpt>
      <trkpt lat="46.56201" lon="11.81891"><ele>2448.5</ele></trkpt>
      <trkpt lat="46.561983" lon="11.818782"><ele>2447.3</ele></trkpt>
      <trkpt lat="46.56192" lon="11.818606"><ele>2448.8</ele></trkpt>
      <trkpt lat="46.56189" lon="11.818393"><ele>2449</ele></trkpt>
      <trkpt lat="46.561899" lon="11.818167"><ele>2444.8</ele></trkpt>
      <trkpt lat="46.561846" lon="11.817947"><ele>2446.8</ele></trkpt>
      <trkpt lat="46.561788" lon="11.81774"><ele>2449.5</ele></trkpt>
      <trkpt lat="46.561844" lon="11.817407"><ele>2439.3</ele></trkpt>
      <trkpt lat="46.561681" lon="11.816902"><ele>2446</ele></trkpt>
      <trkpt lat="46.561696" lon="11.816705"><ele>2441.5</ele></trkpt>
      <trkpt lat="46.561677" lon="11.81653"><ele>2440</ele></trkpt>
      <trkpt lat="46.561645" lon="11.81635"><ele>2440.3</ele></trkpt>
      <trkpt lat="46.56162" lon="11.816144"><ele>2444.5</ele></trkpt>
      <trkpt lat="46.56159" lon="11.816135"><ele>2447.5</ele></trkpt>
      <trkpt lat="46.56157" lon="11.815998"><ele>2449</ele></trkpt>
      <trkpt lat="46.561527" lon="11.816051"><ele>2453.8</ele></trkpt>
      <trkpt lat="46.56152" lon="11.815927"><ele>2452.8</ele></trkpt>
      <trkpt lat="46.561487" lon="11.815974"><ele>2456.5</ele></trkpt>
      <trkpt lat="46.561472" lon="11.815895"><ele>2456.5</ele></trkpt>
      <trkpt lat="46.561426" lon="11.815821"><ele>2458.5</ele></trkpt>
      <trkpt lat="46.561302" lon="11.815716"><ele>2460.5</ele></trkpt>
      <trkpt lat="46.56124" lon="11.815744"><ele>2462.8</ele></trkpt>
      <trkpt lat="46.561132" lon="11.815924"><ele>2464.3</ele></trkpt>
      <trkpt lat="46.561118" lon="11.815981"><ele>2462.8</ele></trkpt>
      <trkpt lat="46.561047" lon="11.816052"><ele>2457.3</ele></trkpt>
      <trkpt lat="46.561122" lon="11.816203"><ele>2455.8</ele></trkpt>
      <trkpt lat="46.561024" lon="11.816164"><ele>2451.8</ele></trkpt>
      <trkpt lat="46.561088" lon="11.816252"><ele>2452</ele></trkpt>
      <trkpt lat="46.560969" lon="11.816197"><ele>2447.3</ele></trkpt>
      <trkpt lat="46.560996" lon="11.816291"><ele>2445</ele></trkpt>
      <trkpt lat="46.560822" lon="11.816154"><ele>2440.5</ele></trkpt>
      <trkpt lat="46.560711" lon="11.816164"><ele>2433.8</ele></trkpt>
      <trkpt lat="46.560845" lon="11.816391"><ele>2432.5</ele></trkpt>
      <trkpt lat="46.56074" lon="11.816364"><ele>2428.8</ele></trkpt>
      <trkpt lat="46.560752" lon="11.816421"><ele>2428.3</ele></trkpt>
      <trkpt lat="46.56075" lon="11.81655"><ele>2427.8</ele></trkpt>
      <trkpt lat="46.560591" lon="11.816645"><ele>2422.8</ele></trkpt>
      <trkpt lat="46.560457" lon="11.816689"><ele>2422</ele></trkpt>
      <trkpt lat="46.560359" lon="11.816669"><ele>2421.3</ele></trkpt>
      <trkpt lat="46.559927" lon="11.816992"><ele>2419.5</ele></trkpt>
      <trkpt lat="46.559786" lon="11.81713"><ele>2419.5</ele></trkpt>
      <trkpt lat="46.559637" lon="11.817236"><ele>2419.8</ele></trkpt>
      <trkpt lat="46.559454" lon="11.81719"><ele>2420.3</ele></trkpt>
      <trkpt lat="46.559369" lon="11.816973"><ele>2413.8</ele></trkpt>
      <trkpt lat="46.559335" lon="11.816625"><ele>2412.3</ele></trkpt>
      <trkpt lat="46.559409" lon="11.816477"><ele>2413.5</ele></trkpt>
      <trkpt lat="46.559442" lon="11.816369"><ele>2414.3</ele></trkpt>
      <trkpt lat="46.559684" lon="11.816209"><ele>2418.8</ele></trkpt>
      <trkpt lat="46.559736" lon="11.816098"><ele>2419.8</ele></trkpt>
      <trkpt lat="46.559593" lon="11.815797"><ele>2417.8</ele></trkpt>
      <trkpt lat="46.559463" lon="11.815394"><ele>2417</ele></trkpt>
      <trkpt lat="46.559413" lon="11.814891"><ele>2417.3</ele></trkpt>
      <trkpt lat="46.559153" lon="11.814372"><ele>2408.5</ele></trkpt>
      <trkpt lat="46.559107" lon="11.813854"><ele>2388.8</ele></trkpt>
      <trkpt lat="46.558987" lon="11.8135"><ele>2380.8</ele></trkpt>
      <trkpt lat="46.558963" lon="11.813465"><ele>2379.8</ele></trkpt>
      <trkpt lat="46.55888" lon="11.81342"><ele>2376.3</ele></trkpt>
      <trkpt lat="46.558853" lon="11.813358"><ele>2375</ele></trkpt>
      <trkpt lat="46.558805" lon="11.813387"><ele>2373</ele></trkpt>
      <trkpt lat="46.558615" lon="11.813275"><ele>2362.8</ele></trkpt>
      <trkpt lat="46.558541" lon="11.813253"><ele>2361.5</ele></trkpt>
      <trkpt lat="46.558334" lon="11.813092"><ele>2346</ele></trkpt>
      <trkpt lat="46.558334" lon="11.813055"><ele>2343</ele></trkpt>
      <trkpt lat="46.558261" lon="11.81298"><ele>2339</ele></trkpt>
      <trkpt lat="46.558189" lon="11.813001"><ele>2336.3</ele></trkpt>
      <trkpt lat="46.557943" lon="11.812827"><ele>2315.3</ele></trkpt>
      <trkpt lat="46.557929" lon="11.812776"><ele>2312.3</ele></trkpt>
      <trkpt lat="46.557735" lon="11.812813"><ele>2301</ele></trkpt>
      <trkpt lat="46.557439" lon="11.812662"><ele>2282.3</ele></trkpt>
      <trkpt lat="46.557358" lon="11.812386"><ele>2274</ele></trkpt>
      <trkpt lat="46.557279" lon="11.812377"><ele>2269.3</ele></trkpt>
      <trkpt lat="46.557221" lon="11.812285"><ele>2265.8</ele></trkpt>
      <trkpt lat="46.557138" lon="11.812288"><ele>2261</ele></trkpt>
      <trkpt lat="46.556998" lon="11.812106"><ele>2252</ele></trkpt>
      <trkpt lat="46.557009" lon="11.811997"><ele>2251.8</ele></trkpt>
      <trkpt lat="46.55694" lon="11.811922"><ele>2247.5</ele></trkpt>
      <trkpt lat="46.556928" lon="11.811812"><ele>2245.5</ele></trkpt>
      <trkpt lat="46.556836" lon="11.811777"><ele>2240.8</ele></trkpt>
      <trkpt lat="46.556815" lon="11.811635"><ele>2238.3</ele></trkpt>
      <trkpt lat="46.556669" lon="11.811603"><ele>2230.8</ele></trkpt>
      <trkpt lat="46.556643" lon="11.811353"><ele>2226.3</ele></trkpt>
      <trkpt lat="46.556597" lon="11.811283"><ele>2224.8</ele></trkpt>
      <trkpt lat="46.556564" lon="11.811301"><ele>2223.8</ele></trkpt>
      <trkpt lat="46.556441" lon="11.811436"><ele>2221.5</ele></trkpt>
      <trkpt lat="46.556366" lon="11.811494"><ele>2219.8</ele></trkpt>
      <trkpt lat="46.556229" lon="11.811533"><ele>2217.8</ele></trkpt>
      <trkpt lat="46.556269" lon="11.811435"><ele>2217.5</ele></trkpt>
      <trkpt lat="46.556294" lon="11.811301"><ele>2216.8</ele></trkpt>
      <trkpt lat="46.556306" lon="11.811092"><ele>2215.5</ele></trkpt>
      <trkpt lat="46.556292" lon="11.810904"><ele>2214.3</ele></trkpt>
      <trkpt lat="46.556222" lon="11.810568"><ele>2212.5</ele></trkpt>
      <trkpt lat="46.556138" lon="11.810251"><ele>2208.5</ele></trkpt>
      <trkpt lat="46.556098" lon="11.810171"><ele>2207</ele></trkpt>
      <trkpt lat="46.556008" lon="11.809876"><ele>2203.8</ele></trkpt>
      <trkpt lat="46.555899" lon="11.809595"><ele>2199</ele></trkpt>
      <trkpt lat="46.555794" lon="11.809377"><ele>2196</ele></trkpt>
      <trkpt lat="46.555722" lon="11.809252"><ele>2194.8</ele></trkpt>
      <trkpt lat="46.555632" lon="11.809127"><ele>2193</ele></trkpt>
      <trkpt lat="46.555492" lon="11.80898"><ele>2190.5</ele></trkpt>
      <trkpt lat="46.555388" lon="11.808891"><ele>2190</ele></trkpt>
      <trkpt lat="46.555271" lon="11.808836"><ele>2189.3</ele></trkpt>
      <trkpt lat="46.555186" lon="11.808819"><ele>2189.3</ele></trkpt>
      <trkpt lat="46.555063" lon="11.808815"><ele>2188.8</ele></trkpt>
      <trkpt lat="46.55488" lon="11.808849"><ele>2188</ele></trkpt>
      <trkpt lat="46.554778" lon="11.808885"><ele>2187.3</ele></trkpt>
      <trkpt lat="46.554674" lon="11.808923"><ele>2185.3</ele></trkpt>
      <trkpt lat="46.554537" lon="11.808957"><ele>2182</ele></trkpt>
      <trkpt lat="46.554363" lon="11.808938"><ele>2178</ele></trkpt>
      <trkpt lat="46.554148" lon="11.808873"><ele>2173</ele></trkpt>
      <trkpt lat="46.553933" lon="11.808859"><ele>2168.5</ele></trkpt>
      <trkpt lat="46.553788" lon="11.808921"><ele>2164.5</ele></trkpt>
      <trkpt lat="46.553581" lon="11.808967"><ele>2159.8</ele></trkpt>
      <trkpt lat="46.553318" lon="11.808903"><ele>2155.5</ele></trkpt>
      <trkpt lat="46.552961" lon="11.808635"><ele>2154</ele></trkpt>
      <trkpt lat="46.552602" lon="11.808254"><ele>2155</ele></trkpt>
      <trkpt lat="46.552459" lon="11.808319"><ele>2155.3</ele></trkpt>
      <trkpt lat="46.552398" lon="11.808338"><ele>2155.3</ele></trkpt>
      <trkpt lat="46.552329" lon="11.80833"><ele>2155.5</ele></trkpt>
      <trkpt lat="46.552106" lon="11.808276"><ele>2153.8</ele></trkpt>
      <trkpt lat="46.552043" lon="11.808287"><ele>2152.3</ele></trkpt>
      <trkpt lat="46.551982" lon="11.808315"><ele>2150.8</ele></trkpt>
      <trkpt lat="46.551938" lon="11.80836"><ele>2149.8</ele></trkpt>
      <trkpt lat="46.551898" lon="11.808455"><ele>2149.5</ele></trkpt>
      <trkpt lat="46.55186" lon="11.808517"><ele>2148.8</ele></trkpt>
      <trkpt lat="46.551648" lon="11.808691"><ele>2144</ele></trkpt>
      <trkpt lat="46.551528" lon="11.80877"><ele>2142.3</ele></trkpt>
      <trkpt lat="46.55143" lon="11.808856"><ele>2140.8</ele></trkpt>
      <trkpt lat="46.551157" lon="11.809167"><ele>2132.3</ele></trkpt>
      <trkpt lat="46.551106" lon="11.809191"><ele>2131.3</ele></trkpt>
      <trkpt lat="46.551066" lon="11.80912"><ele>2131</ele></trkpt>
      <trkpt lat="46.550921" lon="11.808789"><ele>2129.8</ele></trkpt>
      <trkpt lat="46.550878" lon="11.80871"><ele>2129.3</ele></trkpt>
      <trkpt lat="46.550843" lon="11.808672"><ele>2128.8</ele></trkpt>
      <trkpt lat="46.550734" lon="11.808672"><ele>2128.3</ele></trkpt>
      <trkpt lat="46.550688" lon="11.808704"><ele>2128</ele></trkpt>
      <trkpt lat="46.550596" lon="11.808828"><ele>2126.8</ele></trkpt>
      <trkpt lat="46.550534" lon="11.808896"><ele>2125.5</ele></trkpt>
      <trkpt lat="46.550431" lon="11.808988"><ele>2123</ele></trkpt>
      <trkpt lat="46.550283" lon="11.809145"><ele>2118.5</ele></trkpt>
      <trkpt lat="46.550192" lon="11.809265"><ele>2116</ele></trkpt>
      <trkpt lat="46.550015" lon="11.809049"><ele>2119</ele></trkpt>
      <trkpt lat="46.549943" lon="11.808961"><ele>2119.8</ele></trkpt>
      <trkpt lat="46.549874" lon="11.808831"><ele>2121.5</ele></trkpt>
      <trkpt lat="46.54984" lon="11.80872"><ele>2123</ele></trkpt>
      <trkpt lat="46.549816" lon="11.808605"><ele>2124.3</ele></trkpt>
      <trkpt lat="46.549806" lon="11.80854"><ele>2123.3</ele></trkpt>
      <trkpt lat="46.549805" lon="11.808471"><ele>2122.3</ele></trkpt>
      <trkpt lat="46.549819" lon="11.808389"><ele>2121.5</ele></trkpt>
      <trkpt lat="46.549805" lon="11.808471"><ele>2122.3</ele></trkpt>
      <trkpt lat="46.549806" lon="11.80854"><ele>2123.3</ele></trkpt>
      <trkpt lat="46.549816" lon="11.808605"><ele>2124.3</ele></trkpt>
      <trkpt lat="46.54984" lon="11.80872"><ele>2123</ele></trkpt>
      <trkpt lat="46.549874" lon="11.808831"><ele>2121.5</ele></trkpt>
      <trkpt lat="46.549943" lon="11.808961"><ele>2119.8</ele></trkpt>
      <trkpt lat="46.550015" lon="11.809049"><ele>2119</ele></trkpt>
      <trkpt lat="46.550192" lon="11.809265"><ele>2116</ele></trkpt>
      <trkpt lat="46.550234" lon="11.809318"><ele>2115.8</ele></trkpt>
      <trkpt lat="46.550351" lon="11.809464"><ele>2114.8</ele></trkpt>
      <trkpt lat="46.550606" lon="11.809805"><ele>2112.3</ele></trkpt>
      <trkpt lat="46.550527" lon="11.810018"><ele>2108.3</ele></trkpt>
      <trkpt lat="46.550471" lon="11.810128"><ele>2106.5</ele></trkpt>
      <trkpt lat="46.550373" lon="11.81024"><ele>2104.3</ele></trkpt>
      <trkpt lat="46.550151" lon="11.810424"><ele>2099.3</ele></trkpt>
      <trkpt lat="46.549951" lon="11.810622"><ele>2095.3</ele></trkpt>
      <trkpt lat="46.549895" lon="11.810694"><ele>2093.8</ele></trkpt>
      <trkpt lat="46.549862" lon="11.810777"><ele>2092.5</ele></trkpt>
      <trkpt lat="46.549832" lon="11.810924"><ele>2090.8</ele></trkpt>
      <trkpt lat="46.549757" lon="11.811119"><ele>2088.3</ele></trkpt>
      <trkpt lat="46.549715" lon="11.81132"><ele>2087</ele></trkpt>
      <trkpt lat="46.549697" lon="11.811382"><ele>2086.8</ele></trkpt>
      <trkpt lat="46.549604" lon="11.811482"><ele>2084.8</ele></trkpt>
      <trkpt lat="46.54956" lon="11.811573"><ele>2083.5</ele></trkpt>
      <trkpt lat="46.549543" lon="11.811681"><ele>2082</ele></trkpt>
      <trkpt lat="46.549545" lon="11.81178"><ele>2080</ele></trkpt>
      <trkpt lat="46.549573" lon="11.811858"><ele>2078.5</ele></trkpt>
      <trkpt lat="46.549637" lon="11.811922"><ele>2077.3</ele></trkpt>
      <trkpt lat="46.549692" lon="11.812033"><ele>2075.3</ele></trkpt>
      <trkpt lat="46.549739" lon="11.812123"><ele>2073.5</ele></trkpt>
      <trkpt lat="46.549792" lon="11.812183"><ele>2071.8</ele></trkpt>
      <trkpt lat="46.550022" lon="11.812213"><ele>2068.5</ele></trkpt>
      <trkpt lat="46.550068" lon="11.812228"><ele>2069</ele></trkpt>
      <trkpt lat="46.550085" lon="11.81237"><ele>2068.5</ele></trkpt>
      <trkpt lat="46.550085" lon="11.812452"><ele>2068</ele></trkpt>
      <trkpt lat="46.550117" lon="11.812627"><ele>2066.8</ele></trkpt>
      <trkpt lat="46.55019" lon="11.812753"><ele>2066.5</ele></trkpt>
      <trkpt lat="46.550306" lon="11.812912"><ele>2064.5</ele></trkpt>
      <trkpt lat="46.550438" lon="11.812993"><ele>2064.5</ele></trkpt>
      <trkpt lat="46.550467" lon="11.813047"><ele>2064</ele></trkpt>
      <trkpt lat="46.550468" lon="11.81312"><ele>2063.5</ele></trkpt>
      <trkpt lat="46.550429" lon="11.813153"><ele>2062</ele></trkpt>
      <trkpt lat="46.550158" lon="11.813162"><ele>2055.8</ele></trkpt>
      <trkpt lat="46.550114" lon="11.813279"><ele>2052.3</ele></trkpt>
      <trkpt lat="46.550026" lon="11.813242"><ele>2052.3</ele></trkpt>
      <trkpt lat="46.549955" lon="11.813186"><ele>2052.8</ele></trkpt>
      <trkpt lat="46.549807" lon="11.813173"><ele>2051.8</ele></trkpt>
      <trkpt lat="46.549689" lon="11.813217"><ele>2050.8</ele></trkpt>
      <trkpt lat="46.5495" lon="11.813375"><ele>2048.3</ele></trkpt>
      <trkpt lat="46.549112" lon="11.813641"><ele>2046.5</ele></trkpt>
      <trkpt lat="46.549074" lon="11.813811"><ele>2043.5</ele></trkpt>
      <trkpt lat="46.549013" lon="11.813964"><ele>2040.8</ele></trkpt>
      <trkpt lat="46.548985" lon="11.81415"><ele>2038.5</ele></trkpt>
      <trkpt lat="46.548939" lon="11.814254"><ele>2037.5</ele></trkpt>
      <trkpt lat="46.548921" lon="11.814312"><ele>2037.3</ele></trkpt>
      <trkpt lat="46.548932" lon="11.814707"><ele>2032.3</ele></trkpt>
      <trkpt lat="46.548904" lon="11.814808"><ele>2030.8</ele></trkpt>
      <trkpt lat="46.54891" lon="11.81496"><ele>2027.5</ele></trkpt>
      <trkpt lat="46.548829" lon="11.815129"><ele>2025</ele></trkpt>
      <trkpt lat="46.548757" lon="11.81556"><ele>2017.3</ele></trkpt>
      <trkpt lat="46.548741" lon="11.81575"><ele>2015</ele></trkpt>
      <trkpt lat="46.548653" lon="11.816049"><ele>2010.3</ele></trkpt>
      <trkpt lat="46.548555" lon="11.816296"><ele>2008.3</ele></trkpt>
      <trkpt lat="46.548515" lon="11.816437"><ele>2007.3</ele></trkpt>
      <trkpt lat="46.548467" lon="11.816563"><ele>2006</ele></trkpt>
      <trkpt lat="46.548418" lon="11.816751"><ele>2004.3</ele></trkpt>
      <trkpt lat="46.548396" lon="11.816805"><ele>2003.8</ele></trkpt>
      <trkpt lat="46.548374" lon="11.816826"><ele>2003.3</ele></trkpt>
      <trkpt lat="46.548335" lon="11.816824"><ele>2002.8</ele></trkpt>
      <trkpt lat="46.548278" lon="11.816733"><ele>2002</ele></trkpt>
      <trkpt lat="46.548239" lon="11.816713"><ele>2001.3</ele></trkpt>
      <trkpt lat="46.547912" lon="11.816763"><ele>1997.3</ele></trkpt>
      <trkpt lat="46.547883" lon="11.816794"><ele>1996.8</ele></trkpt>
      <trkpt lat="46.547862" lon="11.816836"><ele>1996.3</ele></trkpt>
      <trkpt lat="46.547855" lon="11.81688"><ele>1995.5</ele></trkpt>
      <trkpt lat="46.547806" lon="11.816945"><ele>1994.8</ele></trkpt>
      <trkpt lat="46.54774" lon="11.817124"><ele>1991.5</ele></trkpt>
      <trkpt lat="46.547751" lon="11.81724"><ele>1988.5</ele></trkpt>
      <trkpt lat="46.547756" lon="11.817379"><ele>1985.8</ele></trkpt>
      <trkpt lat="46.547729" lon="11.81747"><ele>1985.3</ele></trkpt>
      <trkpt lat="46.547743" lon="11.817571"><ele>1983</ele></trkpt>
      <trkpt lat="46.547721" lon="11.817632"><ele>1983</ele></trkpt>
      <trkpt lat="46.547724" lon="11.817701"><ele>1981.8</ele></trkpt>
      <trkpt lat="46.547697" lon="11.817798"><ele>1981.3</ele></trkpt>
      <trkpt lat="46.547708" lon="11.817857"><ele>1979.3</ele></trkpt>
      <trkpt lat="46.547691" lon="11.817994"><ele>1977</ele></trkpt>
      <trkpt lat="46.547647" lon="11.818064"><ele>1977.3</ele></trkpt>
      <trkpt lat="46.547561" lon="11.818314"><ele>1973</ele></trkpt>
      <trkpt lat="46.547406" lon="11.818543"><ele>1968.8</ele></trkpt>
      <trkpt lat="46.5473" lon="11.818643"><ele>1968</ele></trkpt>
      <trkpt lat="46.547247" lon="11.818682"><ele>1968.5</ele></trkpt>
      <trkpt lat="46.547217" lon="11.818871"><ele>1966.3</ele></trkpt>
      <trkpt lat="46.547155" lon="11.81907"><ele>1967</ele></trkpt>
      <trkpt lat="46.547058" lon="11.819335"><ele>1966.5</ele></trkpt>
      <trkpt lat="46.547032" lon="11.819436"><ele>1964.8</ele></trkpt>
      <trkpt lat="46.546948" lon="11.819825"><ele>1961.5</ele></trkpt>
      <trkpt lat="46.546982" lon="11.820147"><ele>1960.3</ele></trkpt>
      <trkpt lat="46.546991" lon="11.820232"><ele>1960</ele></trkpt>
      <trkpt lat="46.547018" lon="11.820306"><ele>1960</ele></trkpt>
      <trkpt lat="46.547014" lon="11.82043"><ele>1960</ele></trkpt>
      <trkpt lat="46.547067" lon="11.820776"><ele>1959.5</ele></trkpt>
      <trkpt lat="46.547072" lon="11.82084"><ele>1959.3</ele></trkpt>
      <trkpt lat="46.547123" lon="11.820985"><ele>1958.5</ele></trkpt>
      <trkpt lat="46.547179" lon="11.821041"><ele>1958.3</ele></trkpt>
      <trkpt lat="46.547203" lon="11.821055"><ele>1958.3</ele></trkpt>
      <trkpt lat="46.547236" lon="11.821085"><ele>1958.3</ele></trkpt>
      <trkpt lat="46.547285" lon="11.82114"><ele>1958.5</ele></trkpt>
      <trkpt lat="46.547372" lon="11.821167"><ele>1959.5</ele></trkpt>
      <trkpt lat="46.547458" lon="11.821179"><ele>1960.8</ele></trkpt>
      <trkpt lat="46.547508" lon="11.821224"><ele>1961</ele></trkpt>
      <trkpt lat="46.547557" lon="11.821293"><ele>1960.3</ele></trkpt>
      <trkpt lat="46.547543" lon="11.821345"><ele>1960</ele></trkpt>
      <trkpt lat="46.547543" lon="11.82141"><ele>1959</ele></trkpt>
      <trkpt lat="46.547561" lon="11.821473"><ele>1957.5</ele></trkpt>
      <trkpt lat="46.547585" lon="11.821519"><ele>1956.5</ele></trkpt>
      <trkpt lat="46.54762" lon="11.821548"><ele>1955.8</ele></trkpt>
      <trkpt lat="46.547665" lon="11.821564"><ele>1955.5</ele></trkpt>
      <trkpt lat="46.548026" lon="11.821611"><ele>1956.5</ele></trkpt>
      <trkpt lat="46.548113" lon="11.821626"><ele>1953.8</ele></trkpt>
      <trkpt lat="46.548026" lon="11.821611"><ele>1956.5</ele></trkpt>
      <trkpt lat="46.547665" lon="11.821564"><ele>1955.5</ele></trkpt>
      <trkpt lat="46.54762" lon="11.821548"><ele>1955.8</ele></trkpt>
      <trkpt lat="46.547585" lon="11.821519"><ele>1956.5</ele></trkpt>
      <trkpt lat="46.547561" lon="11.821473"><ele>1957.5</ele></trkpt>
      <trkpt lat="46.547543" lon="11.82141"><ele>1959</ele></trkpt>
      <trkpt lat="46.547543" lon="11.821345"><ele>1960</ele></trkpt>
      <trkpt lat="46.547557" lon="11.821293"><ele>1960.3</ele></trkpt>
      <trkpt lat="46.547508" lon="11.821224"><ele>1961</ele></trkpt>
      <trkpt lat="46.547458" lon="11.821179"><ele>1960.8</ele></trkpt>
      <trkpt lat="46.547372" lon="11.821167"><ele>1959.5</ele></trkpt>
      <trkpt lat="46.547285" lon="11.82114"><ele>1958.5</ele></trkpt>
      <trkpt lat="46.547236" lon="11.821085"><ele>1958.3</ele></trkpt>
      <trkpt lat="46.547203" lon="11.821055"><ele>1958.3</ele></trkpt>
      <trkpt lat="46.547179" lon="11.821041"><ele>1958.3</ele></trkpt>
      <trkpt lat="46.547123" lon="11.820985"><ele>1958.5</ele></trkpt>
      <trkpt lat="46.547072" lon="11.82084"><ele>1959.3</ele></trkpt>
      <trkpt lat="46.547045" lon="11.820856"><ele>1959</ele></trkpt>
      <trkpt lat="46.54687" lon="11.820966"><ele>1959</ele></trkpt>
      <trkpt lat="46.546855" lon="11.820966"><ele>1959.3</ele></trkpt>
      <trkpt lat="46.54684" lon="11.821019"><ele>1959.3</ele></trkpt>
      <trkpt lat="46.546792" lon="11.8211"><ele>1959.8</ele></trkpt>
      <trkpt lat="46.54675" lon="11.821196"><ele>1959.3</ele></trkpt>
      <trkpt lat="46.546727" lon="11.821231"><ele>1959.5</ele></trkpt>
      <trkpt lat="46.546643" lon="11.821325"><ele>1960.8</ele></trkpt>
      <trkpt lat="46.546624" lon="11.821432"><ele>1960.5</ele></trkpt>
      <trkpt lat="46.546557" lon="11.821526"><ele>1962.3</ele></trkpt>
      <trkpt lat="46.546534" lon="11.821536"><ele>1963.3</ele></trkpt>
      <trkpt lat="46.546476" lon="11.821653"><ele>1963.8</ele></trkpt>
      <trkpt lat="46.546475" lon="11.821684"><ele>1963.3</ele></trkpt>
      <trkpt lat="46.546431" lon="11.821782"><ele>1963.5</ele></trkpt>
      <trkpt lat="46.546433" lon="11.821818"><ele>1962.8</ele></trkpt>
      <trkpt lat="46.546375" lon="11.822018"><ele>1961.8</ele></trkpt>
      <trkpt lat="46.546323" lon="11.822113"><ele>1962.3</ele></trkpt>
      <trkpt lat="46.546222" lon="11.822361"><ele>1961.3</ele></trkpt>
      <trkpt lat="46.546205" lon="11.822431"><ele>1960.3</ele></trkpt>
      <trkpt lat="46.546174" lon="11.822562"><ele>1958</ele></trkpt>
      <trkpt lat="46.546025" lon="11.822785"><ele>1960.5</ele></trkpt>
      <trkpt lat="46.545984" lon="11.822863"><ele>1960.8</ele></trkpt>
      <trkpt lat="46.545944" lon="11.822959"><ele>1960.3</ele></trkpt>
      <trkpt lat="46.545896" lon="11.823099"><ele>1958.8</ele></trkpt>
      <trkpt lat="46.54592" lon="11.823545"><ele>1950</ele></trkpt>
      <trkpt lat="46.545934" lon="11.823943"><ele>1950.5</ele></trkpt>
      <trkpt lat="46.545893" lon="11.82424"><ele>1953</ele></trkpt>
      <trkpt lat="46.545829" lon="11.824556"><ele>1957.3</ele></trkpt>
      <trkpt lat="46.545781" lon="11.824728"><ele>1961.3</ele></trkpt>
      <trkpt lat="46.54573" lon="11.824769"><ele>1966.5</ele></trkpt>
      <trkpt lat="46.545657" lon="11.824941"><ele>1969.3</ele></trkpt>
      <trkpt lat="46.545562" lon="11.824958"><ele>1976.5</ele></trkpt>
      <trkpt lat="46.545542" lon="11.824901"><ele>1981.8</ele></trkpt>
      <trkpt lat="46.545522" lon="11.824905"><ele>1984.3</ele></trkpt>
      <trkpt lat="46.545412" lon="11.82503"><ele>1995</ele></trkpt>
      <trkpt lat="46.545367" lon="11.824976"><ele>2002.5</ele></trkpt>
      <trkpt lat="46.545267" lon="11.824913"><ele>2018.3</ele></trkpt>
      <trkpt lat="46.54522" lon="11.824925"><ele>2022.5</ele></trkpt>
      <trkpt lat="46.545038" lon="11.824945"><ele>2040.5</ele></trkpt>
      <trkpt lat="46.544995" lon="11.825044"><ele>2044.5</ele></trkpt>
      <trkpt lat="46.544959" lon="11.825075"><ele>2046.3</ele></trkpt>
      <trkpt lat="46.544874" lon="11.825038"><ele>2049.3</ele></trkpt>
      <trkpt lat="46.544855" lon="11.825072"><ele>2050.3</ele></trkpt>
      <trkpt lat="46.544797" lon="11.825083"><ele>2052.5</ele></trkpt>
      <trkpt lat="46.544772" lon="11.825098"><ele>2053.8</ele></trkpt>
      <trkpt lat="46.54474" lon="11.825134"><ele>2055.3</ele></trkpt>
      <trkpt lat="46.544669" lon="11.825166"><ele>2057.5</ele></trkpt>
      <trkpt lat="46.544518" lon="11.825195"><ele>2060.5</ele></trkpt>
      <trkpt lat="46.544429" lon="11.825251"><ele>2060.5</ele></trkpt>
      <trkpt lat="46.544366" lon="11.825239"><ele>2063.3</ele></trkpt>
      <trkpt lat="46.544338" lon="11.825247"><ele>2064</ele></trkpt>
      <trkpt lat="46.544303" lon="11.825318"><ele>2063</ele></trkpt>
      <trkpt lat="46.544171" lon="11.825382"><ele>2065.8</ele></trkpt>
      <trkpt lat="46.544131" lon="11.825386"><ele>2067</ele></trkpt>
      <trkpt lat="46.544083" lon="11.825426"><ele>2067.5</ele></trkpt>
      <trkpt lat="46.544033" lon="11.825487"><ele>2067.8</ele></trkpt>
      <trkpt lat="46.543834" lon="11.825642"><ele>2069.8</ele></trkpt>
      <trkpt lat="46.543799" lon="11.825736"><ele>2067.5</ele></trkpt>
      <trkpt lat="46.543755" lon="11.825783"><ele>2067.3</ele></trkpt>
      <trkpt lat="46.543744" lon="11.825835"><ele>2065.5</ele></trkpt>
      <trkpt lat="46.54367" lon="11.825918"><ele>2064.5</ele></trkpt>
      <trkpt lat="46.543624" lon="11.826003"><ele>2062.3</ele></trkpt>
      <trkpt lat="46.543257" lon="11.826217"><ele>2058.5</ele></trkpt>
      <trkpt lat="46.543092" lon="11.826362"><ele>2055.3</ele></trkpt>
      <trkpt lat="46.542896" lon="11.82642"><ele>2052.3</ele></trkpt>
      <trkpt lat="46.542798" lon="11.826394"><ele>2052.8</ele></trkpt>
      <trkpt lat="46.542774" lon="11.826378"><ele>2054.5</ele></trkpt>
      <trkpt lat="46.542605" lon="11.826554"><ele>2057.5</ele></trkpt>
      <trkpt lat="46.542542" lon="11.826598"><ele>2055.8</ele></trkpt>
      <trkpt lat="46.542515" lon="11.826642"><ele>2050.3</ele></trkpt>
      <trkpt lat="46.542485" lon="11.826661"><ele>2048.5</ele></trkpt>
      <trkpt lat="46.542421" lon="11.826726"><ele>2047.5</ele></trkpt>
      <trkpt lat="46.542352" lon="11.826761"><ele>2048.5</ele></trkpt>
      <trkpt lat="46.542302" lon="11.826763"><ele>2050.8</ele></trkpt>
      <trkpt lat="46.542239" lon="11.826813"><ele>2050.3</ele></trkpt>
      <trkpt lat="46.542184" lon="11.826874"><ele>2048.5</ele></trkpt>
      <trkpt lat="46.542144" lon="11.826888"><ele>2049.5</ele></trkpt>
      <trkpt lat="46.542122" lon="11.826919"><ele>2047.8</ele></trkpt>
      <trkpt lat="46.542084" lon="11.826931"><ele>2048.3</ele></trkpt>
      <trkpt lat="46.542039" lon="11.82698"><ele>2046.8</ele></trkpt>
      <trkpt lat="46.541938" lon="11.827054"><ele>2047</ele></trkpt>
      <trkpt lat="46.541899" lon="11.827118"><ele>2045.3</ele></trkpt>
      <trkpt lat="46.541862" lon="11.827133"><ele>2045.5</ele></trkpt>
      <trkpt lat="46.541848" lon="11.827095"><ele>2048</ele></trkpt>
      <trkpt lat="46.541763" lon="11.827075"><ele>2052</ele></trkpt>
      <trkpt lat="46.541717" lon="11.827043"><ele>2055.8</ele></trkpt>
      <trkpt lat="46.541666" lon="11.827065"><ele>2056</ele></trkpt>
      <trkpt lat="46.541588" lon="11.827223"><ele>2051</ele></trkpt>
      <trkpt lat="46.541574" lon="11.82732"><ele>2049.8</ele></trkpt>
      <trkpt lat="46.541482" lon="11.827486"><ele>2051.5</ele></trkpt>
      <trkpt lat="46.541398" lon="11.827587"><ele>2052.5</ele></trkpt>
      <trkpt lat="46.541424" lon="11.827485"><ele>2055</ele></trkpt>
      <trkpt lat="46.541327" lon="11.827579"><ele>2056</ele></trkpt>
      <trkpt lat="46.541334" lon="11.827487"><ele>2059.5</ele></trkpt>
      <trkpt lat="46.541264" lon="11.827543"><ele>2060.3</ele></trkpt>
      <trkpt lat="46.54119" lon="11.827545"><ele>2063.5</ele></trkpt>
      <trkpt lat="46.540956" lon="11.827581"><ele>2065.8</ele></trkpt>
      <trkpt lat="46.540939" lon="11.827606"><ele>2064.5</ele></trkpt>
      <trkpt lat="46.540845" lon="11.827541"><ele>2068</ele></trkpt>
      <trkpt lat="46.54081" lon="11.827532"><ele>2069.5</ele></trkpt>
      <trkpt lat="46.540786" lon="11.827565"><ele>2069.3</ele></trkpt>
      <trkpt lat="46.540718" lon="11.827582"><ele>2072</ele></trkpt>
      <trkpt lat="46.540725" lon="11.827675"><ele>2067.8</ele></trkpt>
      <trkpt lat="46.540689" lon="11.827793"><ele>2065</ele></trkpt>
      <trkpt lat="46.540638" lon="11.827911"><ele>2062</ele></trkpt>
      <trkpt lat="46.540386" lon="11.827978"><ele>2077</ele></trkpt>
      <trkpt lat="46.540396" lon="11.827938"><ele>2078.5</ele></trkpt>
      <trkpt lat="46.540425" lon="11.827871"><ele>2080</ele></trkpt>
      <trkpt lat="46.540395" lon="11.827849"><ele>2084</ele></trkpt>
      <trkpt lat="46.540344" lon="11.827841"><ele>2089</ele></trkpt>
      <trkpt lat="46.540305" lon="11.827858"><ele>2091.3</ele></trkpt>
      <trkpt lat="46.540263" lon="11.827915"><ele>2092.3</ele></trkpt>
      <trkpt lat="46.540242" lon="11.827924"><ele>2094.8</ele></trkpt>
      <trkpt lat="46.540194" lon="11.827911"><ele>2102.8</ele></trkpt>
      <trkpt lat="46.540149" lon="11.827806"><ele>2116.5</ele></trkpt>
      <trkpt lat="46.540059" lon="11.827815"><ele>2129.5</ele></trkpt>
      <trkpt lat="46.539948" lon="11.827727"><ele>2149.8</ele></trkpt>
      <trkpt lat="46.539876" lon="11.827761"><ele>2154</ele></trkpt>
      <trkpt lat="46.539849" lon="11.827693"><ele>2162.3</ele></trkpt>
      <trkpt lat="46.53981" lon="11.827668"><ele>2168.3</ele></trkpt>
      <trkpt lat="46.539825" lon="11.827544"><ele>2177.5</ele></trkpt>
      <trkpt lat="46.539847" lon="11.82751"><ele>2178</ele></trkpt>
      <trkpt lat="46.53984" lon="11.827477"><ele>2183.5</ele></trkpt>
      <trkpt lat="46.53977" lon="11.82739"><ele>2207</ele></trkpt>
      <trkpt lat="46.539689" lon="11.827366"><ele>2219.3</ele></trkpt>
      <trkpt lat="46.539535" lon="11.827494"><ele>2201.5</ele></trkpt>
      <trkpt lat="46.539509" lon="11.827486"><ele>2216</ele></trkpt>
      <trkpt lat="46.539414" lon="11.827461"><ele>2216</ele></trkpt>
      <trkpt lat="46.539314" lon="11.827397"><ele>2238.8</ele></trkpt>
      <trkpt lat="46.539188" lon="11.827414"><ele>2248.3</ele></trkpt>
      <trkpt lat="46.539063" lon="11.827214"><ele>2274.3</ele></trkpt>
      <trkpt lat="46.539127" lon="11.826904"><ele>2309</ele></trkpt>
      <trkpt lat="46.539086" lon="11.826639"><ele>2333.5</ele></trkpt>
      <trkpt lat="46.539199" lon="11.826389"><ele>2370</ele></trkpt>
      <trkpt lat="46.539198" lon="11.826213"><ele>2394.8</ele></trkpt>
      <trkpt lat="46.539104" lon="11.825969"><ele>2408.8</ele></trkpt>
      <trkpt lat="46.539078" lon="11.825739"><ele>2425.3</ele></trkpt>
      <trkpt lat="46.539082" lon="11.825664"><ele>2431.3</ele></trkpt>
      <trkpt lat="46.539125" lon="11.825618"><ele>2443</ele></trkpt>
      <trkpt lat="46.539142" lon="11.825572"><ele>2449.8</ele></trkpt>
      <trkpt lat="46.53915" lon="11.825451"><ele>2450.5</ele></trkpt>
      <trkpt lat="46.539174" lon="11.825417"><ele>2452.8</ele></trkpt>
      <trkpt lat="46.539212" lon="11.825411"><ele>2454.8</ele></trkpt>
      <trkpt lat="46.539234" lon="11.825439"><ele>2456</ele></trkpt>
      <trkpt lat="46.539268" lon="11.825453"><ele>2457.3</ele></trkpt>
      <trkpt lat="46.539276" lon="11.825437"><ele>2457.8</ele></trkpt>
      <trkpt lat="46.539281" lon="11.825345"><ele>2460.3</ele></trkpt>
      <trkpt lat="46.53928" lon="11.825299"><ele>2461.5</ele></trkpt>
      <trkpt lat="46.539268" lon="11.825243"><ele>2462.3</ele></trkpt>
      <trkpt lat="46.539285" lon="11.825202"><ele>2466.3</ele></trkpt>
      <trkpt lat="46.539325" lon="11.825193"><ele>2471</ele></trkpt>
      <trkpt lat="46.539412" lon="11.825291"><ele>2476</ele></trkpt>
      <trkpt lat="46.539418" lon="11.825272"><ele>2478</ele></trkpt>
      <trkpt lat="46.539474" lon="11.825337"><ele>2475.5</ele></trkpt>
      <trkpt lat="46.539516" lon="11.825355"><ele>2474</ele></trkpt>
      <trkpt lat="46.539579" lon="11.825328"><ele>2478</ele></trkpt>
      <trkpt lat="46.539585" lon="11.82526"><ele>2485.8</ele></trkpt>
      <trkpt lat="46.539597" lon="11.825212"><ele>2488</ele></trkpt>
      <trkpt lat="46.539622" lon="11.8252"><ele>2489.3</ele></trkpt>
      <trkpt lat="46.539621" lon="11.825162"><ele>2491</ele></trkpt>
      <trkpt lat="46.539669" lon="11.825155"><ele>2492.8</ele></trkpt>
      <trkpt lat="46.539694" lon="11.825135"><ele>2494.5</ele></trkpt>
      <trkpt lat="46.539681" lon="11.825048"><ele>2498</ele></trkpt>
      <trkpt lat="46.53969" lon="11.824997"><ele>2500.8</ele></trkpt>
      <trkpt lat="46.539706" lon="11.824965"><ele>2502.5</ele></trkpt>
      <trkpt lat="46.53967" lon="11.824885"><ele>2504.3</ele></trkpt>
      <trkpt lat="46.539659" lon="11.824832"><ele>2505.8</ele></trkpt>
      <trkpt lat="46.539667" lon="11.824812"><ele>2506.8</ele></trkpt>
      <trkpt lat="46.539687" lon="11.824809"><ele>2507.8</ele></trkpt>
      <trkpt lat="46.53979" lon="11.824823"><ele>2510.5</ele></trkpt>
      <trkpt lat="46.539782" lon="11.824771"><ele>2512.5</ele></trkpt>
      <trkpt lat="46.539813" lon="11.824714"><ele>2515.5</ele></trkpt>
      <trkpt lat="46.539764" lon="11.824587"><ele>2519</ele></trkpt>
      <trkpt lat="46.539697" lon="11.82453"><ele>2519.5</ele></trkpt>
      <trkpt lat="46.539663" lon="11.824471"><ele>2520.8</ele></trkpt>
      <trkpt lat="46.539651" lon="11.824417"><ele>2522</ele></trkpt>
      <trkpt lat="46.539669" lon="11.824301"><ele>2524.3</ele></trkpt>
      <trkpt lat="46.539666" lon="11.824237"><ele>2525</ele></trkpt>
      <trkpt lat="46.539635" lon="11.824146"><ele>2526</ele></trkpt>
      <trkpt lat="46.539576" lon="11.824065"><ele>2526.3</ele></trkpt>
      <trkpt lat="46.539545" lon="11.823957"><ele>2527.3</ele></trkpt>
      <trkpt lat="46.539517" lon="11.823907"><ele>2527.8</ele></trkpt>
      <trkpt lat="46.539458" lon="11.823851"><ele>2527.3</ele></trkpt>
      <trkpt lat="46.539412" lon="11.823784"><ele>2527.3</ele></trkpt>
      <trkpt lat="46.539382" lon="11.823715"><ele>2527.5</ele></trkpt>
      <trkpt lat="46.539367" lon="11.823648"><ele>2528.3</ele></trkpt>
      <trkpt lat="46.539331" lon="11.823592"><ele>2529</ele></trkpt>
      <trkpt lat="46.539293" lon="11.823549"><ele>2529.8</ele></trkpt>
      <trkpt lat="46.539179" lon="11.823476"><ele>2531.3</ele></trkpt>
      <trkpt lat="46.53913" lon="11.823427"><ele>2533.3</ele></trkpt>
      <trkpt lat="46.539082" lon="11.823428"><ele>2534.5</ele></trkpt>
      <trkpt lat="46.538956" lon="11.823536"><ele>2534</ele></trkpt>
      <trkpt lat="46.538909" lon="11.823517"><ele>2535.5</ele></trkpt>
      <trkpt lat="46.538881" lon="11.823488"><ele>2537</ele></trkpt>
      <trkpt lat="46.538893" lon="11.823446"><ele>2538.3</ele></trkpt>
      <trkpt lat="46.538879" lon="11.823404"><ele>2539.8</ele></trkpt>
      <trkpt lat="46.538878" lon="11.823358"><ele>2541.3</ele></trkpt>
      <trkpt lat="46.538813" lon="11.823356"><ele>2542.8</ele></trkpt>
      <trkpt lat="46.53879" lon="11.823335"><ele>2544</ele></trkpt>
      <trkpt lat="46.538757" lon="11.823372"><ele>2543.3</ele></trkpt>
      <trkpt lat="46.538575" lon="11.823251"><ele>2550.5</ele></trkpt>
      <trkpt lat="46.538548" lon="11.823251"><ele>2550.5</ele></trkpt>
      <trkpt lat="46.538514" lon="11.823213"><ele>2552</ele></trkpt>
      <trkpt lat="46.538469" lon="11.823196"><ele>2552.8</ele></trkpt>
      <trkpt lat="46.538469" lon="11.823143"><ele>2555</ele></trkpt>
      <trkpt lat="46.53843" lon="11.823137"><ele>2555.5</ele></trkpt>
      <trkpt lat="46.538383" lon="11.82311"><ele>2557</ele></trkpt>
      <trkpt lat="46.538352" lon="11.823022"><ele>2560.3</ele></trkpt>
      <trkpt lat="46.538341" lon="11.82294"><ele>2561.8</ele></trkpt>
      <trkpt lat="46.538298" lon="11.822864"><ele>2562.5</ele></trkpt>
      <trkpt lat="46.538284" lon="11.822805"><ele>2563.5</ele></trkpt>
      <trkpt lat="46.538253" lon="11.822746"><ele>2564.3</ele></trkpt>
      <trkpt lat="46.538188" lon="11.822669"><ele>2565</ele></trkpt>
      <trkpt lat="46.538144" lon="11.822581"><ele>2566.8</ele></trkpt>
      <trkpt lat="46.538084" lon="11.822504"><ele>2568</ele></trkpt>
      <trkpt lat="46.538023" lon="11.82245"><ele>2569</ele></trkpt>
      <trkpt lat="46.537977" lon="11.822359"><ele>2571.3</ele></trkpt>
      <trkpt lat="46.537827" lon="11.822179"><ele>2575</ele></trkpt>
      <trkpt lat="46.537748" lon="11.822149"><ele>2575.3</ele></trkpt>
      <trkpt lat="46.537631" lon="11.822047"><ele>2580</ele></trkpt>
      <trkpt lat="46.537514" lon="11.822053"><ele>2579.8</ele></trkpt>
      <trkpt lat="46.537463" lon="11.822074"><ele>2578.8</ele></trkpt>
      <trkpt lat="46.537427" lon="11.822027"><ele>2580.8</ele></trkpt>
      <trkpt lat="46.537372" lon="11.821996"><ele>2582</ele></trkpt>
      <trkpt lat="46.537262" lon="11.822015"><ele>2581</ele></trkpt>
      <trkpt lat="46.53718" lon="11.821981"><ele>2582.5</ele></trkpt>
      <trkpt lat="46.537146" lon="11.821948"><ele>2583.8</ele></trkpt>
      <trkpt lat="46.537098" lon="11.821939"><ele>2584</ele></trkpt>
      <trkpt lat="46.537064" lon="11.821888"><ele>2585</ele></trkpt>
      <trkpt lat="46.536958" lon="11.821895"><ele>2584.8</ele></trkpt>
      <trkpt lat="46.536879" lon="11.821886"><ele>2585</ele></trkpt>
      <trkpt lat="46.536799" lon="11.821874"><ele>2585.5</ele></trkpt>
      <trkpt lat="46.536744" lon="11.821846"><ele>2585.8</ele></trkpt>
      <trkpt lat="46.536684" lon="11.821831"><ele>2586</ele></trkpt>
      <trkpt lat="46.536632" lon="11.821806"><ele>2586.5</ele></trkpt>
      <trkpt lat="46.536594" lon="11.821758"><ele>2587</ele></trkpt>
      <trkpt lat="46.536537" lon="11.82165"><ele>2588</ele></trkpt>
      <trkpt lat="46.536499" lon="11.821617"><ele>2589</ele></trkpt>
      <trkpt lat="46.536458" lon="11.82158"><ele>2589</ele></trkpt>
      <trkpt lat="46.536359" lon="11.821541"><ele>2589.3</ele></trkpt>
      <trkpt lat="46.536261" lon="11.821598"><ele>2587.5</ele></trkpt>
      <trkpt lat="46.536099" lon="11.821468"><ele>2587.5</ele></trkpt>
      <trkpt lat="46.535823" lon="11.820969"><ele>2583.5</ele></trkpt>
      <trkpt lat="46.535809" lon="11.820786"><ele>2586.3</ele></trkpt>
      <trkpt lat="46.535569" lon="11.820348"><ele>2589.5</ele></trkpt>
      <trkpt lat="46.535385" lon="11.82016"><ele>2589.3</ele></trkpt>
      <trkpt lat="46.535187" lon="11.81981"><ele>2595</ele></trkpt>
      <trkpt lat="46.535071" lon="11.819731"><ele>2595</ele></trkpt>
      <trkpt lat="46.534746" lon="11.819444"><ele>2599.5</ele></trkpt>
      <trkpt lat="46.534171" lon="11.819041"><ele>2614.8</ele></trkpt>
      <trkpt lat="46.533824" lon="11.818905"><ele>2621.5</ele></trkpt>
      <trkpt lat="46.533711" lon="11.818698"><ele>2629.8</ele></trkpt>
      <trkpt lat="46.533386" lon="11.818547"><ele>2633.3</ele></trkpt>
      <trkpt lat="46.533202" lon="11.818429"><ele>2637</ele></trkpt>
      <trkpt lat="46.533118" lon="11.818307"><ele>2642</ele></trkpt>
      <trkpt lat="46.532899" lon="11.818206"><ele>2645.3</ele></trkpt>
      <trkpt lat="46.532633" lon="11.817796"><ele>2661.8</ele></trkpt>
      <trkpt lat="46.532574" lon="11.817475"><ele>2677</ele></trkpt>
      <trkpt lat="46.532249" lon="11.81711"><ele>2693.8</ele></trkpt>
      <trkpt lat="46.532043" lon="11.816767"><ele>2707.3</ele></trkpt>
      <trkpt lat="46.531718" lon="11.816294"><ele>2719.5</ele></trkpt>
      <trkpt lat="46.53157" lon="11.816058"><ele>2725.8</ele></trkpt>
      <trkpt lat="46.531083" lon="11.816294"><ele>2732</ele></trkpt>
      <trkpt lat="46.530891" lon="11.81623"><ele>2737.5</ele></trkpt>
      <trkpt lat="46.53067" lon="11.816101"><ele>2743.5</ele></trkpt>
      <trkpt lat="46.530493" lon="11.81593"><ele>2748</ele></trkpt>
      <trkpt lat="46.530389" lon="11.815565"><ele>2755</ele></trkpt>
      <trkpt lat="46.530094" lon="11.815222"><ele>2771</ele></trkpt>
      <trkpt lat="46.529887" lon="11.815114"><ele>2781.3</ele></trkpt>
      <trkpt lat="46.529784" lon="11.814835"><ele>2792.3</ele></trkpt>
      <trkpt lat="46.529814" lon="11.814642"><ele>2796.3</ele></trkpt>
      <trkpt lat="46.52971" lon="11.814556"><ele>2801.5</ele></trkpt>
      <trkpt lat="46.529651" lon="11.814256"><ele>2812.3</ele></trkpt>
      <trkpt lat="46.529698" lon="11.814036"><ele>2813.8</ele></trkpt>
      <trkpt lat="46.529612" lon="11.813261"><ele>2831</ele></trkpt>
      <trkpt lat="46.529513" lon="11.81296"><ele>2841.3</ele></trkpt>
      <trkpt lat="46.529502" lon="11.812719"><ele>2847.8</ele></trkpt>
      <trkpt lat="46.529494" lon="11.812467"><ele>2854.5</ele></trkpt>
      <trkpt lat="46.529427" lon="11.812407"><ele>2857</ele></trkpt>
      <trkpt lat="46.529364" lon="11.812438"><ele>2861.3</ele></trkpt>
      <trkpt lat="46.529319" lon="11.812406"><ele>2865.3</ele></trkpt>
      <trkpt lat="46.529276" lon="11.812426"><ele>2868.3</ele></trkpt>
      <trkpt lat="46.529238" lon="11.812525"><ele>2870.3</ele></trkpt>
      <trkpt lat="46.529157" lon="11.812583"><ele>2877.8</ele></trkpt>
      <trkpt lat="46.528953" lon="11.81222"><ele>2893.5</ele></trkpt>
      <trkpt lat="46.528857" lon="11.812157"><ele>2899.8</ele></trkpt>
      <trkpt lat="46.528564" lon="11.811882"><ele>2906.8</ele></trkpt>
      <trkpt lat="46.528509" lon="11.811635"><ele>2907.3</ele></trkpt>
      <trkpt lat="46.528439" lon="11.811732"><ele>2908.3</ele></trkpt>
      <trkpt lat="46.528339" lon="11.812209"><ele>2910</ele></trkpt>
      <trkpt lat="46.528365" lon="11.812724"><ele>2910.8</ele></trkpt>
      <trkpt lat="46.52805" lon="11.813497"><ele>2910</ele></trkpt>
      <trkpt lat="46.527892" lon="11.813711"><ele>2908.5</ele></trkpt>
      <trkpt lat="46.527645" lon="11.814023"><ele>2908</ele></trkpt>
      <trkpt lat="46.527413" lon="11.814344"><ele>2909.3</ele></trkpt>
      <trkpt lat="46.527014" lon="11.814693"><ele>2906</ele></trkpt>
      <trkpt lat="46.526907" lon="11.81487"><ele>2905</ele></trkpt>
      <trkpt lat="46.526728" lon="11.815327"><ele>2902.8</ele></trkpt>
      <trkpt lat="46.526523" lon="11.815707"><ele>2899.3</ele></trkpt>
      <trkpt lat="46.526313" lon="11.815964"><ele>2895.5</ele></trkpt>
      <trkpt lat="46.526187" lon="11.816056"><ele>2893.5</ele></trkpt>
      <trkpt lat="46.526036" lon="11.816233"><ele>2894.8</ele></trkpt>
      <trkpt lat="46.525748" lon="11.81641"><ele>2893.3</ele></trkpt>
      <trkpt lat="46.5256" lon="11.816549"><ele>2889.3</ele></trkpt>
      <trkpt lat="46.525608" lon="11.816769"><ele>2891.3</ele></trkpt>
      <trkpt lat="46.525265" lon="11.817102"><ele>2890.3</ele></trkpt>
      <trkpt lat="46.525065" lon="11.817391"><ele>2889.5</ele></trkpt>
      <trkpt lat="46.524722" lon="11.817617"><ele>2890</ele></trkpt>
      <trkpt lat="46.524364" lon="11.817821"><ele>2891.3</ele></trkpt>
      <trkpt lat="46.524113" lon="11.818035"><ele>2895</ele></trkpt>
      <trkpt lat="46.523873" lon="11.818314"><ele>2893.5</ele></trkpt>
      <trkpt lat="46.523862" lon="11.818475"><ele>2891</ele></trkpt>
      <trkpt lat="46.523877" lon="11.818668"><ele>2889</ele></trkpt>
      <trkpt lat="46.523869" lon="11.819011"><ele>2881</ele></trkpt>
      <trkpt lat="46.523928" lon="11.819205"><ele>2877.8</ele></trkpt>
      <trkpt lat="46.523976" lon="11.819234"><ele>2879</ele></trkpt>
      <trkpt lat="46.523978" lon="11.819307"><ele>2877.5</ele></trkpt>
      <trkpt lat="46.523941" lon="11.81948"><ele>2872</ele></trkpt>
      <trkpt lat="46.52395" lon="11.819556"><ele>2871.8</ele></trkpt>
      <trkpt lat="46.523914" lon="11.819617"><ele>2869.3</ele></trkpt>
      <trkpt lat="46.523876" lon="11.819853"><ele>2866.8</ele></trkpt>
      <trkpt lat="46.523811" lon="11.819939"><ele>2864.8</ele></trkpt>
      <trkpt lat="46.523781" lon="11.820078"><ele>2864.5</ele></trkpt>
      <trkpt lat="46.523627" lon="11.820196"><ele>2860.5</ele></trkpt>
      <trkpt lat="46.523597" lon="11.820257"><ele>2860.5</ele></trkpt>
      <trkpt lat="46.523492" lon="11.820327"><ele>2860.3</ele></trkpt>
      <trkpt lat="46.523463" lon="11.820377"><ele>2860.8</ele></trkpt>
      <trkpt lat="46.523384" lon="11.820443"><ele>2861.3</ele></trkpt>
      <trkpt lat="46.523225" lon="11.820516"><ele>2859.5</ele></trkpt>
      <trkpt lat="46.523144" lon="11.82065"><ele>2860.8</ele></trkpt>
      <trkpt lat="46.523102" lon="11.820666"><ele>2860.3</ele></trkpt>
      <trkpt lat="46.523057" lon="11.820577"><ele>2856.5</ele></trkpt>
      <trkpt lat="46.522983" lon="11.820579"><ele>2853.5</ele></trkpt>
      <trkpt lat="46.522853" lon="11.820545"><ele>2847.8</ele></trkpt>
      <trkpt lat="46.52283" lon="11.8206"><ele>2847</ele></trkpt>
      <trkpt lat="46.522707" lon="11.820729"><ele>2842</ele></trkpt>
      <trkpt lat="46.522579" lon="11.820831"><ele>2837.5</ele></trkpt>
      <trkpt lat="46.522517" lon="11.820947"><ele>2838</ele></trkpt>
      <trkpt lat="46.522136" lon="11.821307"><ele>2837.8</ele></trkpt>
      <trkpt lat="46.522041" lon="11.821458"><ele>2838.5</ele></trkpt>
      <trkpt lat="46.52189" lon="11.821508"><ele>2838</ele></trkpt>
      <trkpt lat="46.521865" lon="11.82155"><ele>2837.8</ele></trkpt>
      <trkpt lat="46.521774" lon="11.82157"><ele>2837.8</ele></trkpt>
      <trkpt lat="46.521743" lon="11.8216"><ele>2837.5</ele></trkpt>
      <trkpt lat="46.521562" lon="11.821674"><ele>2836.5</ele></trkpt>
      <trkpt lat="46.521496" lon="11.821753"><ele>2836.3</ele></trkpt>
      <trkpt lat="46.521493" lon="11.821788"><ele>2836</ele></trkpt>
      <trkpt lat="46.521459" lon="11.821785"><ele>2836</ele></trkpt>
      <trkpt lat="46.521402" lon="11.821822"><ele>2836</ele></trkpt>
      <trkpt lat="46.521332" lon="11.821985"><ele>2835</ele></trkpt>
      <trkpt lat="46.521274" lon="11.822186"><ele>2833.8</ele></trkpt>
      <trkpt lat="46.521169" lon="11.822404"><ele>2832.3</ele></trkpt>
      <trkpt lat="46.521149" lon="11.822468"><ele>2832.5</ele></trkpt>
      <trkpt lat="46.521032" lon="11.822647"><ele>2833.8</ele></trkpt>
      <trkpt lat="46.520994" lon="11.822616"><ele>2833.8</ele></trkpt>
      <trkpt lat="46.520894" lon="11.822638"><ele>2834.3</ele></trkpt>
      <trkpt lat="46.52071" lon="11.822498"><ele>2834.3</ele></trkpt>
      <trkpt lat="46.520547" lon="11.822386"><ele>2833.5</ele></trkpt>
      <trkpt lat="46.520282" lon="11.822396"><ele>2837.5</ele></trkpt>
      <trkpt lat="46.52016" lon="11.822316"><ele>2836.8</ele></trkpt>
      <trkpt lat="46.519754" lon="11.822332"><ele>2841</ele></trkpt>
      <trkpt lat="46.51961" lon="11.82238"><ele>2843</ele></trkpt>
      <trkpt lat="46.519447" lon="11.82238"><ele>2841.5</ele></trkpt>
      <trkpt lat="46.519267" lon="11.822429"><ele>2843.3</ele></trkpt>
      <trkpt lat="46.519145" lon="11.822439"><ele>2843.3</ele></trkpt>
      <trkpt lat="46.519027" lon="11.822514"><ele>2845.3</ele></trkpt>
      <trkpt lat="46.518875" lon="11.822509"><ele>2843</ele></trkpt>
      <trkpt lat="46.518724" lon="11.822547"><ele>2841.5</ele></trkpt>
      <trkpt lat="46.518576" lon="11.822697"><ele>2847.5</ele></trkpt>
      <trkpt lat="46.518421" lon="11.822949"><ele>2855.3</ele></trkpt>
      <trkpt lat="46.518388" lon="11.82303"><ele>2858.3</ele></trkpt>
      <trkpt lat="46.518256" lon="11.82314"><ele>2856.8</ele></trkpt>
      <trkpt lat="46.518067" lon="11.823196"><ele>2849.3</ele></trkpt>
      <trkpt lat="46.51801" lon="11.823247"><ele>2851.3</ele></trkpt>
      <trkpt lat="46.517872" lon="11.82333"><ele>2850.8</ele></trkpt>
      <trkpt lat="46.517816" lon="11.823376"><ele>2849</ele></trkpt>
      <trkpt lat="46.517707" lon="11.823539"><ele>2852.3</ele></trkpt>
      <trkpt lat="46.51765" lon="11.823607"><ele>2854</ele></trkpt>
      <trkpt lat="46.517596" lon="11.823656"><ele>2853.8</ele></trkpt>
      <trkpt lat="46.517547" lon="11.823721"><ele>2854</ele></trkpt>
      <trkpt lat="46.517511" lon="11.823753"><ele>2853.8</ele></trkpt>
      <trkpt lat="46.517434" lon="11.823789"><ele>2853.3</ele></trkpt>
      <trkpt lat="46.517405" lon="11.823787"><ele>2852.8</ele></trkpt>
      <trkpt lat="46.517365" lon="11.823764"><ele>2851.8</ele></trkpt>
      <trkpt lat="46.517326" lon="11.823761"><ele>2851.3</ele></trkpt>
      <trkpt lat="46.517224" lon="11.823824"><ele>2851.8</ele></trkpt>
      <trkpt lat="46.517146" lon="11.823905"><ele>2852.3</ele></trkpt>
      <trkpt lat="46.517113" lon="11.823956"><ele>2852</ele></trkpt>
      <trkpt lat="46.517072" lon="11.823999"><ele>2851.8</ele></trkpt>
      <trkpt lat="46.517015" lon="11.824123"><ele>2852.8</ele></trkpt>
      <trkpt lat="46.517011" lon="11.82416"><ele>2853.5</ele></trkpt>
      <trkpt lat="46.516996" lon="11.824185"><ele>2853.5</ele></trkpt>
      <trkpt lat="46.516997" lon="11.824199"><ele>2853.8</ele></trkpt>
      <trkpt lat="46.516938" lon="11.824205"><ele>2853.3</ele></trkpt>
      <trkpt lat="46.516837" lon="11.824262"><ele>2853.3</ele></trkpt>
      <trkpt lat="46.516724" lon="11.824288"><ele>2853</ele></trkpt>
      <trkpt lat="46.516634" lon="11.824331"><ele>2853</ele></trkpt>
      <trkpt lat="46.516595" lon="11.824303"><ele>2853.5</ele></trkpt>
      <trkpt lat="46.516504" lon="11.824188"><ele>2854</ele></trkpt>
      <trkpt lat="46.516427" lon="11.824025"><ele>2855.3</ele></trkpt>
      <trkpt lat="46.516418" lon="11.823889"><ele>2856.3</ele></trkpt>
      <trkpt lat="46.516344" lon="11.823629"><ele>2860.3</ele></trkpt>
      <trkpt lat="46.516313" lon="11.823585"><ele>2860.3</ele></trkpt>
      <trkpt lat="46.516286" lon="11.823525"><ele>2858</ele></trkpt>
      <trkpt lat="46.516251" lon="11.823482"><ele>2856.8</ele></trkpt>
      <trkpt lat="46.516177" lon="11.823467"><ele>2858</ele></trkpt>
      <trkpt lat="46.516033" lon="11.823513"><ele>2865.5</ele></trkpt>
      <trkpt lat="46.515938" lon="11.823588"><ele>2869.8</ele></trkpt>
      <trkpt lat="46.515834" lon="11.823697"><ele>2870.5</ele></trkpt>
      <trkpt lat="46.51577" lon="11.823731"><ele>2870.3</ele></trkpt>
      <trkpt lat="46.515735" lon="11.823729"><ele>2870.3</ele></trkpt>
      <trkpt lat="46.515676" lon="11.8237"><ele>2870.3</ele></trkpt>
      <trkpt lat="46.515598" lon="11.823645"><ele>2870.5</ele></trkpt>
      <trkpt lat="46.515538" lon="11.823608"><ele>2870.8</ele></trkpt>
      <trkpt lat="46.515483" lon="11.82359"><ele>2870.5</ele></trkpt>
      <trkpt lat="46.515437" lon="11.823537"><ele>2871.3</ele></trkpt>
      <trkpt lat="46.515367" lon="11.823506"><ele>2870.5</ele></trkpt>
      <trkpt lat="46.515203" lon="11.823322"><ele>2870.5</ele></trkpt>
      <trkpt lat="46.515156" lon="11.823293"><ele>2870.5</ele></trkpt>
      <trkpt lat="46.515" lon="11.823131"><ele>2868.8</ele></trkpt>
      <trkpt lat="46.514964" lon="11.823107"><ele>2868.8</ele></trkpt>
      <trkpt lat="46.514918" lon="11.823107"><ele>2868.8</ele></trkpt>
      <trkpt lat="46.514738" lon="11.823178"><ele>2869.3</ele></trkpt>
      <trkpt lat="46.514696" lon="11.823167"><ele>2869</ele></trkpt>
    </trkseg>
  </trk>
</gpx>
