{
  "type": "FeatureCollection",
  "features": [
    {
      "type": "Feature",
      "properties": {
        "kind": "route",
        "name": "День 4 · Bontadini → Dal Bianco",
        "distance_km": 13.427,
        "ascent_m": 1523,
        "source": "BRouter / OpenStreetMap"
      },
      "geometry": {
        "type": "LineString",
        "coordinates": [
          [
            11.888313,
            46.463584,
            2546.3
          ],
          [
            11.888398,
            46.463605,
            2544
          ],
          [
            11.888454,
            46.463568,
            2540
          ],
          [
            11.888472,
            46.463457,
            2534.3
          ],
          [
            11.888527,
            46.463402,
            2528
          ],
          [
            11.88862,
            46.463353,
            2518.5
          ],
          [
            11.888724,
            46.463371,
            2511.5
          ],
          [
            11.888804,
            46.463445,
            2509.8
          ],
          [
            11.888964,
            46.463537,
            2503
          ],
          [
            11.88897,
            46.462923,
            2477.3
          ],
          [
            11.88901,
            46.462949,
            2476
          ],
          [
            11.889062,
            46.463066,
            2477.5
          ],
          [
            11.889235,
            46.463227,
            2472.8
          ],
          [
            11.889216,
            46.463,
            2467.5
          ],
          [
            11.889222,
            46.462757,
            2459.5
          ],
          [
            11.889331,
            46.462805,
            2455.5
          ],
          [
            11.889496,
            46.46296,
            2451.3
          ],
          [
            11.889612,
            46.463096,
            2448.5
          ],
          [
            11.889637,
            46.463001,
            2445
          ],
          [
            11.889809,
            46.463155,
            2439.5
          ],
          [
            11.889854,
            46.463231,
            2438.8
          ],
          [
            11.889938,
            46.463482,
            2439.5
          ],
          [
            11.890039,
            46.463549,
            2437.5
          ],
          [
            11.890047,
            46.463484,
            2435.8
          ],
          [
            11.890086,
            46.463468,
            2434.3
          ],
          [
            11.890198,
            46.463533,
            2432.5
          ],
          [
            11.890274,
            46.463397,
            2427.3
          ],
          [
            11.890471,
            46.463465,
            2424.3
          ],
          [
            11.890792,
            46.463507,
            2417.8
          ],
          [
            11.891015,
            46.463462,
            2413
          ],
          [
            11.891082,
            46.463496,
            2412
          ],
          [
            11.891113,
            46.463623,
            2412
          ],
          [
            11.891391,
            46.463696,
            2407.8
          ],
          [
            11.891611,
            46.463745,
            2405.3
          ],
          [
            11.891942,
            46.463678,
            2400
          ],
          [
            11.892016,
            46.46343,
            2394.3
          ],
          [
            11.892086,
            46.463337,
            2392
          ],
          [
            11.892183,
            46.463301,
            2389.8
          ],
          [
            11.89231,
            46.463304,
            2387.8
          ],
          [
            11.892635,
            46.46344,
            2385.3
          ],
          [
            11.89276,
            46.463571,
            2384.8
          ],
          [
            11.892997,
            46.46366,
            2382.5
          ],
          [
            11.89365,
            46.463887,
            2370
          ],
          [
            11.893989,
            46.463991,
            2366.3
          ],
          [
            11.894132,
            46.463938,
            2366.8
          ],
          [
            11.894142,
            46.463891,
            2367.5
          ],
          [
            11.894124,
            46.463845,
            2365.3
          ],
          [
            11.893809,
            46.463653,
            2359.5
          ],
          [
            11.893709,
            46.463483,
            2356.8
          ],
          [
            11.893625,
            46.463249,
            2354
          ],
          [
            11.893617,
            46.463001,
            2349
          ],
          [
            11.89362,
            46.462698,
            2339.8
          ],
          [
            11.893537,
            46.462253,
            2327.5
          ],
          [
            11.893493,
            46.461926,
            2319
          ],
          [
            11.893567,
            46.461856,
            2316
          ],
          [
            11.893702,
            46.461858,
            2313.3
          ],
          [
            11.893924,
            46.461888,
            2309.3
          ],
          [
            11.894048,
            46.461884,
            2307
          ],
          [
            11.894144,
            46.461818,
            2304.5
          ],
          [
            11.894122,
            46.461714,
            2303.3
          ],
          [
            11.894089,
            46.461455,
            2298
          ],
          [
            11.893971,
            46.46129,
            2295.3
          ],
          [
            11.893993,
            46.461216,
            2291.8
          ],
          [
            11.894078,
            46.46119,
            2289.8
          ],
          [
            11.894271,
            46.461275,
            2289.5
          ],
          [
            11.894499,
            46.461349,
            2288.3
          ],
          [
            11.89456,
            46.461386,
            2288.5
          ],
          [
            11.894842,
            46.461402,
            2284.5
          ],
          [
            11.894856,
            46.461326,
            2282.5
          ],
          [
            11.894713,
            46.461141,
            2280.8
          ],
          [
            11.894608,
            46.460965,
            2276.3
          ],
          [
            11.894543,
            46.460815,
            2271.5
          ],
          [
            11.894573,
            46.460755,
            2269
          ],
          [
            11.89476,
            46.460736,
            2267
          ],
          [
            11.895067,
            46.460739,
            2264
          ],
          [
            11.895228,
            46.460732,
            2262
          ],
          [
            11.895328,
            46.460719,
            2259.8
          ],
          [
            11.895342,
            46.460658,
            2258
          ],
          [
            11.895298,
            46.460579,
            2257
          ],
          [
            11.89496,
            46.460414,
            2253.5
          ],
          [
            11.894523,
            46.460272,
            2248.3
          ],
          [
            11.894309,
            46.46021,
            2246.5
          ],
          [
            11.894065,
            46.460153,
            2246
          ],
          [
            11.893985,
            46.460064,
            2242.8
          ],
          [
            11.893784,
            46.459663,
            2235
          ],
          [
            11.893554,
            46.459356,
            2227.3
          ],
          [
            11.893394,
            46.459224,
            2223.3
          ],
          [
            11.893084,
            46.459184,
            2217.5
          ],
          [
            11.892587,
            46.459184,
            2209.5
          ],
          [
            11.892243,
            46.459216,
            2204.3
          ],
          [
            11.891612,
            46.459326,
            2201.3
          ],
          [
            11.891331,
            46.45933,
            2198.3
          ],
          [
            11.890804,
            46.459301,
            2193
          ],
          [
            11.890535,
            46.459298,
            2191
          ],
          [
            11.890142,
            46.459165,
            2184.3
          ],
          [
            11.889889,
            46.459036,
            2181
          ],
          [
            11.889724,
            46.459036,
            2183.8
          ],
          [
            11.889098,
            46.45879,
            2173.5
          ],
          [
            11.888626,
            46.458571,
            2163.3
          ],
          [
            11.888167,
            46.458367,
            2155.5
          ],
          [
            11.887829,
            46.458191,
            2149
          ],
          [
            11.887823,
            46.458094,
            2144.8
          ],
          [
            11.888356,
            46.457897,
            2139.3
          ],
          [
            11.888573,
            46.457615,
            2132.8
          ],
          [
            11.888738,
            46.457541,
            2130.5
          ],
          [
            11.888985,
            46.457331,
            2125
          ],
          [
            11.889032,
            46.457142,
            2121.3
          ],
          [
            11.888994,
            46.456975,
            2118
          ],
          [
            11.888793,
            46.456851,
            2116.5
          ],
          [
            11.888112,
            46.456686,
            2110.5
          ],
          [
            11.886953,
            46.45627,
            2099.8
          ],
          [
            11.886593,
            46.456205,
            2095.8
          ],
          [
            11.886329,
            46.456149,
            2091.3
          ],
          [
            11.886211,
            46.456045,
            2087.3
          ],
          [
            11.886241,
            46.455912,
            2084
          ],
          [
            11.886238,
            46.455623,
            2078.3
          ],
          [
            11.886178,
            46.455492,
            2074
          ],
          [
            11.886156,
            46.455354,
            2070.3
          ],
          [
            11.886156,
            46.455059,
            2061.5
          ],
          [
            11.886131,
            46.454831,
            2056.8
          ],
          [
            11.885806,
            46.45514,
            2057
          ],
          [
            11.885462,
            46.455385,
            2053
          ],
          [
            11.88521,
            46.455528,
            2050.8
          ],
          [
            11.884922,
            46.455655,
            2051
          ],
          [
            11.883433,
            46.456103,
            2050.5
          ],
          [
            11.883202,
            46.456187,
            2052
          ],
          [
            11.882989,
            46.456232,
            2052.8
          ],
          [
            11.882634,
            46.456269,
            2053.5
          ],
          [
            11.882103,
            46.456338,
            2053.5
          ],
          [
            11.881918,
            46.456381,
            2054.5
          ],
          [
            11.881628,
            46.456463,
            2056.5
          ],
          [
            11.881203,
            46.456641,
            2056.3
          ],
          [
            11.88099,
            46.4567,
            2057.5
          ],
          [
            11.880794,
            46.456729,
            2058.8
          ],
          [
            11.880079,
            46.456788,
            2057
          ],
          [
            11.879953,
            46.456811,
            2056.5
          ],
          [
            11.879818,
            46.456871,
            2056.3
          ],
          [
            11.879626,
            46.456975,
            2055.8
          ],
          [
            11.87948,
            46.457075,
            2057.3
          ],
          [
            11.879323,
            46.457128,
            2058
          ],
          [
            11.878867,
            46.457181,
            2057.8
          ],
          [
            11.878489,
            46.457202,
            2056.5
          ],
          [
            11.878339,
            46.457226,
            2056
          ],
          [
            11.878158,
            46.457333,
            2057
          ],
          [
            11.877992,
            46.457405,
            2057.5
          ],
          [
            11.877598,
            46.457497,
            2056.5
          ],
          [
            11.877297,
            46.457589,
            2056
          ],
          [
            11.876871,
            46.457781,
            2056
          ],
          [
            11.876218,
            46.45803,
            2056.5
          ],
          [
            11.87599,
            46.458132,
            2056.5
          ],
          [
            11.875256,
            46.458748,
            2056
          ],
          [
            11.874936,
            46.459074,
            2056.5
          ],
          [
            11.874623,
            46.459416,
            2056.3
          ],
          [
            11.874513,
            46.459617,
            2057.5
          ],
          [
            11.87447,
            46.459738,
            2057.8
          ],
          [
            11.874534,
            46.459917,
            2059.3
          ],
          [
            11.874539,
            46.460048,
            2059.3
          ],
          [
            11.874493,
            46.460165,
            2058.3
          ],
          [
            11.874402,
            46.460339,
            2057.5
          ],
          [
            11.874268,
            46.460539,
            2058.5
          ],
          [
            11.874047,
            46.460788,
            2058.5
          ],
          [
            11.873908,
            46.460888,
            2058.5
          ],
          [
            11.873287,
            46.46124,
            2059
          ],
          [
            11.873226,
            46.461311,
            2060
          ],
          [
            11.873164,
            46.461454,
            2060.8
          ],
          [
            11.873091,
            46.461531,
            2059.5
          ],
          [
            11.873035,
            46.46157,
            2059
          ],
          [
            11.872951,
            46.461605,
            2058.5
          ],
          [
            11.872745,
            46.46164,
            2057.3
          ],
          [
            11.872509,
            46.461698,
            2058.8
          ],
          [
            11.872065,
            46.461905,
            2057.8
          ],
          [
            11.87159,
            46.462101,
            2059.5
          ],
          [
            11.871306,
            46.462204,
            2060.5
          ],
          [
            11.871059,
            46.46226,
            2061.3
          ],
          [
            11.870734,
            46.462289,
            2062.5
          ],
          [
            11.870351,
            46.462358,
            2062.5
          ],
          [
            11.870128,
            46.462413,
            2062.3
          ],
          [
            11.869423,
            46.462637,
            2062.8
          ],
          [
            11.868716,
            46.462884,
            2061.5
          ],
          [
            11.867849,
            46.463124,
            2060.3
          ],
          [
            11.867377,
            46.463264,
            2059.8
          ],
          [
            11.867168,
            46.463318,
            2059.5
          ],
          [
            11.866129,
            46.463471,
            2059.5
          ],
          [
            11.86578,
            46.463508,
            2058.5
          ],
          [
            11.865355,
            46.463541,
            2058.3
          ],
          [
            11.86497,
            46.463566,
            2058.3
          ],
          [
            11.864691,
            46.463611,
            2058.3
          ],
          [
            11.864484,
            46.463686,
            2058.3
          ],
          [
            11.863677,
            46.464164,
            2058
          ],
          [
            11.863576,
            46.464199,
            2058
          ],
          [
            11.86347,
            46.46421,
            2058
          ],
          [
            11.863398,
            46.464205,
            2058
          ],
          [
            11.863271,
            46.464184,
            2058
          ],
          [
            11.863005,
            46.464121,
            2058
          ],
          [
            11.862712,
            46.464045,
            2058
          ],
          [
            11.862589,
            46.464023,
            2057.3
          ],
          [
            11.862356,
            46.463981,
            2057.3
          ],
          [
            11.862371,
            46.463939,
            2055.3
          ],
          [
            11.862386,
            46.463893,
            2053.3
          ],
          [
            11.862497,
            46.463603,
            2054.8
          ],
          [
            11.862651,
            46.463239,
            2051.5
          ],
          [
            11.862688,
            46.463115,
            2051.5
          ],
          [
            11.862653,
            46.462946,
            2051
          ],
          [
            11.862412,
            46.462281,
            2048.3
          ],
          [
            11.862404,
            46.46216,
            2047.3
          ],
          [
            11.862418,
            46.462089,
            2045.8
          ],
          [
            11.862549,
            46.461963,
            2044
          ],
          [
            11.86355,
            46.461137,
            2034.8
          ],
          [
            11.863809,
            46.460949,
            2036.8
          ],
          [
            11.864128,
            46.460632,
            2037.8
          ],
          [
            11.86425,
            46.460464,
            2036.5
          ],
          [
            11.864344,
            46.460158,
            2036.5
          ],
          [
            11.86437,
            46.459998,
            2037
          ],
          [
            11.864343,
            46.459791,
            2042
          ],
          [
            11.864263,
            46.459566,
            2046.3
          ],
          [
            11.864066,
            46.459234,
            2048.8
          ],
          [
            11.863965,
            46.459036,
            2052
          ],
          [
            11.863931,
            46.458992,
            2053.3
          ],
          [
            11.863815,
            46.458954,
            2056.3
          ],
          [
            11.863582,
            46.458994,
            2059
          ],
          [
            11.86327,
            46.458965,
            2061
          ],
          [
            11.86318,
            46.458938,
            2061.5
          ],
          [
            11.863073,
            46.458894,
            2062.8
          ],
          [
            11.863034,
            46.458875,
            2063.3
          ],
          [
            11.863006,
            46.45885,
            2063.8
          ],
          [
            11.862985,
            46.458798,
            2065
          ],
          [
            11.862992,
            46.458766,
            2065.8
          ],
          [
            11.863012,
            46.458741,
            2066.5
          ],
          [
            11.86304,
            46.458731,
            2066.8
          ],
          [
            11.863101,
            46.458728,
            2067.3
          ],
          [
            11.863222,
            46.458819,
            2066
          ],
          [
            11.86331,
            46.45883,
            2066.5
          ],
          [
            11.863551,
            46.458764,
            2068
          ],
          [
            11.863906,
            46.458641,
            2069.3
          ],
          [
            11.863965,
            46.458576,
            2070.3
          ],
          [
            11.863947,
            46.458501,
            2070.5
          ],
          [
            11.863896,
            46.458459,
            2071.3
          ],
          [
            11.863766,
            46.458379,
            2072.3
          ],
          [
            11.863553,
            46.458274,
            2075
          ],
          [
            11.863524,
            46.458237,
            2076.3
          ],
          [
            11.863519,
            46.458206,
            2077.3
          ],
          [
            11.863552,
            46.458171,
            2078
          ],
          [
            11.863719,
            46.458087,
            2078.5
          ],
          [
            11.86379,
            46.458026,
            2079.3
          ],
          [
            11.863925,
            46.457866,
            2083
          ],
          [
            11.864018,
            46.457805,
            2084.5
          ],
          [
            11.864207,
            46.457735,
            2085.8
          ],
          [
            11.864329,
            46.457667,
            2086.8
          ],
          [
            11.864422,
            46.4576,
            2087.8
          ],
          [
            11.864765,
            46.457422,
            2090.3
          ],
          [
            11.865494,
            46.457226,
            2093.5
          ],
          [
            11.866111,
            46.457259,
            2099.3
          ],
          [
            11.86662,
            46.457166,
            2105
          ],
          [
            11.867107,
            46.457025,
            2110.8
          ],
          [
            11.868283,
            46.45591,
            2150
          ],
          [
            11.868369,
            46.455563,
            2159
          ],
          [
            11.86779,
            46.4554,
            2176
          ],
          [
            11.867521,
            46.455408,
            2182
          ],
          [
            11.866395,
            46.454861,
            2213.8
          ],
          [
            11.866029,
            46.454648,
            2221
          ],
          [
            11.865494,
            46.454336,
            2230.8
          ],
          [
            11.865212,
            46.45402,
            2243
          ],
          [
            11.865137,
            46.453936,
            2245.5
          ],
          [
            11.865094,
            46.4537,
            2251.8
          ],
          [
            11.86514,
            46.453456,
            2259
          ],
          [
            11.865264,
            46.453327,
            2263
          ],
          [
            11.865255,
            46.453123,
            2269
          ],
          [
            11.865198,
            46.452808,
            2280.3
          ],
          [
            11.865351,
            46.452387,
            2295.3
          ],
          [
            11.865438,
            46.451962,
            2312
          ],
          [
            11.865527,
            46.451606,
            2327
          ],
          [
            11.865022,
            46.451202,
            2357.5
          ],
          [
            11.864249,
            46.450928,
            2381.5
          ],
          [
            11.863692,
            46.450991,
            2393.5
          ],
          [
            11.862786,
            46.450999,
            2409.3
          ],
          [
            11.863192,
            46.45043,
            2426.5
          ],
          [
            11.863261,
            46.449986,
            2443.5
          ],
          [
            11.862139,
            46.449577,
            2468.8
          ],
          [
            11.861679,
            46.44898,
            2490
          ],
          [
            11.861788,
            46.448664,
            2499.8
          ],
          [
            11.861846,
            46.448252,
            2513.8
          ],
          [
            11.861812,
            46.447966,
            2523.8
          ],
          [
            11.861688,
            46.447932,
            2526.5
          ],
          [
            11.861523,
            46.447935,
            2532
          ],
          [
            11.861105,
            46.448103,
            2539.3
          ],
          [
            11.860916,
            46.448108,
            2543.5
          ],
          [
            11.860638,
            46.448116,
            2548
          ],
          [
            11.86046,
            46.447918,
            2557.5
          ],
          [
            11.860441,
            46.447841,
            2560.5
          ],
          [
            11.860466,
            46.447746,
            2564.3
          ],
          [
            11.860347,
            46.447664,
            2567.8
          ],
          [
            11.860282,
            46.447527,
            2573.8
          ],
          [
            11.860114,
            46.447387,
            2579.3
          ],
          [
            11.860092,
            46.447303,
            2583.3
          ],
          [
            11.860034,
            46.447229,
            2586.8
          ],
          [
            11.860028,
            46.447151,
            2589.8
          ],
          [
            11.860253,
            46.44697,
            2597.8
          ],
          [
            11.860253,
            46.446818,
            2600
          ],
          [
            11.86032,
            46.446745,
            2601
          ],
          [
            11.86039,
            46.446657,
            2602.3
          ],
          [
            11.860367,
            46.446513,
            2608
          ],
          [
            11.860295,
            46.446404,
            2611.5
          ],
          [
            11.860001,
            46.446012,
            2624
          ],
          [
            11.859996,
            46.445947,
            2626.3
          ],
          [
            11.859903,
            46.445814,
            2630.5
          ],
          [
            11.8598,
            46.445772,
            2631.8
          ],
          [
            11.859729,
            46.445727,
            2633.3
          ],
          [
            11.859769,
            46.445675,
            2635
          ],
          [
            11.859744,
            46.445625,
            2636.5
          ],
          [
            11.859739,
            46.445593,
            2637.5
          ],
          [
            11.859796,
            46.44549,
            2640.5
          ],
          [
            11.859779,
            46.445445,
            2641.8
          ],
          [
            11.860227,
            46.445128,
            2659.5
          ],
          [
            11.860439,
            46.445014,
            2669.5
          ],
          [
            11.860684,
            46.444939,
            2671.8
          ],
          [
            11.860845,
            46.444859,
            2672
          ],
          [
            11.860991,
            46.444801,
            2670.5
          ],
          [
            11.861153,
            46.444698,
            2672.3
          ],
          [
            11.861178,
            46.444606,
            2671.8
          ],
          [
            11.861153,
            46.444698,
            2672.3
          ],
          [
            11.860991,
            46.444801,
            2670.5
          ],
          [
            11.860845,
            46.444859,
            2672
          ],
          [
            11.860684,
            46.444939,
            2671.8
          ],
          [
            11.860439,
            46.445014,
            2669.5
          ],
          [
            11.860227,
            46.445128,
            2659.5
          ],
          [
            11.859779,
            46.445445,
            2641.8
          ],
          [
            11.859796,
            46.44549,
            2640.5
          ],
          [
            11.859739,
            46.445593,
            2637.5
          ],
          [
            11.859744,
            46.445625,
            2636.5
          ],
          [
            11.859769,
            46.445675,
            2635
          ],
          [
            11.859729,
            46.445727,
            2633.3
          ],
          [
            11.8598,
            46.445772,
            2631.8
          ],
          [
            11.859903,
            46.445814,
            2630.5
          ],
          [
            11.859996,
            46.445947,
            2626.3
          ],
          [
            11.860001,
            46.446012,
            2624
          ],
          [
            11.859811,
            46.446119,
            2619.8
          ],
          [
            11.859799,
            46.446239,
            2613.5
          ],
          [
            11.859921,
            46.446338,
            2608.5
          ],
          [
            11.859721,
            46.446485,
            2602.5
          ],
          [
            11.859618,
            46.446612,
            2596.8
          ],
          [
            11.859508,
            46.446683,
            2593.5
          ],
          [
            11.859352,
            46.446755,
            2591.3
          ],
          [
            11.859246,
            46.446795,
            2589.8
          ],
          [
            11.859111,
            46.446806,
            2588.5
          ],
          [
            11.858807,
            46.446865,
            2585.5
          ],
          [
            11.858582,
            46.446921,
            2582.5
          ],
          [
            11.858338,
            46.446966,
            2580.5
          ],
          [
            11.858231,
            46.446955,
            2580
          ],
          [
            11.858065,
            46.446967,
            2578.5
          ],
          [
            11.857963,
            46.447,
            2577
          ],
          [
            11.857875,
            46.447042,
            2575
          ],
          [
            11.857699,
            46.447099,
            2571.8
          ],
          [
            11.857504,
            46.447082,
            2570
          ],
          [
            11.857393,
            46.447086,
            2569.8
          ],
          [
            11.857247,
            46.4471,
            2569.5
          ],
          [
            11.857036,
            46.447181,
            2565.5
          ],
          [
            11.856969,
            46.447169,
            2565
          ],
          [
            11.856893,
            46.447134,
            2565
          ],
          [
            11.856791,
            46.447116,
            2564.5
          ],
          [
            11.856557,
            46.447151,
            2559.3
          ],
          [
            11.85609,
            46.447171,
            2552.5
          ],
          [
            11.855625,
            46.447239,
            2545.3
          ],
          [
            11.855526,
            46.447269,
            2542
          ],
          [
            11.855245,
            46.447308,
            2535.8
          ],
          [
            11.854871,
            46.44739,
            2531.5
          ],
          [
            11.854485,
            46.447418,
            2525.3
          ],
          [
            11.854345,
            46.447438,
            2522.5
          ],
          [
            11.854278,
            46.447455,
            2520.8
          ],
          [
            11.854106,
            46.447533,
            2515
          ],
          [
            11.853948,
            46.447593,
            2510.8
          ],
          [
            11.853901,
            46.447634,
            2508.3
          ],
          [
            11.853854,
            46.447694,
            2504.8
          ],
          [
            11.853813,
            46.447732,
            2502.5
          ],
          [
            11.853597,
            46.447797,
            2497.3
          ],
          [
            11.853422,
            46.447831,
            2493.8
          ],
          [
            11.852905,
            46.447494,
            2492.8
          ],
          [
            11.852655,
            46.447298,
            2487.8
          ],
          [
            11.85262,
            46.447058,
            2486.8
          ],
          [
            11.852569,
            46.447008,
            2484.8
          ],
          [
            11.852282,
            46.446884,
            2480.3
          ],
          [
            11.852051,
            46.446808,
            2478
          ],
          [
            11.851869,
            46.446779,
            2476.3
          ],
          [
            11.851617,
            46.446657,
            2478
          ],
          [
            11.851429,
            46.446638,
            2477.3
          ],
          [
            11.851319,
            46.446666,
            2476.5
          ],
          [
            11.851147,
            46.446662,
            2477.8
          ],
          [
            11.850168,
            46.446774,
            2478
          ],
          [
            11.84993,
            46.446743,
            2478.5
          ],
          [
            11.849482,
            46.446584,
            2484.5
          ],
          [
            11.849133,
            46.446596,
            2491.5
          ],
          [
            11.848645,
            46.44671,
            2494.3
          ],
          [
            11.848272,
            46.446786,
            2492
          ],
          [
            11.847894,
            46.446687,
            2491.8
          ],
          [
            11.847744,
            46.446673,
            2493.3
          ],
          [
            11.847589,
            46.446671,
            2501.8
          ],
          [
            11.847518,
            46.446669,
            2505.8
          ],
          [
            11.847454,
            46.446636,
            2509.5
          ],
          [
            11.847417,
            46.446396,
            2543.3
          ],
          [
            11.847171,
            46.446165,
            2517.3
          ],
          [
            11.847138,
            46.446015,
            2528.8
          ],
          [
            11.847151,
            46.445592,
            2550.8
          ],
          [
            11.847111,
            46.445391,
            2549.5
          ],
          [
            11.846979,
            46.445047,
            2549.8
          ],
          [
            11.846834,
            46.444923,
            2551
          ],
          [
            11.84669,
            46.444722,
            2555.3
          ],
          [
            11.846491,
            46.444624,
            2560.8
          ],
          [
            11.846284,
            46.444423,
            2569.3
          ],
          [
            11.846228,
            46.444296,
            2572.5
          ],
          [
            11.846094,
            46.444156,
            2576.8
          ],
          [
            11.845939,
            46.444093,
            2583.3
          ],
          [
            11.845737,
            46.443925,
            2588.5
          ],
          [
            11.845499,
            46.443761,
            2593.3
          ],
          [
            11.845099,
            46.44329,
            2610.8
          ],
          [
            11.844926,
            46.443208,
            2618
          ],
          [
            11.844729,
            46.443139,
            2623.5
          ],
          [
            11.844699,
            46.443053,
            2626.8
          ],
          [
            11.844475,
            46.442855,
            2642.3
          ],
          [
            11.844171,
            46.442583,
            2656.5
          ],
          [
            11.843914,
            46.442417,
            2665.5
          ],
          [
            11.843715,
            46.442343,
            2668.5
          ],
          [
            11.843538,
            46.441914,
            2680.5
          ],
          [
            11.843318,
            46.441707,
            2690
          ],
          [
            11.842994,
            46.44146,
            2702.5
          ],
          [
            11.842693,
            46.441293,
            2712.3
          ],
          [
            11.841603,
            46.440439,
            2755.5
          ],
          [
            11.841493,
            46.44019,
            2769.5
          ],
          [
            11.840953,
            46.439979,
            2786.3
          ],
          [
            11.840841,
            46.439893,
            2792.5
          ],
          [
            11.84068,
            46.439809,
            2799.8
          ],
          [
            11.840245,
            46.43963,
            2820.3
          ],
          [
            11.840077,
            46.439655,
            2850.5
          ],
          [
            11.840061,
            46.439584,
            2855
          ],
          [
            11.840082,
            46.439566,
            2851.8
          ],
          [
            11.84002,
            46.439532,
            2863.3
          ],
          [
            11.840042,
            46.439484,
            2860.3
          ],
          [
            11.840094,
            46.439476,
            2851.8
          ],
          [
            11.840069,
            46.439434,
            2857
          ],
          [
            11.840122,
            46.439327,
            2854.3
          ],
          [
            11.840123,
            46.439256,
            2858
          ],
          [
            11.840086,
            46.439178,
            2865.8
          ],
          [
            11.840034,
            46.439107,
            2877.8
          ],
          [
            11.84005,
            46.439073,
            2880.3
          ],
          [
            11.840113,
            46.439033,
            2878.5
          ],
          [
            11.84014,
            46.438991,
            2880.3
          ],
          [
            11.840142,
            46.438939,
            2885.8
          ],
          [
            11.840204,
            46.438879,
            2884.8
          ],
          [
            11.840208,
            46.43883,
            2887.5
          ],
          [
            11.840176,
            46.43877,
            2891.5
          ],
          [
            11.840182,
            46.438764,
            2891.8
          ],
          [
            11.840043,
            46.438707,
            2888.3
          ],
          [
            11.839892,
            46.438595,
            2865.5
          ],
          [
            11.839488,
            46.438334,
            2826.5
          ],
          [
            11.839407,
            46.438282,
            2821.3
          ],
          [
            11.839233,
            46.438406,
            2817
          ],
          [
            11.839066,
            46.438465,
            2811.3
          ],
          [
            11.838853,
            46.438577,
            2800.8
          ],
          [
            11.838834,
            46.438488,
            2796.5
          ],
          [
            11.838744,
            46.438522,
            2793.3
          ],
          [
            11.838731,
            46.438477,
            2790.8
          ],
          [
            11.838499,
            46.43867,
            2820
          ],
          [
            11.838115,
            46.438765,
            2878.3
          ],
          [
            11.837698,
            46.438742,
            2870.5
          ],
          [
            11.83758,
            46.438662,
            2801
          ],
          [
            11.837726,
            46.438545,
            2752.8
          ],
          [
            11.837774,
            46.438466,
            2748.5
          ],
          [
            11.83776,
            46.438357,
            2741
          ],
          [
            11.837722,
            46.438317,
            2737.5
          ],
          [
            11.837411,
            46.43834,
            2730.8
          ],
          [
            11.837292,
            46.438132,
            2715
          ],
          [
            11.837254,
            46.438108,
            2712.5
          ],
          [
            11.837109,
            46.438058,
            2706
          ],
          [
            11.836722,
            46.437951,
            2693
          ],
          [
            11.836558,
            46.437899,
            2688.3
          ],
          [
            11.836521,
            46.437874,
            2686
          ],
          [
            11.836542,
            46.437846,
            2684
          ],
          [
            11.836669,
            46.437771,
            2679.5
          ],
          [
            11.83669,
            46.437735,
            2678
          ],
          [
            11.836685,
            46.437687,
            2675
          ],
          [
            11.836562,
            46.437609,
            2668.8
          ],
          [
            11.836556,
            46.437526,
            2663.5
          ],
          [
            11.836653,
            46.43743,
            2660.5
          ],
          [
            11.836668,
            46.437276,
            2654.3
          ],
          [
            11.836799,
            46.43705,
            2646
          ],
          [
            11.836875,
            46.43687,
            2640.3
          ],
          [
            11.836892,
            46.436688,
            2634.8
          ],
          [
            11.836796,
            46.436559,
            2628.8
          ],
          [
            11.836629,
            46.436465,
            2621
          ],
          [
            11.8365,
            46.436268,
            2614.3
          ],
          [
            11.836322,
            46.436149,
            2606.8
          ],
          [
            11.836072,
            46.435881,
            2595.8
          ],
          [
            11.835891,
            46.435799,
            2588.5
          ],
          [
            11.835831,
            46.43574,
            2585.5
          ],
          [
            11.835788,
            46.435597,
            2582.3
          ],
          [
            11.835751,
            46.435542,
            2580.3
          ],
          [
            11.835617,
            46.435491,
            2575.8
          ],
          [
            11.835502,
            46.435414,
            2572.3
          ],
          [
            11.835419,
            46.435309,
            2569.8
          ],
          [
            11.835345,
            46.435273,
            2568
          ],
          [
            11.835096,
            46.435241,
            2562.5
          ],
          [
            11.834844,
            46.435298,
            2558.3
          ],
          [
            11.834726,
            46.435253,
            2553.8
          ],
          [
            11.834464,
            46.435188,
            2542
          ],
          [
            11.834191,
            46.435055,
            2530.5
          ],
          [
            11.834001,
            46.435024,
            2524.5
          ],
          [
            11.833967,
            46.434978,
            2522
          ],
          [
            11.833913,
            46.434956,
            2519.8
          ],
          [
            11.833887,
            46.434877,
            2516
          ],
          [
            11.833796,
            46.43486,
            2513.3
          ],
          [
            11.833791,
            46.434823,
            2512
          ],
          [
            11.833744,
            46.434814,
            2510.8
          ],
          [
            11.833661,
            46.43482,
            2509.3
          ],
          [
            11.833252,
            46.434747,
            2502
          ],
          [
            11.83321,
            46.434696,
            2500
          ],
          [
            11.833108,
            46.434695,
            2498.3
          ],
          [
            11.833017,
            46.434654,
            2495.5
          ],
          [
            11.832958,
            46.434656,
            2494.5
          ],
          [
            11.832859,
            46.434636,
            2492
          ],
          [
            11.832704,
            46.434538,
            2487
          ],
          [
            11.832623,
            46.434498,
            2484.3
          ],
          [
            11.832554,
            46.434434,
            2480.8
          ],
          [
            11.832438,
            46.434421,
            2477
          ],
          [
            11.832283,
            46.434429,
            2473
          ],
          [
            11.83229,
            46.434361,
            2470
          ],
          [
            11.83243,
            46.434166,
            2464.8
          ],
          [
            11.832611,
            46.434016,
            2457
          ],
          [
            11.832403,
            46.433994,
            2451.8
          ],
          [
            11.832124,
            46.434002,
            2445.3
          ],
          [
            11.832096,
            46.433967,
            2442
          ],
          [
            11.832259,
            46.433791,
            2434.5
          ],
          [
            11.832581,
            46.433569,
            2426
          ],
          [
            11.83257,
            46.433547,
            2424.5
          ],
          [
            11.832388,
            46.433544,
            2420.3
          ],
          [
            11.832393,
            46.433527,
            2419.3
          ],
          [
            11.832466,
            46.433453,
            2416
          ],
          [
            11.832444,
            46.433442,
            2414.8
          ],
          [
            11.832344,
            46.433446,
            2413.3
          ],
          [
            11.832353,
            46.433411,
            2411
          ],
          [
            11.832313,
            46.433396,
            2409.5
          ],
          [
            11.832313,
            46.433364,
            2407.5
          ],
          [
            11.832206,
            46.433373,
            2405.8
          ],
          [
            11.832174,
            46.433352,
            2403.8
          ],
          [
            11.8322,
            46.433299,
            2401.3
          ],
          [
            11.832156,
            46.433283,
            2399
          ],
          [
            11.832035,
            46.433317,
            2397.5
          ],
          [
            11.832038,
            46.433272,
            2394.8
          ],
          [
            11.832012,
            46.433235,
            2391.5
          ],
          [
            11.831967,
            46.433272,
            2392.5
          ],
          [
            11.831853,
            46.43326,
            2388.8
          ],
          [
            11.831748,
            46.43326,
            2386.3
          ],
          [
            11.831806,
            46.433173,
            2382.3
          ],
          [
            11.831805,
            46.43313,
            2379.8
          ],
          [
            11.8317,
            46.43313,
            2378.3
          ],
          [
            11.831703,
            46.433053,
            2374.3
          ],
          [
            11.831475,
            46.433129,
            2372.3
          ],
          [
            11.831436,
            46.433108,
            2370.3
          ],
          [
            11.831431,
            46.433011,
            2366
          ],
          [
            11.831559,
            46.432964,
            2367
          ],
          [
            11.831696,
            46.432951,
            2369.3
          ],
          [
            11.831846,
            46.432945,
            2371.8
          ],
          [
            11.831921,
            46.432873,
            2371
          ],
          [
            11.831999,
            46.432814,
            2372.3
          ],
          [
            11.832165,
            46.432724,
            2376
          ],
          [
            11.832246,
            46.432696,
            2377.3
          ],
          [
            11.832388,
            46.432659,
            2378.3
          ],
          [
            11.832911,
            46.432607,
            2393.5
          ],
          [
            11.833088,
            46.432563,
            2399.3
          ],
          [
            11.833195,
            46.432518,
            2397.8
          ],
          [
            11.833268,
            46.432457,
            2395.5
          ],
          [
            11.83345,
            46.432439,
            2401.3
          ],
          [
            11.833694,
            46.432404,
            2406.5
          ],
          [
            11.833968,
            46.432385,
            2412.8
          ],
          [
            11.833963,
            46.432443,
            2416.5
          ],
          [
            11.833987,
            46.43248,
            2419.8
          ],
          [
            11.834046,
            46.432483,
            2421.8
          ],
          [
            11.834388,
            46.432473,
            2430
          ],
          [
            11.834617,
            46.432526,
            2442.3
          ],
          [
            11.835003,
            46.432506,
            2449
          ],
          [
            11.835416,
            46.432494,
            2460
          ],
          [
            11.835725,
            46.432561,
            2490
          ],
          [
            11.835947,
            46.432553,
            2495.5
          ],
          [
            11.836213,
            46.432508,
            2486.5
          ],
          [
            11.836422,
            46.432425,
            2488.3
          ],
          [
            11.836588,
            46.432326,
            2489.5
          ],
          [
            11.836729,
            46.432293,
            2493.5
          ],
          [
            11.837147,
            46.432223,
            2497
          ],
          [
            11.837356,
            46.432158,
            2505.3
          ],
          [
            11.837578,
            46.432117,
            2515.3
          ],
          [
            11.837659,
            46.432075,
            2516.3
          ],
          [
            11.837782,
            46.43206,
            2520.3
          ],
          [
            11.837841,
            46.432081,
            2523.5
          ],
          [
            11.837873,
            46.432141,
            2529.3
          ],
          [
            11.838053,
            46.432117,
            2532.3
          ],
          [
            11.838289,
            46.43211,
            2532
          ],
          [
            11.83845,
            46.432123,
            2532.3
          ],
          [
            11.838537,
            46.432095,
            2529.3
          ],
          [
            11.838772,
            46.432112,
            2528.8
          ],
          [
            11.838895,
            46.432099,
            2526.8
          ],
          [
            11.839,
            46.432139,
            2528
          ],
          [
            11.839086,
            46.43216,
            2528
          ],
          [
            11.839216,
            46.432147,
            2527
          ],
          [
            11.839303,
            46.432189,
            2530
          ],
          [
            11.839405,
            46.432185,
            2531
          ],
          [
            11.839545,
            46.432147,
            2532.3
          ],
          [
            11.839796,
            46.432131,
            2536.3
          ],
          [
            11.839959,
            46.432155,
            2540
          ],
          [
            11.840158,
            46.432176,
            2544
          ],
          [
            11.840437,
            46.432165,
            2548.3
          ],
          [
            11.840859,
            46.43216,
            2555.5
          ],
          [
            11.840942,
            46.432183,
            2557.8
          ],
          [
            11.841055,
            46.432201,
            2560.3
          ],
          [
            11.841332,
            46.432139,
            2563.3
          ],
          [
            11.841615,
            46.432139,
            2569.5
          ],
          [
            11.842282,
            46.432066,
            2578.5
          ],
          [
            11.842661,
            46.432069,
            2585.8
          ],
          [
            11.842862,
            46.432062,
            2588.3
          ],
          [
            11.842982,
            46.432026,
            2588.5
          ],
          [
            11.843148,
            46.431944,
            2589.3
          ],
          [
            11.843323,
            46.431878,
            2593.5
          ],
          [
            11.843511,
            46.431783,
            2597.3
          ],
          [
            11.843603,
            46.431711,
            2598
          ],
          [
            11.843772,
            46.431558,
            2600.5
          ],
          [
            11.84394,
            46.431428,
            2605.5
          ],
          [
            11.843978,
            46.431333,
            2607.5
          ],
          [
            11.844037,
            46.431278,
            2610.3
          ],
          [
            11.84404,
            46.431206,
            2611.5
          ],
          [
            11.844151,
            46.431022,
            2618
          ],
          [
            11.84419,
            46.431036,
            2619.5
          ],
          [
            11.844276,
            46.431093,
            2623
          ],
          [
            11.844329,
            46.431154,
            2624.5
          ],
          [
            11.844383,
            46.431128,
            2627.5
          ],
          [
            11.844445,
            46.431025,
            2631
          ],
          [
            11.844549,
            46.430899,
            2636
          ],
          [
            11.844656,
            46.430707,
            2641.8
          ],
          [
            11.844769,
            46.430668,
            2646.3
          ],
          [
            11.844826,
            46.430711,
            2649.3
          ],
          [
            11.84497,
            46.430738,
            2656
          ],
          [
            11.845032,
            46.430792,
            2659.3
          ],
          [
            11.845101,
            46.430907,
            2661
          ],
          [
            11.845317,
            46.430805,
            2669.3
          ],
          [
            11.84544,
            46.430929,
            2677.8
          ],
          [
            11.845491,
            46.430912,
            2680.3
          ],
          [
            11.845515,
            46.430832,
            2677.3
          ],
          [
            11.84559,
            46.430781,
            2680
          ],
          [
            11.845641,
            46.430816,
            2682.5
          ],
          [
            11.845896,
            46.430629,
            2691
          ],
          [
            11.846124,
            46.430513,
            2698.5
          ],
          [
            11.846185,
            46.430539,
            2699.5
          ],
          [
            11.84625,
            46.430548,
            2701.5
          ],
          [
            11.846359,
            46.430472,
            2704.8
          ],
          [
            11.84642,
            46.430449,
            2704.5
          ],
          [
            11.846142,
            46.430274,
            2704.8
          ],
          [
            11.846074,
            46.430132,
            2706
          ],
          [
            11.846083,
            46.430071,
            2707.5
          ],
          [
            11.846109,
            46.43002,
            2709.5
          ],
          [
            11.846201,
            46.429922,
            2701.3
          ],
          [
            11.84621,
            46.429884,
            2699.5
          ],
          [
            11.846183,
            46.429847,
            2699.5
          ],
          [
            11.846117,
            46.429802,
            2701
          ],
          [
            11.846023,
            46.429759,
            2701.8
          ],
          [
            11.845892,
            46.429756,
            2705.3
          ],
          [
            11.845838,
            46.429735,
            2707.3
          ],
          [
            11.84576,
            46.429691,
            2706
          ],
          [
            11.845723,
            46.429637,
            2705.5
          ],
          [
            11.845684,
            46.429515,
            2706.5
          ],
          [
            11.845579,
            46.429367,
            2712.5
          ],
          [
            11.845523,
            46.429272,
            2716
          ],
          [
            11.845487,
            46.429193,
            2719
          ],
          [
            11.845463,
            46.429165,
            2720.5
          ],
          [
            11.845371,
            46.429119,
            2725
          ]
        ]
      }
    },
    {
      "type": "Feature",
      "properties": {
        "kind": "waypoint",
        "name": "Bivacco Bontadini",
        "show_label": true
      },
      "geometry": {
        "type": "Point",
        "coordinates": [
          11.888313,
          46.463584,
          2546
        ]
      }
    },
    {
      "type": "Feature",
      "properties": {
        "kind": "waypoint",
        "name": "Passo Fedaia",
        "show_label": true
      },
      "geometry": {
        "type": "Point",
        "coordinates": [
          11.86259,
          46.464024,
          2057
        ]
      }
    },
    {
      "type": "Feature",
      "properties": {
        "kind": "waypoint",
        "name": "Pian dei Fiacconi",
        "show_label": false
      },
      "geometry": {
        "type": "Point",
        "coordinates": [
          11.861346,
          46.444628,
          2700
        ]
      }
    },
    {
      "type": "Feature",
      "properties": {
        "kind": "waypoint",
        "name": "Forcella Marmolada",
        "show_label": true
      },
      "geometry": {
        "type": "Point",
        "coordinates": [
          11.840182,
          46.438764,
          2885
        ]
      }
    },
    {
      "type": "Feature",
      "properties": {
        "kind": "waypoint",
        "name": "Passo Ombretta",
        "show_label": false
      },
      "geometry": {
        "type": "Point",
        "coordinates": [
          11.84642,
          46.430449,
          2702
        ]
      }
    },
    {
      "type": "Feature",
      "properties": {
        "kind": "waypoint",
        "name": "Bivacco Dal Bianco",
        "show_label": true
      },
      "geometry": {
        "type": "Point",
        "coordinates": [
          11.845371,
          46.429119,
          2725
        ]
      }
    }
  ]
}
