<?xml version="1.0" encoding="UTF-8"?>
<gpx version="1.1" creator="Dolomites 2026" xmlns="http://www.topografix.com/GPX/1/1" xmlns:xsi="http://www.w3.org/2001/XMLSchema-instance" xsi:schemaLocation="http://www.topografix.com/GPX/1/1 http://www.topografix.com/GPX/1/1/gpx.xsd">
  <metadata><name>День 6 · Passo delle Selle → Passo San Pellegrino</name></metadata>
  <wpt lat="46.397024" lon="11.762657"><ele>2528</ele><name>Passo delle Selle</name></wpt>
  <wpt lat="46.378358" lon="11.79172"><ele>1920</ele><name>Passo San Pellegrino</name></wpt>
  <trk>
    <name>День 6 · Passo delle Selle → Passo San Pellegrino</name>
    <trkseg>
      <trkpt lat="46.397024" lon="11.762657"><ele>2527.5</ele></trkpt>
      <trkpt lat="46.39738" lon="11.762933"><ele>2523.3</ele></trkpt>
      <trkpt lat="46.397503" lon="11.763103"><ele>2518.8</ele></trkpt>
      <trkpt lat="46.397564" lon="11.76331"><ele>2516</ele></trkpt>
      <trkpt lat="46.397567" lon="11.763522"><ele>2511.5</ele></trkpt>
      <trkpt lat="46.397535" lon="11.763703"><ele>2507.3</ele></trkpt>
      <trkpt lat="46.397363" lon="11.764152"><ele>2494.5</ele></trkpt>
      <trkpt lat="46.397261" lon="11.764313"><ele>2488.8</ele></trkpt>
      <trkpt lat="46.397181" lon="11.764411"><ele>2484.5</ele></trkpt>
      <trkpt lat="46.397076" lon="11.764632"><ele>2479.3</ele></trkpt>
      <trkpt lat="46.396926" lon="11.764919"><ele>2472.8</ele></trkpt>
      <trkpt lat="46.396857" lon="11.764875"><ele>2472.5</ele></trkpt>
      <trkpt lat="46.396831" lon="11.764771"><ele>2472.5</ele></trkpt>
      <trkpt lat="46.396855" lon="11.764667"><ele>2473</ele></trkpt>
      <trkpt lat="46.396846" lon="11.76458"><ele>2473.8</ele></trkpt>
      <trkpt lat="46.396781" lon="11.764555"><ele>2473.8</ele></trkpt>
      <trkpt lat="46.396712" lon="11.764476"><ele>2474.5</ele></trkpt>
      <trkpt lat="46.396614" lon="11.764263"><ele>2475.5</ele></trkpt>
      <trkpt lat="46.396401" lon="11.764019"><ele>2476</ele></trkpt>
      <trkpt lat="46.396218" lon="11.763884"><ele>2472.8</ele></trkpt>
      <trkpt lat="46.395909" lon="11.763747"><ele>2466</ele></trkpt>
      <trkpt lat="46.395865" lon="11.763783"><ele>2463.5</ele></trkpt>
      <trkpt lat="46.395843" lon="11.763911"><ele>2460</ele></trkpt>
      <trkpt lat="46.395802" lon="11.763928"><ele>2458.5</ele></trkpt>
      <trkpt lat="46.395714" lon="11.76389"><ele>2456.5</ele></trkpt>
      <trkpt lat="46.395425" lon="11.763669"><ele>2453.8</ele></trkpt>
      <trkpt lat="46.394987" lon="11.763379"><ele>2449</ele></trkpt>
      <trkpt lat="46.39492" lon="11.763418"><ele>2448</ele></trkpt>
      <trkpt lat="46.394901" lon="11.763504"><ele>2446.5</ele></trkpt>
      <trkpt lat="46.394954" lon="11.763787"><ele>2442.8</ele></trkpt>
      <trkpt lat="46.395056" lon="11.764254"><ele>2437.5</ele></trkpt>
      <trkpt lat="46.395165" lon="11.764668"><ele>2431.3</ele></trkpt>
      <trkpt lat="46.395188" lon="11.764812"><ele>2429.3</ele></trkpt>
      <trkpt lat="46.395156" lon="11.764877"><ele>2427.5</ele></trkpt>
      <trkpt lat="46.395091" lon="11.7649"><ele>2425.5</ele></trkpt>
      <trkpt lat="46.394962" lon="11.764814"><ele>2423.3</ele></trkpt>
      <trkpt lat="46.39477" lon="11.764619"><ele>2420</ele></trkpt>
      <trkpt lat="46.39462" lon="11.764619"><ele>2415</ele></trkpt>
      <trkpt lat="46.394311" lon="11.764512"><ele>2408.8</ele></trkpt>
      <trkpt lat="46.394148" lon="11.764534"><ele>2405</ele></trkpt>
      <trkpt lat="46.393849" lon="11.764802"><ele>2396.3</ele></trkpt>
      <trkpt lat="46.393761" lon="11.764837"><ele>2393.8</ele></trkpt>
      <trkpt lat="46.393681" lon="11.764809"><ele>2392.5</ele></trkpt>
      <trkpt lat="46.393591" lon="11.764744"><ele>2391.5</ele></trkpt>
      <trkpt lat="46.393553" lon="11.76473"><ele>2391.3</ele></trkpt>
      <trkpt lat="46.393496" lon="11.764759"><ele>2390.3</ele></trkpt>
      <trkpt lat="46.393418" lon="11.76507"><ele>2385</ele></trkpt>
      <trkpt lat="46.393258" lon="11.765429"><ele>2377</ele></trkpt>
      <trkpt lat="46.393058" lon="11.765751"><ele>2370</ele></trkpt>
      <trkpt lat="46.392753" lon="11.765931"><ele>2364.3</ele></trkpt>
      <trkpt lat="46.392505" lon="11.766034"><ele>2360.5</ele></trkpt>
      <trkpt lat="46.392367" lon="11.766143"><ele>2359</ele></trkpt>
      <trkpt lat="46.392174" lon="11.766336"><ele>2355.8</ele></trkpt>
      <trkpt lat="46.391873" lon="11.766808"><ele>2347</ele></trkpt>
      <trkpt lat="46.391804" lon="11.766905"><ele>2344.5</ele></trkpt>
      <trkpt lat="46.391573" lon="11.76698"><ele>2340.5</ele></trkpt>
      <trkpt lat="46.39153" lon="11.767194"><ele>2337.3</ele></trkpt>
      <trkpt lat="46.391619" lon="11.767709"><ele>2332.5</ele></trkpt>
      <trkpt lat="46.391624" lon="11.767988"><ele>2330.3</ele></trkpt>
      <trkpt lat="46.391659" lon="11.768589"><ele>2326</ele></trkpt>
      <trkpt lat="46.391809" lon="11.769362"><ele>2322.5</ele></trkpt>
      <trkpt lat="46.391702" lon="11.769533"><ele>2321.8</ele></trkpt>
      <trkpt lat="46.391101" lon="11.770048"><ele>2320</ele></trkpt>
      <trkpt lat="46.390843" lon="11.770155"><ele>2319.3</ele></trkpt>
      <trkpt lat="46.390543" lon="11.770778"><ele>2313.3</ele></trkpt>
      <trkpt lat="46.390543" lon="11.770875"><ele>2312.3</ele></trkpt>
      <trkpt lat="46.390543" lon="11.771057"><ele>2310.5</ele></trkpt>
      <trkpt lat="46.390371" lon="11.771829"><ele>2302.5</ele></trkpt>
      <trkpt lat="46.390436" lon="11.772237"><ele>2300</ele></trkpt>
      <trkpt lat="46.390371" lon="11.772516"><ele>2296.8</ele></trkpt>
      <trkpt lat="46.390436" lon="11.772752"><ele>2294</ele></trkpt>
      <trkpt lat="46.390564" lon="11.772902"><ele>2293</ele></trkpt>
      <trkpt lat="46.390736" lon="11.773331"><ele>2289.3</ele></trkpt>
      <trkpt lat="46.390972" lon="11.773717"><ele>2285.5</ele></trkpt>
      <trkpt lat="46.39123" lon="11.773846"><ele>2284.8</ele></trkpt>
      <trkpt lat="46.391444" lon="11.773846"><ele>2284.3</ele></trkpt>
      <trkpt lat="46.391637" lon="11.77376"><ele>2284.3</ele></trkpt>
      <trkpt lat="46.391702" lon="11.773932"><ele>2283.3</ele></trkpt>
      <trkpt lat="46.391702" lon="11.774049"><ele>2282</ele></trkpt>
      <trkpt lat="46.391702" lon="11.774361"><ele>2280.8</ele></trkpt>
      <trkpt lat="46.391788" lon="11.774683"><ele>2279.8</ele></trkpt>
      <trkpt lat="46.39183" lon="11.775048"><ele>2278.3</ele></trkpt>
      <trkpt lat="46.392156" lon="11.775556"><ele>2274.8</ele></trkpt>
      <trkpt lat="46.392174" lon="11.775584"><ele>2274.5</ele></trkpt>
      <trkpt lat="46.392023" lon="11.775893"><ele>2268.8</ele></trkpt>
      <trkpt lat="46.391928" lon="11.77607"><ele>2267</ele></trkpt>
      <trkpt lat="46.391903" lon="11.776207"><ele>2265.8</ele></trkpt>
      <trkpt lat="46.391869" lon="11.776317"><ele>2264.5</ele></trkpt>
      <trkpt lat="46.391853" lon="11.776464"><ele>2262.3</ele></trkpt>
      <trkpt lat="46.391819" lon="11.776555"><ele>2259.8</ele></trkpt>
      <trkpt lat="46.391751" lon="11.776646"><ele>2258</ele></trkpt>
      <trkpt lat="46.391714" lon="11.776727"><ele>2257</ele></trkpt>
      <trkpt lat="46.391745" lon="11.776958"><ele>2253.8</ele></trkpt>
      <trkpt lat="46.391745" lon="11.777344"><ele>2246.8</ele></trkpt>
      <trkpt lat="46.391714" lon="11.777478"><ele>2244.8</ele></trkpt>
      <trkpt lat="46.391647" lon="11.777583"><ele>2244</ele></trkpt>
      <trkpt lat="46.391497" lon="11.77787"><ele>2241.5</ele></trkpt>
      <trkpt lat="46.391475" lon="11.778009"><ele>2240.3</ele></trkpt>
      <trkpt lat="46.391486" lon="11.778159"><ele>2239</ele></trkpt>
      <trkpt lat="46.391552" lon="11.778395"><ele>2238.5</ele></trkpt>
      <trkpt lat="46.391534" lon="11.778513"><ele>2238.3</ele></trkpt>
      <trkpt lat="46.391433" lon="11.778747"><ele>2237</ele></trkpt>
      <trkpt lat="46.391407" lon="11.779004"><ele>2236.3</ele></trkpt>
      <trkpt lat="46.391359" lon="11.779141"><ele>2235.3</ele></trkpt>
      <trkpt lat="46.390844" lon="11.780106"><ele>2232.5</ele></trkpt>
      <trkpt lat="46.390681" lon="11.780393"><ele>2230.5</ele></trkpt>
      <trkpt lat="46.390463" lon="11.780813"><ele>2227.3</ele></trkpt>
      <trkpt lat="46.390325" lon="11.781027"><ele>2224.8</ele></trkpt>
      <trkpt lat="46.390226" lon="11.781217"><ele>2223.3</ele></trkpt>
      <trkpt lat="46.389973" lon="11.781657"><ele>2219.3</ele></trkpt>
      <trkpt lat="46.389861" lon="11.781818"><ele>2218</ele></trkpt>
      <trkpt lat="46.389783" lon="11.781953"><ele>2217</ele></trkpt>
      <trkpt lat="46.389701" lon="11.782147"><ele>2215.8</ele></trkpt>
      <trkpt lat="46.389653" lon="11.782318"><ele>2215</ele></trkpt>
      <trkpt lat="46.389504" lon="11.782723"><ele>2210.5</ele></trkpt>
      <trkpt lat="46.389277" lon="11.783223"><ele>2202</ele></trkpt>
      <trkpt lat="46.389204" lon="11.783412"><ele>2199</ele></trkpt>
      <trkpt lat="46.389142" lon="11.783603"><ele>2195.3</ele></trkpt>
      <trkpt lat="46.388971" lon="11.78425"><ele>2186.3</ele></trkpt>
      <trkpt lat="46.388913" lon="11.784427"><ele>2184.5</ele></trkpt>
      <trkpt lat="46.388718" lon="11.7849"><ele>2178.8</ele></trkpt>
      <trkpt lat="46.388655" lon="11.785085"><ele>2176.8</ele></trkpt>
      <trkpt lat="46.388484" lon="11.785694"><ele>2169.8</ele></trkpt>
      <trkpt lat="46.388309" lon="11.786228"><ele>2165.3</ele></trkpt>
      <trkpt lat="46.38819" lon="11.786687"><ele>2162.3</ele></trkpt>
      <trkpt lat="46.388169" lon="11.786827"><ele>2161.8</ele></trkpt>
      <trkpt lat="46.388167" lon="11.786952"><ele>2161.5</ele></trkpt>
      <trkpt lat="46.388201" lon="11.787172"><ele>2159.8</ele></trkpt>
      <trkpt lat="46.388207" lon="11.787322"><ele>2158.3</ele></trkpt>
      <trkpt lat="46.388201" lon="11.787439"><ele>2156.8</ele></trkpt>
      <trkpt lat="46.388146" lon="11.787969"><ele>2148.5</ele></trkpt>
      <trkpt lat="46.388118" lon="11.788171"><ele>2145.5</ele></trkpt>
      <trkpt lat="46.38807" lon="11.788366"><ele>2142.8</ele></trkpt>
      <trkpt lat="46.387923" lon="11.788797"><ele>2137.8</ele></trkpt>
      <trkpt lat="46.387798" lon="11.789415"><ele>2132</ele></trkpt>
      <trkpt lat="46.387796" lon="11.789516"><ele>2130.8</ele></trkpt>
      <trkpt lat="46.387818" lon="11.789596"><ele>2129.3</ele></trkpt>
      <trkpt lat="46.387862" lon="11.789655"><ele>2128</ele></trkpt>
      <trkpt lat="46.388029" lon="11.789792"><ele>2124.5</ele></trkpt>
      <trkpt lat="46.388114" lon="11.789887"><ele>2123.5</ele></trkpt>
      <trkpt lat="46.388186" lon="11.790008"><ele>2122.8</ele></trkpt>
      <trkpt lat="46.388305" lon="11.790286"><ele>2119.3</ele></trkpt>
      <trkpt lat="46.388371" lon="11.790495"><ele>2117.5</ele></trkpt>
      <trkpt lat="46.388371" lon="11.790599"><ele>2116</ele></trkpt>
      <trkpt lat="46.388362" lon="11.79069"><ele>2115</ele></trkpt>
      <trkpt lat="46.388333" lon="11.790819"><ele>2113</ele></trkpt>
      <trkpt lat="46.388168" lon="11.791389"><ele>2105.8</ele></trkpt>
      <trkpt lat="46.388083" lon="11.791812"><ele>2099.8</ele></trkpt>
      <trkpt lat="46.388077" lon="11.791975"><ele>2097.8</ele></trkpt>
      <trkpt lat="46.388101" lon="11.792162"><ele>2095.5</ele></trkpt>
      <trkpt lat="46.388157" lon="11.792367"><ele>2093</ele></trkpt>
      <trkpt lat="46.388229" lon="11.792525"><ele>2090.8</ele></trkpt>
      <trkpt lat="46.388257" lon="11.792569"><ele>2090.3</ele></trkpt>
      <trkpt lat="46.38828" lon="11.792655"><ele>2089.3</ele></trkpt>
      <trkpt lat="46.388277" lon="11.792727"><ele>2088.3</ele></trkpt>
      <trkpt lat="46.388257" lon="11.792771"><ele>2087.5</ele></trkpt>
      <trkpt lat="46.388218" lon="11.792812"><ele>2087.3</ele></trkpt>
      <trkpt lat="46.388144" lon="11.792833"><ele>2086.8</ele></trkpt>
      <trkpt lat="46.388094" lon="11.792832"><ele>2086</ele></trkpt>
      <trkpt lat="46.38806" lon="11.79282"><ele>2085.8</ele></trkpt>
      <trkpt lat="46.387986" lon="11.792775"><ele>2085</ele></trkpt>
      <trkpt lat="46.387646" lon="11.792548"><ele>2079</ele></trkpt>
      <trkpt lat="46.387532" lon="11.792492"><ele>2077</ele></trkpt>
      <trkpt lat="46.387451" lon="11.792473"><ele>2075.8</ele></trkpt>
      <trkpt lat="46.387377" lon="11.792471"><ele>2074.8</ele></trkpt>
      <trkpt lat="46.387304" lon="11.792505"><ele>2073.5</ele></trkpt>
      <trkpt lat="46.387237" lon="11.792562"><ele>2070.5</ele></trkpt>
      <trkpt lat="46.387138" lon="11.792678"><ele>2066.3</ele></trkpt>
      <trkpt lat="46.387073" lon="11.792782"><ele>2064</ele></trkpt>
      <trkpt lat="46.387028" lon="11.79283"><ele>2063.8</ele></trkpt>
      <trkpt lat="46.386956" lon="11.792869"><ele>2063</ele></trkpt>
      <trkpt lat="46.386883" lon="11.792881"><ele>2062</ele></trkpt>
      <trkpt lat="46.386798" lon="11.792856"><ele>2061.8</ele></trkpt>
      <trkpt lat="46.386607" lon="11.792758"><ele>2059.5</ele></trkpt>
      <trkpt lat="46.386525" lon="11.79273"><ele>2057.5</ele></trkpt>
      <trkpt lat="46.386463" lon="11.792652"><ele>2055.8</ele></trkpt>
      <trkpt lat="46.38628" lon="11.792441"><ele>2050.8</ele></trkpt>
      <trkpt lat="46.386172" lon="11.792303"><ele>2048.3</ele></trkpt>
      <trkpt lat="46.385982" lon="11.792031"><ele>2044</ele></trkpt>
      <trkpt lat="46.385897" lon="11.791931"><ele>2042.3</ele></trkpt>
      <trkpt lat="46.385829" lon="11.791875"><ele>2040.3</ele></trkpt>
      <trkpt lat="46.385649" lon="11.791769"><ele>2035.5</ele></trkpt>
      <trkpt lat="46.38551" lon="11.791651"><ele>2034.3</ele></trkpt>
      <trkpt lat="46.385358" lon="11.791545"><ele>2032.8</ele></trkpt>
      <trkpt lat="46.385267" lon="11.791503"><ele>2030.5</ele></trkpt>
      <trkpt lat="46.385139" lon="11.791458"><ele>2027.5</ele></trkpt>
      <trkpt lat="46.385048" lon="11.791433"><ele>2025</ele></trkpt>
      <trkpt lat="46.384976" lon="11.791433"><ele>2023</ele></trkpt>
      <trkpt lat="46.38491" lon="11.791448"><ele>2021.5</ele></trkpt>
      <trkpt lat="46.384867" lon="11.791468"><ele>2020.5</ele></trkpt>
      <trkpt lat="46.384573" lon="11.791635"><ele>2014.8</ele></trkpt>
      <trkpt lat="46.3845" lon="11.791641"><ele>2013.5</ele></trkpt>
      <trkpt lat="46.384421" lon="11.79162"><ele>2012</ele></trkpt>
      <trkpt lat="46.384309" lon="11.791536"><ele>2008.8</ele></trkpt>
      <trkpt lat="46.384228" lon="11.791441"><ele>2007</ele></trkpt>
      <trkpt lat="46.384155" lon="11.791328"><ele>2005.5</ele></trkpt>
      <trkpt lat="46.38377" lon="11.790676"><ele>1997</ele></trkpt>
      <trkpt lat="46.383613" lon="11.790685"><ele>1994.5</ele></trkpt>
      <trkpt lat="46.383567" lon="11.790809"><ele>1993</ele></trkpt>
      <trkpt lat="46.383637" lon="11.791106"><ele>1992.8</ele></trkpt>
      <trkpt lat="46.383673" lon="11.791338"><ele>1990.8</ele></trkpt>
      <trkpt lat="46.383658" lon="11.791459"><ele>1989</ele></trkpt>
      <trkpt lat="46.383652" lon="11.791669"><ele>1986.8</ele></trkpt>
      <trkpt lat="46.383475" lon="11.792363"><ele>1979</ele></trkpt>
      <trkpt lat="46.383367" lon="11.792614"><ele>1976</ele></trkpt>
      <trkpt lat="46.383301" lon="11.792696"><ele>1974</ele></trkpt>
      <trkpt lat="46.383121" lon="11.792857"><ele>1969</ele></trkpt>
      <trkpt lat="46.38298" lon="11.793014"><ele>1964.5</ele></trkpt>
      <trkpt lat="46.382832" lon="11.793115"><ele>1959.3</ele></trkpt>
      <trkpt lat="46.382711" lon="11.793237"><ele>1954.8</ele></trkpt>
      <trkpt lat="46.382569" lon="11.793345"><ele>1950.5</ele></trkpt>
      <trkpt lat="46.382339" lon="11.793398"><ele>1946</ele></trkpt>
      <trkpt lat="46.3823" lon="11.793443"><ele>1945</ele></trkpt>
      <trkpt lat="46.382268" lon="11.793536"><ele>1943.5</ele></trkpt>
      <trkpt lat="46.38222" lon="11.793614"><ele>1941.8</ele></trkpt>
      <trkpt lat="46.382141" lon="11.793697"><ele>1940.8</ele></trkpt>
      <trkpt lat="46.382012" lon="11.793781"><ele>1938.8</ele></trkpt>
      <trkpt lat="46.381966" lon="11.793844"><ele>1937.5</ele></trkpt>
      <trkpt lat="46.381946" lon="11.793915"><ele>1936.8</ele></trkpt>
      <trkpt lat="46.381941" lon="11.794012"><ele>1936.5</ele></trkpt>
      <trkpt lat="46.381894" lon="11.794131"><ele>1935.5</ele></trkpt>
      <trkpt lat="46.381891" lon="11.794237"><ele>1935</ele></trkpt>
      <trkpt lat="46.381789" lon="11.794211"><ele>1934.3</ele></trkpt>
      <trkpt lat="46.381668" lon="11.794193"><ele>1933</ele></trkpt>
      <trkpt lat="46.381489" lon="11.794215"><ele>1931.5</ele></trkpt>
      <trkpt lat="46.381139" lon="11.794296"><ele>1928.5</ele></trkpt>
      <trkpt lat="46.381026" lon="11.794339"><ele>1927.8</ele></trkpt>
      <trkpt lat="46.380933" lon="11.794394"><ele>1927.3</ele></trkpt>
      <trkpt lat="46.380797" lon="11.7945"><ele>1926.3</ele></trkpt>
      <trkpt lat="46.380706" lon="11.794554"><ele>1925</ele></trkpt>
      <trkpt lat="46.380622" lon="11.794575"><ele>1924</ele></trkpt>
      <trkpt lat="46.380405" lon="11.794587"><ele>1922.8</ele></trkpt>
      <trkpt lat="46.38026" lon="11.794605"><ele>1922.3</ele></trkpt>
      <trkpt lat="46.380139" lon="11.794607"><ele>1921.5</ele></trkpt>
      <trkpt lat="46.380002" lon="11.794591"><ele>1920.8</ele></trkpt>
      <trkpt lat="46.37987" lon="11.794565"><ele>1920</ele></trkpt>
      <trkpt lat="46.379667" lon="11.794514"><ele>1918.3</ele></trkpt>
      <trkpt lat="46.379569" lon="11.794481"><ele>1917.3</ele></trkpt>
      <trkpt lat="46.379447" lon="11.794424"><ele>1916.3</ele></trkpt>
      <trkpt lat="46.379011" lon="11.794182"><ele>1914.3</ele></trkpt>
      <trkpt lat="46.378754" lon="11.79402"><ele>1914</ele></trkpt>
      <trkpt lat="46.378663" lon="11.793998"><ele>1913.8</ele></trkpt>
      <trkpt lat="46.378615" lon="11.794004"><ele>1913.5</ele></trkpt>
      <trkpt lat="46.378632" lon="11.793847"><ele>1914.3</ele></trkpt>
      <trkpt lat="46.378678" lon="11.793632"><ele>1916.3</ele></trkpt>
      <trkpt lat="46.378701" lon="11.793547"><ele>1917.3</ele></trkpt>
      <trkpt lat="46.378735" lon="11.793513"><ele>1918</ele></trkpt>
      <trkpt lat="46.378704" lon="11.793443"><ele>1918.3</ele></trkpt>
      <trkpt lat="46.378621" lon="11.793204"><ele>1919</ele></trkpt>
      <trkpt lat="46.378567" lon="11.793129"><ele>1918.8</ele></trkpt>
      <trkpt lat="46.378495" lon="11.793063"><ele>1918.3</ele></trkpt>
      <trkpt lat="46.378411" lon="11.793002"><ele>1917.3</ele></trkpt>
      <trkpt lat="46.378279" lon="11.792945"><ele>1916.8</ele></trkpt>
      <trkpt lat="46.378358" lon="11.79172"><ele>1920.3</ele></trkpt>
    </trkseg>
  </trk>
</gpx>
