{
  "type": "FeatureCollection",
  "features": [
    {
      "type": "Feature",
      "properties": {
        "kind": "route",
        "name": "Варіант A · Col Raiser",
        "distance_km": 16.034,
        "ascent_m": 1080,
        "source": "BRouter / OpenStreetMap"
      },
      "geometry": {
        "type": "LineString",
        "coordinates": [
          [
            11.745318,
            46.584784,
            2103.8
          ],
          [
            11.745335,
            46.584823,
            2103.8
          ],
          [
            11.745484,
            46.584791,
            2104.5
          ],
          [
            11.745533,
            46.584901,
            2104.8
          ],
          [
            11.745753,
            46.584987,
            2105.5
          ],
          [
            11.745788,
            46.585025,
            2105.5
          ],
          [
            11.745795,
            46.585066,
            2105
          ],
          [
            11.745737,
            46.585199,
            2103.5
          ],
          [
            11.745685,
            46.585283,
            2102.3
          ],
          [
            11.745517,
            46.585428,
            2101.3
          ],
          [
            11.745437,
            46.585447,
            2101.8
          ],
          [
            11.745267,
            46.585521,
            2104
          ],
          [
            11.745198,
            46.585638,
            2103.5
          ],
          [
            11.744999,
            46.585895,
            2102.5
          ],
          [
            11.744988,
            46.585967,
            2101.5
          ],
          [
            11.745028,
            46.5861,
            2100.8
          ],
          [
            11.745021,
            46.586209,
            2099.8
          ],
          [
            11.745136,
            46.586603,
            2098.3
          ],
          [
            11.745134,
            46.586849,
            2094.3
          ],
          [
            11.745181,
            46.587061,
            2093.3
          ],
          [
            11.745257,
            46.587183,
            2094.5
          ],
          [
            11.745236,
            46.587333,
            2096
          ],
          [
            11.745189,
            46.587419,
            2096.3
          ],
          [
            11.74516,
            46.587663,
            2100.5
          ],
          [
            11.745122,
            46.587722,
            2100.8
          ],
          [
            11.744989,
            46.587797,
            2099.3
          ],
          [
            11.74492,
            46.587881,
            2099.5
          ],
          [
            11.744886,
            46.587978,
            2101
          ],
          [
            11.74484,
            46.588428,
            2107
          ],
          [
            11.74468,
            46.588828,
            2108
          ],
          [
            11.744418,
            46.589093,
            2111
          ],
          [
            11.744372,
            46.589187,
            2112.3
          ],
          [
            11.744368,
            46.589243,
            2112
          ],
          [
            11.744408,
            46.589334,
            2112.8
          ],
          [
            11.744416,
            46.589421,
            2112.5
          ],
          [
            11.744369,
            46.589476,
            2112.5
          ],
          [
            11.744304,
            46.589508,
            2112.5
          ],
          [
            11.744191,
            46.58955,
            2112.3
          ],
          [
            11.74412,
            46.589612,
            2113.3
          ],
          [
            11.743975,
            46.589686,
            2114.3
          ],
          [
            11.743828,
            46.589708,
            2114.3
          ],
          [
            11.743691,
            46.589705,
            2114.3
          ],
          [
            11.743478,
            46.589683,
            2113.3
          ],
          [
            11.743301,
            46.58968,
            2112.8
          ],
          [
            11.743223,
            46.589692,
            2112.8
          ],
          [
            11.743155,
            46.589724,
            2113.5
          ],
          [
            11.743107,
            46.589774,
            2113.8
          ],
          [
            11.743082,
            46.58983,
            2114
          ],
          [
            11.743068,
            46.589925,
            2114.5
          ],
          [
            11.743064,
            46.590069,
            2115.8
          ],
          [
            11.743094,
            46.590168,
            2117.8
          ],
          [
            11.743065,
            46.590227,
            2117.5
          ],
          [
            11.742995,
            46.590267,
            2116.8
          ],
          [
            11.742834,
            46.590328,
            2115.5
          ],
          [
            11.74262,
            46.59038,
            2114.3
          ],
          [
            11.742478,
            46.590476,
            2115.5
          ],
          [
            11.742247,
            46.590617,
            2117
          ],
          [
            11.742133,
            46.590735,
            2115.8
          ],
          [
            11.742077,
            46.590752,
            2115.3
          ],
          [
            11.741943,
            46.590744,
            2113.5
          ],
          [
            11.741829,
            46.590702,
            2113.3
          ],
          [
            11.741762,
            46.590645,
            2112.3
          ],
          [
            11.741602,
            46.590597,
            2110.3
          ],
          [
            11.741359,
            46.590567,
            2107.3
          ],
          [
            11.741163,
            46.590526,
            2106.8
          ],
          [
            11.740874,
            46.590562,
            2106.5
          ],
          [
            11.740116,
            46.590569,
            2109.5
          ],
          [
            11.739967,
            46.590569,
            2110.8
          ],
          [
            11.739802,
            46.590547,
            2111.8
          ],
          [
            11.739146,
            46.590504,
            2116.3
          ],
          [
            11.738884,
            46.590506,
            2117
          ],
          [
            11.738658,
            46.590534,
            2119.3
          ],
          [
            11.738454,
            46.590482,
            2117.5
          ],
          [
            11.738505,
            46.590726,
            2125
          ],
          [
            11.738508,
            46.591235,
            2134.3
          ],
          [
            11.738484,
            46.591311,
            2135
          ],
          [
            11.738328,
            46.591485,
            2136.3
          ],
          [
            11.738259,
            46.591589,
            2137
          ],
          [
            11.738187,
            46.591821,
            2139.8
          ],
          [
            11.738111,
            46.591956,
            2141.3
          ],
          [
            11.738068,
            46.592095,
            2143
          ],
          [
            11.738082,
            46.592202,
            2144.5
          ],
          [
            11.738163,
            46.592447,
            2148.3
          ],
          [
            11.738284,
            46.592843,
            2151.5
          ],
          [
            11.738375,
            46.593053,
            2152.3
          ],
          [
            11.738379,
            46.593134,
            2154
          ],
          [
            11.738366,
            46.593217,
            2156
          ],
          [
            11.738204,
            46.593398,
            2161.3
          ],
          [
            11.737923,
            46.593595,
            2167
          ],
          [
            11.737862,
            46.593619,
            2167.5
          ],
          [
            11.7378,
            46.593612,
            2167.8
          ],
          [
            11.737511,
            46.593523,
            2169.5
          ],
          [
            11.7374,
            46.593522,
            2171.5
          ],
          [
            11.737194,
            46.593572,
            2175.3
          ],
          [
            11.736926,
            46.593723,
            2180
          ],
          [
            11.736757,
            46.593827,
            2183.5
          ],
          [
            11.736673,
            46.5939,
            2184
          ],
          [
            11.736625,
            46.593992,
            2185.8
          ],
          [
            11.736555,
            46.59404,
            2187.5
          ],
          [
            11.736448,
            46.594053,
            2189.3
          ],
          [
            11.736199,
            46.59399,
            2195.5
          ],
          [
            11.736108,
            46.593992,
            2197.5
          ],
          [
            11.736013,
            46.594034,
            2198
          ],
          [
            11.735904,
            46.594094,
            2198.3
          ],
          [
            11.735794,
            46.594208,
            2199.3
          ],
          [
            11.735753,
            46.594309,
            2199.8
          ],
          [
            11.735751,
            46.594687,
            2201
          ],
          [
            11.735654,
            46.594899,
            2201.5
          ],
          [
            11.735617,
            46.594995,
            2201.8
          ],
          [
            11.735622,
            46.595085,
            2202.8
          ],
          [
            11.735555,
            46.59518,
            2204.5
          ],
          [
            11.735452,
            46.595204,
            2206
          ],
          [
            11.735262,
            46.595229,
            2209
          ],
          [
            11.735149,
            46.595234,
            2210.8
          ],
          [
            11.735046,
            46.595273,
            2213
          ],
          [
            11.734896,
            46.595405,
            2219
          ],
          [
            11.734828,
            46.595452,
            2221
          ],
          [
            11.734741,
            46.595479,
            2222.5
          ],
          [
            11.734553,
            46.595497,
            2224.8
          ],
          [
            11.734342,
            46.59541,
            2225.8
          ],
          [
            11.734019,
            46.595331,
            2229
          ],
          [
            11.733782,
            46.595237,
            2229.5
          ],
          [
            11.73367,
            46.595212,
            2230.3
          ],
          [
            11.73356,
            46.595188,
            2231
          ],
          [
            11.733403,
            46.595154,
            2231.8
          ],
          [
            11.733168,
            46.595131,
            2233.3
          ],
          [
            11.732932,
            46.595091,
            2235.5
          ],
          [
            11.732706,
            46.595035,
            2237.5
          ],
          [
            11.732587,
            46.595014,
            2238.3
          ],
          [
            11.732222,
            46.595035,
            2244.8
          ],
          [
            11.731804,
            46.594993,
            2250.8
          ],
          [
            11.731457,
            46.595011,
            2257
          ],
          [
            11.731216,
            46.594966,
            2260
          ],
          [
            11.730871,
            46.594969,
            2267.3
          ],
          [
            11.730474,
            46.595005,
            2275.8
          ],
          [
            11.730324,
            46.594946,
            2278.3
          ],
          [
            11.729739,
            46.594555,
            2285
          ],
          [
            11.72935,
            46.594234,
            2285.5
          ],
          [
            11.729164,
            46.594095,
            2289.3
          ],
          [
            11.728889,
            46.593933,
            2295.8
          ],
          [
            11.728823,
            46.593883,
            2296
          ],
          [
            11.728783,
            46.593839,
            2296
          ],
          [
            11.728778,
            46.593806,
            2295.8
          ],
          [
            11.728819,
            46.59371,
            2295.3
          ],
          [
            11.728829,
            46.593669,
            2295.3
          ],
          [
            11.728827,
            46.593637,
            2295
          ],
          [
            11.728801,
            46.593608,
            2294.8
          ],
          [
            11.72875,
            46.593582,
            2293.5
          ],
          [
            11.728606,
            46.593526,
            2291.8
          ],
          [
            11.728327,
            46.593431,
            2294.5
          ],
          [
            11.728126,
            46.59344,
            2294
          ],
          [
            11.72794,
            46.593476,
            2293.3
          ],
          [
            11.727746,
            46.59346,
            2292.5
          ],
          [
            11.727565,
            46.593409,
            2293.3
          ],
          [
            11.72734,
            46.593272,
            2295
          ],
          [
            11.727218,
            46.59315,
            2296.8
          ],
          [
            11.726896,
            46.592938,
            2302
          ],
          [
            11.726847,
            46.592921,
            2302.8
          ],
          [
            11.726786,
            46.592921,
            2303.5
          ],
          [
            11.726722,
            46.592932,
            2304.3
          ],
          [
            11.726642,
            46.592963,
            2306
          ],
          [
            11.726579,
            46.593016,
            2308
          ],
          [
            11.726547,
            46.593061,
            2309
          ],
          [
            11.72653,
            46.593112,
            2309.8
          ],
          [
            11.726527,
            46.593164,
            2310
          ],
          [
            11.726561,
            46.593323,
            2311
          ],
          [
            11.726568,
            46.593417,
            2312.5
          ],
          [
            11.726562,
            46.593535,
            2314.5
          ],
          [
            11.726528,
            46.593669,
            2316.5
          ],
          [
            11.726423,
            46.593872,
            2320
          ],
          [
            11.726412,
            46.593914,
            2321
          ],
          [
            11.72642,
            46.593966,
            2321.5
          ],
          [
            11.726499,
            46.594089,
            2322
          ],
          [
            11.726533,
            46.594177,
            2322.3
          ],
          [
            11.726532,
            46.594349,
            2322.5
          ],
          [
            11.726553,
            46.594624,
            2325.5
          ],
          [
            11.726563,
            46.594682,
            2326.3
          ],
          [
            11.726601,
            46.594737,
            2326.3
          ],
          [
            11.726663,
            46.594802,
            2327.5
          ],
          [
            11.727052,
            46.594993,
            2332.8
          ],
          [
            11.727139,
            46.595043,
            2333
          ],
          [
            11.727183,
            46.595081,
            2332.8
          ],
          [
            11.727202,
            46.595119,
            2333
          ],
          [
            11.727209,
            46.595159,
            2333.3
          ],
          [
            11.727205,
            46.595273,
            2334.3
          ],
          [
            11.727252,
            46.595344,
            2336.3
          ],
          [
            11.727449,
            46.595437,
            2338.5
          ],
          [
            11.7276,
            46.595514,
            2339.3
          ],
          [
            11.727804,
            46.595606,
            2340.8
          ],
          [
            11.727884,
            46.595655,
            2341.8
          ],
          [
            11.728122,
            46.595896,
            2345.3
          ],
          [
            11.728185,
            46.595999,
            2347.5
          ],
          [
            11.728237,
            46.596045,
            2348
          ],
          [
            11.728451,
            46.596186,
            2349.5
          ],
          [
            11.728554,
            46.596271,
            2350.5
          ],
          [
            11.728632,
            46.596355,
            2351.3
          ],
          [
            11.72867,
            46.596418,
            2352
          ],
          [
            11.728692,
            46.596484,
            2353.3
          ],
          [
            11.728699,
            46.596545,
            2354.8
          ],
          [
            11.728684,
            46.59677,
            2361.5
          ],
          [
            11.728708,
            46.596843,
            2363.3
          ],
          [
            11.728747,
            46.596897,
            2364
          ],
          [
            11.728809,
            46.596955,
            2364.8
          ],
          [
            11.7289,
            46.597022,
            2365.8
          ],
          [
            11.729108,
            46.597141,
            2368.3
          ],
          [
            11.72934,
            46.597262,
            2371
          ],
          [
            11.729414,
            46.597346,
            2372.8
          ],
          [
            11.729444,
            46.597399,
            2374
          ],
          [
            11.729461,
            46.597708,
            2379.5
          ],
          [
            11.72945,
            46.597822,
            2381.8
          ],
          [
            11.729424,
            46.597866,
            2383.3
          ],
          [
            11.729335,
            46.597899,
            2385.3
          ],
          [
            11.72918,
            46.597903,
            2388
          ],
          [
            11.728699,
            46.597887,
            2394
          ],
          [
            11.72831,
            46.59783,
            2399.5
          ],
          [
            11.727778,
            46.597714,
            2408
          ],
          [
            11.727597,
            46.597666,
            2410
          ],
          [
            11.727393,
            46.597583,
            2411.5
          ],
          [
            11.727318,
            46.597569,
            2412
          ],
          [
            11.727172,
            46.597553,
            2412.5
          ],
          [
            11.726846,
            46.597591,
            2413
          ],
          [
            11.726779,
            46.597588,
            2413
          ],
          [
            11.726359,
            46.597468,
            2412.5
          ],
          [
            11.726013,
            46.597393,
            2415
          ],
          [
            11.725907,
            46.597365,
            2416.5
          ],
          [
            11.725833,
            46.597333,
            2417.5
          ],
          [
            11.72546,
            46.597113,
            2424
          ],
          [
            11.725262,
            46.597026,
            2428.3
          ],
          [
            11.725143,
            46.596964,
            2431
          ],
          [
            11.72508,
            46.596853,
            2433
          ],
          [
            11.725039,
            46.596658,
            2434.3
          ],
          [
            11.724962,
            46.59654,
            2435
          ],
          [
            11.724826,
            46.596424,
            2435.8
          ],
          [
            11.724713,
            46.596379,
            2436.8
          ],
          [
            11.724638,
            46.596395,
            2438.5
          ],
          [
            11.724614,
            46.596453,
            2440.5
          ],
          [
            11.724609,
            46.596536,
            2442.8
          ],
          [
            11.724636,
            46.596792,
            2446.8
          ],
          [
            11.724609,
            46.596973,
            2448.8
          ],
          [
            11.724518,
            46.597247,
            2450
          ],
          [
            11.724528,
            46.597466,
            2449
          ],
          [
            11.724565,
            46.597613,
            2451
          ],
          [
            11.72465,
            46.597776,
            2453.5
          ],
          [
            11.724778,
            46.597928,
            2454.3
          ],
          [
            11.724455,
            46.597791,
            2456.3
          ],
          [
            11.724423,
            46.597838,
            2456.8
          ],
          [
            11.724347,
            46.597936,
            2457.3
          ],
          [
            11.724423,
            46.597838,
            2456.8
          ],
          [
            11.724455,
            46.597791,
            2456.3
          ],
          [
            11.724778,
            46.597928,
            2454.3
          ],
          [
            11.72465,
            46.597776,
            2453.5
          ],
          [
            11.724565,
            46.597613,
            2451
          ],
          [
            11.724528,
            46.597466,
            2449
          ],
          [
            11.724518,
            46.597247,
            2450
          ],
          [
            11.724609,
            46.596973,
            2448.8
          ],
          [
            11.724636,
            46.596792,
            2446.8
          ],
          [
            11.724609,
            46.596536,
            2442.8
          ],
          [
            11.724614,
            46.596453,
            2440.5
          ],
          [
            11.724638,
            46.596395,
            2438.5
          ],
          [
            11.724713,
            46.596379,
            2436.8
          ],
          [
            11.724826,
            46.596424,
            2435.8
          ],
          [
            11.724962,
            46.59654,
            2435
          ],
          [
            11.725039,
            46.596658,
            2434.3
          ],
          [
            11.72508,
            46.596853,
            2433
          ],
          [
            11.725143,
            46.596964,
            2431
          ],
          [
            11.725262,
            46.597026,
            2428.3
          ],
          [
            11.72546,
            46.597113,
            2424
          ],
          [
            11.725833,
            46.597333,
            2417.5
          ],
          [
            11.725907,
            46.597365,
            2416.5
          ],
          [
            11.726013,
            46.597393,
            2415
          ],
          [
            11.726359,
            46.597468,
            2412.5
          ],
          [
            11.726779,
            46.597588,
            2413
          ],
          [
            11.726846,
            46.597591,
            2413
          ],
          [
            11.727172,
            46.597553,
            2412.5
          ],
          [
            11.727318,
            46.597569,
            2412
          ],
          [
            11.727393,
            46.597583,
            2411.5
          ],
          [
            11.727597,
            46.597666,
            2410
          ],
          [
            11.727778,
            46.597714,
            2408
          ],
          [
            11.72831,
            46.59783,
            2399.5
          ],
          [
            11.728699,
            46.597887,
            2394
          ],
          [
            11.72918,
            46.597903,
            2388
          ],
          [
            11.729335,
            46.597899,
            2385.3
          ],
          [
            11.729424,
            46.597866,
            2383.3
          ],
          [
            11.72945,
            46.597822,
            2381.8
          ],
          [
            11.729461,
            46.597708,
            2379.5
          ],
          [
            11.729444,
            46.597399,
            2374
          ],
          [
            11.729414,
            46.597346,
            2372.8
          ],
          [
            11.72934,
            46.597262,
            2371
          ],
          [
            11.729108,
            46.597141,
            2368.3
          ],
          [
            11.7289,
            46.597022,
            2365.8
          ],
          [
            11.728809,
            46.596955,
            2364.8
          ],
          [
            11.728747,
            46.596897,
            2364
          ],
          [
            11.728708,
            46.596843,
            2363.3
          ],
          [
            11.728684,
            46.59677,
            2361.5
          ],
          [
            11.728699,
            46.596545,
            2354.8
          ],
          [
            11.728692,
            46.596484,
            2353.3
          ],
          [
            11.72867,
            46.596418,
            2352
          ],
          [
            11.728632,
            46.596355,
            2351.3
          ],
          [
            11.728554,
            46.596271,
            2350.5
          ],
          [
            11.728451,
            46.596186,
            2349.5
          ],
          [
            11.728237,
            46.596045,
            2348
          ],
          [
            11.728185,
            46.595999,
            2347.5
          ],
          [
            11.728122,
            46.595896,
            2345.3
          ],
          [
            11.727884,
            46.595655,
            2341.8
          ],
          [
            11.727804,
            46.595606,
            2340.8
          ],
          [
            11.7276,
            46.595514,
            2339.3
          ],
          [
            11.727449,
            46.595437,
            2338.5
          ],
          [
            11.727252,
            46.595344,
            2336.3
          ],
          [
            11.727205,
            46.595273,
            2334.3
          ],
          [
            11.727209,
            46.595159,
            2333.3
          ],
          [
            11.727202,
            46.595119,
            2333
          ],
          [
            11.727183,
            46.595081,
            2332.8
          ],
          [
            11.727139,
            46.595043,
            2333
          ],
          [
            11.727052,
            46.594993,
            2332.8
          ],
          [
            11.726663,
            46.594802,
            2327.5
          ],
          [
            11.726601,
            46.594737,
            2326.3
          ],
          [
            11.726563,
            46.594682,
            2326.3
          ],
          [
            11.726553,
            46.594624,
            2325.5
          ],
          [
            11.726532,
            46.594349,
            2322.5
          ],
          [
            11.726533,
            46.594177,
            2322.3
          ],
          [
            11.726499,
            46.594089,
            2322
          ],
          [
            11.72642,
            46.593966,
            2321.5
          ],
          [
            11.726412,
            46.593914,
            2321
          ],
          [
            11.726423,
            46.593872,
            2320
          ],
          [
            11.726528,
            46.593669,
            2316.5
          ],
          [
            11.726562,
            46.593535,
            2314.5
          ],
          [
            11.726568,
            46.593417,
            2312.5
          ],
          [
            11.726561,
            46.593323,
            2311
          ],
          [
            11.726527,
            46.593164,
            2310
          ],
          [
            11.72653,
            46.593112,
            2309.8
          ],
          [
            11.726547,
            46.593061,
            2309
          ],
          [
            11.726579,
            46.593016,
            2308
          ],
          [
            11.726642,
            46.592963,
            2306
          ],
          [
            11.726722,
            46.592932,
            2304.3
          ],
          [
            11.726786,
            46.592921,
            2303.5
          ],
          [
            11.726847,
            46.592921,
            2302.8
          ],
          [
            11.726896,
            46.592938,
            2302
          ],
          [
            11.727218,
            46.59315,
            2296.8
          ],
          [
            11.72734,
            46.593272,
            2295
          ],
          [
            11.727565,
            46.593409,
            2293.3
          ],
          [
            11.727746,
            46.59346,
            2292.5
          ],
          [
            11.72794,
            46.593476,
            2293.3
          ],
          [
            11.728126,
            46.59344,
            2294
          ],
          [
            11.728327,
            46.593431,
            2294.5
          ],
          [
            11.728606,
            46.593526,
            2291.8
          ],
          [
            11.72875,
            46.593582,
            2293.5
          ],
          [
            11.728801,
            46.593608,
            2294.8
          ],
          [
            11.728827,
            46.593637,
            2295
          ],
          [
            11.728829,
            46.593669,
            2295.3
          ],
          [
            11.728819,
            46.59371,
            2295.3
          ],
          [
            11.728778,
            46.593806,
            2295.8
          ],
          [
            11.728783,
            46.593839,
            2296
          ],
          [
            11.728823,
            46.593883,
            2296
          ],
          [
            11.728889,
            46.593933,
            2295.8
          ],
          [
            11.729164,
            46.594095,
            2289.3
          ],
          [
            11.72935,
            46.594234,
            2285.5
          ],
          [
            11.729739,
            46.594555,
            2285
          ],
          [
            11.730324,
            46.594946,
            2278.3
          ],
          [
            11.730474,
            46.595005,
            2275.8
          ],
          [
            11.730871,
            46.594969,
            2267.3
          ],
          [
            11.731216,
            46.594966,
            2260
          ],
          [
            11.731457,
            46.595011,
            2257
          ],
          [
            11.731804,
            46.594993,
            2250.8
          ],
          [
            11.732222,
            46.595035,
            2244.8
          ],
          [
            11.732587,
            46.595014,
            2238.3
          ],
          [
            11.732706,
            46.595035,
            2237.5
          ],
          [
            11.732932,
            46.595091,
            2235.5
          ],
          [
            11.733168,
            46.595131,
            2233.3
          ],
          [
            11.733403,
            46.595154,
            2231.8
          ],
          [
            11.73356,
            46.595188,
            2231
          ],
          [
            11.73367,
            46.595212,
            2230.3
          ],
          [
            11.733782,
            46.595237,
            2229.5
          ],
          [
            11.734019,
            46.595331,
            2229
          ],
          [
            11.734342,
            46.59541,
            2225.8
          ],
          [
            11.734553,
            46.595497,
            2224.8
          ],
          [
            11.734524,
            46.595565,
            2226.5
          ],
          [
            11.734517,
            46.595621,
            2228
          ],
          [
            11.734537,
            46.595675,
            2229.3
          ],
          [
            11.734628,
            46.59575,
            2231
          ],
          [
            11.734914,
            46.59602,
            2236.5
          ],
          [
            11.735194,
            46.596305,
            2237.5
          ],
          [
            11.735302,
            46.596406,
            2236.5
          ],
          [
            11.73541,
            46.596462,
            2237.8
          ],
          [
            11.735728,
            46.596563,
            2238.8
          ],
          [
            11.735998,
            46.596727,
            2241.3
          ],
          [
            11.736177,
            46.596796,
            2243
          ],
          [
            11.736523,
            46.596908,
            2248
          ],
          [
            11.736622,
            46.596929,
            2249.3
          ],
          [
            11.736719,
            46.596927,
            2250.8
          ],
          [
            11.736858,
            46.596892,
            2252.5
          ],
          [
            11.736964,
            46.596885,
            2253.8
          ],
          [
            11.737153,
            46.596937,
            2258.3
          ],
          [
            11.737512,
            46.597156,
            2264.5
          ],
          [
            11.737624,
            46.597213,
            2266
          ],
          [
            11.73775,
            46.597255,
            2265.5
          ],
          [
            11.737948,
            46.597292,
            2264
          ],
          [
            11.738013,
            46.597313,
            2263.8
          ],
          [
            11.73807,
            46.597361,
            2263.3
          ],
          [
            11.738138,
            46.597485,
            2262.3
          ],
          [
            11.738204,
            46.59753,
            2262
          ],
          [
            11.738441,
            46.597562,
            2261.5
          ],
          [
            11.738532,
            46.597619,
            2262.8
          ],
          [
            11.738676,
            46.597746,
            2265.5
          ],
          [
            11.738834,
            46.597837,
            2267.8
          ],
          [
            11.73902,
            46.597986,
            2270.8
          ],
          [
            11.739116,
            46.598027,
            2272
          ],
          [
            11.739373,
            46.598083,
            2275.5
          ],
          [
            11.739342,
            46.598036,
            2274.3
          ],
          [
            11.739363,
            46.597996,
            2273.3
          ],
          [
            11.739402,
            46.597963,
            2272.5
          ],
          [
            11.739493,
            46.597941,
            2272.3
          ],
          [
            11.739603,
            46.597938,
            2272.3
          ],
          [
            11.739672,
            46.597945,
            2272.5
          ],
          [
            11.73972,
            46.597959,
            2273
          ],
          [
            11.739789,
            46.597962,
            2273.3
          ],
          [
            11.739796,
            46.597943,
            2272.8
          ],
          [
            11.739751,
            46.597895,
            2271.3
          ],
          [
            11.739697,
            46.597716,
            2266.3
          ],
          [
            11.739699,
            46.597691,
            2265.8
          ],
          [
            11.739719,
            46.597666,
            2265
          ],
          [
            11.739746,
            46.597607,
            2263.5
          ],
          [
            11.739813,
            46.597514,
            2261
          ],
          [
            11.739963,
            46.597403,
            2257
          ],
          [
            11.740229,
            46.597275,
            2252.8
          ],
          [
            11.740315,
            46.597248,
            2251.5
          ],
          [
            11.740401,
            46.597234,
            2250.8
          ],
          [
            11.740493,
            46.5972,
            2249.5
          ],
          [
            11.740618,
            46.597128,
            2247.8
          ],
          [
            11.740657,
            46.597094,
            2246.8
          ],
          [
            11.740659,
            46.597057,
            2245.8
          ],
          [
            11.740691,
            46.597018,
            2244.5
          ],
          [
            11.740761,
            46.597002,
            2243.5
          ],
          [
            11.740834,
            46.597001,
            2243
          ],
          [
            11.740898,
            46.596982,
            2242.3
          ],
          [
            11.740933,
            46.596959,
            2241.5
          ],
          [
            11.741041,
            46.59692,
            2239.8
          ],
          [
            11.741164,
            46.59691,
            2239.8
          ],
          [
            11.741259,
            46.596857,
            2238.3
          ],
          [
            11.741338,
            46.596793,
            2236
          ],
          [
            11.741486,
            46.596747,
            2234.5
          ],
          [
            11.741571,
            46.59673,
            2234
          ],
          [
            11.741626,
            46.596695,
            2232.8
          ],
          [
            11.741634,
            46.596653,
            2231.3
          ],
          [
            11.741616,
            46.596574,
            2229
          ],
          [
            11.741675,
            46.596554,
            2228.3
          ],
          [
            11.741732,
            46.596523,
            2226.8
          ],
          [
            11.741771,
            46.596482,
            2225
          ],
          [
            11.741757,
            46.596439,
            2223.8
          ],
          [
            11.741655,
            46.596356,
            2222.3
          ],
          [
            11.741618,
            46.596296,
            2221.5
          ],
          [
            11.741635,
            46.596237,
            2220
          ],
          [
            11.741815,
            46.596122,
            2215.5
          ],
          [
            11.742026,
            46.595919,
            2213.8
          ],
          [
            11.742176,
            46.595865,
            2212.3
          ],
          [
            11.742502,
            46.59581,
            2208.8
          ],
          [
            11.742861,
            46.595705,
            2205
          ],
          [
            11.742944,
            46.595659,
            2204.3
          ],
          [
            11.742997,
            46.595574,
            2202.5
          ],
          [
            11.743007,
            46.595525,
            2201.5
          ],
          [
            11.743054,
            46.595411,
            2199.3
          ],
          [
            11.743164,
            46.595184,
            2193.8
          ],
          [
            11.743226,
            46.595126,
            2192.3
          ],
          [
            11.743438,
            46.595064,
            2189.8
          ],
          [
            11.74358,
            46.59499,
            2186.8
          ],
          [
            11.74366,
            46.594887,
            2184.3
          ],
          [
            11.743951,
            46.594759,
            2182.5
          ],
          [
            11.74399,
            46.594724,
            2182.5
          ],
          [
            11.743972,
            46.594538,
            2180
          ],
          [
            11.744159,
            46.594212,
            2178.8
          ],
          [
            11.744337,
            46.59399,
            2183.8
          ],
          [
            11.744359,
            46.5939,
            2183
          ],
          [
            11.744369,
            46.593739,
            2183.5
          ],
          [
            11.744426,
            46.593508,
            2185.8
          ],
          [
            11.744429,
            46.593454,
            2185
          ],
          [
            11.74453,
            46.593325,
            2184.3
          ],
          [
            11.744558,
            46.593366,
            2185.3
          ],
          [
            11.744598,
            46.593387,
            2186
          ],
          [
            11.744664,
            46.593409,
            2187
          ],
          [
            11.744861,
            46.593431,
            2188.8
          ],
          [
            11.744917,
            46.593458,
            2189.8
          ],
          [
            11.745166,
            46.593627,
            2195
          ],
          [
            11.745338,
            46.593788,
            2200.3
          ],
          [
            11.745426,
            46.593843,
            2201.8
          ],
          [
            11.745606,
            46.593913,
            2203.5
          ],
          [
            11.745663,
            46.593945,
            2204.3
          ],
          [
            11.745721,
            46.593977,
            2204.8
          ],
          [
            11.745859,
            46.594036,
            2205.3
          ],
          [
            11.746445,
            46.594036,
            2201.8
          ],
          [
            11.746894,
            46.594167,
            2199.3
          ],
          [
            11.747358,
            46.59428,
            2202.8
          ],
          [
            11.747462,
            46.594337,
            2203.5
          ],
          [
            11.747713,
            46.594412,
            2202.8
          ],
          [
            11.747851,
            46.594453,
            2202.3
          ],
          [
            11.747969,
            46.594501,
            2203.3
          ],
          [
            11.74809,
            46.594604,
            2205
          ],
          [
            11.748192,
            46.594726,
            2204.5
          ],
          [
            11.748331,
            46.594925,
            2205.3
          ],
          [
            11.748415,
            46.594981,
            2206
          ],
          [
            11.748471,
            46.595002,
            2206
          ],
          [
            11.748535,
            46.595096,
            2207.8
          ],
          [
            11.748578,
            46.595129,
            2208
          ],
          [
            11.748647,
            46.595157,
            2207.8
          ],
          [
            11.748701,
            46.595179,
            2207.5
          ],
          [
            11.748782,
            46.595236,
            2207.3
          ],
          [
            11.748921,
            46.595397,
            2211
          ],
          [
            11.748972,
            46.595424,
            2211.8
          ],
          [
            11.749238,
            46.59548,
            2213
          ],
          [
            11.749623,
            46.595534,
            2216.5
          ],
          [
            11.749813,
            46.595569,
            2218.8
          ],
          [
            11.750136,
            46.595662,
            2223.8
          ],
          [
            11.750169,
            46.595731,
            2226.3
          ],
          [
            11.750145,
            46.595952,
            2231.5
          ],
          [
            11.750168,
            46.596011,
            2232.3
          ],
          [
            11.750178,
            46.596096,
            2233.3
          ],
          [
            11.750162,
            46.596129,
            2233.8
          ],
          [
            11.750156,
            46.596195,
            2234.5
          ],
          [
            11.750164,
            46.5963,
            2235.8
          ],
          [
            11.750212,
            46.596406,
            2236.5
          ],
          [
            11.750232,
            46.596478,
            2237.3
          ],
          [
            11.75026,
            46.596525,
            2237.8
          ],
          [
            11.750277,
            46.596588,
            2238.5
          ],
          [
            11.750348,
            46.596742,
            2241.5
          ],
          [
            11.750532,
            46.596919,
            2243.8
          ],
          [
            11.750535,
            46.596941,
            2244.3
          ],
          [
            11.750567,
            46.596964,
            2244.8
          ],
          [
            11.750642,
            46.596996,
            2245.5
          ],
          [
            11.750813,
            46.597047,
            2246.3
          ],
          [
            11.750915,
            46.597106,
            2246.8
          ],
          [
            11.750946,
            46.597137,
            2247.3
          ],
          [
            11.750941,
            46.597166,
            2248.8
          ],
          [
            11.750958,
            46.597212,
            2250.3
          ],
          [
            11.751022,
            46.597253,
            2255.5
          ],
          [
            11.751217,
            46.597376,
            2255.5
          ],
          [
            11.751231,
            46.597403,
            2256.8
          ],
          [
            11.751282,
            46.597441,
            2257.3
          ],
          [
            11.751399,
            46.597502,
            2255.5
          ],
          [
            11.751431,
            46.597534,
            2256
          ],
          [
            11.751447,
            46.597572,
            2257.3
          ],
          [
            11.751444,
            46.597602,
            2258.8
          ],
          [
            11.751452,
            46.597625,
            2259.5
          ],
          [
            11.751505,
            46.597667,
            2259.5
          ],
          [
            11.751554,
            46.597695,
            2258.8
          ],
          [
            11.751575,
            46.597723,
            2259.3
          ],
          [
            11.75159,
            46.597756,
            2260.3
          ],
          [
            11.751584,
            46.597791,
            2261.8
          ],
          [
            11.751642,
            46.597922,
            2263.5
          ],
          [
            11.751634,
            46.597965,
            2265
          ],
          [
            11.751648,
            46.598005,
            2265.8
          ],
          [
            11.751786,
            46.598085,
            2265.3
          ],
          [
            11.7518,
            46.598109,
            2265.8
          ],
          [
            11.751799,
            46.598152,
            2267.8
          ],
          [
            11.751845,
            46.598179,
            2267.5
          ],
          [
            11.751894,
            46.598225,
            2268
          ],
          [
            11.751936,
            46.598296,
            2269.8
          ],
          [
            11.751987,
            46.598322,
            2269.3
          ],
          [
            11.751998,
            46.598342,
            2270
          ],
          [
            11.752079,
            46.598386,
            2270.5
          ],
          [
            11.752118,
            46.598425,
            2271.8
          ],
          [
            11.752232,
            46.598495,
            2273.3
          ],
          [
            11.75229,
            46.598498,
            2273
          ],
          [
            11.752324,
            46.598516,
            2273.8
          ],
          [
            11.752898,
            46.598531,
            2275
          ],
          [
            11.752961,
            46.598527,
            2275.3
          ],
          [
            11.753099,
            46.598502,
            2274.5
          ],
          [
            11.753208,
            46.59852,
            2275.5
          ],
          [
            11.75339,
            46.598528,
            2275.5
          ],
          [
            11.753618,
            46.59859,
            2275.8
          ],
          [
            11.753704,
            46.598631,
            2276
          ],
          [
            11.753763,
            46.598698,
            2277.5
          ],
          [
            11.754299,
            46.598979,
            2279.3
          ],
          [
            11.754366,
            46.599005,
            2279
          ],
          [
            11.754398,
            46.599071,
            2280.8
          ],
          [
            11.754687,
            46.599255,
            2283.8
          ],
          [
            11.755173,
            46.599383,
            2291.3
          ],
          [
            11.755311,
            46.59935,
            2290.3
          ],
          [
            11.755393,
            46.599365,
            2291.3
          ],
          [
            11.755457,
            46.599334,
            2290
          ],
          [
            11.755604,
            46.599332,
            2290.5
          ],
          [
            11.755861,
            46.599269,
            2288.5
          ],
          [
            11.75605,
            46.599241,
            2286.8
          ],
          [
            11.756339,
            46.599126,
            2282
          ],
          [
            11.75663,
            46.598956,
            2277
          ],
          [
            11.756742,
            46.598845,
            2274.8
          ],
          [
            11.756763,
            46.598745,
            2272.8
          ],
          [
            11.756849,
            46.598734,
            2273.8
          ],
          [
            11.757042,
            46.598742,
            2276.3
          ],
          [
            11.75716,
            46.598767,
            2277.8
          ],
          [
            11.757364,
            46.598726,
            2279.5
          ],
          [
            11.757674,
            46.598776,
            2282.3
          ],
          [
            11.757911,
            46.598786,
            2284.5
          ],
          [
            11.758111,
            46.598864,
            2283.3
          ],
          [
            11.758494,
            46.598801,
            2286.3
          ],
          [
            11.758814,
            46.598857,
            2283.8
          ],
          [
            11.759237,
            46.598878,
            2283.8
          ],
          [
            11.759384,
            46.598939,
            2284.8
          ],
          [
            11.75965,
            46.598986,
            2286
          ],
          [
            11.75997,
            46.599091,
            2287.8
          ],
          [
            11.760186,
            46.598949,
            2289.3
          ],
          [
            11.760448,
            46.598915,
            2291.8
          ],
          [
            11.760759,
            46.598862,
            2292.5
          ],
          [
            11.761073,
            46.598856,
            2292.5
          ],
          [
            11.761495,
            46.59891,
            2297.3
          ],
          [
            11.761737,
            46.598861,
            2297
          ],
          [
            11.7621,
            46.598902,
            2296
          ],
          [
            11.762358,
            46.598993,
            2296.5
          ],
          [
            11.762652,
            46.599034,
            2293.5
          ],
          [
            11.762932,
            46.59924,
            2290.8
          ],
          [
            11.763039,
            46.599319,
            2290.8
          ],
          [
            11.763192,
            46.599388,
            2289.3
          ],
          [
            11.763411,
            46.599406,
            2283.8
          ],
          [
            11.76392,
            46.599447,
            2279.3
          ],
          [
            11.764007,
            46.599399,
            2277.5
          ],
          [
            11.763999,
            46.59933,
            2274.3
          ],
          [
            11.764043,
            46.599276,
            2272.3
          ],
          [
            11.764168,
            46.59923,
            2272.5
          ],
          [
            11.76444,
            46.598973,
            2269
          ],
          [
            11.76454,
            46.598866,
            2265.5
          ],
          [
            11.764866,
            46.59878,
            2261
          ],
          [
            11.76497,
            46.5988,
            2259
          ],
          [
            11.764983,
            46.598887,
            2259.3
          ],
          [
            11.765131,
            46.598971,
            2258
          ],
          [
            11.765174,
            46.598989,
            2257.8
          ],
          [
            11.765203,
            46.598946,
            2257.3
          ],
          [
            11.765214,
            46.598985,
            2257.5
          ],
          [
            11.765251,
            46.599016,
            2257.5
          ],
          [
            11.765655,
            46.5991,
            2259
          ],
          [
            11.766151,
            46.598928,
            2254.5
          ],
          [
            11.766719,
            46.598792,
            2248.8
          ],
          [
            11.766837,
            46.598738,
            2247.3
          ],
          [
            11.767058,
            46.598579,
            2243.3
          ],
          [
            11.76737,
            46.59855,
            2240.8
          ],
          [
            11.767686,
            46.598506,
            2238.8
          ],
          [
            11.767922,
            46.598446,
            2236.8
          ],
          [
            11.768857,
            46.598313,
            2231.8
          ],
          [
            11.769246,
            46.59834,
            2228
          ],
          [
            11.769344,
            46.598382,
            2227.8
          ],
          [
            11.769388,
            46.598369,
            2227.3
          ],
          [
            11.769499,
            46.598339,
            2227.5
          ],
          [
            11.769543,
            46.59831,
            2228
          ],
          [
            11.769696,
            46.598278,
            2230.5
          ],
          [
            11.769788,
            46.598198,
            2228.3
          ],
          [
            11.769878,
            46.598153,
            2227.3
          ],
          [
            11.770072,
            46.598083,
            2226.8
          ],
          [
            11.77026,
            46.598044,
            2228
          ],
          [
            11.770341,
            46.598039,
            2228.8
          ],
          [
            11.770489,
            46.597954,
            2226
          ],
          [
            11.770708,
            46.597895,
            2224
          ],
          [
            11.770783,
            46.597894,
            2224.3
          ],
          [
            11.771029,
            46.597963,
            2224
          ],
          [
            11.771131,
            46.597966,
            2223
          ],
          [
            11.771152,
            46.597994,
            2223.8
          ],
          [
            11.771182,
            46.598006,
            2223.8
          ],
          [
            11.771237,
            46.598004,
            2223
          ],
          [
            11.771303,
            46.598029,
            2223
          ],
          [
            11.771348,
            46.598021,
            2222.3
          ],
          [
            11.771433,
            46.598027,
            2222
          ],
          [
            11.771601,
            46.598021,
            2222.5
          ],
          [
            11.771711,
            46.597984,
            2222
          ],
          [
            11.771831,
            46.597888,
            2221
          ],
          [
            11.772163,
            46.597742,
            2218.3
          ],
          [
            11.772232,
            46.597694,
            2216.8
          ],
          [
            11.772332,
            46.59764,
            2215.8
          ],
          [
            11.772492,
            46.59761,
            2215.3
          ],
          [
            11.772594,
            46.597581,
            2213.8
          ],
          [
            11.772738,
            46.597562,
            2212.5
          ],
          [
            11.772835,
            46.597572,
            2212
          ],
          [
            11.772869,
            46.59757,
            2211.8
          ],
          [
            11.772923,
            46.597546,
            2210.3
          ],
          [
            11.772958,
            46.59752,
            2208.8
          ],
          [
            11.773018,
            46.597506,
            2207.5
          ],
          [
            11.773096,
            46.597478,
            2206.3
          ],
          [
            11.773155,
            46.59749,
            2205.8
          ],
          [
            11.773185,
            46.597476,
            2205
          ],
          [
            11.773229,
            46.597426,
            2203.5
          ],
          [
            11.773286,
            46.597383,
            2201.8
          ],
          [
            11.773511,
            46.597332,
            2195
          ],
          [
            11.773584,
            46.597286,
            2192
          ],
          [
            11.773669,
            46.597248,
            2189.8
          ],
          [
            11.773685,
            46.597194,
            2188
          ],
          [
            11.773718,
            46.597149,
            2186
          ],
          [
            11.773747,
            46.597088,
            2183.3
          ],
          [
            11.773765,
            46.597016,
            2180.3
          ],
          [
            11.773888,
            46.596971,
            2176
          ],
          [
            11.773989,
            46.596963,
            2174.3
          ],
          [
            11.774017,
            46.596947,
            2173.3
          ],
          [
            11.77394,
            46.596851,
            2171.3
          ],
          [
            11.773847,
            46.596796,
            2170.8
          ],
          [
            11.773848,
            46.596732,
            2168.5
          ],
          [
            11.773864,
            46.596664,
            2166
          ],
          [
            11.773851,
            46.59651,
            2163.8
          ],
          [
            11.774043,
            46.596307,
            2159.5
          ],
          [
            11.774098,
            46.596215,
            2158
          ],
          [
            11.774253,
            46.595947,
            2157.3
          ],
          [
            11.77428,
            46.595777,
            2156.3
          ],
          [
            11.773987,
            46.595435,
            2152.5
          ],
          [
            11.773989,
            46.595383,
            2152.5
          ],
          [
            11.773895,
            46.595333,
            2152
          ],
          [
            11.773886,
            46.595214,
            2152.3
          ],
          [
            11.773894,
            46.594911,
            2154.5
          ],
          [
            11.773888,
            46.594672,
            2156.5
          ],
          [
            11.77388,
            46.594635,
            2156.8
          ],
          [
            11.773836,
            46.594433,
            2158
          ],
          [
            11.774044,
            46.594359,
            2161.8
          ],
          [
            11.774271,
            46.594307,
            2165.5
          ],
          [
            11.774528,
            46.594245,
            2169.5
          ],
          [
            11.774913,
            46.594067,
            2179
          ],
          [
            11.775156,
            46.59387,
            2185.5
          ],
          [
            11.775314,
            46.593731,
            2191
          ],
          [
            11.775503,
            46.593641,
            2195
          ],
          [
            11.775662,
            46.593611,
            2199
          ],
          [
            11.775805,
            46.593524,
            2203.5
          ],
          [
            11.77596,
            46.593446,
            2206.3
          ],
          [
            11.776213,
            46.593355,
            2208.8
          ],
          [
            11.776478,
            46.593248,
            2213.8
          ],
          [
            11.776669,
            46.593126,
            2217
          ],
          [
            11.776944,
            46.59297,
            2222.8
          ],
          [
            11.777085,
            46.59296,
            2224.5
          ],
          [
            11.777231,
            46.592926,
            2227
          ],
          [
            11.777507,
            46.592794,
            2233
          ],
          [
            11.777781,
            46.592792,
            2238
          ],
          [
            11.777949,
            46.592799,
            2240.5
          ],
          [
            11.778288,
            46.592837,
            2246.3
          ],
          [
            11.778513,
            46.59288,
            2247.5
          ],
          [
            11.778795,
            46.592912,
            2248.3
          ],
          [
            11.779602,
            46.592732,
            2260.3
          ],
          [
            11.77969,
            46.592732,
            2260.3
          ],
          [
            11.779766,
            46.592712,
            2262
          ],
          [
            11.77998,
            46.592694,
            2266.3
          ],
          [
            11.78017,
            46.592658,
            2270.5
          ],
          [
            11.78026,
            46.592648,
            2271.8
          ],
          [
            11.780385,
            46.592652,
            2274
          ],
          [
            11.780452,
            46.59263,
            2276.5
          ],
          [
            11.780544,
            46.592655,
            2277.5
          ],
          [
            11.780636,
            46.592648,
            2280.3
          ],
          [
            11.780708,
            46.592661,
            2282
          ],
          [
            11.780865,
            46.592611,
            2287.8
          ],
          [
            11.780875,
            46.59257,
            2289
          ],
          [
            11.780947,
            46.592567,
            2290.5
          ],
          [
            11.780994,
            46.592552,
            2291.8
          ],
          [
            11.781091,
            46.592559,
            2293.5
          ],
          [
            11.781144,
            46.592555,
            2294.3
          ],
          [
            11.781247,
            46.592511,
            2295.5
          ],
          [
            11.781292,
            46.59247,
            2296.8
          ],
          [
            11.781318,
            46.592422,
            2298.8
          ],
          [
            11.781352,
            46.592401,
            2299.8
          ],
          [
            11.781519,
            46.592398,
            2302
          ],
          [
            11.781542,
            46.592419,
            2301.5
          ],
          [
            11.781629,
            46.592423,
            2302.5
          ],
          [
            11.781868,
            46.592458,
            2307
          ],
          [
            11.782007,
            46.592502,
            2309
          ],
          [
            11.782236,
            46.592559,
            2317.5
          ],
          [
            11.782266,
            46.59258,
            2318.5
          ],
          [
            11.782343,
            46.592578,
            2320.3
          ],
          [
            11.782616,
            46.592659,
            2326
          ],
          [
            11.782734,
            46.592556,
            2327.8
          ],
          [
            11.782885,
            46.592506,
            2330.8
          ],
          [
            11.783027,
            46.592441,
            2335.3
          ],
          [
            11.783076,
            46.592367,
            2338.5
          ],
          [
            11.783132,
            46.592326,
            2340.3
          ],
          [
            11.783139,
            46.592267,
            2342
          ],
          [
            11.783074,
            46.592204,
            2343.3
          ],
          [
            11.783058,
            46.592084,
            2345
          ],
          [
            11.783111,
            46.591986,
            2347.3
          ],
          [
            11.7831,
            46.591895,
            2348
          ],
          [
            11.783146,
            46.591847,
            2349.3
          ],
          [
            11.783243,
            46.591708,
            2351
          ],
          [
            11.7834,
            46.591572,
            2351.8
          ],
          [
            11.783556,
            46.591513,
            2353
          ],
          [
            11.783684,
            46.591403,
            2352.3
          ],
          [
            11.784033,
            46.591299,
            2356.3
          ],
          [
            11.784381,
            46.591265,
            2357
          ],
          [
            11.784674,
            46.59114,
            2358.5
          ],
          [
            11.784972,
            46.591057,
            2362.8
          ],
          [
            11.785226,
            46.591042,
            2364.5
          ],
          [
            11.785353,
            46.591078,
            2365
          ],
          [
            11.785803,
            46.591046,
            2366.3
          ],
          [
            11.786006,
            46.590945,
            2365.5
          ],
          [
            11.786197,
            46.590947,
            2366.8
          ],
          [
            11.786854,
            46.590857,
            2369.8
          ],
          [
            11.787188,
            46.590774,
            2374.5
          ],
          [
            11.787552,
            46.590803,
            2375.5
          ],
          [
            11.787765,
            46.590734,
            2377
          ],
          [
            11.787973,
            46.590621,
            2379.5
          ],
          [
            11.788021,
            46.590458,
            2382.5
          ],
          [
            11.788158,
            46.590377,
            2385.3
          ],
          [
            11.788252,
            46.590395,
            2386.3
          ],
          [
            11.788487,
            46.590203,
            2393
          ],
          [
            11.788532,
            46.590085,
            2396.8
          ],
          [
            11.788485,
            46.589974,
            2399.3
          ],
          [
            11.78852,
            46.589915,
            2401.8
          ],
          [
            11.788652,
            46.589942,
            2403
          ],
          [
            11.788621,
            46.58985,
            2405
          ],
          [
            11.788616,
            46.589738,
            2408.5
          ],
          [
            11.788683,
            46.589724,
            2411.3
          ],
          [
            11.788602,
            46.589592,
            2414
          ],
          [
            11.788628,
            46.589477,
            2419
          ],
          [
            11.7888,
            46.589354,
            2428.3
          ],
          [
            11.788755,
            46.589325,
            2428.5
          ],
          [
            11.788734,
            46.589279,
            2430
          ],
          [
            11.788749,
            46.589196,
            2433.8
          ],
          [
            11.788732,
            46.589063,
            2439.8
          ],
          [
            11.788759,
            46.589001,
            2443.3
          ],
          [
            11.788959,
            46.588963,
            2449
          ],
          [
            11.789154,
            46.588973,
            2453.5
          ],
          [
            11.789256,
            46.588997,
            2455.5
          ],
          [
            11.789334,
            46.589004,
            2457.8
          ],
          [
            11.789446,
            46.589024,
            2460.5
          ],
          [
            11.789441,
            46.588959,
            2462.5
          ],
          [
            11.789593,
            46.588934,
            2468.5
          ],
          [
            11.789609,
            46.588865,
            2472.3
          ],
          [
            11.789862,
            46.588941,
            2478
          ],
          [
            11.789944,
            46.588955,
            2480.8
          ],
          [
            11.79001,
            46.58899,
            2482.8
          ],
          [
            11.790071,
            46.589005,
            2485.3
          ],
          [
            11.790129,
            46.58905,
            2487.3
          ],
          [
            11.790179,
            46.589111,
            2488.8
          ],
          [
            11.790232,
            46.589127,
            2491
          ],
          [
            11.790277,
            46.589116,
            2493.3
          ],
          [
            11.790337,
            46.589058,
            2496.8
          ],
          [
            11.790505,
            46.588922,
            2505.5
          ],
          [
            11.790573,
            46.588821,
            2509.8
          ],
          [
            11.790632,
            46.588779,
            2510.5
          ],
          [
            11.790824,
            46.588951,
            2518.5
          ],
          [
            11.790885,
            46.589184,
            2525.5
          ],
          [
            11.790854,
            46.589445,
            2535.3
          ],
          [
            11.791,
            46.589369,
            2533.8
          ],
          [
            11.790998,
            46.589534,
            2542.3
          ],
          [
            11.79101,
            46.589661,
            2548.5
          ],
          [
            11.79097,
            46.589859,
            2559.8
          ],
          [
            11.791052,
            46.590035,
            2567.5
          ],
          [
            11.791166,
            46.590111,
            2568.3
          ],
          [
            11.791385,
            46.590178,
            2574.8
          ],
          [
            11.791477,
            46.590228,
            2579.5
          ],
          [
            11.791572,
            46.590352,
            2582.5
          ],
          [
            11.791583,
            46.590439,
            2582
          ],
          [
            11.791533,
            46.590512,
            2580.5
          ],
          [
            11.79155,
            46.590585,
            2580.3
          ],
          [
            11.791638,
            46.590708,
            2582.5
          ],
          [
            11.791717,
            46.590773,
            2582.8
          ],
          [
            11.791971,
            46.591477,
            2578.5
          ],
          [
            11.792581,
            46.592028,
            2578
          ],
          [
            11.792784,
            46.592232,
            2590
          ],
          [
            11.79343,
            46.5925,
            2577.5
          ],
          [
            11.79372,
            46.592747,
            2586.8
          ],
          [
            11.794025,
            46.592805,
            2581
          ],
          [
            11.794555,
            46.593088,
            2592
          ],
          [
            11.795067,
            46.593292,
            2602.5
          ],
          [
            11.79549,
            46.593087,
            2595.3
          ],
          [
            11.795708,
            46.593153,
            2599.5
          ],
          [
            11.795815,
            46.593209,
            2599.3
          ],
          [
            11.795894,
            46.593244,
            2597.8
          ],
          [
            11.796045,
            46.59322,
            2594
          ],
          [
            11.79614,
            46.593233,
            2591.5
          ],
          [
            11.796233,
            46.593214,
            2589.3
          ],
          [
            11.79628,
            46.593246,
            2588
          ],
          [
            11.796475,
            46.593183,
            2583
          ],
          [
            11.796573,
            46.593199,
            2580
          ],
          [
            11.796626,
            46.593235,
            2579
          ],
          [
            11.796654,
            46.593229,
            2578
          ],
          [
            11.796669,
            46.593174,
            2577
          ],
          [
            11.797196,
            46.593124,
            2563.3
          ],
          [
            11.797571,
            46.592995,
            2553.3
          ],
          [
            11.797708,
            46.593002,
            2552.5
          ],
          [
            11.797851,
            46.592961,
            2550.5
          ],
          [
            11.797997,
            46.59297,
            2549.5
          ],
          [
            11.798284,
            46.592941,
            2545.8
          ],
          [
            11.798426,
            46.592945,
            2544
          ],
          [
            11.79851,
            46.592921,
            2543
          ],
          [
            11.798616,
            46.592927,
            2542
          ],
          [
            11.798686,
            46.592945,
            2541.3
          ],
          [
            11.798807,
            46.592929,
            2539.8
          ],
          [
            11.799388,
            46.592972,
            2536.5
          ],
          [
            11.800266,
            46.593023,
            2522.3
          ],
          [
            11.800817,
            46.592936,
            2517
          ],
          [
            11.801362,
            46.592907,
            2507
          ],
          [
            11.801696,
            46.592834,
            2495.8
          ],
          [
            11.801795,
            46.59263,
            2488.5
          ],
          [
            11.80189,
            46.592644,
            2485.8
          ],
          [
            11.801964,
            46.592734,
            2483.8
          ],
          [
            11.80223,
            46.592877,
            2476
          ],
          [
            11.802516,
            46.592798,
            2464
          ],
          [
            11.802835,
            46.592798,
            2451.8
          ],
          [
            11.803147,
            46.592936,
            2447
          ],
          [
            11.80335,
            46.59295,
            2441.8
          ],
          [
            11.803561,
            46.593015,
            2439.5
          ],
          [
            11.80388,
            46.593015,
            2435.5
          ],
          [
            11.804136,
            46.593007,
            2437
          ],
          [
            11.80488,
            46.592855,
            2435.8
          ],
          [
            11.805543,
            46.592787,
            2438
          ],
          [
            11.805905,
            46.592666,
            2442.8
          ],
          [
            11.806019,
            46.592538,
            2444.5
          ],
          [
            11.806338,
            46.592489,
            2446.5
          ],
          [
            11.807079,
            46.592409,
            2452.3
          ],
          [
            11.807325,
            46.592425,
            2455
          ],
          [
            11.807595,
            46.592396,
            2457.5
          ],
          [
            11.808126,
            46.592164,
            2457.5
          ],
          [
            11.808369,
            46.592116,
            2459.5
          ],
          [
            11.808966,
            46.591949,
            2454.8
          ],
          [
            11.809591,
            46.591857,
            2453.5
          ],
          [
            11.811131,
            46.59185,
            2458.3
          ],
          [
            11.811628,
            46.5917,
            2462.3
          ],
          [
            11.812047,
            46.591648,
            2460.8
          ],
          [
            11.812637,
            46.591651,
            2462
          ],
          [
            11.812999,
            46.591661,
            2462
          ],
          [
            11.813275,
            46.591583,
            2460.8
          ],
          [
            11.813475,
            46.591599,
            2458
          ],
          [
            11.813705,
            46.591697,
            2454.3
          ],
          [
            11.81388,
            46.591755,
            2451.5
          ],
          [
            11.813992,
            46.591778,
            2452
          ],
          [
            11.814159,
            46.591749,
            2448.8
          ],
          [
            11.81437,
            46.591758,
            2447.5
          ],
          [
            11.814506,
            46.591736,
            2444.8
          ],
          [
            11.814806,
            46.591705,
            2439.5
          ],
          [
            11.815252,
            46.591815,
            2439
          ],
          [
            11.815435,
            46.591812,
            2435.5
          ],
          [
            11.816089,
            46.591873,
            2433.8
          ],
          [
            11.816422,
            46.591874,
            2432.3
          ],
          [
            11.816746,
            46.591834,
            2429.8
          ],
          [
            11.817332,
            46.591646,
            2424.8
          ],
          [
            11.817462,
            46.591498,
            2422.5
          ],
          [
            11.817608,
            46.591396,
            2421.5
          ],
          [
            11.817634,
            46.591387,
            2421.3
          ],
          [
            11.817761,
            46.591168,
            2418.5
          ],
          [
            11.817706,
            46.590616,
            2414
          ],
          [
            11.81749,
            46.590141,
            2412.3
          ],
          [
            11.817372,
            46.589884,
            2411.5
          ],
          [
            11.817324,
            46.589736,
            2411
          ],
          [
            11.817318,
            46.589593,
            2411.3
          ],
          [
            11.817394,
            46.589391,
            2412.8
          ],
          [
            11.817541,
            46.588886,
            2416.5
          ],
          [
            11.817621,
            46.588689,
            2417.5
          ],
          [
            11.817972,
            46.58826,
            2422.3
          ],
          [
            11.8183,
            46.588137,
            2426.8
          ],
          [
            11.818666,
            46.588093,
            2428.5
          ],
          [
            11.81902,
            46.588129,
            2430.3
          ],
          [
            11.819198,
            46.588178,
            2432.5
          ],
          [
            11.819308,
            46.58824,
            2436.3
          ],
          [
            11.819368,
            46.588266,
            2437.5
          ],
          [
            11.819427,
            46.588231,
            2435.8
          ],
          [
            11.819499,
            46.588169,
            2434.8
          ],
          [
            11.820025,
            46.588079,
            2440.8
          ],
          [
            11.820487,
            46.588109,
            2447
          ],
          [
            11.820909,
            46.58819,
            2450.8
          ],
          [
            11.82149,
            46.588196,
            2451
          ],
          [
            11.822821,
            46.588128,
            2456.3
          ],
          [
            11.823622,
            46.588214,
            2460.3
          ],
          [
            11.8237,
            46.58825,
            2460.3
          ],
          [
            11.82376,
            46.588306,
            2461.8
          ],
          [
            11.823808,
            46.588321,
            2462
          ],
          [
            11.823999,
            46.588292,
            2460.5
          ],
          [
            11.824345,
            46.588202,
            2461.8
          ],
          [
            11.824501,
            46.588191,
            2463.8
          ],
          [
            11.82466,
            46.588135,
            2464.3
          ],
          [
            11.824774,
            46.588145,
            2466.8
          ],
          [
            11.825292,
            46.588004,
            2469.3
          ],
          [
            11.825581,
            46.588004,
            2472.5
          ],
          [
            11.825866,
            46.587933,
            2470.3
          ],
          [
            11.826107,
            46.587904,
            2470.5
          ],
          [
            11.826294,
            46.587916,
            2471
          ],
          [
            11.826425,
            46.587955,
            2473.5
          ],
          [
            11.826641,
            46.588,
            2474
          ],
          [
            11.826938,
            46.588133,
            2475.8
          ],
          [
            11.827288,
            46.588321,
            2476.5
          ],
          [
            11.827355,
            46.588407,
            2478
          ],
          [
            11.827499,
            46.588507,
            2477.5
          ],
          [
            11.827599,
            46.588529,
            2476.3
          ],
          [
            11.827751,
            46.588597,
            2476.5
          ],
          [
            11.827935,
            46.588751,
            2477.3
          ],
          [
            11.828023,
            46.588766,
            2476.5
          ],
          [
            11.828208,
            46.588879,
            2476.3
          ],
          [
            11.828314,
            46.588978,
            2475.5
          ],
          [
            11.828422,
            46.589088,
            2475
          ],
          [
            11.828452,
            46.589169,
            2475.8
          ],
          [
            11.82844,
            46.58946,
            2476.5
          ],
          [
            11.828522,
            46.589653,
            2477
          ],
          [
            11.828592,
            46.589857,
            2479.3
          ],
          [
            11.828735,
            46.589933,
            2479.5
          ],
          [
            11.828844,
            46.58997,
            2479.5
          ],
          [
            11.829031,
            46.59001,
            2479.5
          ],
          [
            11.829216,
            46.590026,
            2479
          ],
          [
            11.829263,
            46.590032,
            2478.5
          ]
        ]
      }
    },
    {
      "type": "Feature",
      "properties": {
        "kind": "waypoint",
        "name": "Col Raiser"
      },
      "geometry": {
        "type": "Point",
        "coordinates": [
          11.745318,
          46.584784,
          2104
        ]
      }
    },
    {
      "type": "Feature",
      "properties": {
        "kind": "waypoint",
        "name": "Seceda"
      },
      "geometry": {
        "type": "Point",
        "coordinates": [
          11.724347,
          46.597936,
          2493
        ]
      }
    },
    {
      "type": "Feature",
      "properties": {
        "kind": "waypoint",
        "name": "Pieralongia"
      },
      "geometry": {
        "type": "Point",
        "coordinates": [
          11.750641,
          46.597541,
          2297
        ]
      }
    },
    {
      "type": "Feature",
      "properties": {
        "kind": "waypoint",
        "name": "Forces de Siëles"
      },
      "geometry": {
        "type": "Point",
        "coordinates": [
          11.790632,
          46.588779,
          2510
        ]
      }
    },
    {
      "type": "Feature",
      "properties": {
        "kind": "waypoint",
        "name": "Rifugio Puez"
      },
      "geometry": {
        "type": "Point",
        "coordinates": [
          11.829263,
          46.590032,
          2479
        ]
      }
    }
  ]
}
