<?xml version="1.0" encoding="UTF-8"?>
<gpx version="1.1" creator="Dolomites 2026" xmlns="http://www.topografix.com/GPX/1/1" xmlns:xsi="http://www.w3.org/2001/XMLSchema-instance" xsi:schemaLocation="http://www.topografix.com/GPX/1/1 http://www.topografix.com/GPX/1/1/gpx.xsd">
  <metadata><name>Варіант A · Col Raiser</name></metadata>
  <wpt lat="46.584784" lon="11.745318"><ele>2104</ele><name>Col Raiser</name></wpt>
  <wpt lat="46.597936" lon="11.724347"><ele>2493</ele><name>Seceda</name></wpt>
  <wpt lat="46.597541" lon="11.750641"><ele>2297</ele><name>Pieralongia</name></wpt>
  <wpt lat="46.588779" lon="11.790632"><ele>2510</ele><name>Forces de Siëles</name></wpt>
  <wpt lat="46.590032" lon="11.829263"><ele>2479</ele><name>Rifugio Puez</name></wpt>
  <trk>
    <name>Варіант A · Col Raiser</name>
    <trkseg>
      <trkpt lat="46.584784" lon="11.745318"><ele>2103.8</ele></trkpt>
      <trkpt lat="46.584823" lon="11.745335"><ele>2103.8</ele></trkpt>
      <trkpt lat="46.584791" lon="11.745484"><ele>2104.5</ele></trkpt>
      <trkpt lat="46.584901" lon="11.745533"><ele>2104.8</ele></trkpt>
      <trkpt lat="46.584987" lon="11.745753"><ele>2105.5</ele></trkpt>
      <trkpt lat="46.585025" lon="11.745788"><ele>2105.5</ele></trkpt>
      <trkpt lat="46.585066" lon="11.745795"><ele>2105</ele></trkpt>
      <trkpt lat="46.585199" lon="11.745737"><ele>2103.5</ele></trkpt>
      <trkpt lat="46.585283" lon="11.745685"><ele>2102.3</ele></trkpt>
      <trkpt lat="46.585428" lon="11.745517"><ele>2101.3</ele></trkpt>
      <trkpt lat="46.585447" lon="11.745437"><ele>2101.8</ele></trkpt>
      <trkpt lat="46.585521" lon="11.745267"><ele>2104</ele></trkpt>
      <trkpt lat="46.585638" lon="11.745198"><ele>2103.5</ele></trkpt>
      <trkpt lat="46.585895" lon="11.744999"><ele>2102.5</ele></trkpt>
      <trkpt lat="46.585967" lon="11.744988"><ele>2101.5</ele></trkpt>
      <trkpt lat="46.5861" lon="11.745028"><ele>2100.8</ele></trkpt>
      <trkpt lat="46.586209" lon="11.745021"><ele>2099.8</ele></trkpt>
      <trkpt lat="46.586603" lon="11.745136"><ele>2098.3</ele></trkpt>
      <trkpt lat="46.586849" lon="11.745134"><ele>2094.3</ele></trkpt>
      <trkpt lat="46.587061" lon="11.745181"><ele>2093.3</ele></trkpt>
      <trkpt lat="46.587183" lon="11.745257"><ele>2094.5</ele></trkpt>
      <trkpt lat="46.587333" lon="11.745236"><ele>2096</ele></trkpt>
      <trkpt lat="46.587419" lon="11.745189"><ele>2096.3</ele></trkpt>
      <trkpt lat="46.587663" lon="11.74516"><ele>2100.5</ele></trkpt>
      <trkpt lat="46.587722" lon="11.745122"><ele>2100.8</ele></trkpt>
      <trkpt lat="46.587797" lon="11.744989"><ele>2099.3</ele></trkpt>
      <trkpt lat="46.587881" lon="11.74492"><ele>2099.5</ele></trkpt>
      <trkpt lat="46.587978" lon="11.744886"><ele>2101</ele></trkpt>
      <trkpt lat="46.588428" lon="11.74484"><ele>2107</ele></trkpt>
      <trkpt lat="46.588828" lon="11.74468"><ele>2108</ele></trkpt>
      <trkpt lat="46.589093" lon="11.744418"><ele>2111</ele></trkpt>
      <trkpt lat="46.589187" lon="11.744372"><ele>2112.3</ele></trkpt>
      <trkpt lat="46.589243" lon="11.744368"><ele>2112</ele></trkpt>
      <trkpt lat="46.589334" lon="11.744408"><ele>2112.8</ele></trkpt>
      <trkpt lat="46.589421" lon="11.744416"><ele>2112.5</ele></trkpt>
      <trkpt lat="46.589476" lon="11.744369"><ele>2112.5</ele></trkpt>
      <trkpt lat="46.589508" lon="11.744304"><ele>2112.5</ele></trkpt>
      <trkpt lat="46.58955" lon="11.744191"><ele>2112.3</ele></trkpt>
      <trkpt lat="46.589612" lon="11.74412"><ele>2113.3</ele></trkpt>
      <trkpt lat="46.589686" lon="11.743975"><ele>2114.3</ele></trkpt>
      <trkpt lat="46.589708" lon="11.743828"><ele>2114.3</ele></trkpt>
      <trkpt lat="46.589705" lon="11.743691"><ele>2114.3</ele></trkpt>
      <trkpt lat="46.589683" lon="11.743478"><ele>2113.3</ele></trkpt>
      <trkpt lat="46.58968" lon="11.743301"><ele>2112.8</ele></trkpt>
      <trkpt lat="46.589692" lon="11.743223"><ele>2112.8</ele></trkpt>
      <trkpt lat="46.589724" lon="11.743155"><ele>2113.5</ele></trkpt>
      <trkpt lat="46.589774" lon="11.743107"><ele>2113.8</ele></trkpt>
      <trkpt lat="46.58983" lon="11.743082"><ele>2114</ele></trkpt>
      <trkpt lat="46.589925" lon="11.743068"><ele>2114.5</ele></trkpt>
      <trkpt lat="46.590069" lon="11.743064"><ele>2115.8</ele></trkpt>
      <trkpt lat="46.590168" lon="11.743094"><ele>2117.8</ele></trkpt>
      <trkpt lat="46.590227" lon="11.743065"><ele>2117.5</ele></trkpt>
      <trkpt lat="46.590267" lon="11.742995"><ele>2116.8</ele></trkpt>
      <trkpt lat="46.590328" lon="11.742834"><ele>2115.5</ele></trkpt>
      <trkpt lat="46.59038" lon="11.74262"><ele>2114.3</ele></trkpt>
      <trkpt lat="46.590476" lon="11.742478"><ele>2115.5</ele></trkpt>
      <trkpt lat="46.590617" lon="11.742247"><ele>2117</ele></trkpt>
      <trkpt lat="46.590735" lon="11.742133"><ele>2115.8</ele></trkpt>
      <trkpt lat="46.590752" lon="11.742077"><ele>2115.3</ele></trkpt>
      <trkpt lat="46.590744" lon="11.741943"><ele>2113.5</ele></trkpt>
      <trkpt lat="46.590702" lon="11.741829"><ele>2113.3</ele></trkpt>
      <trkpt lat="46.590645" lon="11.741762"><ele>2112.3</ele></trkpt>
      <trkpt lat="46.590597" lon="11.741602"><ele>2110.3</ele></trkpt>
      <trkpt lat="46.590567" lon="11.741359"><ele>2107.3</ele></trkpt>
      <trkpt lat="46.590526" lon="11.741163"><ele>2106.8</ele></trkpt>
      <trkpt lat="46.590562" lon="11.740874"><ele>2106.5</ele></trkpt>
      <trkpt lat="46.590569" lon="11.740116"><ele>2109.5</ele></trkpt>
      <trkpt lat="46.590569" lon="11.739967"><ele>2110.8</ele></trkpt>
      <trkpt lat="46.590547" lon="11.739802"><ele>2111.8</ele></trkpt>
      <trkpt lat="46.590504" lon="11.739146"><ele>2116.3</ele></trkpt>
      <trkpt lat="46.590506" lon="11.738884"><ele>2117</ele></trkpt>
      <trkpt lat="46.590534" lon="11.738658"><ele>2119.3</ele></trkpt>
      <trkpt lat="46.590482" lon="11.738454"><ele>2117.5</ele></trkpt>
      <trkpt lat="46.590726" lon="11.738505"><ele>2125</ele></trkpt>
      <trkpt lat="46.591235" lon="11.738508"><ele>2134.3</ele></trkpt>
      <trkpt lat="46.591311" lon="11.738484"><ele>2135</ele></trkpt>
      <trkpt lat="46.591485" lon="11.738328"><ele>2136.3</ele></trkpt>
      <trkpt lat="46.591589" lon="11.738259"><ele>2137</ele></trkpt>
      <trkpt lat="46.591821" lon="11.738187"><ele>2139.8</ele></trkpt>
      <trkpt lat="46.591956" lon="11.738111"><ele>2141.3</ele></trkpt>
      <trkpt lat="46.592095" lon="11.738068"><ele>2143</ele></trkpt>
      <trkpt lat="46.592202" lon="11.738082"><ele>2144.5</ele></trkpt>
      <trkpt lat="46.592447" lon="11.738163"><ele>2148.3</ele></trkpt>
      <trkpt lat="46.592843" lon="11.738284"><ele>2151.5</ele></trkpt>
      <trkpt lat="46.593053" lon="11.738375"><ele>2152.3</ele></trkpt>
      <trkpt lat="46.593134" lon="11.738379"><ele>2154</ele></trkpt>
      <trkpt lat="46.593217" lon="11.738366"><ele>2156</ele></trkpt>
      <trkpt lat="46.593398" lon="11.738204"><ele>2161.3</ele></trkpt>
      <trkpt lat="46.593595" lon="11.737923"><ele>2167</ele></trkpt>
      <trkpt lat="46.593619" lon="11.737862"><ele>2167.5</ele></trkpt>
      <trkpt lat="46.593612" lon="11.7378"><ele>2167.8</ele></trkpt>
      <trkpt lat="46.593523" lon="11.737511"><ele>2169.5</ele></trkpt>
      <trkpt lat="46.593522" lon="11.7374"><ele>2171.5</ele></trkpt>
      <trkpt lat="46.593572" lon="11.737194"><ele>2175.3</ele></trkpt>
      <trkpt lat="46.593723" lon="11.736926"><ele>2180</ele></trkpt>
      <trkpt lat="46.593827" lon="11.736757"><ele>2183.5</ele></trkpt>
      <trkpt lat="46.5939" lon="11.736673"><ele>2184</ele></trkpt>
      <trkpt lat="46.593992" lon="11.736625"><ele>2185.8</ele></trkpt>
      <trkpt lat="46.59404" lon="11.736555"><ele>2187.5</ele></trkpt>
      <trkpt lat="46.594053" lon="11.736448"><ele>2189.3</ele></trkpt>
      <trkpt lat="46.59399" lon="11.736199"><ele>2195.5</ele></trkpt>
      <trkpt lat="46.593992" lon="11.736108"><ele>2197.5</ele></trkpt>
      <trkpt lat="46.594034" lon="11.736013"><ele>2198</ele></trkpt>
      <trkpt lat="46.594094" lon="11.735904"><ele>2198.3</ele></trkpt>
      <trkpt lat="46.594208" lon="11.735794"><ele>2199.3</ele></trkpt>
      <trkpt lat="46.594309" lon="11.735753"><ele>2199.8</ele></trkpt>
      <trkpt lat="46.594687" lon="11.735751"><ele>2201</ele></trkpt>
      <trkpt lat="46.594899" lon="11.735654"><ele>2201.5</ele></trkpt>
      <trkpt lat="46.594995" lon="11.735617"><ele>2201.8</ele></trkpt>
      <trkpt lat="46.595085" lon="11.735622"><ele>2202.8</ele></trkpt>
      <trkpt lat="46.59518" lon="11.735555"><ele>2204.5</ele></trkpt>
      <trkpt lat="46.595204" lon="11.735452"><ele>2206</ele></trkpt>
      <trkpt lat="46.595229" lon="11.735262"><ele>2209</ele></trkpt>
      <trkpt lat="46.595234" lon="11.735149"><ele>2210.8</ele></trkpt>
      <trkpt lat="46.595273" lon="11.735046"><ele>2213</ele></trkpt>
      <trkpt lat="46.595405" lon="11.734896"><ele>2219</ele></trkpt>
      <trkpt lat="46.595452" lon="11.734828"><ele>2221</ele></trkpt>
      <trkpt lat="46.595479" lon="11.734741"><ele>2222.5</ele></trkpt>
      <trkpt lat="46.595497" lon="11.734553"><ele>2224.8</ele></trkpt>
      <trkpt lat="46.59541" lon="11.734342"><ele>2225.8</ele></trkpt>
      <trkpt lat="46.595331" lon="11.734019"><ele>2229</ele></trkpt>
      <trkpt lat="46.595237" lon="11.733782"><ele>2229.5</ele></trkpt>
      <trkpt lat="46.595212" lon="11.73367"><ele>2230.3</ele></trkpt>
      <trkpt lat="46.595188" lon="11.73356"><ele>2231</ele></trkpt>
      <trkpt lat="46.595154" lon="11.733403"><ele>2231.8</ele></trkpt>
      <trkpt lat="46.595131" lon="11.733168"><ele>2233.3</ele></trkpt>
      <trkpt lat="46.595091" lon="11.732932"><ele>2235.5</ele></trkpt>
      <trkpt lat="46.595035" lon="11.732706"><ele>2237.5</ele></trkpt>
      <trkpt lat="46.595014" lon="11.732587"><ele>2238.3</ele></trkpt>
      <trkpt lat="46.595035" lon="11.732222"><ele>2244.8</ele></trkpt>
      <trkpt lat="46.594993" lon="11.731804"><ele>2250.8</ele></trkpt>
      <trkpt lat="46.595011" lon="11.731457"><ele>2257</ele></trkpt>
      <trkpt lat="46.594966" lon="11.731216"><ele>2260</ele></trkpt>
      <trkpt lat="46.594969" lon="11.730871"><ele>2267.3</ele></trkpt>
      <trkpt lat="46.595005" lon="11.730474"><ele>2275.8</ele></trkpt>
      <trkpt lat="46.594946" lon="11.730324"><ele>2278.3</ele></trkpt>
      <trkpt lat="46.594555" lon="11.729739"><ele>2285</ele></trkpt>
      <trkpt lat="46.594234" lon="11.72935"><ele>2285.5</ele></trkpt>
      <trkpt lat="46.594095" lon="11.729164"><ele>2289.3</ele></trkpt>
      <trkpt lat="46.593933" lon="11.728889"><ele>2295.8</ele></trkpt>
      <trkpt lat="46.593883" lon="11.728823"><ele>2296</ele></trkpt>
      <trkpt lat="46.593839" lon="11.728783"><ele>2296</ele></trkpt>
      <trkpt lat="46.593806" lon="11.728778"><ele>2295.8</ele></trkpt>
      <trkpt lat="46.59371" lon="11.728819"><ele>2295.3</ele></trkpt>
      <trkpt lat="46.593669" lon="11.728829"><ele>2295.3</ele></trkpt>
      <trkpt lat="46.593637" lon="11.728827"><ele>2295</ele></trkpt>
      <trkpt lat="46.593608" lon="11.728801"><ele>2294.8</ele></trkpt>
      <trkpt lat="46.593582" lon="11.72875"><ele>2293.5</ele></trkpt>
      <trkpt lat="46.593526" lon="11.728606"><ele>2291.8</ele></trkpt>
      <trkpt lat="46.593431" lon="11.728327"><ele>2294.5</ele></trkpt>
      <trkpt lat="46.59344" lon="11.728126"><ele>2294</ele></trkpt>
      <trkpt lat="46.593476" lon="11.72794"><ele>2293.3</ele></trkpt>
      <trkpt lat="46.59346" lon="11.727746"><ele>2292.5</ele></trkpt>
      <trkpt lat="46.593409" lon="11.727565"><ele>2293.3</ele></trkpt>
      <trkpt lat="46.593272" lon="11.72734"><ele>2295</ele></trkpt>
      <trkpt lat="46.59315" lon="11.727218"><ele>2296.8</ele></trkpt>
      <trkpt lat="46.592938" lon="11.726896"><ele>2302</ele></trkpt>
      <trkpt lat="46.592921" lon="11.726847"><ele>2302.8</ele></trkpt>
      <trkpt lat="46.592921" lon="11.726786"><ele>2303.5</ele></trkpt>
      <trkpt lat="46.592932" lon="11.726722"><ele>2304.3</ele></trkpt>
      <trkpt lat="46.592963" lon="11.726642"><ele>2306</ele></trkpt>
      <trkpt lat="46.593016" lon="11.726579"><ele>2308</ele></trkpt>
      <trkpt lat="46.593061" lon="11.726547"><ele>2309</ele></trkpt>
      <trkpt lat="46.593112" lon="11.72653"><ele>2309.8</ele></trkpt>
      <trkpt lat="46.593164" lon="11.726527"><ele>2310</ele></trkpt>
      <trkpt lat="46.593323" lon="11.726561"><ele>2311</ele></trkpt>
      <trkpt lat="46.593417" lon="11.726568"><ele>2312.5</ele></trkpt>
      <trkpt lat="46.593535" lon="11.726562"><ele>2314.5</ele></trkpt>
      <trkpt lat="46.593669" lon="11.726528"><ele>2316.5</ele></trkpt>
      <trkpt lat="46.593872" lon="11.726423"><ele>2320</ele></trkpt>
      <trkpt lat="46.593914" lon="11.726412"><ele>2321</ele></trkpt>
      <trkpt lat="46.593966" lon="11.72642"><ele>2321.5</ele></trkpt>
      <trkpt lat="46.594089" lon="11.726499"><ele>2322</ele></trkpt>
      <trkpt lat="46.594177" lon="11.726533"><ele>2322.3</ele></trkpt>
      <trkpt lat="46.594349" lon="11.726532"><ele>2322.5</ele></trkpt>
      <trkpt lat="46.594624" lon="11.726553"><ele>2325.5</ele></trkpt>
      <trkpt lat="46.594682" lon="11.726563"><ele>2326.3</ele></trkpt>
      <trkpt lat="46.594737" lon="11.726601"><ele>2326.3</ele></trkpt>
      <trkpt lat="46.594802" lon="11.726663"><ele>2327.5</ele></trkpt>
      <trkpt lat="46.594993" lon="11.727052"><ele>2332.8</ele></trkpt>
      <trkpt lat="46.595043" lon="11.727139"><ele>2333</ele></trkpt>
      <trkpt lat="46.595081" lon="11.727183"><ele>2332.8</ele></trkpt>
      <trkpt lat="46.595119" lon="11.727202"><ele>2333</ele></trkpt>
      <trkpt lat="46.595159" lon="11.727209"><ele>2333.3</ele></trkpt>
      <trkpt lat="46.595273" lon="11.727205"><ele>2334.3</ele></trkpt>
      <trkpt lat="46.595344" lon="11.727252"><ele>2336.3</ele></trkpt>
      <trkpt lat="46.595437" lon="11.727449"><ele>2338.5</ele></trkpt>
      <trkpt lat="46.595514" lon="11.7276"><ele>2339.3</ele></trkpt>
      <trkpt lat="46.595606" lon="11.727804"><ele>2340.8</ele></trkpt>
      <trkpt lat="46.595655" lon="11.727884"><ele>2341.8</ele></trkpt>
      <trkpt lat="46.595896" lon="11.728122"><ele>2345.3</ele></trkpt>
      <trkpt lat="46.595999" lon="11.728185"><ele>2347.5</ele></trkpt>
      <trkpt lat="46.596045" lon="11.728237"><ele>2348</ele></trkpt>
      <trkpt lat="46.596186" lon="11.728451"><ele>2349.5</ele></trkpt>
      <trkpt lat="46.596271" lon="11.728554"><ele>2350.5</ele></trkpt>
      <trkpt lat="46.596355" lon="11.728632"><ele>2351.3</ele></trkpt>
      <trkpt lat="46.596418" lon="11.72867"><ele>2352</ele></trkpt>
      <trkpt lat="46.596484" lon="11.728692"><ele>2353.3</ele></trkpt>
      <trkpt lat="46.596545" lon="11.728699"><ele>2354.8</ele></trkpt>
      <trkpt lat="46.59677" lon="11.728684"><ele>2361.5</ele></trkpt>
      <trkpt lat="46.596843" lon="11.728708"><ele>2363.3</ele></trkpt>
      <trkpt lat="46.596897" lon="11.728747"><ele>2364</ele></trkpt>
      <trkpt lat="46.596955" lon="11.728809"><ele>2364.8</ele></trkpt>
      <trkpt lat="46.597022" lon="11.7289"><ele>2365.8</ele></trkpt>
      <trkpt lat="46.597141" lon="11.729108"><ele>2368.3</ele></trkpt>
      <trkpt lat="46.597262" lon="11.72934"><ele>2371</ele></trkpt>
      <trkpt lat="46.597346" lon="11.729414"><ele>2372.8</ele></trkpt>
      <trkpt lat="46.597399" lon="11.729444"><ele>2374</ele></trkpt>
      <trkpt lat="46.597708" lon="11.729461"><ele>2379.5</ele></trkpt>
      <trkpt lat="46.597822" lon="11.72945"><ele>2381.8</ele></trkpt>
      <trkpt lat="46.597866" lon="11.729424"><ele>2383.3</ele></trkpt>
      <trkpt lat="46.597899" lon="11.729335"><ele>2385.3</ele></trkpt>
      <trkpt lat="46.597903" lon="11.72918"><ele>2388</ele></trkpt>
      <trkpt lat="46.597887" lon="11.728699"><ele>2394</ele></trkpt>
      <trkpt lat="46.59783" lon="11.72831"><ele>2399.5</ele></trkpt>
      <trkpt lat="46.597714" lon="11.727778"><ele>2408</ele></trkpt>
      <trkpt lat="46.597666" lon="11.727597"><ele>2410</ele></trkpt>
      <trkpt lat="46.597583" lon="11.727393"><ele>2411.5</ele></trkpt>
      <trkpt lat="46.597569" lon="11.727318"><ele>2412</ele></trkpt>
      <trkpt lat="46.597553" lon="11.727172"><ele>2412.5</ele></trkpt>
      <trkpt lat="46.597591" lon="11.726846"><ele>2413</ele></trkpt>
      <trkpt lat="46.597588" lon="11.726779"><ele>2413</ele></trkpt>
      <trkpt lat="46.597468" lon="11.726359"><ele>2412.5</ele></trkpt>
      <trkpt lat="46.597393" lon="11.726013"><ele>2415</ele></trkpt>
      <trkpt lat="46.597365" lon="11.725907"><ele>2416.5</ele></trkpt>
      <trkpt lat="46.597333" lon="11.725833"><ele>2417.5</ele></trkpt>
      <trkpt lat="46.597113" lon="11.72546"><ele>2424</ele></trkpt>
      <trkpt lat="46.597026" lon="11.725262"><ele>2428.3</ele></trkpt>
      <trkpt lat="46.596964" lon="11.725143"><ele>2431</ele></trkpt>
      <trkpt lat="46.596853" lon="11.72508"><ele>2433</ele></trkpt>
      <trkpt lat="46.596658" lon="11.725039"><ele>2434.3</ele></trkpt>
      <trkpt lat="46.59654" lon="11.724962"><ele>2435</ele></trkpt>
      <trkpt lat="46.596424" lon="11.724826"><ele>2435.8</ele></trkpt>
      <trkpt lat="46.596379" lon="11.724713"><ele>2436.8</ele></trkpt>
      <trkpt lat="46.596395" lon="11.724638"><ele>2438.5</ele></trkpt>
      <trkpt lat="46.596453" lon="11.724614"><ele>2440.5</ele></trkpt>
      <trkpt lat="46.596536" lon="11.724609"><ele>2442.8</ele></trkpt>
      <trkpt lat="46.596792" lon="11.724636"><ele>2446.8</ele></trkpt>
      <trkpt lat="46.596973" lon="11.724609"><ele>2448.8</ele></trkpt>
      <trkpt lat="46.597247" lon="11.724518"><ele>2450</ele></trkpt>
      <trkpt lat="46.597466" lon="11.724528"><ele>2449</ele></trkpt>
      <trkpt lat="46.597613" lon="11.724565"><ele>2451</ele></trkpt>
      <trkpt lat="46.597776" lon="11.72465"><ele>2453.5</ele></trkpt>
      <trkpt lat="46.597928" lon="11.724778"><ele>2454.3</ele></trkpt>
      <trkpt lat="46.597791" lon="11.724455"><ele>2456.3</ele></trkpt>
      <trkpt lat="46.597838" lon="11.724423"><ele>2456.8</ele></trkpt>
      <trkpt lat="46.597936" lon="11.724347"><ele>2457.3</ele></trkpt>
      <trkpt lat="46.597838" lon="11.724423"><ele>2456.8</ele></trkpt>
      <trkpt lat="46.597791" lon="11.724455"><ele>2456.3</ele></trkpt>
      <trkpt lat="46.597928" lon="11.724778"><ele>2454.3</ele></trkpt>
      <trkpt lat="46.597776" lon="11.72465"><ele>2453.5</ele></trkpt>
      <trkpt lat="46.597613" lon="11.724565"><ele>2451</ele></trkpt>
      <trkpt lat="46.597466" lon="11.724528"><ele>2449</ele></trkpt>
      <trkpt lat="46.597247" lon="11.724518"><ele>2450</ele></trkpt>
      <trkpt lat="46.596973" lon="11.724609"><ele>2448.8</ele></trkpt>
      <trkpt lat="46.596792" lon="11.724636"><ele>2446.8</ele></trkpt>
      <trkpt lat="46.596536" lon="11.724609"><ele>2442.8</ele></trkpt>
      <trkpt lat="46.596453" lon="11.724614"><ele>2440.5</ele></trkpt>
      <trkpt lat="46.596395" lon="11.724638"><ele>2438.5</ele></trkpt>
      <trkpt lat="46.596379" lon="11.724713"><ele>2436.8</ele></trkpt>
      <trkpt lat="46.596424" lon="11.724826"><ele>2435.8</ele></trkpt>
      <trkpt lat="46.59654" lon="11.724962"><ele>2435</ele></trkpt>
      <trkpt lat="46.596658" lon="11.725039"><ele>2434.3</ele></trkpt>
      <trkpt lat="46.596853" lon="11.72508"><ele>2433</ele></trkpt>
      <trkpt lat="46.596964" lon="11.725143"><ele>2431</ele></trkpt>
      <trkpt lat="46.597026" lon="11.725262"><ele>2428.3</ele></trkpt>
      <trkpt lat="46.597113" lon="11.72546"><ele>2424</ele></trkpt>
      <trkpt lat="46.597333" lon="11.725833"><ele>2417.5</ele></trkpt>
      <trkpt lat="46.597365" lon="11.725907"><ele>2416.5</ele></trkpt>
      <trkpt lat="46.597393" lon="11.726013"><ele>2415</ele></trkpt>
      <trkpt lat="46.597468" lon="11.726359"><ele>2412.5</ele></trkpt>
      <trkpt lat="46.597588" lon="11.726779"><ele>2413</ele></trkpt>
      <trkpt lat="46.597591" lon="11.726846"><ele>2413</ele></trkpt>
      <trkpt lat="46.597553" lon="11.727172"><ele>2412.5</ele></trkpt>
      <trkpt lat="46.597569" lon="11.727318"><ele>2412</ele></trkpt>
      <trkpt lat="46.597583" lon="11.727393"><ele>2411.5</ele></trkpt>
      <trkpt lat="46.597666" lon="11.727597"><ele>2410</ele></trkpt>
      <trkpt lat="46.597714" lon="11.727778"><ele>2408</ele></trkpt>
      <trkpt lat="46.59783" lon="11.72831"><ele>2399.5</ele></trkpt>
      <trkpt lat="46.597887" lon="11.728699"><ele>2394</ele></trkpt>
      <trkpt lat="46.597903" lon="11.72918"><ele>2388</ele></trkpt>
      <trkpt lat="46.597899" lon="11.729335"><ele>2385.3</ele></trkpt>
      <trkpt lat="46.597866" lon="11.729424"><ele>2383.3</ele></trkpt>
      <trkpt lat="46.597822" lon="11.72945"><ele>2381.8</ele></trkpt>
      <trkpt lat="46.597708" lon="11.729461"><ele>2379.5</ele></trkpt>
      <trkpt lat="46.597399" lon="11.729444"><ele>2374</ele></trkpt>
      <trkpt lat="46.597346" lon="11.729414"><ele>2372.8</ele></trkpt>
      <trkpt lat="46.597262" lon="11.72934"><ele>2371</ele></trkpt>
      <trkpt lat="46.597141" lon="11.729108"><ele>2368.3</ele></trkpt>
      <trkpt lat="46.597022" lon="11.7289"><ele>2365.8</ele></trkpt>
      <trkpt lat="46.596955" lon="11.728809"><ele>2364.8</ele></trkpt>
      <trkpt lat="46.596897" lon="11.728747"><ele>2364</ele></trkpt>
      <trkpt lat="46.596843" lon="11.728708"><ele>2363.3</ele></trkpt>
      <trkpt lat="46.59677" lon="11.728684"><ele>2361.5</ele></trkpt>
      <trkpt lat="46.596545" lon="11.728699"><ele>2354.8</ele></trkpt>
      <trkpt lat="46.596484" lon="11.728692"><ele>2353.3</ele></trkpt>
      <trkpt lat="46.596418" lon="11.72867"><ele>2352</ele></trkpt>
      <trkpt lat="46.596355" lon="11.728632"><ele>2351.3</ele></trkpt>
      <trkpt lat="46.596271" lon="11.728554"><ele>2350.5</ele></trkpt>
      <trkpt lat="46.596186" lon="11.728451"><ele>2349.5</ele></trkpt>
      <trkpt lat="46.596045" lon="11.728237"><ele>2348</ele></trkpt>
      <trkpt lat="46.595999" lon="11.728185"><ele>2347.5</ele></trkpt>
      <trkpt lat="46.595896" lon="11.728122"><ele>2345.3</ele></trkpt>
      <trkpt lat="46.595655" lon="11.727884"><ele>2341.8</ele></trkpt>
      <trkpt lat="46.595606" lon="11.727804"><ele>2340.8</ele></trkpt>
      <trkpt lat="46.595514" lon="11.7276"><ele>2339.3</ele></trkpt>
      <trkpt lat="46.595437" lon="11.727449"><ele>2338.5</ele></trkpt>
      <trkpt lat="46.595344" lon="11.727252"><ele>2336.3</ele></trkpt>
      <trkpt lat="46.595273" lon="11.727205"><ele>2334.3</ele></trkpt>
      <trkpt lat="46.595159" lon="11.727209"><ele>2333.3</ele></trkpt>
      <trkpt lat="46.595119" lon="11.727202"><ele>2333</ele></trkpt>
      <trkpt lat="46.595081" lon="11.727183"><ele>2332.8</ele></trkpt>
      <trkpt lat="46.595043" lon="11.727139"><ele>2333</ele></trkpt>
      <trkpt lat="46.594993" lon="11.727052"><ele>2332.8</ele></trkpt>
      <trkpt lat="46.594802" lon="11.726663"><ele>2327.5</ele></trkpt>
      <trkpt lat="46.594737" lon="11.726601"><ele>2326.3</ele></trkpt>
      <trkpt lat="46.594682" lon="11.726563"><ele>2326.3</ele></trkpt>
      <trkpt lat="46.594624" lon="11.726553"><ele>2325.5</ele></trkpt>
      <trkpt lat="46.594349" lon="11.726532"><ele>2322.5</ele></trkpt>
      <trkpt lat="46.594177" lon="11.726533"><ele>2322.3</ele></trkpt>
      <trkpt lat="46.594089" lon="11.726499"><ele>2322</ele></trkpt>
      <trkpt lat="46.593966" lon="11.72642"><ele>2321.5</ele></trkpt>
      <trkpt lat="46.593914" lon="11.726412"><ele>2321</ele></trkpt>
      <trkpt lat="46.593872" lon="11.726423"><ele>2320</ele></trkpt>
      <trkpt lat="46.593669" lon="11.726528"><ele>2316.5</ele></trkpt>
      <trkpt lat="46.593535" lon="11.726562"><ele>2314.5</ele></trkpt>
      <trkpt lat="46.593417" lon="11.726568"><ele>2312.5</ele></trkpt>
      <trkpt lat="46.593323" lon="11.726561"><ele>2311</ele></trkpt>
      <trkpt lat="46.593164" lon="11.726527"><ele>2310</ele></trkpt>
      <trkpt lat="46.593112" lon="11.72653"><ele>2309.8</ele></trkpt>
      <trkpt lat="46.593061" lon="11.726547"><ele>2309</ele></trkpt>
      <trkpt lat="46.593016" lon="11.726579"><ele>2308</ele></trkpt>
      <trkpt lat="46.592963" lon="11.726642"><ele>2306</ele></trkpt>
      <trkpt lat="46.592932" lon="11.726722"><ele>2304.3</ele></trkpt>
      <trkpt lat="46.592921" lon="11.726786"><ele>2303.5</ele></trkpt>
      <trkpt lat="46.592921" lon="11.726847"><ele>2302.8</ele></trkpt>
      <trkpt lat="46.592938" lon="11.726896"><ele>2302</ele></trkpt>
      <trkpt lat="46.59315" lon="11.727218"><ele>2296.8</ele></trkpt>
      <trkpt lat="46.593272" lon="11.72734"><ele>2295</ele></trkpt>
      <trkpt lat="46.593409" lon="11.727565"><ele>2293.3</ele></trkpt>
      <trkpt lat="46.59346" lon="11.727746"><ele>2292.5</ele></trkpt>
      <trkpt lat="46.593476" lon="11.72794"><ele>2293.3</ele></trkpt>
      <trkpt lat="46.59344" lon="11.728126"><ele>2294</ele></trkpt>
      <trkpt lat="46.593431" lon="11.728327"><ele>2294.5</ele></trkpt>
      <trkpt lat="46.593526" lon="11.728606"><ele>2291.8</ele></trkpt>
      <trkpt lat="46.593582" lon="11.72875"><ele>2293.5</ele></trkpt>
      <trkpt lat="46.593608" lon="11.728801"><ele>2294.8</ele></trkpt>
      <trkpt lat="46.593637" lon="11.728827"><ele>2295</ele></trkpt>
      <trkpt lat="46.593669" lon="11.728829"><ele>2295.3</ele></trkpt>
      <trkpt lat="46.59371" lon="11.728819"><ele>2295.3</ele></trkpt>
      <trkpt lat="46.593806" lon="11.728778"><ele>2295.8</ele></trkpt>
      <trkpt lat="46.593839" lon="11.728783"><ele>2296</ele></trkpt>
      <trkpt lat="46.593883" lon="11.728823"><ele>2296</ele></trkpt>
      <trkpt lat="46.593933" lon="11.728889"><ele>2295.8</ele></trkpt>
      <trkpt lat="46.594095" lon="11.729164"><ele>2289.3</ele></trkpt>
      <trkpt lat="46.594234" lon="11.72935"><ele>2285.5</ele></trkpt>
      <trkpt lat="46.594555" lon="11.729739"><ele>2285</ele></trkpt>
      <trkpt lat="46.594946" lon="11.730324"><ele>2278.3</ele></trkpt>
      <trkpt lat="46.595005" lon="11.730474"><ele>2275.8</ele></trkpt>
      <trkpt lat="46.594969" lon="11.730871"><ele>2267.3</ele></trkpt>
      <trkpt lat="46.594966" lon="11.731216"><ele>2260</ele></trkpt>
      <trkpt lat="46.595011" lon="11.731457"><ele>2257</ele></trkpt>
      <trkpt lat="46.594993" lon="11.731804"><ele>2250.8</ele></trkpt>
      <trkpt lat="46.595035" lon="11.732222"><ele>2244.8</ele></trkpt>
      <trkpt lat="46.595014" lon="11.732587"><ele>2238.3</ele></trkpt>
      <trkpt lat="46.595035" lon="11.732706"><ele>2237.5</ele></trkpt>
      <trkpt lat="46.595091" lon="11.732932"><ele>2235.5</ele></trkpt>
      <trkpt lat="46.595131" lon="11.733168"><ele>2233.3</ele></trkpt>
      <trkpt lat="46.595154" lon="11.733403"><ele>2231.8</ele></trkpt>
      <trkpt lat="46.595188" lon="11.73356"><ele>2231</ele></trkpt>
      <trkpt lat="46.595212" lon="11.73367"><ele>2230.3</ele></trkpt>
      <trkpt lat="46.595237" lon="11.733782"><ele>2229.5</ele></trkpt>
      <trkpt lat="46.595331" lon="11.734019"><ele>2229</ele></trkpt>
      <trkpt lat="46.59541" lon="11.734342"><ele>2225.8</ele></trkpt>
      <trkpt lat="46.595497" lon="11.734553"><ele>2224.8</ele></trkpt>
      <trkpt lat="46.595565" lon="11.734524"><ele>2226.5</ele></trkpt>
      <trkpt lat="46.595621" lon="11.734517"><ele>2228</ele></trkpt>
      <trkpt lat="46.595675" lon="11.734537"><ele>2229.3</ele></trkpt>
      <trkpt lat="46.59575" lon="11.734628"><ele>2231</ele></trkpt>
      <trkpt lat="46.59602" lon="11.734914"><ele>2236.5</ele></trkpt>
      <trkpt lat="46.596305" lon="11.735194"><ele>2237.5</ele></trkpt>
      <trkpt lat="46.596406" lon="11.735302"><ele>2236.5</ele></trkpt>
      <trkpt lat="46.596462" lon="11.73541"><ele>2237.8</ele></trkpt>
      <trkpt lat="46.596563" lon="11.735728"><ele>2238.8</ele></trkpt>
      <trkpt lat="46.596727" lon="11.735998"><ele>2241.3</ele></trkpt>
      <trkpt lat="46.596796" lon="11.736177"><ele>2243</ele></trkpt>
      <trkpt lat="46.596908" lon="11.736523"><ele>2248</ele></trkpt>
      <trkpt lat="46.596929" lon="11.736622"><ele>2249.3</ele></trkpt>
      <trkpt lat="46.596927" lon="11.736719"><ele>2250.8</ele></trkpt>
      <trkpt lat="46.596892" lon="11.736858"><ele>2252.5</ele></trkpt>
      <trkpt lat="46.596885" lon="11.736964"><ele>2253.8</ele></trkpt>
      <trkpt lat="46.596937" lon="11.737153"><ele>2258.3</ele></trkpt>
      <trkpt lat="46.597156" lon="11.737512"><ele>2264.5</ele></trkpt>
      <trkpt lat="46.597213" lon="11.737624"><ele>2266</ele></trkpt>
      <trkpt lat="46.597255" lon="11.73775"><ele>2265.5</ele></trkpt>
      <trkpt lat="46.597292" lon="11.737948"><ele>2264</ele></trkpt>
      <trkpt lat="46.597313" lon="11.738013"><ele>2263.8</ele></trkpt>
      <trkpt lat="46.597361" lon="11.73807"><ele>2263.3</ele></trkpt>
      <trkpt lat="46.597485" lon="11.738138"><ele>2262.3</ele></trkpt>
      <trkpt lat="46.59753" lon="11.738204"><ele>2262</ele></trkpt>
      <trkpt lat="46.597562" lon="11.738441"><ele>2261.5</ele></trkpt>
      <trkpt lat="46.597619" lon="11.738532"><ele>2262.8</ele></trkpt>
      <trkpt lat="46.597746" lon="11.738676"><ele>2265.5</ele></trkpt>
      <trkpt lat="46.597837" lon="11.738834"><ele>2267.8</ele></trkpt>
      <trkpt lat="46.597986" lon="11.73902"><ele>2270.8</ele></trkpt>
      <trkpt lat="46.598027" lon="11.739116"><ele>2272</ele></trkpt>
      <trkpt lat="46.598083" lon="11.739373"><ele>2275.5</ele></trkpt>
      <trkpt lat="46.598036" lon="11.739342"><ele>2274.3</ele></trkpt>
      <trkpt lat="46.597996" lon="11.739363"><ele>2273.3</ele></trkpt>
      <trkpt lat="46.597963" lon="11.739402"><ele>2272.5</ele></trkpt>
      <trkpt lat="46.597941" lon="11.739493"><ele>2272.3</ele></trkpt>
      <trkpt lat="46.597938" lon="11.739603"><ele>2272.3</ele></trkpt>
      <trkpt lat="46.597945" lon="11.739672"><ele>2272.5</ele></trkpt>
      <trkpt lat="46.597959" lon="11.73972"><ele>2273</ele></trkpt>
      <trkpt lat="46.597962" lon="11.739789"><ele>2273.3</ele></trkpt>
      <trkpt lat="46.597943" lon="11.739796"><ele>2272.8</ele></trkpt>
      <trkpt lat="46.597895" lon="11.739751"><ele>2271.3</ele></trkpt>
      <trkpt lat="46.597716" lon="11.739697"><ele>2266.3</ele></trkpt>
      <trkpt lat="46.597691" lon="11.739699"><ele>2265.8</ele></trkpt>
      <trkpt lat="46.597666" lon="11.739719"><ele>2265</ele></trkpt>
      <trkpt lat="46.597607" lon="11.739746"><ele>2263.5</ele></trkpt>
      <trkpt lat="46.597514" lon="11.739813"><ele>2261</ele></trkpt>
      <trkpt lat="46.597403" lon="11.739963"><ele>2257</ele></trkpt>
      <trkpt lat="46.597275" lon="11.740229"><ele>2252.8</ele></trkpt>
      <trkpt lat="46.597248" lon="11.740315"><ele>2251.5</ele></trkpt>
      <trkpt lat="46.597234" lon="11.740401"><ele>2250.8</ele></trkpt>
      <trkpt lat="46.5972" lon="11.740493"><ele>2249.5</ele></trkpt>
      <trkpt lat="46.597128" lon="11.740618"><ele>2247.8</ele></trkpt>
      <trkpt lat="46.597094" lon="11.740657"><ele>2246.8</ele></trkpt>
      <trkpt lat="46.597057" lon="11.740659"><ele>2245.8</ele></trkpt>
      <trkpt lat="46.597018" lon="11.740691"><ele>2244.5</ele></trkpt>
      <trkpt lat="46.597002" lon="11.740761"><ele>2243.5</ele></trkpt>
      <trkpt lat="46.597001" lon="11.740834"><ele>2243</ele></trkpt>
      <trkpt lat="46.596982" lon="11.740898"><ele>2242.3</ele></trkpt>
      <trkpt lat="46.596959" lon="11.740933"><ele>2241.5</ele></trkpt>
      <trkpt lat="46.59692" lon="11.741041"><ele>2239.8</ele></trkpt>
      <trkpt lat="46.59691" lon="11.741164"><ele>2239.8</ele></trkpt>
      <trkpt lat="46.596857" lon="11.741259"><ele>2238.3</ele></trkpt>
      <trkpt lat="46.596793" lon="11.741338"><ele>2236</ele></trkpt>
      <trkpt lat="46.596747" lon="11.741486"><ele>2234.5</ele></trkpt>
      <trkpt lat="46.59673" lon="11.741571"><ele>2234</ele></trkpt>
      <trkpt lat="46.596695" lon="11.741626"><ele>2232.8</ele></trkpt>
      <trkpt lat="46.596653" lon="11.741634"><ele>2231.3</ele></trkpt>
      <trkpt lat="46.596574" lon="11.741616"><ele>2229</ele></trkpt>
      <trkpt lat="46.596554" lon="11.741675"><ele>2228.3</ele></trkpt>
      <trkpt lat="46.596523" lon="11.741732"><ele>2226.8</ele></trkpt>
      <trkpt lat="46.596482" lon="11.741771"><ele>2225</ele></trkpt>
      <trkpt lat="46.596439" lon="11.741757"><ele>2223.8</ele></trkpt>
      <trkpt lat="46.596356" lon="11.741655"><ele>2222.3</ele></trkpt>
      <trkpt lat="46.596296" lon="11.741618"><ele>2221.5</ele></trkpt>
      <trkpt lat="46.596237" lon="11.741635"><ele>2220</ele></trkpt>
      <trkpt lat="46.596122" lon="11.741815"><ele>2215.5</ele></trkpt>
      <trkpt lat="46.595919" lon="11.742026"><ele>2213.8</ele></trkpt>
      <trkpt lat="46.595865" lon="11.742176"><ele>2212.3</ele></trkpt>
      <trkpt lat="46.59581" lon="11.742502"><ele>2208.8</ele></trkpt>
      <trkpt lat="46.595705" lon="11.742861"><ele>2205</ele></trkpt>
      <trkpt lat="46.595659" lon="11.742944"><ele>2204.3</ele></trkpt>
      <trkpt lat="46.595574" lon="11.742997"><ele>2202.5</ele></trkpt>
      <trkpt lat="46.595525" lon="11.743007"><ele>2201.5</ele></trkpt>
      <trkpt lat="46.595411" lon="11.743054"><ele>2199.3</ele></trkpt>
      <trkpt lat="46.595184" lon="11.743164"><ele>2193.8</ele></trkpt>
      <trkpt lat="46.595126" lon="11.743226"><ele>2192.3</ele></trkpt>
      <trkpt lat="46.595064" lon="11.743438"><ele>2189.8</ele></trkpt>
      <trkpt lat="46.59499" lon="11.74358"><ele>2186.8</ele></trkpt>
      <trkpt lat="46.594887" lon="11.74366"><ele>2184.3</ele></trkpt>
      <trkpt lat="46.594759" lon="11.743951"><ele>2182.5</ele></trkpt>
      <trkpt lat="46.594724" lon="11.74399"><ele>2182.5</ele></trkpt>
      <trkpt lat="46.594538" lon="11.743972"><ele>2180</ele></trkpt>
      <trkpt lat="46.594212" lon="11.744159"><ele>2178.8</ele></trkpt>
      <trkpt lat="46.59399" lon="11.744337"><ele>2183.8</ele></trkpt>
      <trkpt lat="46.5939" lon="11.744359"><ele>2183</ele></trkpt>
      <trkpt lat="46.593739" lon="11.744369"><ele>2183.5</ele></trkpt>
      <trkpt lat="46.593508" lon="11.744426"><ele>2185.8</ele></trkpt>
      <trkpt lat="46.593454" lon="11.744429"><ele>2185</ele></trkpt>
      <trkpt lat="46.593325" lon="11.74453"><ele>2184.3</ele></trkpt>
      <trkpt lat="46.593366" lon="11.744558"><ele>2185.3</ele></trkpt>
      <trkpt lat="46.593387" lon="11.744598"><ele>2186</ele></trkpt>
      <trkpt lat="46.593409" lon="11.744664"><ele>2187</ele></trkpt>
      <trkpt lat="46.593431" lon="11.744861"><ele>2188.8</ele></trkpt>
      <trkpt lat="46.593458" lon="11.744917"><ele>2189.8</ele></trkpt>
      <trkpt lat="46.593627" lon="11.745166"><ele>2195</ele></trkpt>
      <trkpt lat="46.593788" lon="11.745338"><ele>2200.3</ele></trkpt>
      <trkpt lat="46.593843" lon="11.745426"><ele>2201.8</ele></trkpt>
      <trkpt lat="46.593913" lon="11.745606"><ele>2203.5</ele></trkpt>
      <trkpt lat="46.593945" lon="11.745663"><ele>2204.3</ele></trkpt>
      <trkpt lat="46.593977" lon="11.745721"><ele>2204.8</ele></trkpt>
      <trkpt lat="46.594036" lon="11.745859"><ele>2205.3</ele></trkpt>
      <trkpt lat="46.594036" lon="11.746445"><ele>2201.8</ele></trkpt>
      <trkpt lat="46.594167" lon="11.746894"><ele>2199.3</ele></trkpt>
      <trkpt lat="46.59428" lon="11.747358"><ele>2202.8</ele></trkpt>
      <trkpt lat="46.594337" lon="11.747462"><ele>2203.5</ele></trkpt>
      <trkpt lat="46.594412" lon="11.747713"><ele>2202.8</ele></trkpt>
      <trkpt lat="46.594453" lon="11.747851"><ele>2202.3</ele></trkpt>
      <trkpt lat="46.594501" lon="11.747969"><ele>2203.3</ele></trkpt>
      <trkpt lat="46.594604" lon="11.74809"><ele>2205</ele></trkpt>
      <trkpt lat="46.594726" lon="11.748192"><ele>2204.5</ele></trkpt>
      <trkpt lat="46.594925" lon="11.748331"><ele>2205.3</ele></trkpt>
      <trkpt lat="46.594981" lon="11.748415"><ele>2206</ele></trkpt>
      <trkpt lat="46.595002" lon="11.748471"><ele>2206</ele></trkpt>
      <trkpt lat="46.595096" lon="11.748535"><ele>2207.8</ele></trkpt>
      <trkpt lat="46.595129" lon="11.748578"><ele>2208</ele></trkpt>
      <trkpt lat="46.595157" lon="11.748647"><ele>2207.8</ele></trkpt>
      <trkpt lat="46.595179" lon="11.748701"><ele>2207.5</ele></trkpt>
      <trkpt lat="46.595236" lon="11.748782"><ele>2207.3</ele></trkpt>
      <trkpt lat="46.595397" lon="11.748921"><ele>2211</ele></trkpt>
      <trkpt lat="46.595424" lon="11.748972"><ele>2211.8</ele></trkpt>
      <trkpt lat="46.59548" lon="11.749238"><ele>2213</ele></trkpt>
      <trkpt lat="46.595534" lon="11.749623"><ele>2216.5</ele></trkpt>
      <trkpt lat="46.595569" lon="11.749813"><ele>2218.8</ele></trkpt>
      <trkpt lat="46.595662" lon="11.750136"><ele>2223.8</ele></trkpt>
      <trkpt lat="46.595731" lon="11.750169"><ele>2226.3</ele></trkpt>
      <trkpt lat="46.595952" lon="11.750145"><ele>2231.5</ele></trkpt>
      <trkpt lat="46.596011" lon="11.750168"><ele>2232.3</ele></trkpt>
      <trkpt lat="46.596096" lon="11.750178"><ele>2233.3</ele></trkpt>
      <trkpt lat="46.596129" lon="11.750162"><ele>2233.8</ele></trkpt>
      <trkpt lat="46.596195" lon="11.750156"><ele>2234.5</ele></trkpt>
      <trkpt lat="46.5963" lon="11.750164"><ele>2235.8</ele></trkpt>
      <trkpt lat="46.596406" lon="11.750212"><ele>2236.5</ele></trkpt>
      <trkpt lat="46.596478" lon="11.750232"><ele>2237.3</ele></trkpt>
      <trkpt lat="46.596525" lon="11.75026"><ele>2237.8</ele></trkpt>
      <trkpt lat="46.596588" lon="11.750277"><ele>2238.5</ele></trkpt>
      <trkpt lat="46.596742" lon="11.750348"><ele>2241.5</ele></trkpt>
      <trkpt lat="46.596919" lon="11.750532"><ele>2243.8</ele></trkpt>
      <trkpt lat="46.596941" lon="11.750535"><ele>2244.3</ele></trkpt>
      <trkpt lat="46.596964" lon="11.750567"><ele>2244.8</ele></trkpt>
      <trkpt lat="46.596996" lon="11.750642"><ele>2245.5</ele></trkpt>
      <trkpt lat="46.597047" lon="11.750813"><ele>2246.3</ele></trkpt>
      <trkpt lat="46.597106" lon="11.750915"><ele>2246.8</ele></trkpt>
      <trkpt lat="46.597137" lon="11.750946"><ele>2247.3</ele></trkpt>
      <trkpt lat="46.597166" lon="11.750941"><ele>2248.8</ele></trkpt>
      <trkpt lat="46.597212" lon="11.750958"><ele>2250.3</ele></trkpt>
      <trkpt lat="46.597253" lon="11.751022"><ele>2255.5</ele></trkpt>
      <trkpt lat="46.597376" lon="11.751217"><ele>2255.5</ele></trkpt>
      <trkpt lat="46.597403" lon="11.751231"><ele>2256.8</ele></trkpt>
      <trkpt lat="46.597441" lon="11.751282"><ele>2257.3</ele></trkpt>
      <trkpt lat="46.597502" lon="11.751399"><ele>2255.5</ele></trkpt>
      <trkpt lat="46.597534" lon="11.751431"><ele>2256</ele></trkpt>
      <trkpt lat="46.597572" lon="11.751447"><ele>2257.3</ele></trkpt>
      <trkpt lat="46.597602" lon="11.751444"><ele>2258.8</ele></trkpt>
      <trkpt lat="46.597625" lon="11.751452"><ele>2259.5</ele></trkpt>
      <trkpt lat="46.597667" lon="11.751505"><ele>2259.5</ele></trkpt>
      <trkpt lat="46.597695" lon="11.751554"><ele>2258.8</ele></trkpt>
      <trkpt lat="46.597723" lon="11.751575"><ele>2259.3</ele></trkpt>
      <trkpt lat="46.597756" lon="11.75159"><ele>2260.3</ele></trkpt>
      <trkpt lat="46.597791" lon="11.751584"><ele>2261.8</ele></trkpt>
      <trkpt lat="46.597922" lon="11.751642"><ele>2263.5</ele></trkpt>
      <trkpt lat="46.597965" lon="11.751634"><ele>2265</ele></trkpt>
      <trkpt lat="46.598005" lon="11.751648"><ele>2265.8</ele></trkpt>
      <trkpt lat="46.598085" lon="11.751786"><ele>2265.3</ele></trkpt>
      <trkpt lat="46.598109" lon="11.7518"><ele>2265.8</ele></trkpt>
      <trkpt lat="46.598152" lon="11.751799"><ele>2267.8</ele></trkpt>
      <trkpt lat="46.598179" lon="11.751845"><ele>2267.5</ele></trkpt>
      <trkpt lat="46.598225" lon="11.751894"><ele>2268</ele></trkpt>
      <trkpt lat="46.598296" lon="11.751936"><ele>2269.8</ele></trkpt>
      <trkpt lat="46.598322" lon="11.751987"><ele>2269.3</ele></trkpt>
      <trkpt lat="46.598342" lon="11.751998"><ele>2270</ele></trkpt>
      <trkpt lat="46.598386" lon="11.752079"><ele>2270.5</ele></trkpt>
      <trkpt lat="46.598425" lon="11.752118"><ele>2271.8</ele></trkpt>
      <trkpt lat="46.598495" lon="11.752232"><ele>2273.3</ele></trkpt>
      <trkpt lat="46.598498" lon="11.75229"><ele>2273</ele></trkpt>
      <trkpt lat="46.598516" lon="11.752324"><ele>2273.8</ele></trkpt>
      <trkpt lat="46.598531" lon="11.752898"><ele>2275</ele></trkpt>
      <trkpt lat="46.598527" lon="11.752961"><ele>2275.3</ele></trkpt>
      <trkpt lat="46.598502" lon="11.753099"><ele>2274.5</ele></trkpt>
      <trkpt lat="46.59852" lon="11.753208"><ele>2275.5</ele></trkpt>
      <trkpt lat="46.598528" lon="11.75339"><ele>2275.5</ele></trkpt>
      <trkpt lat="46.59859" lon="11.753618"><ele>2275.8</ele></trkpt>
      <trkpt lat="46.598631" lon="11.753704"><ele>2276</ele></trkpt>
      <trkpt lat="46.598698" lon="11.753763"><ele>2277.5</ele></trkpt>
      <trkpt lat="46.598979" lon="11.754299"><ele>2279.3</ele></trkpt>
      <trkpt lat="46.599005" lon="11.754366"><ele>2279</ele></trkpt>
      <trkpt lat="46.599071" lon="11.754398"><ele>2280.8</ele></trkpt>
      <trkpt lat="46.599255" lon="11.754687"><ele>2283.8</ele></trkpt>
      <trkpt lat="46.599383" lon="11.755173"><ele>2291.3</ele></trkpt>
      <trkpt lat="46.59935" lon="11.755311"><ele>2290.3</ele></trkpt>
      <trkpt lat="46.599365" lon="11.755393"><ele>2291.3</ele></trkpt>
      <trkpt lat="46.599334" lon="11.755457"><ele>2290</ele></trkpt>
      <trkpt lat="46.599332" lon="11.755604"><ele>2290.5</ele></trkpt>
      <trkpt lat="46.599269" lon="11.755861"><ele>2288.5</ele></trkpt>
      <trkpt lat="46.599241" lon="11.75605"><ele>2286.8</ele></trkpt>
      <trkpt lat="46.599126" lon="11.756339"><ele>2282</ele></trkpt>
      <trkpt lat="46.598956" lon="11.75663"><ele>2277</ele></trkpt>
      <trkpt lat="46.598845" lon="11.756742"><ele>2274.8</ele></trkpt>
      <trkpt lat="46.598745" lon="11.756763"><ele>2272.8</ele></trkpt>
      <trkpt lat="46.598734" lon="11.756849"><ele>2273.8</ele></trkpt>
      <trkpt lat="46.598742" lon="11.757042"><ele>2276.3</ele></trkpt>
      <trkpt lat="46.598767" lon="11.75716"><ele>2277.8</ele></trkpt>
      <trkpt lat="46.598726" lon="11.757364"><ele>2279.5</ele></trkpt>
      <trkpt lat="46.598776" lon="11.757674"><ele>2282.3</ele></trkpt>
      <trkpt lat="46.598786" lon="11.757911"><ele>2284.5</ele></trkpt>
      <trkpt lat="46.598864" lon="11.758111"><ele>2283.3</ele></trkpt>
      <trkpt lat="46.598801" lon="11.758494"><ele>2286.3</ele></trkpt>
      <trkpt lat="46.598857" lon="11.758814"><ele>2283.8</ele></trkpt>
      <trkpt lat="46.598878" lon="11.759237"><ele>2283.8</ele></trkpt>
      <trkpt lat="46.598939" lon="11.759384"><ele>2284.8</ele></trkpt>
      <trkpt lat="46.598986" lon="11.75965"><ele>2286</ele></trkpt>
      <trkpt lat="46.599091" lon="11.75997"><ele>2287.8</ele></trkpt>
      <trkpt lat="46.598949" lon="11.760186"><ele>2289.3</ele></trkpt>
      <trkpt lat="46.598915" lon="11.760448"><ele>2291.8</ele></trkpt>
      <trkpt lat="46.598862" lon="11.760759"><ele>2292.5</ele></trkpt>
      <trkpt lat="46.598856" lon="11.761073"><ele>2292.5</ele></trkpt>
      <trkpt lat="46.59891" lon="11.761495"><ele>2297.3</ele></trkpt>
      <trkpt lat="46.598861" lon="11.761737"><ele>2297</ele></trkpt>
      <trkpt lat="46.598902" lon="11.7621"><ele>2296</ele></trkpt>
      <trkpt lat="46.598993" lon="11.762358"><ele>2296.5</ele></trkpt>
      <trkpt lat="46.599034" lon="11.762652"><ele>2293.5</ele></trkpt>
      <trkpt lat="46.59924" lon="11.762932"><ele>2290.8</ele></trkpt>
      <trkpt lat="46.599319" lon="11.763039"><ele>2290.8</ele></trkpt>
      <trkpt lat="46.599388" lon="11.763192"><ele>2289.3</ele></trkpt>
      <trkpt lat="46.599406" lon="11.763411"><ele>2283.8</ele></trkpt>
      <trkpt lat="46.599447" lon="11.76392"><ele>2279.3</ele></trkpt>
      <trkpt lat="46.599399" lon="11.764007"><ele>2277.5</ele></trkpt>
      <trkpt lat="46.59933" lon="11.763999"><ele>2274.3</ele></trkpt>
      <trkpt lat="46.599276" lon="11.764043"><ele>2272.3</ele></trkpt>
      <trkpt lat="46.59923" lon="11.764168"><ele>2272.5</ele></trkpt>
      <trkpt lat="46.598973" lon="11.76444"><ele>2269</ele></trkpt>
      <trkpt lat="46.598866" lon="11.76454"><ele>2265.5</ele></trkpt>
      <trkpt lat="46.59878" lon="11.764866"><ele>2261</ele></trkpt>
      <trkpt lat="46.5988" lon="11.76497"><ele>2259</ele></trkpt>
      <trkpt lat="46.598887" lon="11.764983"><ele>2259.3</ele></trkpt>
      <trkpt lat="46.598971" lon="11.765131"><ele>2258</ele></trkpt>
      <trkpt lat="46.598989" lon="11.765174"><ele>2257.8</ele></trkpt>
      <trkpt lat="46.598946" lon="11.765203"><ele>2257.3</ele></trkpt>
      <trkpt lat="46.598985" lon="11.765214"><ele>2257.5</ele></trkpt>
      <trkpt lat="46.599016" lon="11.765251"><ele>2257.5</ele></trkpt>
      <trkpt lat="46.5991" lon="11.765655"><ele>2259</ele></trkpt>
      <trkpt lat="46.598928" lon="11.766151"><ele>2254.5</ele></trkpt>
      <trkpt lat="46.598792" lon="11.766719"><ele>2248.8</ele></trkpt>
      <trkpt lat="46.598738" lon="11.766837"><ele>2247.3</ele></trkpt>
      <trkpt lat="46.598579" lon="11.767058"><ele>2243.3</ele></trkpt>
      <trkpt lat="46.59855" lon="11.76737"><ele>2240.8</ele></trkpt>
      <trkpt lat="46.598506" lon="11.767686"><ele>2238.8</ele></trkpt>
      <trkpt lat="46.598446" lon="11.767922"><ele>2236.8</ele></trkpt>
      <trkpt lat="46.598313" lon="11.768857"><ele>2231.8</ele></trkpt>
      <trkpt lat="46.59834" lon="11.769246"><ele>2228</ele></trkpt>
      <trkpt lat="46.598382" lon="11.769344"><ele>2227.8</ele></trkpt>
      <trkpt lat="46.598369" lon="11.769388"><ele>2227.3</ele></trkpt>
      <trkpt lat="46.598339" lon="11.769499"><ele>2227.5</ele></trkpt>
      <trkpt lat="46.59831" lon="11.769543"><ele>2228</ele></trkpt>
      <trkpt lat="46.598278" lon="11.769696"><ele>2230.5</ele></trkpt>
      <trkpt lat="46.598198" lon="11.769788"><ele>2228.3</ele></trkpt>
      <trkpt lat="46.598153" lon="11.769878"><ele>2227.3</ele></trkpt>
      <trkpt lat="46.598083" lon="11.770072"><ele>2226.8</ele></trkpt>
      <trkpt lat="46.598044" lon="11.77026"><ele>2228</ele></trkpt>
      <trkpt lat="46.598039" lon="11.770341"><ele>2228.8</ele></trkpt>
      <trkpt lat="46.597954" lon="11.770489"><ele>2226</ele></trkpt>
      <trkpt lat="46.597895" lon="11.770708"><ele>2224</ele></trkpt>
      <trkpt lat="46.597894" lon="11.770783"><ele>2224.3</ele></trkpt>
      <trkpt lat="46.597963" lon="11.771029"><ele>2224</ele></trkpt>
      <trkpt lat="46.597966" lon="11.771131"><ele>2223</ele></trkpt>
      <trkpt lat="46.597994" lon="11.771152"><ele>2223.8</ele></trkpt>
      <trkpt lat="46.598006" lon="11.771182"><ele>2223.8</ele></trkpt>
      <trkpt lat="46.598004" lon="11.771237"><ele>2223</ele></trkpt>
      <trkpt lat="46.598029" lon="11.771303"><ele>2223</ele></trkpt>
      <trkpt lat="46.598021" lon="11.771348"><ele>2222.3</ele></trkpt>
      <trkpt lat="46.598027" lon="11.771433"><ele>2222</ele></trkpt>
      <trkpt lat="46.598021" lon="11.771601"><ele>2222.5</ele></trkpt>
      <trkpt lat="46.597984" lon="11.771711"><ele>2222</ele></trkpt>
      <trkpt lat="46.597888" lon="11.771831"><ele>2221</ele></trkpt>
      <trkpt lat="46.597742" lon="11.772163"><ele>2218.3</ele></trkpt>
      <trkpt lat="46.597694" lon="11.772232"><ele>2216.8</ele></trkpt>
      <trkpt lat="46.59764" lon="11.772332"><ele>2215.8</ele></trkpt>
      <trkpt lat="46.59761" lon="11.772492"><ele>2215.3</ele></trkpt>
      <trkpt lat="46.597581" lon="11.772594"><ele>2213.8</ele></trkpt>
      <trkpt lat="46.597562" lon="11.772738"><ele>2212.5</ele></trkpt>
      <trkpt lat="46.597572" lon="11.772835"><ele>2212</ele></trkpt>
      <trkpt lat="46.59757" lon="11.772869"><ele>2211.8</ele></trkpt>
      <trkpt lat="46.597546" lon="11.772923"><ele>2210.3</ele></trkpt>
      <trkpt lat="46.59752" lon="11.772958"><ele>2208.8</ele></trkpt>
      <trkpt lat="46.597506" lon="11.773018"><ele>2207.5</ele></trkpt>
      <trkpt lat="46.597478" lon="11.773096"><ele>2206.3</ele></trkpt>
      <trkpt lat="46.59749" lon="11.773155"><ele>2205.8</ele></trkpt>
      <trkpt lat="46.597476" lon="11.773185"><ele>2205</ele></trkpt>
      <trkpt lat="46.597426" lon="11.773229"><ele>2203.5</ele></trkpt>
      <trkpt lat="46.597383" lon="11.773286"><ele>2201.8</ele></trkpt>
      <trkpt lat="46.597332" lon="11.773511"><ele>2195</ele></trkpt>
      <trkpt lat="46.597286" lon="11.773584"><ele>2192</ele></trkpt>
      <trkpt lat="46.597248" lon="11.773669"><ele>2189.8</ele></trkpt>
      <trkpt lat="46.597194" lon="11.773685"><ele>2188</ele></trkpt>
      <trkpt lat="46.597149" lon="11.773718"><ele>2186</ele></trkpt>
      <trkpt lat="46.597088" lon="11.773747"><ele>2183.3</ele></trkpt>
      <trkpt lat="46.597016" lon="11.773765"><ele>2180.3</ele></trkpt>
      <trkpt lat="46.596971" lon="11.773888"><ele>2176</ele></trkpt>
      <trkpt lat="46.596963" lon="11.773989"><ele>2174.3</ele></trkpt>
      <trkpt lat="46.596947" lon="11.774017"><ele>2173.3</ele></trkpt>
      <trkpt lat="46.596851" lon="11.77394"><ele>2171.3</ele></trkpt>
      <trkpt lat="46.596796" lon="11.773847"><ele>2170.8</ele></trkpt>
      <trkpt lat="46.596732" lon="11.773848"><ele>2168.5</ele></trkpt>
      <trkpt lat="46.596664" lon="11.773864"><ele>2166</ele></trkpt>
      <trkpt lat="46.59651" lon="11.773851"><ele>2163.8</ele></trkpt>
      <trkpt lat="46.596307" lon="11.774043"><ele>2159.5</ele></trkpt>
      <trkpt lat="46.596215" lon="11.774098"><ele>2158</ele></trkpt>
      <trkpt lat="46.595947" lon="11.774253"><ele>2157.3</ele></trkpt>
      <trkpt lat="46.595777" lon="11.77428"><ele>2156.3</ele></trkpt>
      <trkpt lat="46.595435" lon="11.773987"><ele>2152.5</ele></trkpt>
      <trkpt lat="46.595383" lon="11.773989"><ele>2152.5</ele></trkpt>
      <trkpt lat="46.595333" lon="11.773895"><ele>2152</ele></trkpt>
      <trkpt lat="46.595214" lon="11.773886"><ele>2152.3</ele></trkpt>
      <trkpt lat="46.594911" lon="11.773894"><ele>2154.5</ele></trkpt>
      <trkpt lat="46.594672" lon="11.773888"><ele>2156.5</ele></trkpt>
      <trkpt lat="46.594635" lon="11.77388"><ele>2156.8</ele></trkpt>
      <trkpt lat="46.594433" lon="11.773836"><ele>2158</ele></trkpt>
      <trkpt lat="46.594359" lon="11.774044"><ele>2161.8</ele></trkpt>
      <trkpt lat="46.594307" lon="11.774271"><ele>2165.5</ele></trkpt>
      <trkpt lat="46.594245" lon="11.774528"><ele>2169.5</ele></trkpt>
      <trkpt lat="46.594067" lon="11.774913"><ele>2179</ele></trkpt>
      <trkpt lat="46.59387" lon="11.775156"><ele>2185.5</ele></trkpt>
      <trkpt lat="46.593731" lon="11.775314"><ele>2191</ele></trkpt>
      <trkpt lat="46.593641" lon="11.775503"><ele>2195</ele></trkpt>
      <trkpt lat="46.593611" lon="11.775662"><ele>2199</ele></trkpt>
      <trkpt lat="46.593524" lon="11.775805"><ele>2203.5</ele></trkpt>
      <trkpt lat="46.593446" lon="11.77596"><ele>2206.3</ele></trkpt>
      <trkpt lat="46.593355" lon="11.776213"><ele>2208.8</ele></trkpt>
      <trkpt lat="46.593248" lon="11.776478"><ele>2213.8</ele></trkpt>
      <trkpt lat="46.593126" lon="11.776669"><ele>2217</ele></trkpt>
      <trkpt lat="46.59297" lon="11.776944"><ele>2222.8</ele></trkpt>
      <trkpt lat="46.59296" lon="11.777085"><ele>2224.5</ele></trkpt>
      <trkpt lat="46.592926" lon="11.777231"><ele>2227</ele></trkpt>
      <trkpt lat="46.592794" lon="11.777507"><ele>2233</ele></trkpt>
      <trkpt lat="46.592792" lon="11.777781"><ele>2238</ele></trkpt>
      <trkpt lat="46.592799" lon="11.777949"><ele>2240.5</ele></trkpt>
      <trkpt lat="46.592837" lon="11.778288"><ele>2246.3</ele></trkpt>
      <trkpt lat="46.59288" lon="11.778513"><ele>2247.5</ele></trkpt>
      <trkpt lat="46.592912" lon="11.778795"><ele>2248.3</ele></trkpt>
      <trkpt lat="46.592732" lon="11.779602"><ele>2260.3</ele></trkpt>
      <trkpt lat="46.592732" lon="11.77969"><ele>2260.3</ele></trkpt>
      <trkpt lat="46.592712" lon="11.779766"><ele>2262</ele></trkpt>
      <trkpt lat="46.592694" lon="11.77998"><ele>2266.3</ele></trkpt>
      <trkpt lat="46.592658" lon="11.78017"><ele>2270.5</ele></trkpt>
      <trkpt lat="46.592648" lon="11.78026"><ele>2271.8</ele></trkpt>
      <trkpt lat="46.592652" lon="11.780385"><ele>2274</ele></trkpt>
      <trkpt lat="46.59263" lon="11.780452"><ele>2276.5</ele></trkpt>
      <trkpt lat="46.592655" lon="11.780544"><ele>2277.5</ele></trkpt>
      <trkpt lat="46.592648" lon="11.780636"><ele>2280.3</ele></trkpt>
      <trkpt lat="46.592661" lon="11.780708"><ele>2282</ele></trkpt>
      <trkpt lat="46.592611" lon="11.780865"><ele>2287.8</ele></trkpt>
      <trkpt lat="46.59257" lon="11.780875"><ele>2289</ele></trkpt>
      <trkpt lat="46.592567" lon="11.780947"><ele>2290.5</ele></trkpt>
      <trkpt lat="46.592552" lon="11.780994"><ele>2291.8</ele></trkpt>
      <trkpt lat="46.592559" lon="11.781091"><ele>2293.5</ele></trkpt>
      <trkpt lat="46.592555" lon="11.781144"><ele>2294.3</ele></trkpt>
      <trkpt lat="46.592511" lon="11.781247"><ele>2295.5</ele></trkpt>
      <trkpt lat="46.59247" lon="11.781292"><ele>2296.8</ele></trkpt>
      <trkpt lat="46.592422" lon="11.781318"><ele>2298.8</ele></trkpt>
      <trkpt lat="46.592401" lon="11.781352"><ele>2299.8</ele></trkpt>
      <trkpt lat="46.592398" lon="11.781519"><ele>2302</ele></trkpt>
      <trkpt lat="46.592419" lon="11.781542"><ele>2301.5</ele></trkpt>
      <trkpt lat="46.592423" lon="11.781629"><ele>2302.5</ele></trkpt>
      <trkpt lat="46.592458" lon="11.781868"><ele>2307</ele></trkpt>
      <trkpt lat="46.592502" lon="11.782007"><ele>2309</ele></trkpt>
      <trkpt lat="46.592559" lon="11.782236"><ele>2317.5</ele></trkpt>
      <trkpt lat="46.59258" lon="11.782266"><ele>2318.5</ele></trkpt>
      <trkpt lat="46.592578" lon="11.782343"><ele>2320.3</ele></trkpt>
      <trkpt lat="46.592659" lon="11.782616"><ele>2326</ele></trkpt>
      <trkpt lat="46.592556" lon="11.782734"><ele>2327.8</ele></trkpt>
      <trkpt lat="46.592506" lon="11.782885"><ele>2330.8</ele></trkpt>
      <trkpt lat="46.592441" lon="11.783027"><ele>2335.3</ele></trkpt>
      <trkpt lat="46.592367" lon="11.783076"><ele>2338.5</ele></trkpt>
      <trkpt lat="46.592326" lon="11.783132"><ele>2340.3</ele></trkpt>
      <trkpt lat="46.592267" lon="11.783139"><ele>2342</ele></trkpt>
      <trkpt lat="46.592204" lon="11.783074"><ele>2343.3</ele></trkpt>
      <trkpt lat="46.592084" lon="11.783058"><ele>2345</ele></trkpt>
      <trkpt lat="46.591986" lon="11.783111"><ele>2347.3</ele></trkpt>
      <trkpt lat="46.591895" lon="11.7831"><ele>2348</ele></trkpt>
      <trkpt lat="46.591847" lon="11.783146"><ele>2349.3</ele></trkpt>
      <trkpt lat="46.591708" lon="11.783243"><ele>2351</ele></trkpt>
      <trkpt lat="46.591572" lon="11.7834"><ele>2351.8</ele></trkpt>
      <trkpt lat="46.591513" lon="11.783556"><ele>2353</ele></trkpt>
      <trkpt lat="46.591403" lon="11.783684"><ele>2352.3</ele></trkpt>
      <trkpt lat="46.591299" lon="11.784033"><ele>2356.3</ele></trkpt>
      <trkpt lat="46.591265" lon="11.784381"><ele>2357</ele></trkpt>
      <trkpt lat="46.59114" lon="11.784674"><ele>2358.5</ele></trkpt>
      <trkpt lat="46.591057" lon="11.784972"><ele>2362.8</ele></trkpt>
      <trkpt lat="46.591042" lon="11.785226"><ele>2364.5</ele></trkpt>
      <trkpt lat="46.591078" lon="11.785353"><ele>2365</ele></trkpt>
      <trkpt lat="46.591046" lon="11.785803"><ele>2366.3</ele></trkpt>
      <trkpt lat="46.590945" lon="11.786006"><ele>2365.5</ele></trkpt>
      <trkpt lat="46.590947" lon="11.786197"><ele>2366.8</ele></trkpt>
      <trkpt lat="46.590857" lon="11.786854"><ele>2369.8</ele></trkpt>
      <trkpt lat="46.590774" lon="11.787188"><ele>2374.5</ele></trkpt>
      <trkpt lat="46.590803" lon="11.787552"><ele>2375.5</ele></trkpt>
      <trkpt lat="46.590734" lon="11.787765"><ele>2377</ele></trkpt>
      <trkpt lat="46.590621" lon="11.787973"><ele>2379.5</ele></trkpt>
      <trkpt lat="46.590458" lon="11.788021"><ele>2382.5</ele></trkpt>
      <trkpt lat="46.590377" lon="11.788158"><ele>2385.3</ele></trkpt>
      <trkpt lat="46.590395" lon="11.788252"><ele>2386.3</ele></trkpt>
      <trkpt lat="46.590203" lon="11.788487"><ele>2393</ele></trkpt>
      <trkpt lat="46.590085" lon="11.788532"><ele>2396.8</ele></trkpt>
      <trkpt lat="46.589974" lon="11.788485"><ele>2399.3</ele></trkpt>
      <trkpt lat="46.589915" lon="11.78852"><ele>2401.8</ele></trkpt>
      <trkpt lat="46.589942" lon="11.788652"><ele>2403</ele></trkpt>
      <trkpt lat="46.58985" lon="11.788621"><ele>2405</ele></trkpt>
      <trkpt lat="46.589738" lon="11.788616"><ele>2408.5</ele></trkpt>
      <trkpt lat="46.589724" lon="11.788683"><ele>2411.3</ele></trkpt>
      <trkpt lat="46.589592" lon="11.788602"><ele>2414</ele></trkpt>
      <trkpt lat="46.589477" lon="11.788628"><ele>2419</ele></trkpt>
      <trkpt lat="46.589354" lon="11.7888"><ele>2428.3</ele></trkpt>
      <trkpt lat="46.589325" lon="11.788755"><ele>2428.5</ele></trkpt>
      <trkpt lat="46.589279" lon="11.788734"><ele>2430</ele></trkpt>
      <trkpt lat="46.589196" lon="11.788749"><ele>2433.8</ele></trkpt>
      <trkpt lat="46.589063" lon="11.788732"><ele>2439.8</ele></trkpt>
      <trkpt lat="46.589001" lon="11.788759"><ele>2443.3</ele></trkpt>
      <trkpt lat="46.588963" lon="11.788959"><ele>2449</ele></trkpt>
      <trkpt lat="46.588973" lon="11.789154"><ele>2453.5</ele></trkpt>
      <trkpt lat="46.588997" lon="11.789256"><ele>2455.5</ele></trkpt>
      <trkpt lat="46.589004" lon="11.789334"><ele>2457.8</ele></trkpt>
      <trkpt lat="46.589024" lon="11.789446"><ele>2460.5</ele></trkpt>
      <trkpt lat="46.588959" lon="11.789441"><ele>2462.5</ele></trkpt>
      <trkpt lat="46.588934" lon="11.789593"><ele>2468.5</ele></trkpt>
      <trkpt lat="46.588865" lon="11.789609"><ele>2472.3</ele></trkpt>
      <trkpt lat="46.588941" lon="11.789862"><ele>2478</ele></trkpt>
      <trkpt lat="46.588955" lon="11.789944"><ele>2480.8</ele></trkpt>
      <trkpt lat="46.58899" lon="11.79001"><ele>2482.8</ele></trkpt>
      <trkpt lat="46.589005" lon="11.790071"><ele>2485.3</ele></trkpt>
      <trkpt lat="46.58905" lon="11.790129"><ele>2487.3</ele></trkpt>
      <trkpt lat="46.589111" lon="11.790179"><ele>2488.8</ele></trkpt>
      <trkpt lat="46.589127" lon="11.790232"><ele>2491</ele></trkpt>
      <trkpt lat="46.589116" lon="11.790277"><ele>2493.3</ele></trkpt>
      <trkpt lat="46.589058" lon="11.790337"><ele>2496.8</ele></trkpt>
      <trkpt lat="46.588922" lon="11.790505"><ele>2505.5</ele></trkpt>
      <trkpt lat="46.588821" lon="11.790573"><ele>2509.8</ele></trkpt>
      <trkpt lat="46.588779" lon="11.790632"><ele>2510.5</ele></trkpt>
      <trkpt lat="46.588951" lon="11.790824"><ele>2518.5</ele></trkpt>
      <trkpt lat="46.589184" lon="11.790885"><ele>2525.5</ele></trkpt>
      <trkpt lat="46.589445" lon="11.790854"><ele>2535.3</ele></trkpt>
      <trkpt lat="46.589369" lon="11.791"><ele>2533.8</ele></trkpt>
      <trkpt lat="46.589534" lon="11.790998"><ele>2542.3</ele></trkpt>
      <trkpt lat="46.589661" lon="11.79101"><ele>2548.5</ele></trkpt>
      <trkpt lat="46.589859" lon="11.79097"><ele>2559.8</ele></trkpt>
      <trkpt lat="46.590035" lon="11.791052"><ele>2567.5</ele></trkpt>
      <trkpt lat="46.590111" lon="11.791166"><ele>2568.3</ele></trkpt>
      <trkpt lat="46.590178" lon="11.791385"><ele>2574.8</ele></trkpt>
      <trkpt lat="46.590228" lon="11.791477"><ele>2579.5</ele></trkpt>
      <trkpt lat="46.590352" lon="11.791572"><ele>2582.5</ele></trkpt>
      <trkpt lat="46.590439" lon="11.791583"><ele>2582</ele></trkpt>
      <trkpt lat="46.590512" lon="11.791533"><ele>2580.5</ele></trkpt>
      <trkpt lat="46.590585" lon="11.79155"><ele>2580.3</ele></trkpt>
      <trkpt lat="46.590708" lon="11.791638"><ele>2582.5</ele></trkpt>
      <trkpt lat="46.590773" lon="11.791717"><ele>2582.8</ele></trkpt>
      <trkpt lat="46.591477" lon="11.791971"><ele>2578.5</ele></trkpt>
      <trkpt lat="46.592028" lon="11.792581"><ele>2578</ele></trkpt>
      <trkpt lat="46.592232" lon="11.792784"><ele>2590</ele></trkpt>
      <trkpt lat="46.5925" lon="11.79343"><ele>2577.5</ele></trkpt>
      <trkpt lat="46.592747" lon="11.79372"><ele>2586.8</ele></trkpt>
      <trkpt lat="46.592805" lon="11.794025"><ele>2581</ele></trkpt>
      <trkpt lat="46.593088" lon="11.794555"><ele>2592</ele></trkpt>
      <trkpt lat="46.593292" lon="11.795067"><ele>2602.5</ele></trkpt>
      <trkpt lat="46.593087" lon="11.79549"><ele>2595.3</ele></trkpt>
      <trkpt lat="46.593153" lon="11.795708"><ele>2599.5</ele></trkpt>
      <trkpt lat="46.593209" lon="11.795815"><ele>2599.3</ele></trkpt>
      <trkpt lat="46.593244" lon="11.795894"><ele>2597.8</ele></trkpt>
      <trkpt lat="46.59322" lon="11.796045"><ele>2594</ele></trkpt>
      <trkpt lat="46.593233" lon="11.79614"><ele>2591.5</ele></trkpt>
      <trkpt lat="46.593214" lon="11.796233"><ele>2589.3</ele></trkpt>
      <trkpt lat="46.593246" lon="11.79628"><ele>2588</ele></trkpt>
      <trkpt lat="46.593183" lon="11.796475"><ele>2583</ele></trkpt>
      <trkpt lat="46.593199" lon="11.796573"><ele>2580</ele></trkpt>
      <trkpt lat="46.593235" lon="11.796626"><ele>2579</ele></trkpt>
      <trkpt lat="46.593229" lon="11.796654"><ele>2578</ele></trkpt>
      <trkpt lat="46.593174" lon="11.796669"><ele>2577</ele></trkpt>
      <trkpt lat="46.593124" lon="11.797196"><ele>2563.3</ele></trkpt>
      <trkpt lat="46.592995" lon="11.797571"><ele>2553.3</ele></trkpt>
      <trkpt lat="46.593002" lon="11.797708"><ele>2552.5</ele></trkpt>
      <trkpt lat="46.592961" lon="11.797851"><ele>2550.5</ele></trkpt>
      <trkpt lat="46.59297" lon="11.797997"><ele>2549.5</ele></trkpt>
      <trkpt lat="46.592941" lon="11.798284"><ele>2545.8</ele></trkpt>
      <trkpt lat="46.592945" lon="11.798426"><ele>2544</ele></trkpt>
      <trkpt lat="46.592921" lon="11.79851"><ele>2543</ele></trkpt>
      <trkpt lat="46.592927" lon="11.798616"><ele>2542</ele></trkpt>
      <trkpt lat="46.592945" lon="11.798686"><ele>2541.3</ele></trkpt>
      <trkpt lat="46.592929" lon="11.798807"><ele>2539.8</ele></trkpt>
      <trkpt lat="46.592972" lon="11.799388"><ele>2536.5</ele></trkpt>
      <trkpt lat="46.593023" lon="11.800266"><ele>2522.3</ele></trkpt>
      <trkpt lat="46.592936" lon="11.800817"><ele>2517</ele></trkpt>
      <trkpt lat="46.592907" lon="11.801362"><ele>2507</ele></trkpt>
      <trkpt lat="46.592834" lon="11.801696"><ele>2495.8</ele></trkpt>
      <trkpt lat="46.59263" lon="11.801795"><ele>2488.5</ele></trkpt>
      <trkpt lat="46.592644" lon="11.80189"><ele>2485.8</ele></trkpt>
      <trkpt lat="46.592734" lon="11.801964"><ele>2483.8</ele></trkpt>
      <trkpt lat="46.592877" lon="11.80223"><ele>2476</ele></trkpt>
      <trkpt lat="46.592798" lon="11.802516"><ele>2464</ele></trkpt>
      <trkpt lat="46.592798" lon="11.802835"><ele>2451.8</ele></trkpt>
      <trkpt lat="46.592936" lon="11.803147"><ele>2447</ele></trkpt>
      <trkpt lat="46.59295" lon="11.80335"><ele>2441.8</ele></trkpt>
      <trkpt lat="46.593015" lon="11.803561"><ele>2439.5</ele></trkpt>
      <trkpt lat="46.593015" lon="11.80388"><ele>2435.5</ele></trkpt>
      <trkpt lat="46.593007" lon="11.804136"><ele>2437</ele></trkpt>
      <trkpt lat="46.592855" lon="11.80488"><ele>2435.8</ele></trkpt>
      <trkpt lat="46.592787" lon="11.805543"><ele>2438</ele></trkpt>
      <trkpt lat="46.592666" lon="11.805905"><ele>2442.8</ele></trkpt>
      <trkpt lat="46.592538" lon="11.806019"><ele>2444.5</ele></trkpt>
      <trkpt lat="46.592489" lon="11.806338"><ele>2446.5</ele></trkpt>
      <trkpt lat="46.592409" lon="11.807079"><ele>2452.3</ele></trkpt>
      <trkpt lat="46.592425" lon="11.807325"><ele>2455</ele></trkpt>
      <trkpt lat="46.592396" lon="11.807595"><ele>2457.5</ele></trkpt>
      <trkpt lat="46.592164" lon="11.808126"><ele>2457.5</ele></trkpt>
      <trkpt lat="46.592116" lon="11.808369"><ele>2459.5</ele></trkpt>
      <trkpt lat="46.591949" lon="11.808966"><ele>2454.8</ele></trkpt>
      <trkpt lat="46.591857" lon="11.809591"><ele>2453.5</ele></trkpt>
      <trkpt lat="46.59185" lon="11.811131"><ele>2458.3</ele></trkpt>
      <trkpt lat="46.5917" lon="11.811628"><ele>2462.3</ele></trkpt>
      <trkpt lat="46.591648" lon="11.812047"><ele>2460.8</ele></trkpt>
      <trkpt lat="46.591651" lon="11.812637"><ele>2462</ele></trkpt>
      <trkpt lat="46.591661" lon="11.812999"><ele>2462</ele></trkpt>
      <trkpt lat="46.591583" lon="11.813275"><ele>2460.8</ele></trkpt>
      <trkpt lat="46.591599" lon="11.813475"><ele>2458</ele></trkpt>
      <trkpt lat="46.591697" lon="11.813705"><ele>2454.3</ele></trkpt>
      <trkpt lat="46.591755" lon="11.81388"><ele>2451.5</ele></trkpt>
      <trkpt lat="46.591778" lon="11.813992"><ele>2452</ele></trkpt>
      <trkpt lat="46.591749" lon="11.814159"><ele>2448.8</ele></trkpt>
      <trkpt lat="46.591758" lon="11.81437"><ele>2447.5</ele></trkpt>
      <trkpt lat="46.591736" lon="11.814506"><ele>2444.8</ele></trkpt>
      <trkpt lat="46.591705" lon="11.814806"><ele>2439.5</ele></trkpt>
      <trkpt lat="46.591815" lon="11.815252"><ele>2439</ele></trkpt>
      <trkpt lat="46.591812" lon="11.815435"><ele>2435.5</ele></trkpt>
      <trkpt lat="46.591873" lon="11.816089"><ele>2433.8</ele></trkpt>
      <trkpt lat="46.591874" lon="11.816422"><ele>2432.3</ele></trkpt>
      <trkpt lat="46.591834" lon="11.816746"><ele>2429.8</ele></trkpt>
      <trkpt lat="46.591646" lon="11.817332"><ele>2424.8</ele></trkpt>
      <trkpt lat="46.591498" lon="11.817462"><ele>2422.5</ele></trkpt>
      <trkpt lat="46.591396" lon="11.817608"><ele>2421.5</ele></trkpt>
      <trkpt lat="46.591387" lon="11.817634"><ele>2421.3</ele></trkpt>
      <trkpt lat="46.591168" lon="11.817761"><ele>2418.5</ele></trkpt>
      <trkpt lat="46.590616" lon="11.817706"><ele>2414</ele></trkpt>
      <trkpt lat="46.590141" lon="11.81749"><ele>2412.3</ele></trkpt>
      <trkpt lat="46.589884" lon="11.817372"><ele>2411.5</ele></trkpt>
      <trkpt lat="46.589736" lon="11.817324"><ele>2411</ele></trkpt>
      <trkpt lat="46.589593" lon="11.817318"><ele>2411.3</ele></trkpt>
      <trkpt lat="46.589391" lon="11.817394"><ele>2412.8</ele></trkpt>
      <trkpt lat="46.588886" lon="11.817541"><ele>2416.5</ele></trkpt>
      <trkpt lat="46.588689" lon="11.817621"><ele>2417.5</ele></trkpt>
      <trkpt lat="46.58826" lon="11.817972"><ele>2422.3</ele></trkpt>
      <trkpt lat="46.588137" lon="11.8183"><ele>2426.8</ele></trkpt>
      <trkpt lat="46.588093" lon="11.818666"><ele>2428.5</ele></trkpt>
      <trkpt lat="46.588129" lon="11.81902"><ele>2430.3</ele></trkpt>
      <trkpt lat="46.588178" lon="11.819198"><ele>2432.5</ele></trkpt>
      <trkpt lat="46.58824" lon="11.819308"><ele>2436.3</ele></trkpt>
      <trkpt lat="46.588266" lon="11.819368"><ele>2437.5</ele></trkpt>
      <trkpt lat="46.588231" lon="11.819427"><ele>2435.8</ele></trkpt>
      <trkpt lat="46.588169" lon="11.819499"><ele>2434.8</ele></trkpt>
      <trkpt lat="46.588079" lon="11.820025"><ele>2440.8</ele></trkpt>
      <trkpt lat="46.588109" lon="11.820487"><ele>2447</ele></trkpt>
      <trkpt lat="46.58819" lon="11.820909"><ele>2450.8</ele></trkpt>
      <trkpt lat="46.588196" lon="11.82149"><ele>2451</ele></trkpt>
      <trkpt lat="46.588128" lon="11.822821"><ele>2456.3</ele></trkpt>
      <trkpt lat="46.588214" lon="11.823622"><ele>2460.3</ele></trkpt>
      <trkpt lat="46.58825" lon="11.8237"><ele>2460.3</ele></trkpt>
      <trkpt lat="46.588306" lon="11.82376"><ele>2461.8</ele></trkpt>
      <trkpt lat="46.588321" lon="11.823808"><ele>2462</ele></trkpt>
      <trkpt lat="46.588292" lon="11.823999"><ele>2460.5</ele></trkpt>
      <trkpt lat="46.588202" lon="11.824345"><ele>2461.8</ele></trkpt>
      <trkpt lat="46.588191" lon="11.824501"><ele>2463.8</ele></trkpt>
      <trkpt lat="46.588135" lon="11.82466"><ele>2464.3</ele></trkpt>
      <trkpt lat="46.588145" lon="11.824774"><ele>2466.8</ele></trkpt>
      <trkpt lat="46.588004" lon="11.825292"><ele>2469.3</ele></trkpt>
      <trkpt lat="46.588004" lon="11.825581"><ele>2472.5</ele></trkpt>
      <trkpt lat="46.587933" lon="11.825866"><ele>2470.3</ele></trkpt>
      <trkpt lat="46.587904" lon="11.826107"><ele>2470.5</ele></trkpt>
      <trkpt lat="46.587916" lon="11.826294"><ele>2471</ele></trkpt>
      <trkpt lat="46.587955" lon="11.826425"><ele>2473.5</ele></trkpt>
      <trkpt lat="46.588" lon="11.826641"><ele>2474</ele></trkpt>
      <trkpt lat="46.588133" lon="11.826938"><ele>2475.8</ele></trkpt>
      <trkpt lat="46.588321" lon="11.827288"><ele>2476.5</ele></trkpt>
      <trkpt lat="46.588407" lon="11.827355"><ele>2478</ele></trkpt>
      <trkpt lat="46.588507" lon="11.827499"><ele>2477.5</ele></trkpt>
      <trkpt lat="46.588529" lon="11.827599"><ele>2476.3</ele></trkpt>
      <trkpt lat="46.588597" lon="11.827751"><ele>2476.5</ele></trkpt>
      <trkpt lat="46.588751" lon="11.827935"><ele>2477.3</ele></trkpt>
      <trkpt lat="46.588766" lon="11.828023"><ele>2476.5</ele></trkpt>
      <trkpt lat="46.588879" lon="11.828208"><ele>2476.3</ele></trkpt>
      <trkpt lat="46.588978" lon="11.828314"><ele>2475.5</ele></trkpt>
      <trkpt lat="46.589088" lon="11.828422"><ele>2475</ele></trkpt>
      <trkpt lat="46.589169" lon="11.828452"><ele>2475.8</ele></trkpt>
      <trkpt lat="46.58946" lon="11.82844"><ele>2476.5</ele></trkpt>
      <trkpt lat="46.589653" lon="11.828522"><ele>2477</ele></trkpt>
      <trkpt lat="46.589857" lon="11.828592"><ele>2479.3</ele></trkpt>
      <trkpt lat="46.589933" lon="11.828735"><ele>2479.5</ele></trkpt>
      <trkpt lat="46.58997" lon="11.828844"><ele>2479.5</ele></trkpt>
      <trkpt lat="46.59001" lon="11.829031"><ele>2479.5</ele></trkpt>
      <trkpt lat="46.590026" lon="11.829216"><ele>2479</ele></trkpt>
      <trkpt lat="46.590032" lon="11.829263"><ele>2478.5</ele></trkpt>
    </trkseg>
  </trk>
</gpx>
