<?xml version="1.0" encoding="UTF-8"?>
<gpx version="1.1" creator="Dolomites 2026" xmlns="http://www.topografix.com/GPX/1/1" xmlns:xsi="http://www.w3.org/2001/XMLSchema-instance" xsi:schemaLocation="http://www.topografix.com/GPX/1/1 http://www.topografix.com/GPX/1/1/gpx.xsd">
  <metadata><name>День 5 · Dal Bianco → Passo delle Selle</name></metadata>
  <wpt lat="46.429115" lon="11.845366"><ele>2725</ele><name>Bivacco Dal Bianco</name></wpt>
  <wpt lat="46.424326" lon="11.846478"><ele>3011</ele><name>Cima Ombretta Orientale</name></wpt>
  <wpt lat="46.418601" lon="11.832738"><ele>2630</ele><name>Ferrata Ombretta / 650</name></wpt>
  <wpt lat="46.41011" lon="11.823617"><ele>2683</ele><name>Passo Cirelle</name></wpt>
  <wpt lat="46.400647" lon="11.805735"><ele>2438</ele><name>P02 / Val di Tasca</name></wpt>
  <wpt lat="46.404239" lon="11.811376"><ele>2760</ele><name>Forcella Laghet</name></wpt>
  <wpt lat="46.403478" lon="11.780985"><ele>2660</ele><name>Bepi Zac</name></wpt>
  <wpt lat="46.397024" lon="11.762657"><ele>2528</ele><name>Passo delle Selle</name></wpt>
  <trk>
    <name>День 5 · Dal Bianco → Passo delle Selle</name>
    <trkseg>
      <trkpt lat="46.429115" lon="11.845366"><ele>2725.3</ele></trkpt>
      <trkpt lat="46.429084" lon="11.84532"><ele>2727.8</ele></trkpt>
      <trkpt lat="46.428918" lon="11.845298"><ele>2735</ele></trkpt>
      <trkpt lat="46.428853" lon="11.845259"><ele>2738.5</ele></trkpt>
      <trkpt lat="46.428649" lon="11.845001"><ele>2751</ele></trkpt>
      <trkpt lat="46.428451" lon="11.844922"><ele>2760.3</ele></trkpt>
      <trkpt lat="46.42833" lon="11.845168"><ele>2767</ele></trkpt>
      <trkpt lat="46.428252" lon="11.845175"><ele>2771.8</ele></trkpt>
      <trkpt lat="46.428153" lon="11.8451"><ele>2777</ele></trkpt>
      <trkpt lat="46.428132" lon="11.845198"><ele>2779</ele></trkpt>
      <trkpt lat="46.427985" lon="11.845183"><ele>2791.5</ele></trkpt>
      <trkpt lat="46.427875" lon="11.845524"><ele>2803.3</ele></trkpt>
      <trkpt lat="46.427751" lon="11.845514"><ele>2808</ele></trkpt>
      <trkpt lat="46.427704" lon="11.845404"><ele>2811</ele></trkpt>
      <trkpt lat="46.427484" lon="11.845136"><ele>2818.3</ele></trkpt>
      <trkpt lat="46.427176" lon="11.844804"><ele>2828</ele></trkpt>
      <trkpt lat="46.426684" lon="11.843779"><ele>2876.5</ele></trkpt>
      <trkpt lat="46.426536" lon="11.843643"><ele>2885.3</ele></trkpt>
      <trkpt lat="46.426513" lon="11.843605"><ele>2887.5</ele></trkpt>
      <trkpt lat="46.426486" lon="11.843535"><ele>2891.5</ele></trkpt>
      <trkpt lat="46.426541" lon="11.843393"><ele>2898.5</ele></trkpt>
      <trkpt lat="46.426544" lon="11.843321"><ele>2902.5</ele></trkpt>
      <trkpt lat="46.426425" lon="11.84325"><ele>2907</ele></trkpt>
      <trkpt lat="46.426323" lon="11.843258"><ele>2909</ele></trkpt>
      <trkpt lat="46.42632" lon="11.843282"><ele>2908</ele></trkpt>
      <trkpt lat="46.426261" lon="11.843283"><ele>2909.8</ele></trkpt>
      <trkpt lat="46.426168" lon="11.843219"><ele>2916.3</ele></trkpt>
      <trkpt lat="46.426162" lon="11.843144"><ele>2920.5</ele></trkpt>
      <trkpt lat="46.426106" lon="11.843124"><ele>2923.3</ele></trkpt>
      <trkpt lat="46.426017" lon="11.843039"><ele>2931</ele></trkpt>
      <trkpt lat="46.426061" lon="11.842912"><ele>2935.8</ele></trkpt>
      <trkpt lat="46.426054" lon="11.842858"><ele>2938.5</ele></trkpt>
      <trkpt lat="46.425966" lon="11.842826"><ele>2942.8</ele></trkpt>
      <trkpt lat="46.425947" lon="11.842798"><ele>2944.8</ele></trkpt>
      <trkpt lat="46.425885" lon="11.842764"><ele>2947.8</ele></trkpt>
      <trkpt lat="46.425869" lon="11.842665"><ele>2950.8</ele></trkpt>
      <trkpt lat="46.425867" lon="11.842599"><ele>2952.5</ele></trkpt>
      <trkpt lat="46.425837" lon="11.842575"><ele>2953.3</ele></trkpt>
      <trkpt lat="46.42549" lon="11.842783"><ele>2962.3</ele></trkpt>
      <trkpt lat="46.425442" lon="11.842725"><ele>2959.3</ele></trkpt>
      <trkpt lat="46.425344" lon="11.842851"><ele>2960.5</ele></trkpt>
      <trkpt lat="46.42529" lon="11.842959"><ele>2964</ele></trkpt>
      <trkpt lat="46.42523" lon="11.843529"><ele>2958.8</ele></trkpt>
      <trkpt lat="46.425108" lon="11.844116"><ele>2951.5</ele></trkpt>
      <trkpt lat="46.425085" lon="11.844459"><ele>2955.3</ele></trkpt>
      <trkpt lat="46.425137" lon="11.844919"><ele>2953.8</ele></trkpt>
      <trkpt lat="46.425103" lon="11.845064"><ele>2956</ele></trkpt>
      <trkpt lat="46.425089" lon="11.845162"><ele>2957.8</ele></trkpt>
      <trkpt lat="46.424982" lon="11.845287"><ele>2965.3</ele></trkpt>
      <trkpt lat="46.424883" lon="11.845458"><ele>2965.3</ele></trkpt>
      <trkpt lat="46.424782" lon="11.845703"><ele>2974.8</ele></trkpt>
      <trkpt lat="46.424579" lon="11.845938"><ele>2984.3</ele></trkpt>
      <trkpt lat="46.424581" lon="11.846125"><ele>2989.3</ele></trkpt>
      <trkpt lat="46.424469" lon="11.84629"><ele>3000</ele></trkpt>
      <trkpt lat="46.424338" lon="11.84646"><ele>2997.3</ele></trkpt>
      <trkpt lat="46.424469" lon="11.84629"><ele>3000</ele></trkpt>
      <trkpt lat="46.424581" lon="11.846125"><ele>2989.3</ele></trkpt>
      <trkpt lat="46.424579" lon="11.845938"><ele>2984.3</ele></trkpt>
      <trkpt lat="46.424782" lon="11.845703"><ele>2974.8</ele></trkpt>
      <trkpt lat="46.424883" lon="11.845458"><ele>2965.3</ele></trkpt>
      <trkpt lat="46.424982" lon="11.845287"><ele>2965.3</ele></trkpt>
      <trkpt lat="46.425089" lon="11.845162"><ele>2957.8</ele></trkpt>
      <trkpt lat="46.425103" lon="11.845064"><ele>2956</ele></trkpt>
      <trkpt lat="46.425137" lon="11.844919"><ele>2953.8</ele></trkpt>
      <trkpt lat="46.424923" lon="11.844805"><ele>2951</ele></trkpt>
      <trkpt lat="46.424704" lon="11.844629"><ele>2935.5</ele></trkpt>
      <trkpt lat="46.424615" lon="11.844397"><ele>2927.3</ele></trkpt>
      <trkpt lat="46.424544" lon="11.843863"><ele>2912.3</ele></trkpt>
      <trkpt lat="46.424466" lon="11.843257"><ele>2896</ele></trkpt>
      <trkpt lat="46.424371" lon="11.842986"><ele>2886.3</ele></trkpt>
      <trkpt lat="46.424301" lon="11.842395"><ele>2874.5</ele></trkpt>
      <trkpt lat="46.424271" lon="11.842339"><ele>2872.5</ele></trkpt>
      <trkpt lat="46.424275" lon="11.842248"><ele>2871.3</ele></trkpt>
      <trkpt lat="46.424295" lon="11.842181"><ele>2871.3</ele></trkpt>
      <trkpt lat="46.424284" lon="11.842025"><ele>2869.5</ele></trkpt>
      <trkpt lat="46.424247" lon="11.841891"><ele>2866.5</ele></trkpt>
      <trkpt lat="46.424181" lon="11.84177"><ele>2863.3</ele></trkpt>
      <trkpt lat="46.424168" lon="11.841693"><ele>2862.3</ele></trkpt>
      <trkpt lat="46.424061" lon="11.841453"><ele>2854</ele></trkpt>
      <trkpt lat="46.424011" lon="11.841423"><ele>2852.5</ele></trkpt>
      <trkpt lat="46.423905" lon="11.841381"><ele>2850</ele></trkpt>
      <trkpt lat="46.423854" lon="11.841238"><ele>2848.3</ele></trkpt>
      <trkpt lat="46.423659" lon="11.840982"><ele>2841.3</ele></trkpt>
      <trkpt lat="46.423509" lon="11.840919"><ele>2836.3</ele></trkpt>
      <trkpt lat="46.423417" lon="11.84074"><ele>2831.5</ele></trkpt>
      <trkpt lat="46.423423" lon="11.840484"><ele>2827.5</ele></trkpt>
      <trkpt lat="46.423369" lon="11.840242"><ele>2823.3</ele></trkpt>
      <trkpt lat="46.423422" lon="11.83983"><ele>2814</ele></trkpt>
      <trkpt lat="46.423375" lon="11.839557"><ele>2807.5</ele></trkpt>
      <trkpt lat="46.423259" lon="11.839224"><ele>2798.3</ele></trkpt>
      <trkpt lat="46.423241" lon="11.839029"><ele>2791</ele></trkpt>
      <trkpt lat="46.423265" lon="11.838962"><ele>2788.3</ele></trkpt>
      <trkpt lat="46.423249" lon="11.838823"><ele>2782.8</ele></trkpt>
      <trkpt lat="46.423175" lon="11.838632"><ele>2774.8</ele></trkpt>
      <trkpt lat="46.423125" lon="11.838533"><ele>2770.8</ele></trkpt>
      <trkpt lat="46.423112" lon="11.838418"><ele>2766</ele></trkpt>
      <trkpt lat="46.423191" lon="11.838179"><ele>2758</ele></trkpt>
      <trkpt lat="46.423214" lon="11.837869"><ele>2755.3</ele></trkpt>
      <trkpt lat="46.423163" lon="11.837507"><ele>2751.3</ele></trkpt>
      <trkpt lat="46.423181" lon="11.837303"><ele>2750.5</ele></trkpt>
      <trkpt lat="46.422976" lon="11.836848"><ele>2743</ele></trkpt>
      <trkpt lat="46.422814" lon="11.836419"><ele>2738.8</ele></trkpt>
      <trkpt lat="46.42267" lon="11.836253"><ele>2737</ele></trkpt>
      <trkpt lat="46.422575" lon="11.836176"><ele>2736</ele></trkpt>
      <trkpt lat="46.42249" lon="11.835966"><ele>2732.5</ele></trkpt>
      <trkpt lat="46.422489" lon="11.835864"><ele>2730.3</ele></trkpt>
      <trkpt lat="46.422431" lon="11.83583"><ele>2727.8</ele></trkpt>
      <trkpt lat="46.422461" lon="11.835719"><ele>2724</ele></trkpt>
      <trkpt lat="46.422327" lon="11.835606"><ele>2717.5</ele></trkpt>
      <trkpt lat="46.422222" lon="11.835548"><ele>2714.8</ele></trkpt>
      <trkpt lat="46.421996" lon="11.835627"><ele>2707.3</ele></trkpt>
      <trkpt lat="46.421876" lon="11.835492"><ele>2702</ele></trkpt>
      <trkpt lat="46.421731" lon="11.835305"><ele>2699.3</ele></trkpt>
      <trkpt lat="46.421475" lon="11.83518"><ele>2697</ele></trkpt>
      <trkpt lat="46.421357" lon="11.835149"><ele>2696.5</ele></trkpt>
      <trkpt lat="46.421131" lon="11.834902"><ele>2694.5</ele></trkpt>
      <trkpt lat="46.42091" lon="11.834534"><ele>2688.5</ele></trkpt>
      <trkpt lat="46.42081" lon="11.834516"><ele>2688.3</ele></trkpt>
      <trkpt lat="46.42044" lon="11.834269"><ele>2680.3</ele></trkpt>
      <trkpt lat="46.42035" lon="11.834107"><ele>2677</ele></trkpt>
      <trkpt lat="46.420133" lon="11.833869"><ele>2671</ele></trkpt>
      <trkpt lat="46.420103" lon="11.833762"><ele>2669.5</ele></trkpt>
      <trkpt lat="46.420073" lon="11.833692"><ele>2668.8</ele></trkpt>
      <trkpt lat="46.419914" lon="11.833562"><ele>2667</ele></trkpt>
      <trkpt lat="46.419795" lon="11.833573"><ele>2666.3</ele></trkpt>
      <trkpt lat="46.419665" lon="11.833462"><ele>2667.3</ele></trkpt>
      <trkpt lat="46.419556" lon="11.833209"><ele>2665.8</ele></trkpt>
      <trkpt lat="46.419493" lon="11.833179"><ele>2665</ele></trkpt>
      <trkpt lat="46.419408" lon="11.833171"><ele>2664.3</ele></trkpt>
      <trkpt lat="46.419283" lon="11.833122"><ele>2660.3</ele></trkpt>
      <trkpt lat="46.419214" lon="11.833129"><ele>2659.3</ele></trkpt>
      <trkpt lat="46.419178" lon="11.833112"><ele>2658</ele></trkpt>
      <trkpt lat="46.419155" lon="11.833089"><ele>2657</ele></trkpt>
      <trkpt lat="46.419111" lon="11.833026"><ele>2654.8</ele></trkpt>
      <trkpt lat="46.419136" lon="11.832896"><ele>2651.8</ele></trkpt>
      <trkpt lat="46.419184" lon="11.832883"><ele>2651.5</ele></trkpt>
      <trkpt lat="46.419177" lon="11.832682"><ele>2646</ele></trkpt>
      <trkpt lat="46.419134" lon="11.832426"><ele>2637.8</ele></trkpt>
      <trkpt lat="46.419126" lon="11.832329"><ele>2635.8</ele></trkpt>
      <trkpt lat="46.419081" lon="11.832239"><ele>2632.8</ele></trkpt>
      <trkpt lat="46.419011" lon="11.832226"><ele>2630.5</ele></trkpt>
      <trkpt lat="46.41897" lon="11.832266"><ele>2629.5</ele></trkpt>
      <trkpt lat="46.418917" lon="11.832265"><ele>2627.8</ele></trkpt>
      <trkpt lat="46.41886" lon="11.832336"><ele>2621</ele></trkpt>
      <trkpt lat="46.418817" lon="11.832371"><ele>2612.8</ele></trkpt>
      <trkpt lat="46.418779" lon="11.832384"><ele>2605.5</ele></trkpt>
      <trkpt lat="46.418691" lon="11.832503"><ele>2593</ele></trkpt>
      <trkpt lat="46.418601" lon="11.832738"><ele>2592.3</ele></trkpt>
      <trkpt lat="46.418557" lon="11.832803"><ele>2590.8</ele></trkpt>
      <trkpt lat="46.418426" lon="11.832949"><ele>2580.8</ele></trkpt>
      <trkpt lat="46.418433" lon="11.832978"><ele>2582.5</ele></trkpt>
      <trkpt lat="46.418395" lon="11.833001"><ele>2578.8</ele></trkpt>
      <trkpt lat="46.418379" lon="11.833037"><ele>2578</ele></trkpt>
      <trkpt lat="46.418318" lon="11.833025"><ele>2571.8</ele></trkpt>
      <trkpt lat="46.418285" lon="11.833061"><ele>2572.3</ele></trkpt>
      <trkpt lat="46.418188" lon="11.833047"><ele>2570</ele></trkpt>
      <trkpt lat="46.41815" lon="11.833076"><ele>2570.3</ele></trkpt>
      <trkpt lat="46.41794" lon="11.833024"><ele>2569</ele></trkpt>
      <trkpt lat="46.417923" lon="11.832965"><ele>2568.3</ele></trkpt>
      <trkpt lat="46.417851" lon="11.832896"><ele>2568.3</ele></trkpt>
      <trkpt lat="46.417799" lon="11.832874"><ele>2569</ele></trkpt>
      <trkpt lat="46.417735" lon="11.832726"><ele>2567</ele></trkpt>
      <trkpt lat="46.417549" lon="11.832463"><ele>2562.5</ele></trkpt>
      <trkpt lat="46.417455" lon="11.832448"><ele>2560.5</ele></trkpt>
      <trkpt lat="46.417423" lon="11.832355"><ele>2557.5</ele></trkpt>
      <trkpt lat="46.417378" lon="11.832308"><ele>2554.8</ele></trkpt>
      <trkpt lat="46.416962" lon="11.832313"><ele>2548.5</ele></trkpt>
      <trkpt lat="46.416876" lon="11.832222"><ele>2550</ele></trkpt>
      <trkpt lat="46.416877" lon="11.832105"><ele>2548.5</ele></trkpt>
      <trkpt lat="46.416846" lon="11.83188"><ele>2545</ele></trkpt>
      <trkpt lat="46.416867" lon="11.831716"><ele>2541</ele></trkpt>
      <trkpt lat="46.416831" lon="11.831495"><ele>2534.8</ele></trkpt>
      <trkpt lat="46.416807" lon="11.831456"><ele>2533.5</ele></trkpt>
      <trkpt lat="46.416732" lon="11.83142"><ele>2532.3</ele></trkpt>
      <trkpt lat="46.416629" lon="11.831318"><ele>2529.3</ele></trkpt>
      <trkpt lat="46.416246" lon="11.831181"><ele>2523.3</ele></trkpt>
      <trkpt lat="46.416078" lon="11.830919"><ele>2515.8</ele></trkpt>
      <trkpt lat="46.415998" lon="11.830219"><ele>2507</ele></trkpt>
      <trkpt lat="46.415991" lon="11.829577"><ele>2499</ele></trkpt>
      <trkpt lat="46.416027" lon="11.829476"><ele>2497.5</ele></trkpt>
      <trkpt lat="46.415981" lon="11.829377"><ele>2499</ele></trkpt>
      <trkpt lat="46.415935" lon="11.8293"><ele>2501</ele></trkpt>
      <trkpt lat="46.415818" lon="11.829161"><ele>2505.5</ele></trkpt>
      <trkpt lat="46.415668" lon="11.829329"><ele>2511.3</ele></trkpt>
      <trkpt lat="46.414718" lon="11.829198"><ele>2536.8</ele></trkpt>
      <trkpt lat="46.4146" lon="11.82914"><ele>2538</ele></trkpt>
      <trkpt lat="46.414472" lon="11.828959"><ele>2539</ele></trkpt>
      <trkpt lat="46.414129" lon="11.828968"><ele>2536</ele></trkpt>
      <trkpt lat="46.413902" lon="11.828818"><ele>2530</ele></trkpt>
      <trkpt lat="46.413632" lon="11.828617"><ele>2533.5</ele></trkpt>
      <trkpt lat="46.413447" lon="11.828494"><ele>2536.5</ele></trkpt>
      <trkpt lat="46.413144" lon="11.828354"><ele>2538.8</ele></trkpt>
      <trkpt lat="46.412944" lon="11.828333"><ele>2542.3</ele></trkpt>
      <trkpt lat="46.412803" lon="11.828172"><ele>2546.8</ele></trkpt>
      <trkpt lat="46.412511" lon="11.827914"><ele>2553.8</ele></trkpt>
      <trkpt lat="46.412465" lon="11.827842"><ele>2555.8</ele></trkpt>
      <trkpt lat="46.412354" lon="11.827713"><ele>2560.5</ele></trkpt>
      <trkpt lat="46.41221" lon="11.827576"><ele>2565.3</ele></trkpt>
      <trkpt lat="46.412082" lon="11.827394"><ele>2571</ele></trkpt>
      <trkpt lat="46.411932" lon="11.827134"><ele>2578</ele></trkpt>
      <trkpt lat="46.411823" lon="11.826817"><ele>2586.8</ele></trkpt>
      <trkpt lat="46.411699" lon="11.826501"><ele>2597.3</ele></trkpt>
      <trkpt lat="46.411564" lon="11.826179"><ele>2607.5</ele></trkpt>
      <trkpt lat="46.41142" lon="11.825975"><ele>2615.5</ele></trkpt>
      <trkpt lat="46.41122" lon="11.825927"><ele>2622</ele></trkpt>
      <trkpt lat="46.410995" lon="11.825841"><ele>2631.3</ele></trkpt>
      <trkpt lat="46.410976" lon="11.825865"><ele>2631.8</ele></trkpt>
      <trkpt lat="46.410872" lon="11.825844"><ele>2636.3</ele></trkpt>
      <trkpt lat="46.410841" lon="11.825858"><ele>2637.3</ele></trkpt>
      <trkpt lat="46.4108" lon="11.825821"><ele>2640</ele></trkpt>
      <trkpt lat="46.410789" lon="11.825653"><ele>2646.3</ele></trkpt>
      <trkpt lat="46.410734" lon="11.825599"><ele>2649.3</ele></trkpt>
      <trkpt lat="46.410648" lon="11.825363"><ele>2657</ele></trkpt>
      <trkpt lat="46.410561" lon="11.82526"><ele>2659.3</ele></trkpt>
      <trkpt lat="46.41055" lon="11.825142"><ele>2661.8</ele></trkpt>
      <trkpt lat="46.41051" lon="11.825067"><ele>2663.8</ele></trkpt>
      <trkpt lat="46.410432" lon="11.825075"><ele>2664</ele></trkpt>
      <trkpt lat="46.410374" lon="11.82513"><ele>2662.8</ele></trkpt>
      <trkpt lat="46.410251" lon="11.82511"><ele>2665</ele></trkpt>
      <trkpt lat="46.410205" lon="11.824953"><ele>2671.5</ele></trkpt>
      <trkpt lat="46.410128" lon="11.824641"><ele>2680.5</ele></trkpt>
      <trkpt lat="46.409988" lon="11.824351"><ele>2678.8</ele></trkpt>
      <trkpt lat="46.409941" lon="11.824185"><ele>2677.5</ele></trkpt>
      <trkpt lat="46.409957" lon="11.824076"><ele>2678</ele></trkpt>
      <trkpt lat="46.409926" lon="11.823998"><ele>2677.8</ele></trkpt>
      <trkpt lat="46.41" lon="11.823873"><ele>2679</ele></trkpt>
      <trkpt lat="46.410067" lon="11.823903"><ele>2682.3</ele></trkpt>
      <trkpt lat="46.410091" lon="11.823825"><ele>2684</ele></trkpt>
      <trkpt lat="46.410111" lon="11.823692"><ele>2685.5</ele></trkpt>
      <trkpt lat="46.41011" lon="11.823617"><ele>2686</ele></trkpt>
      <trkpt lat="46.410109" lon="11.823608"><ele>2686</ele></trkpt>
      <trkpt lat="46.410065" lon="11.823362"><ele>2684.8</ele></trkpt>
      <trkpt lat="46.409994" lon="11.823292"><ele>2681.5</ele></trkpt>
      <trkpt lat="46.409964" lon="11.82323"><ele>2680.3</ele></trkpt>
      <trkpt lat="46.409886" lon="11.823196"><ele>2678.3</ele></trkpt>
      <trkpt lat="46.40989" lon="11.823142"><ele>2676.3</ele></trkpt>
      <trkpt lat="46.40988" lon="11.823071"><ele>2673.5</ele></trkpt>
      <trkpt lat="46.409878" lon="11.823049"><ele>2672.5</ele></trkpt>
      <trkpt lat="46.409866" lon="11.823032"><ele>2671.5</ele></trkpt>
      <trkpt lat="46.409823" lon="11.823005"><ele>2668.3</ele></trkpt>
      <trkpt lat="46.409764" lon="11.822869"><ele>2660.5</ele></trkpt>
      <trkpt lat="46.409751" lon="11.822816"><ele>2658</ele></trkpt>
      <trkpt lat="46.409689" lon="11.822723"><ele>2652</ele></trkpt>
      <trkpt lat="46.409646" lon="11.822642"><ele>2647.8</ele></trkpt>
      <trkpt lat="46.409629" lon="11.822598"><ele>2645.5</ele></trkpt>
      <trkpt lat="46.409621" lon="11.822597"><ele>2645</ele></trkpt>
      <trkpt lat="46.409525" lon="11.822696"><ele>2641.5</ele></trkpt>
      <trkpt lat="46.409512" lon="11.822697"><ele>2640.8</ele></trkpt>
      <trkpt lat="46.409469" lon="11.822564"><ele>2634.3</ele></trkpt>
      <trkpt lat="46.409452" lon="11.822477"><ele>2631.3</ele></trkpt>
      <trkpt lat="46.409416" lon="11.822362"><ele>2628.5</ele></trkpt>
      <trkpt lat="46.409347" lon="11.822314"><ele>2623.8</ele></trkpt>
      <trkpt lat="46.409315" lon="11.822282"><ele>2621.5</ele></trkpt>
      <trkpt lat="46.409276" lon="11.822257"><ele>2618.8</ele></trkpt>
      <trkpt lat="46.409212" lon="11.822219"><ele>2614</ele></trkpt>
      <trkpt lat="46.409062" lon="11.822092"><ele>2604.3</ele></trkpt>
      <trkpt lat="46.408978" lon="11.82207"><ele>2598.5</ele></trkpt>
      <trkpt lat="46.408929" lon="11.822012"><ele>2595.5</ele></trkpt>
      <trkpt lat="46.408916" lon="11.82201"><ele>2594.5</ele></trkpt>
      <trkpt lat="46.408893" lon="11.821952"><ele>2593.3</ele></trkpt>
      <trkpt lat="46.408876" lon="11.821968"><ele>2592</ele></trkpt>
      <trkpt lat="46.408871" lon="11.822002"><ele>2591.5</ele></trkpt>
      <trkpt lat="46.408579" lon="11.821817"><ele>2573.8</ele></trkpt>
      <trkpt lat="46.408432" lon="11.821756"><ele>2565</ele></trkpt>
      <trkpt lat="46.408242" lon="11.82181"><ele>2553</ele></trkpt>
      <trkpt lat="46.408098" lon="11.821815"><ele>2545</ele></trkpt>
      <trkpt lat="46.407974" lon="11.821792"><ele>2538.3</ele></trkpt>
      <trkpt lat="46.407941" lon="11.821736"><ele>2537</ele></trkpt>
      <trkpt lat="46.407887" lon="11.82169"><ele>2534.3</ele></trkpt>
      <trkpt lat="46.407775" lon="11.821614"><ele>2527.8</ele></trkpt>
      <trkpt lat="46.407652" lon="11.821244"><ele>2518.3</ele></trkpt>
      <trkpt lat="46.40764" lon="11.821073"><ele>2515.3</ele></trkpt>
      <trkpt lat="46.407651" lon="11.820893"><ele>2512.5</ele></trkpt>
      <trkpt lat="46.407686" lon="11.820832"><ele>2513.5</ele></trkpt>
      <trkpt lat="46.407709" lon="11.820741"><ele>2512.8</ele></trkpt>
      <trkpt lat="46.407704" lon="11.820669"><ele>2510.3</ele></trkpt>
      <trkpt lat="46.40767" lon="11.820486"><ele>2504.8</ele></trkpt>
      <trkpt lat="46.407654" lon="11.820342"><ele>2503.3</ele></trkpt>
      <trkpt lat="46.407642" lon="11.820043"><ele>2504.3</ele></trkpt>
      <trkpt lat="46.407607" lon="11.819923"><ele>2504</ele></trkpt>
      <trkpt lat="46.407466" lon="11.819668"><ele>2499</ele></trkpt>
      <trkpt lat="46.407441" lon="11.819582"><ele>2498</ele></trkpt>
      <trkpt lat="46.4074" lon="11.819602"><ele>2494.8</ele></trkpt>
      <trkpt lat="46.407281" lon="11.819009"><ele>2487.5</ele></trkpt>
      <trkpt lat="46.407264" lon="11.818599"><ele>2484</ele></trkpt>
      <trkpt lat="46.407277" lon="11.818433"><ele>2483.3</ele></trkpt>
      <trkpt lat="46.407462" lon="11.818215"><ele>2492.8</ele></trkpt>
      <trkpt lat="46.407493" lon="11.817757"><ele>2500</ele></trkpt>
      <trkpt lat="46.407467" lon="11.817622"><ele>2501.3</ele></trkpt>
      <trkpt lat="46.407522" lon="11.817318"><ele>2509.5</ele></trkpt>
      <trkpt lat="46.407555" lon="11.817007"><ele>2515</ele></trkpt>
      <trkpt lat="46.407716" lon="11.816495"><ele>2525.5</ele></trkpt>
      <trkpt lat="46.407847" lon="11.816303"><ele>2531.3</ele></trkpt>
      <trkpt lat="46.407815" lon="11.816229"><ele>2529.3</ele></trkpt>
      <trkpt lat="46.407907" lon="11.815871"><ele>2533.5</ele></trkpt>
      <trkpt lat="46.40803" lon="11.815796"><ele>2538.5</ele></trkpt>
      <trkpt lat="46.40807" lon="11.815729"><ele>2539.8</ele></trkpt>
      <trkpt lat="46.40809" lon="11.815586"><ele>2539.5</ele></trkpt>
      <trkpt lat="46.408121" lon="11.815459"><ele>2541.8</ele></trkpt>
      <trkpt lat="46.408152" lon="11.815291"><ele>2543.8</ele></trkpt>
      <trkpt lat="46.408217" lon="11.815173"><ele>2547</ele></trkpt>
      <trkpt lat="46.408192" lon="11.814855"><ele>2550.8</ele></trkpt>
      <trkpt lat="46.408226" lon="11.814696"><ele>2553.8</ele></trkpt>
      <trkpt lat="46.408272" lon="11.814605"><ele>2555.3</ele></trkpt>
      <trkpt lat="46.408341" lon="11.814567"><ele>2556</ele></trkpt>
      <trkpt lat="46.408357" lon="11.814408"><ele>2559.5</ele></trkpt>
      <trkpt lat="46.408406" lon="11.814274"><ele>2563.5</ele></trkpt>
      <trkpt lat="46.408396" lon="11.814161"><ele>2564.5</ele></trkpt>
      <trkpt lat="46.408411" lon="11.814035"><ele>2567.8</ele></trkpt>
      <trkpt lat="46.408462" lon="11.813891"><ele>2572</ele></trkpt>
      <trkpt lat="46.408438" lon="11.813851"><ele>2572.5</ele></trkpt>
      <trkpt lat="46.408507" lon="11.813639"><ele>2578</ele></trkpt>
      <trkpt lat="46.408487" lon="11.813608"><ele>2578.5</ele></trkpt>
      <trkpt lat="46.408541" lon="11.813511"><ele>2580.8</ele></trkpt>
      <trkpt lat="46.408563" lon="11.813421"><ele>2582.5</ele></trkpt>
      <trkpt lat="46.408643" lon="11.813208"><ele>2589.3</ele></trkpt>
      <trkpt lat="46.408642" lon="11.813151"><ele>2590.8</ele></trkpt>
      <trkpt lat="46.408626" lon="11.813076"><ele>2592</ele></trkpt>
      <trkpt lat="46.408622" lon="11.812998"><ele>2594.3</ele></trkpt>
      <trkpt lat="46.408587" lon="11.812852"><ele>2599</ele></trkpt>
      <trkpt lat="46.408622" lon="11.812728"><ele>2603.3</ele></trkpt>
      <trkpt lat="46.408681" lon="11.8127"><ele>2606</ele></trkpt>
      <trkpt lat="46.408722" lon="11.812635"><ele>2609.3</ele></trkpt>
      <trkpt lat="46.408788" lon="11.812463"><ele>2615.3</ele></trkpt>
      <trkpt lat="46.408773" lon="11.812389"><ele>2616.8</ele></trkpt>
      <trkpt lat="46.40879" lon="11.81229"><ele>2618.8</ele></trkpt>
      <trkpt lat="46.408792" lon="11.812224"><ele>2620.3</ele></trkpt>
      <trkpt lat="46.408832" lon="11.812129"><ele>2623.5</ele></trkpt>
      <trkpt lat="46.40876" lon="11.812098"><ele>2625.8</ele></trkpt>
      <trkpt lat="46.408678" lon="11.812113"><ele>2626.5</ele></trkpt>
      <trkpt lat="46.40859" lon="11.812166"><ele>2625.8</ele></trkpt>
      <trkpt lat="46.408542" lon="11.812166"><ele>2627.3</ele></trkpt>
      <trkpt lat="46.408517" lon="11.812107"><ele>2630.5</ele></trkpt>
      <trkpt lat="46.40854" lon="11.812042"><ele>2632.8</ele></trkpt>
      <trkpt lat="46.408618" lon="11.811925"><ele>2635.8</ele></trkpt>
      <trkpt lat="46.408558" lon="11.811896"><ele>2638.8</ele></trkpt>
      <trkpt lat="46.408449" lon="11.811887"><ele>2642.8</ele></trkpt>
      <trkpt lat="46.408368" lon="11.811961"><ele>2642</ele></trkpt>
      <trkpt lat="46.408273" lon="11.811974"><ele>2644.8</ele></trkpt>
      <trkpt lat="46.408177" lon="11.812005"><ele>2646.8</ele></trkpt>
      <trkpt lat="46.408116" lon="11.812047"><ele>2647.5</ele></trkpt>
      <trkpt lat="46.408031" lon="11.81212"><ele>2648</ele></trkpt>
      <trkpt lat="46.407947" lon="11.812135"><ele>2651</ele></trkpt>
      <trkpt lat="46.407886" lon="11.812202"><ele>2650.5</ele></trkpt>
      <trkpt lat="46.40781" lon="11.812259"><ele>2651</ele></trkpt>
      <trkpt lat="46.407683" lon="11.812294"><ele>2654.3</ele></trkpt>
      <trkpt lat="46.407607" lon="11.812334"><ele>2655.5</ele></trkpt>
      <trkpt lat="46.407559" lon="11.812383"><ele>2655.8</ele></trkpt>
      <trkpt lat="46.407503" lon="11.812363"><ele>2658.8</ele></trkpt>
      <trkpt lat="46.407449" lon="11.812394"><ele>2661.3</ele></trkpt>
      <trkpt lat="46.407337" lon="11.812427"><ele>2667.8</ele></trkpt>
      <trkpt lat="46.407184" lon="11.812544"><ele>2672.3</ele></trkpt>
      <trkpt lat="46.407164" lon="11.812515"><ele>2674.5</ele></trkpt>
      <trkpt lat="46.407074" lon="11.812524"><ele>2677.8</ele></trkpt>
      <trkpt lat="46.407016" lon="11.812427"><ele>2683.8</ele></trkpt>
      <trkpt lat="46.406978" lon="11.812416"><ele>2685.8</ele></trkpt>
      <trkpt lat="46.406905" lon="11.812458"><ele>2687.3</ele></trkpt>
      <trkpt lat="46.40683" lon="11.81244"><ele>2691.3</ele></trkpt>
      <trkpt lat="46.406791" lon="11.812456"><ele>2692.5</ele></trkpt>
      <trkpt lat="46.406727" lon="11.812398"><ele>2697</ele></trkpt>
      <trkpt lat="46.406623" lon="11.812429"><ele>2699.8</ele></trkpt>
      <trkpt lat="46.406565" lon="11.812434"><ele>2701</ele></trkpt>
      <trkpt lat="46.406534" lon="11.812491"><ele>2700.5</ele></trkpt>
      <trkpt lat="46.406513" lon="11.812507"><ele>2700.5</ele></trkpt>
      <trkpt lat="46.40644" lon="11.812425"><ele>2704</ele></trkpt>
      <trkpt lat="46.406346" lon="11.812297"><ele>2709.5</ele></trkpt>
      <trkpt lat="46.406291" lon="11.812288"><ele>2712</ele></trkpt>
      <trkpt lat="46.406234" lon="11.812217"><ele>2715.3</ele></trkpt>
      <trkpt lat="46.406173" lon="11.812098"><ele>2720</ele></trkpt>
      <trkpt lat="46.406093" lon="11.812022"><ele>2724.5</ele></trkpt>
      <trkpt lat="46.406012" lon="11.812025"><ele>2728.5</ele></trkpt>
      <trkpt lat="46.405957" lon="11.812014"><ele>2731.5</ele></trkpt>
      <trkpt lat="46.40591" lon="11.811952"><ele>2734.8</ele></trkpt>
      <trkpt lat="46.405832" lon="11.811892"><ele>2739</ele></trkpt>
      <trkpt lat="46.405722" lon="11.811949"><ele>2742.5</ele></trkpt>
      <trkpt lat="46.405682" lon="11.811958"><ele>2743.8</ele></trkpt>
      <trkpt lat="46.405638" lon="11.811919"><ele>2745</ele></trkpt>
      <trkpt lat="46.405563" lon="11.811901"><ele>2747.3</ele></trkpt>
      <trkpt lat="46.405493" lon="11.811927"><ele>2749</ele></trkpt>
      <trkpt lat="46.405417" lon="11.811903"><ele>2750.5</ele></trkpt>
      <trkpt lat="46.405317" lon="11.811916"><ele>2752.8</ele></trkpt>
      <trkpt lat="46.40524" lon="11.811885"><ele>2753.8</ele></trkpt>
      <trkpt lat="46.405149" lon="11.811799"><ele>2754.5</ele></trkpt>
      <trkpt lat="46.405078" lon="11.811764"><ele>2755.3</ele></trkpt>
      <trkpt lat="46.405" lon="11.811699"><ele>2756</ele></trkpt>
      <trkpt lat="46.404946" lon="11.811637"><ele>2756.8</ele></trkpt>
      <trkpt lat="46.404863" lon="11.811609"><ele>2758</ele></trkpt>
      <trkpt lat="46.404702" lon="11.811534"><ele>2760</ele></trkpt>
      <trkpt lat="46.404615" lon="11.811512"><ele>2760.8</ele></trkpt>
      <trkpt lat="46.404504" lon="11.811372"><ele>2760.8</ele></trkpt>
      <trkpt lat="46.404367" lon="11.811408"><ele>2760.8</ele></trkpt>
      <trkpt lat="46.404342" lon="11.811436"><ele>2761</ele></trkpt>
      <trkpt lat="46.404295" lon="11.811434"><ele>2760.8</ele></trkpt>
      <trkpt lat="46.40425" lon="11.811414"><ele>2760.3</ele></trkpt>
      <trkpt lat="46.404215" lon="11.811175"><ele>2760.8</ele></trkpt>
      <trkpt lat="46.404285" lon="11.811056"><ele>2763.3</ele></trkpt>
      <trkpt lat="46.404412" lon="11.810938"><ele>2768</ele></trkpt>
      <trkpt lat="46.404448" lon="11.810888"><ele>2770</ele></trkpt>
      <trkpt lat="46.404583" lon="11.810648"><ele>2785</ele></trkpt>
      <trkpt lat="46.404586" lon="11.810438"><ele>2798.5</ele></trkpt>
      <trkpt lat="46.404548" lon="11.810305"><ele>2803.5</ele></trkpt>
      <trkpt lat="46.404574" lon="11.81"><ele>2813</ele></trkpt>
      <trkpt lat="46.40458" lon="11.809798"><ele>2796</ele></trkpt>
      <trkpt lat="46.404625" lon="11.80973"><ele>2797.3</ele></trkpt>
      <trkpt lat="46.404601" lon="11.809601"><ele>2782.8</ele></trkpt>
      <trkpt lat="46.404574" lon="11.809348"><ele>2755.3</ele></trkpt>
      <trkpt lat="46.404617" lon="11.809021"><ele>2731.5</ele></trkpt>
      <trkpt lat="46.404153" lon="11.809253"><ele>2701.8</ele></trkpt>
      <trkpt lat="46.403527" lon="11.80886"><ele>2646.3</ele></trkpt>
      <trkpt lat="46.402861" lon="11.808079"><ele>2584</ele></trkpt>
      <trkpt lat="46.402484" lon="11.807751"><ele>2553.5</ele></trkpt>
      <trkpt lat="46.402135" lon="11.807395"><ele>2527.8</ele></trkpt>
      <trkpt lat="46.401334" lon="11.806452"><ele>2481</ele></trkpt>
      <trkpt lat="46.401021" lon="11.806053"><ele>2460.3</ele></trkpt>
      <trkpt lat="46.400647" lon="11.805735"><ele>2437.8</ele></trkpt>
      <trkpt lat="46.401021" lon="11.806053"><ele>2460.3</ele></trkpt>
      <trkpt lat="46.401334" lon="11.806452"><ele>2481</ele></trkpt>
      <trkpt lat="46.402135" lon="11.807395"><ele>2527.8</ele></trkpt>
      <trkpt lat="46.402484" lon="11.807751"><ele>2553.5</ele></trkpt>
      <trkpt lat="46.402861" lon="11.808079"><ele>2584</ele></trkpt>
      <trkpt lat="46.403527" lon="11.80886"><ele>2646.3</ele></trkpt>
      <trkpt lat="46.404153" lon="11.809253"><ele>2701.8</ele></trkpt>
      <trkpt lat="46.404617" lon="11.809021"><ele>2731.5</ele></trkpt>
      <trkpt lat="46.404574" lon="11.809348"><ele>2755.3</ele></trkpt>
      <trkpt lat="46.404601" lon="11.809601"><ele>2782.8</ele></trkpt>
      <trkpt lat="46.404625" lon="11.80973"><ele>2797.3</ele></trkpt>
      <trkpt lat="46.40458" lon="11.809798"><ele>2796</ele></trkpt>
      <trkpt lat="46.404574" lon="11.81"><ele>2813</ele></trkpt>
      <trkpt lat="46.404548" lon="11.810305"><ele>2803.5</ele></trkpt>
      <trkpt lat="46.404586" lon="11.810438"><ele>2798.5</ele></trkpt>
      <trkpt lat="46.404583" lon="11.810648"><ele>2785</ele></trkpt>
      <trkpt lat="46.404448" lon="11.810888"><ele>2770</ele></trkpt>
      <trkpt lat="46.404412" lon="11.810938"><ele>2768</ele></trkpt>
      <trkpt lat="46.404285" lon="11.811056"><ele>2763.3</ele></trkpt>
      <trkpt lat="46.404215" lon="11.811175"><ele>2760.8</ele></trkpt>
      <trkpt lat="46.404244" lon="11.811373"><ele>2760.3</ele></trkpt>
      <trkpt lat="46.404215" lon="11.811175"><ele>2760.8</ele></trkpt>
      <trkpt lat="46.404285" lon="11.811056"><ele>2763.3</ele></trkpt>
      <trkpt lat="46.404412" lon="11.810938"><ele>2768</ele></trkpt>
      <trkpt lat="46.404448" lon="11.810888"><ele>2770</ele></trkpt>
      <trkpt lat="46.404583" lon="11.810648"><ele>2785</ele></trkpt>
      <trkpt lat="46.404586" lon="11.810438"><ele>2798.5</ele></trkpt>
      <trkpt lat="46.404548" lon="11.810305"><ele>2803.5</ele></trkpt>
      <trkpt lat="46.404574" lon="11.81"><ele>2813</ele></trkpt>
      <trkpt lat="46.40458" lon="11.809798"><ele>2796</ele></trkpt>
      <trkpt lat="46.404625" lon="11.80973"><ele>2797.3</ele></trkpt>
      <trkpt lat="46.404601" lon="11.809601"><ele>2782.8</ele></trkpt>
      <trkpt lat="46.404574" lon="11.809348"><ele>2755.3</ele></trkpt>
      <trkpt lat="46.404617" lon="11.809021"><ele>2731.5</ele></trkpt>
      <trkpt lat="46.404818" lon="11.808673"><ele>2751.3</ele></trkpt>
      <trkpt lat="46.404761" lon="11.80814"><ele>2748.5</ele></trkpt>
      <trkpt lat="46.404383" lon="11.807713"><ele>2746.3</ele></trkpt>
      <trkpt lat="46.404433" lon="11.807397"><ele>2748.5</ele></trkpt>
      <trkpt lat="46.404792" lon="11.807056"><ele>2758.5</ele></trkpt>
      <trkpt lat="46.405036" lon="11.807136"><ele>2772.8</ele></trkpt>
      <trkpt lat="46.405293" lon="11.807221"><ele>2791.5</ele></trkpt>
      <trkpt lat="46.405551" lon="11.806849"><ele>2816.3</ele></trkpt>
      <trkpt lat="46.405674" lon="11.806526"><ele>2823.8</ele></trkpt>
      <trkpt lat="46.405872" lon="11.80636"><ele>2830.3</ele></trkpt>
      <trkpt lat="46.405885" lon="11.806183"><ele>2828.3</ele></trkpt>
      <trkpt lat="46.405672" lon="11.806072"><ele>2816</ele></trkpt>
      <trkpt lat="46.405618" lon="11.805883"><ele>2815.8</ele></trkpt>
      <trkpt lat="46.405683" lon="11.805794"><ele>2827.5</ele></trkpt>
      <trkpt lat="46.405561" lon="11.80519"><ele>2831.3</ele></trkpt>
      <trkpt lat="46.405355" lon="11.804549"><ele>2846</ele></trkpt>
      <trkpt lat="46.405165" lon="11.804236"><ele>2844.8</ele></trkpt>
      <trkpt lat="46.404988" lon="11.803895"><ele>2841.5</ele></trkpt>
      <trkpt lat="46.404698" lon="11.803603"><ele>2838.3</ele></trkpt>
      <trkpt lat="46.404362" lon="11.803444"><ele>2819.3</ele></trkpt>
      <trkpt lat="46.404355" lon="11.803024"><ele>2826</ele></trkpt>
      <trkpt lat="46.404313" lon="11.802645"><ele>2807.5</ele></trkpt>
      <trkpt lat="46.404346" lon="11.801998"><ele>2791.5</ele></trkpt>
      <trkpt lat="46.404353" lon="11.801645"><ele>2777.3</ele></trkpt>
      <trkpt lat="46.404181" lon="11.801191"><ele>2773.5</ele></trkpt>
      <trkpt lat="46.404113" lon="11.800738"><ele>2779.5</ele></trkpt>
      <trkpt lat="46.403934" lon="11.800312"><ele>2789.8</ele></trkpt>
      <trkpt lat="46.403876" lon="11.799951"><ele>2795.5</ele></trkpt>
      <trkpt lat="46.404041" lon="11.799737"><ele>2784.3</ele></trkpt>
      <trkpt lat="46.404043" lon="11.799636"><ele>2783</ele></trkpt>
      <trkpt lat="46.404215" lon="11.799378"><ele>2777.5</ele></trkpt>
      <trkpt lat="46.404329" lon="11.799269"><ele>2774.5</ele></trkpt>
      <trkpt lat="46.404355" lon="11.799094"><ele>2777</ele></trkpt>
      <trkpt lat="46.40458" lon="11.79888"><ele>2777</ele></trkpt>
      <trkpt lat="46.404683" lon="11.798624"><ele>2782.3</ele></trkpt>
      <trkpt lat="46.404712" lon="11.798469"><ele>2788.8</ele></trkpt>
      <trkpt lat="46.404766" lon="11.798321"><ele>2795.5</ele></trkpt>
      <trkpt lat="46.404867" lon="11.798262"><ele>2800.8</ele></trkpt>
      <trkpt lat="46.404964" lon="11.798042"><ele>2814</ele></trkpt>
      <trkpt lat="46.40525" lon="11.798062"><ele>2821.8</ele></trkpt>
      <trkpt lat="46.405346" lon="11.797822"><ele>2823.5</ele></trkpt>
      <trkpt lat="46.405457" lon="11.797691"><ele>2820</ele></trkpt>
      <trkpt lat="46.405563" lon="11.79776"><ele>2818.3</ele></trkpt>
      <trkpt lat="46.406051" lon="11.797581"><ele>2805</ele></trkpt>
      <trkpt lat="46.406215" lon="11.797683"><ele>2793</ele></trkpt>
      <trkpt lat="46.406284" lon="11.797509"><ele>2798.5</ele></trkpt>
      <trkpt lat="46.406445" lon="11.797474"><ele>2786.8</ele></trkpt>
      <trkpt lat="46.406477" lon="11.797262"><ele>2784.8</ele></trkpt>
      <trkpt lat="46.406614" lon="11.797144"><ele>2772.8</ele></trkpt>
      <trkpt lat="46.406602" lon="11.796929"><ele>2767</ele></trkpt>
      <trkpt lat="46.406322" lon="11.796663"><ele>2760.5</ele></trkpt>
      <trkpt lat="46.405892" lon="11.796299"><ele>2751</ele></trkpt>
      <trkpt lat="46.405865" lon="11.796089"><ele>2742.3</ele></trkpt>
      <trkpt lat="46.405776" lon="11.795851"><ele>2743</ele></trkpt>
      <trkpt lat="46.405763" lon="11.795564"><ele>2742.8</ele></trkpt>
      <trkpt lat="46.405655" lon="11.795379"><ele>2744</ele></trkpt>
      <trkpt lat="46.405638" lon="11.795149"><ele>2741.8</ele></trkpt>
      <trkpt lat="46.405334" lon="11.794704"><ele>2726.5</ele></trkpt>
      <trkpt lat="46.404947" lon="11.794351"><ele>2683.8</ele></trkpt>
      <trkpt lat="46.404761" lon="11.794112"><ele>2660.3</ele></trkpt>
      <trkpt lat="46.404883" lon="11.79362"><ele>2667.3</ele></trkpt>
      <trkpt lat="46.405363" lon="11.792829"><ele>2664.3</ele></trkpt>
      <trkpt lat="46.40529" lon="11.792373"><ele>2670</ele></trkpt>
      <trkpt lat="46.40508" lon="11.792101"><ele>2660</ele></trkpt>
      <trkpt lat="46.404989" lon="11.791906"><ele>2656</ele></trkpt>
      <trkpt lat="46.405126" lon="11.791391"><ele>2657</ele></trkpt>
      <trkpt lat="46.405048" lon="11.791163"><ele>2651</ele></trkpt>
      <trkpt lat="46.404926" lon="11.790946"><ele>2649.8</ele></trkpt>
      <trkpt lat="46.404868" lon="11.79071"><ele>2653.8</ele></trkpt>
      <trkpt lat="46.404752" lon="11.790567"><ele>2652.8</ele></trkpt>
      <trkpt lat="46.404758" lon="11.790399"><ele>2656.5</ele></trkpt>
      <trkpt lat="46.404732" lon="11.790175"><ele>2662.5</ele></trkpt>
      <trkpt lat="46.404694" lon="11.790055"><ele>2664.3</ele></trkpt>
      <trkpt lat="46.40464" lon="11.79"><ele>2662.5</ele></trkpt>
      <trkpt lat="46.404601" lon="11.789907"><ele>2663.3</ele></trkpt>
      <trkpt lat="46.404574" lon="11.789761"><ele>2667.3</ele></trkpt>
      <trkpt lat="46.40461" lon="11.789718"><ele>2669.5</ele></trkpt>
      <trkpt lat="46.404618" lon="11.789603"><ele>2667.5</ele></trkpt>
      <trkpt lat="46.404577" lon="11.789554"><ele>2667</ele></trkpt>
      <trkpt lat="46.404548" lon="11.789482"><ele>2667.3</ele></trkpt>
      <trkpt lat="46.404521" lon="11.789327"><ele>2670.5</ele></trkpt>
      <trkpt lat="46.404473" lon="11.789201"><ele>2676.8</ele></trkpt>
      <trkpt lat="46.404314" lon="11.788938"><ele>2680.5</ele></trkpt>
      <trkpt lat="46.40427" lon="11.788884"><ele>2680</ele></trkpt>
      <trkpt lat="46.404182" lon="11.78883"><ele>2678</ele></trkpt>
      <trkpt lat="46.404063" lon="11.788905"><ele>2669</ele></trkpt>
      <trkpt lat="46.404027" lon="11.788781"><ele>2681.3</ele></trkpt>
      <trkpt lat="46.404032" lon="11.788746"><ele>2685</ele></trkpt>
      <trkpt lat="46.403991" lon="11.788629"><ele>2698.5</ele></trkpt>
      <trkpt lat="46.403997" lon="11.788577"><ele>2701</ele></trkpt>
      <trkpt lat="46.403984" lon="11.788433"><ele>2703</ele></trkpt>
      <trkpt lat="46.404026" lon="11.788377"><ele>2701.3</ele></trkpt>
      <trkpt lat="46.403898" lon="11.788076"><ele>2698</ele></trkpt>
      <trkpt lat="46.403772" lon="11.788038"><ele>2709.3</ele></trkpt>
      <trkpt lat="46.40367" lon="11.787693"><ele>2698</ele></trkpt>
      <trkpt lat="46.403663" lon="11.787585"><ele>2700</ele></trkpt>
      <trkpt lat="46.403694" lon="11.78736"><ele>2700.5</ele></trkpt>
      <trkpt lat="46.40369" lon="11.787281"><ele>2701.5</ele></trkpt>
      <trkpt lat="46.403657" lon="11.787176"><ele>2702.5</ele></trkpt>
      <trkpt lat="46.403633" lon="11.787118"><ele>2702</ele></trkpt>
      <trkpt lat="46.403532" lon="11.786975"><ele>2699.8</ele></trkpt>
      <trkpt lat="46.403489" lon="11.786863"><ele>2699</ele></trkpt>
      <trkpt lat="46.403437" lon="11.786834"><ele>2699.8</ele></trkpt>
      <trkpt lat="46.403247" lon="11.786431"><ele>2697</ele></trkpt>
      <trkpt lat="46.40317" lon="11.786305"><ele>2698.3</ele></trkpt>
      <trkpt lat="46.403149" lon="11.786239"><ele>2698.3</ele></trkpt>
      <trkpt lat="46.403116" lon="11.785851"><ele>2697</ele></trkpt>
      <trkpt lat="46.403102" lon="11.785514"><ele>2697.8</ele></trkpt>
      <trkpt lat="46.403114" lon="11.785414"><ele>2697.8</ele></trkpt>
      <trkpt lat="46.403099" lon="11.785324"><ele>2698.3</ele></trkpt>
      <trkpt lat="46.403102" lon="11.785143"><ele>2699.8</ele></trkpt>
      <trkpt lat="46.403021" lon="11.784888"><ele>2700.3</ele></trkpt>
      <trkpt lat="46.403057" lon="11.784835"><ele>2702.8</ele></trkpt>
      <trkpt lat="46.40309" lon="11.784851"><ele>2702.8</ele></trkpt>
      <trkpt lat="46.403156" lon="11.784725"><ele>2705.3</ele></trkpt>
      <trkpt lat="46.403207" lon="11.784723"><ele>2706</ele></trkpt>
      <trkpt lat="46.403248" lon="11.78474"><ele>2706.3</ele></trkpt>
      <trkpt lat="46.403267" lon="11.784719"><ele>2707</ele></trkpt>
      <trkpt lat="46.403274" lon="11.784647"><ele>2708.3</ele></trkpt>
      <trkpt lat="46.403272" lon="11.784532"><ele>2710.3</ele></trkpt>
      <trkpt lat="46.403255" lon="11.784444"><ele>2711.3</ele></trkpt>
      <trkpt lat="46.403275" lon="11.78432"><ele>2714</ele></trkpt>
      <trkpt lat="46.40323" lon="11.784256"><ele>2713.8</ele></trkpt>
      <trkpt lat="46.403206" lon="11.784099"><ele>2714.5</ele></trkpt>
      <trkpt lat="46.403186" lon="11.784009"><ele>2714.5</ele></trkpt>
      <trkpt lat="46.403081" lon="11.783744"><ele>2716.8</ele></trkpt>
      <trkpt lat="46.40305" lon="11.783717"><ele>2716.3</ele></trkpt>
      <trkpt lat="46.403029" lon="11.783666"><ele>2714.5</ele></trkpt>
      <trkpt lat="46.403044" lon="11.783612"><ele>2715.3</ele></trkpt>
      <trkpt lat="46.402997" lon="11.783426"><ele>2708.5</ele></trkpt>
      <trkpt lat="46.402958" lon="11.783352"><ele>2704.8</ele></trkpt>
      <trkpt lat="46.402957" lon="11.783273"><ele>2704.3</ele></trkpt>
      <trkpt lat="46.402987" lon="11.782885"><ele>2706.3</ele></trkpt>
      <trkpt lat="46.40303" lon="11.782795"><ele>2707</ele></trkpt>
      <trkpt lat="46.403056" lon="11.782786"><ele>2706.8</ele></trkpt>
      <trkpt lat="46.403036" lon="11.782706"><ele>2706.8</ele></trkpt>
      <trkpt lat="46.403062" lon="11.782629"><ele>2707.3</ele></trkpt>
      <trkpt lat="46.403111" lon="11.782565"><ele>2706</ele></trkpt>
      <trkpt lat="46.403188" lon="11.782306"><ele>2704.8</ele></trkpt>
      <trkpt lat="46.403162" lon="11.782244"><ele>2706.3</ele></trkpt>
      <trkpt lat="46.403201" lon="11.782045"><ele>2703</ele></trkpt>
      <trkpt lat="46.403099" lon="11.781822"><ele>2704.5</ele></trkpt>
      <trkpt lat="46.403122" lon="11.7816"><ele>2714</ele></trkpt>
      <trkpt lat="46.40316" lon="11.781464"><ele>2721.8</ele></trkpt>
      <trkpt lat="46.403207" lon="11.781545"><ele>2718</ele></trkpt>
      <trkpt lat="46.403228" lon="11.781135"><ele>2717</ele></trkpt>
      <trkpt lat="46.403295" lon="11.781086"><ele>2717</ele></trkpt>
      <trkpt lat="46.403478" lon="11.780985"><ele>2716.5</ele></trkpt>
      <trkpt lat="46.403501" lon="11.780908"><ele>2716.5</ele></trkpt>
      <trkpt lat="46.403502" lon="11.780803"><ele>2715.3</ele></trkpt>
      <trkpt lat="46.40349" lon="11.780722"><ele>2717</ele></trkpt>
      <trkpt lat="46.403522" lon="11.780631"><ele>2720.8</ele></trkpt>
      <trkpt lat="46.403562" lon="11.780585"><ele>2723.8</ele></trkpt>
      <trkpt lat="46.403574" lon="11.780428"><ele>2731.3</ele></trkpt>
      <trkpt lat="46.403565" lon="11.780349"><ele>2734.8</ele></trkpt>
      <trkpt lat="46.403538" lon="11.780214"><ele>2737.5</ele></trkpt>
      <trkpt lat="46.403521" lon="11.780165"><ele>2737.5</ele></trkpt>
      <trkpt lat="46.403523" lon="11.780135"><ele>2738</ele></trkpt>
      <trkpt lat="46.403579" lon="11.780056"><ele>2743</ele></trkpt>
      <trkpt lat="46.403586" lon="11.78001"><ele>2744.3</ele></trkpt>
      <trkpt lat="46.403644" lon="11.779861"><ele>2742</ele></trkpt>
      <trkpt lat="46.403674" lon="11.779822"><ele>2741.3</ele></trkpt>
      <trkpt lat="46.40372" lon="11.779849"><ele>2740.3</ele></trkpt>
      <trkpt lat="46.403801" lon="11.779697"><ele>2744</ele></trkpt>
      <trkpt lat="46.403808" lon="11.779645"><ele>2744.5</ele></trkpt>
      <trkpt lat="46.403881" lon="11.779404"><ele>2750</ele></trkpt>
      <trkpt lat="46.403893" lon="11.779279"><ele>2748.8</ele></trkpt>
      <trkpt lat="46.403917" lon="11.779209"><ele>2746.5</ele></trkpt>
      <trkpt lat="46.403958" lon="11.779195"><ele>2743.8</ele></trkpt>
      <trkpt lat="46.403961" lon="11.77918"><ele>2743.3</ele></trkpt>
      <trkpt lat="46.403938" lon="11.779168"><ele>2744.8</ele></trkpt>
      <trkpt lat="46.403898" lon="11.779125"><ele>2746.8</ele></trkpt>
      <trkpt lat="46.403882" lon="11.779074"><ele>2746.3</ele></trkpt>
      <trkpt lat="46.403835" lon="11.77903"><ele>2743</ele></trkpt>
      <trkpt lat="46.403822" lon="11.778973"><ele>2741.5</ele></trkpt>
      <trkpt lat="46.40376" lon="11.778937"><ele>2738.3</ele></trkpt>
      <trkpt lat="46.403731" lon="11.77889"><ele>2736.5</ele></trkpt>
      <trkpt lat="46.403712" lon="11.778839"><ele>2735</ele></trkpt>
      <trkpt lat="46.403675" lon="11.778835"><ele>2733.3</ele></trkpt>
      <trkpt lat="46.403586" lon="11.778761"><ele>2728.8</ele></trkpt>
      <trkpt lat="46.40359" lon="11.778666"><ele>2728.8</ele></trkpt>
      <trkpt lat="46.40363" lon="11.778638"><ele>2730.5</ele></trkpt>
      <trkpt lat="46.403716" lon="11.778639"><ele>2732.5</ele></trkpt>
      <trkpt lat="46.403732" lon="11.778595"><ele>2731.5</ele></trkpt>
      <trkpt lat="46.403757" lon="11.778566"><ele>2730.5</ele></trkpt>
      <trkpt lat="46.403756" lon="11.778512"><ele>2727.3</ele></trkpt>
      <trkpt lat="46.403765" lon="11.778468"><ele>2725.3</ele></trkpt>
      <trkpt lat="46.403819" lon="11.778313"><ele>2720.5</ele></trkpt>
      <trkpt lat="46.403851" lon="11.778268"><ele>2721</ele></trkpt>
      <trkpt lat="46.403862" lon="11.778233"><ele>2720.8</ele></trkpt>
      <trkpt lat="46.403842" lon="11.778139"><ele>2717.5</ele></trkpt>
      <trkpt lat="46.403799" lon="11.778106"><ele>2715.3</ele></trkpt>
      <trkpt lat="46.403768" lon="11.778024"><ele>2712.5</ele></trkpt>
      <trkpt lat="46.403744" lon="11.777986"><ele>2711.3</ele></trkpt>
      <trkpt lat="46.403701" lon="11.77795"><ele>2710</ele></trkpt>
      <trkpt lat="46.403556" lon="11.777857"><ele>2707</ele></trkpt>
      <trkpt lat="46.40353" lon="11.777809"><ele>2706.5</ele></trkpt>
      <trkpt lat="46.403491" lon="11.777676"><ele>2704.5</ele></trkpt>
      <trkpt lat="46.403429" lon="11.777566"><ele>2703.5</ele></trkpt>
      <trkpt lat="46.403364" lon="11.777489"><ele>2704.3</ele></trkpt>
      <trkpt lat="46.403329" lon="11.777486"><ele>2704.3</ele></trkpt>
      <trkpt lat="46.403297" lon="11.777463"><ele>2702</ele></trkpt>
      <trkpt lat="46.403253" lon="11.77736"><ele>2698.8</ele></trkpt>
      <trkpt lat="46.403248" lon="11.777328"><ele>2698.3</ele></trkpt>
      <trkpt lat="46.403232" lon="11.777302"><ele>2697.5</ele></trkpt>
      <trkpt lat="46.403208" lon="11.777227"><ele>2696.8</ele></trkpt>
      <trkpt lat="46.403131" lon="11.777143"><ele>2693.8</ele></trkpt>
      <trkpt lat="46.403038" lon="11.777009"><ele>2690.8</ele></trkpt>
      <trkpt lat="46.403029" lon="11.776951"><ele>2690.5</ele></trkpt>
      <trkpt lat="46.402998" lon="11.776954"><ele>2688.8</ele></trkpt>
      <trkpt lat="46.402987" lon="11.776925"><ele>2687.8</ele></trkpt>
      <trkpt lat="46.402929" lon="11.776901"><ele>2684.5</ele></trkpt>
      <trkpt lat="46.402891" lon="11.776823"><ele>2682.3</ele></trkpt>
      <trkpt lat="46.402897" lon="11.776738"><ele>2682</ele></trkpt>
      <trkpt lat="46.402892" lon="11.776671"><ele>2681.3</ele></trkpt>
      <trkpt lat="46.402845" lon="11.7766"><ele>2679.3</ele></trkpt>
      <trkpt lat="46.402754" lon="11.776555"><ele>2676.8</ele></trkpt>
      <trkpt lat="46.402726" lon="11.776512"><ele>2675.5</ele></trkpt>
      <trkpt lat="46.402721" lon="11.77641"><ele>2674.8</ele></trkpt>
      <trkpt lat="46.402703" lon="11.776354"><ele>2674</ele></trkpt>
      <trkpt lat="46.402634" lon="11.776255"><ele>2672.5</ele></trkpt>
      <trkpt lat="46.402604" lon="11.776197"><ele>2672.3</ele></trkpt>
      <trkpt lat="46.402531" lon="11.776099"><ele>2672</ele></trkpt>
      <trkpt lat="46.402488" lon="11.776058"><ele>2671.5</ele></trkpt>
      <trkpt lat="46.402439" lon="11.775985"><ele>2671</ele></trkpt>
      <trkpt lat="46.402424" lon="11.775973"><ele>2671</ele></trkpt>
      <trkpt lat="46.402402" lon="11.775913"><ele>2671.5</ele></trkpt>
      <trkpt lat="46.402381" lon="11.775892"><ele>2671.8</ele></trkpt>
      <trkpt lat="46.402353" lon="11.775782"><ele>2673.5</ele></trkpt>
      <trkpt lat="46.402294" lon="11.775734"><ele>2674.8</ele></trkpt>
      <trkpt lat="46.402269" lon="11.775693"><ele>2675.8</ele></trkpt>
      <trkpt lat="46.402193" lon="11.775655"><ele>2677.5</ele></trkpt>
      <trkpt lat="46.402173" lon="11.775637"><ele>2678</ele></trkpt>
      <trkpt lat="46.402157" lon="11.775539"><ele>2680.5</ele></trkpt>
      <trkpt lat="46.402145" lon="11.775506"><ele>2681.5</ele></trkpt>
      <trkpt lat="46.40209" lon="11.775498"><ele>2683</ele></trkpt>
      <trkpt lat="46.402107" lon="11.775423"><ele>2684.3</ele></trkpt>
      <trkpt lat="46.402094" lon="11.775402"><ele>2685.3</ele></trkpt>
      <trkpt lat="46.402044" lon="11.775409"><ele>2686.5</ele></trkpt>
      <trkpt lat="46.402025" lon="11.775381"><ele>2687.5</ele></trkpt>
      <trkpt lat="46.402026" lon="11.775332"><ele>2688.8</ele></trkpt>
      <trkpt lat="46.402013" lon="11.775291"><ele>2690.3</ele></trkpt>
      <trkpt lat="46.401977" lon="11.775275"><ele>2691.8</ele></trkpt>
      <trkpt lat="46.401949" lon="11.775288"><ele>2692.5</ele></trkpt>
      <trkpt lat="46.401937" lon="11.775279"><ele>2692.5</ele></trkpt>
      <trkpt lat="46.401942" lon="11.775232"><ele>2693.5</ele></trkpt>
      <trkpt lat="46.401927" lon="11.775144"><ele>2695</ele></trkpt>
      <trkpt lat="46.401818" lon="11.775102"><ele>2693.8</ele></trkpt>
      <trkpt lat="46.401805" lon="11.775066"><ele>2694.8</ele></trkpt>
      <trkpt lat="46.401833" lon="11.774998"><ele>2697</ele></trkpt>
      <trkpt lat="46.401807" lon="11.774937"><ele>2698.8</ele></trkpt>
      <trkpt lat="46.401772" lon="11.774904"><ele>2699.8</ele></trkpt>
      <trkpt lat="46.401777" lon="11.774809"><ele>2702.8</ele></trkpt>
      <trkpt lat="46.401733" lon="11.77476"><ele>2705</ele></trkpt>
      <trkpt lat="46.401747" lon="11.774728"><ele>2706</ele></trkpt>
      <trkpt lat="46.401733" lon="11.77469"><ele>2707</ele></trkpt>
      <trkpt lat="46.401711" lon="11.774662"><ele>2708.3</ele></trkpt>
      <trkpt lat="46.401687" lon="11.774658"><ele>2708.8</ele></trkpt>
      <trkpt lat="46.401646" lon="11.774631"><ele>2709.8</ele></trkpt>
      <trkpt lat="46.401587" lon="11.774611"><ele>2710.5</ele></trkpt>
      <trkpt lat="46.401566" lon="11.774592"><ele>2711</ele></trkpt>
      <trkpt lat="46.401529" lon="11.774523"><ele>2714</ele></trkpt>
      <trkpt lat="46.401493" lon="11.7745"><ele>2715.8</ele></trkpt>
      <trkpt lat="46.401464" lon="11.774503"><ele>2716</ele></trkpt>
      <trkpt lat="46.401435" lon="11.774494"><ele>2717</ele></trkpt>
      <trkpt lat="46.401406" lon="11.774404"><ele>2721.3</ele></trkpt>
      <trkpt lat="46.401337" lon="11.774402"><ele>2721.5</ele></trkpt>
      <trkpt lat="46.401299" lon="11.774362"><ele>2722.8</ele></trkpt>
      <trkpt lat="46.401281" lon="11.774354"><ele>2723</ele></trkpt>
      <trkpt lat="46.401274" lon="11.774309"><ele>2724.5</ele></trkpt>
      <trkpt lat="46.401298" lon="11.774225"><ele>2726.8</ele></trkpt>
      <trkpt lat="46.401297" lon="11.774188"><ele>2728</ele></trkpt>
      <trkpt lat="46.401281" lon="11.774168"><ele>2728.8</ele></trkpt>
      <trkpt lat="46.401258" lon="11.774169"><ele>2729.3</ele></trkpt>
      <trkpt lat="46.401236" lon="11.774144"><ele>2729.8</ele></trkpt>
      <trkpt lat="46.401238" lon="11.774115"><ele>2729.8</ele></trkpt>
      <trkpt lat="46.401256" lon="11.774078"><ele>2729.8</ele></trkpt>
      <trkpt lat="46.401247" lon="11.774041"><ele>2730</ele></trkpt>
      <trkpt lat="46.401214" lon="11.774029"><ele>2730.5</ele></trkpt>
      <trkpt lat="46.401197" lon="11.774005"><ele>2730.8</ele></trkpt>
      <trkpt lat="46.401255" lon="11.77391"><ele>2730.8</ele></trkpt>
      <trkpt lat="46.40131" lon="11.773754"><ele>2729.5</ele></trkpt>
      <trkpt lat="46.4013" lon="11.773725"><ele>2728.8</ele></trkpt>
      <trkpt lat="46.401273" lon="11.773727"><ele>2728</ele></trkpt>
      <trkpt lat="46.401169" lon="11.773774"><ele>2726.8</ele></trkpt>
      <trkpt lat="46.401128" lon="11.773762"><ele>2725.3</ele></trkpt>
      <trkpt lat="46.401115" lon="11.77373"><ele>2723.5</ele></trkpt>
      <trkpt lat="46.401128" lon="11.773681"><ele>2721.8</ele></trkpt>
      <trkpt lat="46.40115" lon="11.773658"><ele>2721.8</ele></trkpt>
      <trkpt lat="46.401161" lon="11.773628"><ele>2721</ele></trkpt>
      <trkpt lat="46.401161" lon="11.773275"><ele>2701.3</ele></trkpt>
      <trkpt lat="46.401188" lon="11.773223"><ele>2699.5</ele></trkpt>
      <trkpt lat="46.401183" lon="11.773169"><ele>2697</ele></trkpt>
      <trkpt lat="46.401187" lon="11.773121"><ele>2695</ele></trkpt>
      <trkpt lat="46.401119" lon="11.772976"><ele>2690</ele></trkpt>
      <trkpt lat="46.401112" lon="11.772878"><ele>2685.5</ele></trkpt>
      <trkpt lat="46.401121" lon="11.772804"><ele>2681.5</ele></trkpt>
      <trkpt lat="46.401096" lon="11.772739"><ele>2679.5</ele></trkpt>
      <trkpt lat="46.4011" lon="11.77265"><ele>2677</ele></trkpt>
      <trkpt lat="46.401087" lon="11.772553"><ele>2674.5</ele></trkpt>
      <trkpt lat="46.401099" lon="11.772468"><ele>2672</ele></trkpt>
      <trkpt lat="46.401131" lon="11.772494"><ele>2671</ele></trkpt>
      <trkpt lat="46.401155" lon="11.772435"><ele>2667.3</ele></trkpt>
      <trkpt lat="46.401116" lon="11.772339"><ele>2667.8</ele></trkpt>
      <trkpt lat="46.401112" lon="11.772258"><ele>2665.8</ele></trkpt>
      <trkpt lat="46.401151" lon="11.772185"><ele>2661</ele></trkpt>
      <trkpt lat="46.401155" lon="11.772075"><ele>2659.3</ele></trkpt>
      <trkpt lat="46.401146" lon="11.772028"><ele>2659.3</ele></trkpt>
      <trkpt lat="46.401144" lon="11.771826"><ele>2660</ele></trkpt>
      <trkpt lat="46.401178" lon="11.771553"><ele>2657.8</ele></trkpt>
      <trkpt lat="46.401202" lon="11.771519"><ele>2656.3</ele></trkpt>
      <trkpt lat="46.401254" lon="11.771494"><ele>2654.5</ele></trkpt>
      <trkpt lat="46.401264" lon="11.771463"><ele>2654.3</ele></trkpt>
      <trkpt lat="46.401331" lon="11.771368"><ele>2654.8</ele></trkpt>
      <trkpt lat="46.401352" lon="11.771326"><ele>2654.8</ele></trkpt>
      <trkpt lat="46.401346" lon="11.771266"><ele>2654.8</ele></trkpt>
      <trkpt lat="46.40133" lon="11.771226"><ele>2654.5</ele></trkpt>
      <trkpt lat="46.401317" lon="11.771082"><ele>2654</ele></trkpt>
      <trkpt lat="46.401318" lon="11.770933"><ele>2655.3</ele></trkpt>
      <trkpt lat="46.401332" lon="11.770814"><ele>2657</ele></trkpt>
      <trkpt lat="46.40133" lon="11.770772"><ele>2658.5</ele></trkpt>
      <trkpt lat="46.401361" lon="11.770692"><ele>2662</ele></trkpt>
      <trkpt lat="46.401371" lon="11.770587"><ele>2666.3</ele></trkpt>
      <trkpt lat="46.40136" lon="11.770247"><ele>2668.5</ele></trkpt>
      <trkpt lat="46.401414" lon="11.770145"><ele>2668.3</ele></trkpt>
      <trkpt lat="46.401467" lon="11.770017"><ele>2662.5</ele></trkpt>
      <trkpt lat="46.40146" lon="11.769949"><ele>2664.5</ele></trkpt>
      <trkpt lat="46.401437" lon="11.769886"><ele>2668.8</ele></trkpt>
      <trkpt lat="46.401444" lon="11.769769"><ele>2667.8</ele></trkpt>
      <trkpt lat="46.401477" lon="11.769674"><ele>2665.8</ele></trkpt>
      <trkpt lat="46.401491" lon="11.769466"><ele>2672.8</ele></trkpt>
      <trkpt lat="46.401452" lon="11.769278"><ele>2677.3</ele></trkpt>
      <trkpt lat="46.401463" lon="11.769222"><ele>2677</ele></trkpt>
      <trkpt lat="46.401488" lon="11.769158"><ele>2677.3</ele></trkpt>
      <trkpt lat="46.401523" lon="11.768985"><ele>2680.5</ele></trkpt>
      <trkpt lat="46.401558" lon="11.76894"><ele>2681.5</ele></trkpt>
      <trkpt lat="46.401585" lon="11.76893"><ele>2681.8</ele></trkpt>
      <trkpt lat="46.40162" lon="11.768881"><ele>2683</ele></trkpt>
      <trkpt lat="46.401626" lon="11.768739"><ele>2687</ele></trkpt>
      <trkpt lat="46.401632" lon="11.768652"><ele>2689.8</ele></trkpt>
      <trkpt lat="46.401593" lon="11.768513"><ele>2694.3</ele></trkpt>
      <trkpt lat="46.401529" lon="11.768411"><ele>2694.3</ele></trkpt>
      <trkpt lat="46.401429" lon="11.768183"><ele>2695.5</ele></trkpt>
      <trkpt lat="46.40142" lon="11.768113"><ele>2697.5</ele></trkpt>
      <trkpt lat="46.401436" lon="11.768106"><ele>2698.8</ele></trkpt>
      <trkpt lat="46.401453" lon="11.768078"><ele>2700.8</ele></trkpt>
      <trkpt lat="46.401423" lon="11.767988"><ele>2699.3</ele></trkpt>
      <trkpt lat="46.401439" lon="11.767969"><ele>2700</ele></trkpt>
      <trkpt lat="46.40138" lon="11.767834"><ele>2696.8</ele></trkpt>
      <trkpt lat="46.401332" lon="11.767799"><ele>2695.8</ele></trkpt>
      <trkpt lat="46.401283" lon="11.767684"><ele>2693.8</ele></trkpt>
      <trkpt lat="46.401218" lon="11.767585"><ele>2695</ele></trkpt>
      <trkpt lat="46.401198" lon="11.767522"><ele>2696.5</ele></trkpt>
      <trkpt lat="46.401104" lon="11.767454"><ele>2699.3</ele></trkpt>
      <trkpt lat="46.401038" lon="11.767346"><ele>2691.3</ele></trkpt>
      <trkpt lat="46.401024" lon="11.767311"><ele>2689.5</ele></trkpt>
      <trkpt lat="46.400983" lon="11.767272"><ele>2688.3</ele></trkpt>
      <trkpt lat="46.400939" lon="11.76726"><ele>2688.5</ele></trkpt>
      <trkpt lat="46.40086" lon="11.767209"><ele>2689.5</ele></trkpt>
      <trkpt lat="46.400792" lon="11.767023"><ele>2681.5</ele></trkpt>
      <trkpt lat="46.400775" lon="11.766907"><ele>2677.3</ele></trkpt>
      <trkpt lat="46.400725" lon="11.766836"><ele>2673.3</ele></trkpt>
      <trkpt lat="46.40068" lon="11.766813"><ele>2673.5</ele></trkpt>
      <trkpt lat="46.400652" lon="11.766821"><ele>2674.3</ele></trkpt>
      <trkpt lat="46.400642" lon="11.766848"><ele>2675</ele></trkpt>
      <trkpt lat="46.400622" lon="11.766868"><ele>2675.8</ele></trkpt>
      <trkpt lat="46.40057" lon="11.766867"><ele>2676.3</ele></trkpt>
      <trkpt lat="46.40055" lon="11.766848"><ele>2675.8</ele></trkpt>
      <trkpt lat="46.400544" lon="11.766824"><ele>2675.3</ele></trkpt>
      <trkpt lat="46.400519" lon="11.766792"><ele>2674</ele></trkpt>
      <trkpt lat="46.400458" lon="11.766756"><ele>2671.5</ele></trkpt>
      <trkpt lat="46.400448" lon="11.76671"><ele>2671.8</ele></trkpt>
      <trkpt lat="46.40041" lon="11.766674"><ele>2671.5</ele></trkpt>
      <trkpt lat="46.400402" lon="11.766561"><ele>2667.8</ele></trkpt>
      <trkpt lat="46.400385" lon="11.766514"><ele>2666</ele></trkpt>
      <trkpt lat="46.400344" lon="11.766443"><ele>2663.5</ele></trkpt>
      <trkpt lat="46.400273" lon="11.766386"><ele>2661.5</ele></trkpt>
      <trkpt lat="46.400268" lon="11.766346"><ele>2659.3</ele></trkpt>
      <trkpt lat="46.400268" lon="11.766304"><ele>2657.3</ele></trkpt>
      <trkpt lat="46.400255" lon="11.766281"><ele>2655.8</ele></trkpt>
      <trkpt lat="46.400245" lon="11.766237"><ele>2653.5</ele></trkpt>
      <trkpt lat="46.400242" lon="11.766186"><ele>2651</ele></trkpt>
      <trkpt lat="46.400199" lon="11.766077"><ele>2646.8</ele></trkpt>
      <trkpt lat="46.400175" lon="11.765989"><ele>2645</ele></trkpt>
      <trkpt lat="46.400157" lon="11.765848"><ele>2642.5</ele></trkpt>
      <trkpt lat="46.400171" lon="11.765568"><ele>2644.5</ele></trkpt>
      <trkpt lat="46.400186" lon="11.765511"><ele>2646</ele></trkpt>
      <trkpt lat="46.400193" lon="11.765421"><ele>2648.8</ele></trkpt>
      <trkpt lat="46.400187" lon="11.765397"><ele>2649.3</ele></trkpt>
      <trkpt lat="46.400152" lon="11.765397"><ele>2649</ele></trkpt>
      <trkpt lat="46.400165" lon="11.765352"><ele>2650.5</ele></trkpt>
      <trkpt lat="46.400172" lon="11.765295"><ele>2652.3</ele></trkpt>
      <trkpt lat="46.400155" lon="11.765248"><ele>2653.3</ele></trkpt>
      <trkpt lat="46.400159" lon="11.765062"><ele>2658.5</ele></trkpt>
      <trkpt lat="46.400148" lon="11.764961"><ele>2661</ele></trkpt>
      <trkpt lat="46.400109" lon="11.764894"><ele>2661.8</ele></trkpt>
      <trkpt lat="46.400128" lon="11.764842"><ele>2663.5</ele></trkpt>
      <trkpt lat="46.400179" lon="11.76477"><ele>2667</ele></trkpt>
      <trkpt lat="46.400204" lon="11.76456"><ele>2674</ele></trkpt>
      <trkpt lat="46.400205" lon="11.764489"><ele>2676.3</ele></trkpt>
      <trkpt lat="46.400182" lon="11.764346"><ele>2679.5</ele></trkpt>
      <trkpt lat="46.400142" lon="11.764243"><ele>2682.3</ele></trkpt>
      <trkpt lat="46.400149" lon="11.764194"><ele>2684</ele></trkpt>
      <trkpt lat="46.400191" lon="11.764021"><ele>2684.8</ele></trkpt>
      <trkpt lat="46.40019" lon="11.763976"><ele>2685</ele></trkpt>
      <trkpt lat="46.400162" lon="11.763946"><ele>2685.3</ele></trkpt>
      <trkpt lat="46.400118" lon="11.763958"><ele>2685.3</ele></trkpt>
      <trkpt lat="46.400059" lon="11.763957"><ele>2685.5</ele></trkpt>
      <trkpt lat="46.400042" lon="11.763923"><ele>2685.8</ele></trkpt>
      <trkpt lat="46.400013" lon="11.763897"><ele>2685.8</ele></trkpt>
      <trkpt lat="46.399978" lon="11.763884"><ele>2684</ele></trkpt>
      <trkpt lat="46.399896" lon="11.763819"><ele>2676.8</ele></trkpt>
      <trkpt lat="46.399867" lon="11.763742"><ele>2674.8</ele></trkpt>
      <trkpt lat="46.399832" lon="11.763521"><ele>2674.3</ele></trkpt>
      <trkpt lat="46.399785" lon="11.763309"><ele>2676.3</ele></trkpt>
      <trkpt lat="46.399729" lon="11.763269"><ele>2679.3</ele></trkpt>
      <trkpt lat="46.399666" lon="11.763293"><ele>2678</ele></trkpt>
      <trkpt lat="46.399594" lon="11.763246"><ele>2673.8</ele></trkpt>
      <trkpt lat="46.399551" lon="11.763225"><ele>2672</ele></trkpt>
      <trkpt lat="46.399487" lon="11.763222"><ele>2670</ele></trkpt>
      <trkpt lat="46.399467" lon="11.763261"><ele>2668</ele></trkpt>
      <trkpt lat="46.399429" lon="11.763263"><ele>2665.5</ele></trkpt>
      <trkpt lat="46.399389" lon="11.763214"><ele>2663.8</ele></trkpt>
      <trkpt lat="46.399363" lon="11.763168"><ele>2663</ele></trkpt>
      <trkpt lat="46.399334" lon="11.763142"><ele>2661</ele></trkpt>
      <trkpt lat="46.39929" lon="11.763124"><ele>2657</ele></trkpt>
      <trkpt lat="46.399254" lon="11.763152"><ele>2652.5</ele></trkpt>
      <trkpt lat="46.399238" lon="11.763092"><ele>2652.3</ele></trkpt>
      <trkpt lat="46.399217" lon="11.763082"><ele>2650</ele></trkpt>
      <trkpt lat="46.399188" lon="11.763112"><ele>2646.5</ele></trkpt>
      <trkpt lat="46.399145" lon="11.763298"><ele>2640</ele></trkpt>
      <trkpt lat="46.399098" lon="11.763225"><ele>2636.3</ele></trkpt>
      <trkpt lat="46.399038" lon="11.763033"><ele>2633</ele></trkpt>
      <trkpt lat="46.398962" lon="11.762936"><ele>2627.5</ele></trkpt>
      <trkpt lat="46.398922" lon="11.762915"><ele>2624.3</ele></trkpt>
      <trkpt lat="46.398862" lon="11.762906"><ele>2619.8</ele></trkpt>
      <trkpt lat="46.398804" lon="11.762909"><ele>2615.8</ele></trkpt>
      <trkpt lat="46.398747" lon="11.762896"><ele>2612.3</ele></trkpt>
      <trkpt lat="46.398752" lon="11.762852"><ele>2613</ele></trkpt>
      <trkpt lat="46.398741" lon="11.762797"><ele>2613</ele></trkpt>
      <trkpt lat="46.398712" lon="11.762758"><ele>2610.5</ele></trkpt>
      <trkpt lat="46.39867" lon="11.762772"><ele>2608</ele></trkpt>
      <trkpt lat="46.398521" lon="11.76285"><ele>2597.5</ele></trkpt>
      <trkpt lat="46.398496" lon="11.762651"><ele>2593.5</ele></trkpt>
      <trkpt lat="46.398453" lon="11.762584"><ele>2588.8</ele></trkpt>
      <trkpt lat="46.398422" lon="11.762565"><ele>2586.3</ele></trkpt>
      <trkpt lat="46.39828" lon="11.762673"><ele>2580.8</ele></trkpt>
      <trkpt lat="46.398252" lon="11.762664"><ele>2578.5</ele></trkpt>
      <trkpt lat="46.398219" lon="11.762672"><ele>2576.3</ele></trkpt>
      <trkpt lat="46.39815" lon="11.762664"><ele>2571.3</ele></trkpt>
      <trkpt lat="46.398096" lon="11.762673"><ele>2567.5</ele></trkpt>
      <trkpt lat="46.398074" lon="11.762663"><ele>2566</ele></trkpt>
      <trkpt lat="46.398105" lon="11.762549"><ele>2566.5</ele></trkpt>
      <trkpt lat="46.398052" lon="11.762545"><ele>2563.3</ele></trkpt>
      <trkpt lat="46.398008" lon="11.762522"><ele>2561</ele></trkpt>
      <trkpt lat="46.397969" lon="11.762518"><ele>2559.5</ele></trkpt>
      <trkpt lat="46.397892" lon="11.762529"><ele>2556.3</ele></trkpt>
      <trkpt lat="46.397856" lon="11.762557"><ele>2554.5</ele></trkpt>
      <trkpt lat="46.397794" lon="11.762568"><ele>2551.5</ele></trkpt>
      <trkpt lat="46.397773" lon="11.762588"><ele>2550</ele></trkpt>
      <trkpt lat="46.397739" lon="11.762531"><ele>2549.8</ele></trkpt>
      <trkpt lat="46.397709" lon="11.762526"><ele>2548.8</ele></trkpt>
      <trkpt lat="46.39763" lon="11.762577"><ele>2544.5</ele></trkpt>
      <trkpt lat="46.397597" lon="11.762567"><ele>2543.5</ele></trkpt>
      <trkpt lat="46.397494" lon="11.762569"><ele>2539.3</ele></trkpt>
      <trkpt lat="46.397421" lon="11.762606"><ele>2535.5</ele></trkpt>
      <trkpt lat="46.397398" lon="11.762533"><ele>2537</ele></trkpt>
      <trkpt lat="46.397346" lon="11.762563"><ele>2534.3</ele></trkpt>
      <trkpt lat="46.397213" lon="11.762578"><ele>2529.8</ele></trkpt>
      <trkpt lat="46.397183" lon="11.762599"><ele>2529</ele></trkpt>
      <trkpt lat="46.397167" lon="11.762651"><ele>2528.3</ele></trkpt>
      <trkpt lat="46.397142" lon="11.762658"><ele>2528.3</ele></trkpt>
      <trkpt lat="46.397024" lon="11.762657"><ele>2527.5</ele></trkpt>
    </trkseg>
  </trk>
</gpx>
