{
  "type": "FeatureCollection",
  "features": [
    {
      "type": "Feature",
      "properties": {
        "kind": "route",
        "name": "День 3 · Boè → Bontadini",
        "distance_km": 14.933,
        "ascent_m": 702,
        "source": "BRouter / OpenStreetMap"
      },
      "geometry": {
        "type": "LineString",
        "coordinates": [
          [
            11.823167,
            46.514696,
            2869
          ],
          [
            11.822943,
            46.514564,
            2866.8
          ],
          [
            11.822999,
            46.514375,
            2867
          ],
          [
            11.823189,
            46.514386,
            2869
          ],
          [
            11.823353,
            46.514481,
            2870.8
          ],
          [
            11.823438,
            46.5144,
            2870.8
          ],
          [
            11.823467,
            46.514346,
            2870.8
          ],
          [
            11.8236,
            46.514217,
            2870.8
          ],
          [
            11.823598,
            46.514116,
            2871.3
          ],
          [
            11.823644,
            46.513988,
            2872.8
          ],
          [
            11.823707,
            46.513563,
            2876.5
          ],
          [
            11.823639,
            46.51335,
            2878
          ],
          [
            11.823639,
            46.513205,
            2882.3
          ],
          [
            11.823666,
            46.513095,
            2886
          ],
          [
            11.823612,
            46.513032,
            2887.8
          ],
          [
            11.823558,
            46.513014,
            2888
          ],
          [
            11.823518,
            46.513021,
            2887.8
          ],
          [
            11.823456,
            46.513015,
            2887.8
          ],
          [
            11.823416,
            46.51299,
            2888.3
          ],
          [
            11.823361,
            46.512928,
            2890
          ],
          [
            11.823122,
            46.512806,
            2893
          ],
          [
            11.823072,
            46.512748,
            2894.3
          ],
          [
            11.822995,
            46.512713,
            2894.5
          ],
          [
            11.822909,
            46.512657,
            2894.8
          ],
          [
            11.822837,
            46.512591,
            2895.3
          ],
          [
            11.82277,
            46.512482,
            2896
          ],
          [
            11.822742,
            46.512346,
            2896.8
          ],
          [
            11.822768,
            46.512134,
            2897.5
          ],
          [
            11.82281,
            46.512044,
            2897.5
          ],
          [
            11.822879,
            46.511933,
            2897.5
          ],
          [
            11.822849,
            46.511807,
            2897
          ],
          [
            11.822852,
            46.511762,
            2896.8
          ],
          [
            11.822902,
            46.511739,
            2897
          ],
          [
            11.822917,
            46.511677,
            2897
          ],
          [
            11.822959,
            46.511594,
            2896.5
          ],
          [
            11.822985,
            46.511535,
            2896.3
          ],
          [
            11.823001,
            46.511435,
            2895.8
          ],
          [
            11.82303,
            46.511381,
            2895.5
          ],
          [
            11.823059,
            46.511293,
            2894.5
          ],
          [
            11.823075,
            46.511128,
            2892.5
          ],
          [
            11.82309,
            46.511096,
            2892
          ],
          [
            11.823161,
            46.511051,
            2892
          ],
          [
            11.823177,
            46.510953,
            2890
          ],
          [
            11.823211,
            46.510892,
            2889.5
          ],
          [
            11.823187,
            46.510854,
            2888
          ],
          [
            11.823201,
            46.510795,
            2886.3
          ],
          [
            11.82329,
            46.510768,
            2888
          ],
          [
            11.823311,
            46.510737,
            2887.5
          ],
          [
            11.823319,
            46.510583,
            2882
          ],
          [
            11.823342,
            46.510556,
            2882.3
          ],
          [
            11.823382,
            46.510527,
            2882
          ],
          [
            11.823555,
            46.510471,
            2886.3
          ],
          [
            11.823589,
            46.510435,
            2885.5
          ],
          [
            11.823594,
            46.510394,
            2883
          ],
          [
            11.823615,
            46.51036,
            2881.8
          ],
          [
            11.823696,
            46.510284,
            2880
          ],
          [
            11.823744,
            46.510276,
            2881.5
          ],
          [
            11.823788,
            46.510251,
            2882
          ],
          [
            11.823817,
            46.51021,
            2881.3
          ],
          [
            11.823904,
            46.510163,
            2882.8
          ],
          [
            11.823951,
            46.510018,
            2877.8
          ],
          [
            11.823988,
            46.509973,
            2878
          ],
          [
            11.824058,
            46.509775,
            2876.5
          ],
          [
            11.824078,
            46.509673,
            2875.5
          ],
          [
            11.82411,
            46.509588,
            2876
          ],
          [
            11.824122,
            46.509524,
            2875.8
          ],
          [
            11.824113,
            46.509206,
            2875.3
          ],
          [
            11.824137,
            46.509166,
            2876
          ],
          [
            11.824098,
            46.509111,
            2875.5
          ],
          [
            11.824097,
            46.509088,
            2875.5
          ],
          [
            11.824117,
            46.509071,
            2876.3
          ],
          [
            11.824088,
            46.509024,
            2876
          ],
          [
            11.824053,
            46.509014,
            2875.3
          ],
          [
            11.823986,
            46.508972,
            2874
          ],
          [
            11.823952,
            46.508942,
            2873.5
          ],
          [
            11.823942,
            46.50891,
            2873.8
          ],
          [
            11.823846,
            46.508823,
            2873
          ],
          [
            11.823828,
            46.508792,
            2873
          ],
          [
            11.823811,
            46.508759,
            2873
          ],
          [
            11.823788,
            46.508643,
            2874
          ],
          [
            11.823783,
            46.50857,
            2875
          ],
          [
            11.823702,
            46.508445,
            2876
          ],
          [
            11.823663,
            46.508339,
            2877.8
          ],
          [
            11.823596,
            46.508289,
            2877.8
          ],
          [
            11.823514,
            46.508242,
            2878.8
          ],
          [
            11.823475,
            46.508201,
            2879.5
          ],
          [
            11.823344,
            46.508136,
            2880.3
          ],
          [
            11.823291,
            46.508072,
            2880.8
          ],
          [
            11.823236,
            46.50802,
            2881.3
          ],
          [
            11.822995,
            46.507873,
            2882.5
          ],
          [
            11.82293,
            46.50784,
            2883
          ],
          [
            11.822611,
            46.50774,
            2885.5
          ],
          [
            11.822499,
            46.507712,
            2886.3
          ],
          [
            11.822408,
            46.507673,
            2886.8
          ],
          [
            11.822367,
            46.507642,
            2887.3
          ],
          [
            11.822282,
            46.507647,
            2887.5
          ],
          [
            11.822037,
            46.507701,
            2887.8
          ],
          [
            11.821936,
            46.507717,
            2888.3
          ],
          [
            11.821828,
            46.507692,
            2889.5
          ],
          [
            11.821694,
            46.507695,
            2890.3
          ],
          [
            11.821533,
            46.507681,
            2890.5
          ],
          [
            11.821407,
            46.50764,
            2891.3
          ],
          [
            11.8213,
            46.50757,
            2891.8
          ],
          [
            11.821195,
            46.507511,
            2891.5
          ],
          [
            11.820914,
            46.507374,
            2889.8
          ],
          [
            11.82079,
            46.5073,
            2889.3
          ],
          [
            11.820668,
            46.507254,
            2889.5
          ],
          [
            11.82065,
            46.507216,
            2889.5
          ],
          [
            11.82061,
            46.507183,
            2889.8
          ],
          [
            11.820579,
            46.507144,
            2889.8
          ],
          [
            11.820574,
            46.507026,
            2889.8
          ],
          [
            11.820539,
            46.506921,
            2890
          ],
          [
            11.820529,
            46.506866,
            2890.3
          ],
          [
            11.820502,
            46.506829,
            2890.3
          ],
          [
            11.820487,
            46.50673,
            2890.5
          ],
          [
            11.820425,
            46.506521,
            2890.8
          ],
          [
            11.820332,
            46.506377,
            2890.3
          ],
          [
            11.820247,
            46.506305,
            2890.3
          ],
          [
            11.820217,
            46.506246,
            2890.3
          ],
          [
            11.820195,
            46.506148,
            2890.8
          ],
          [
            11.820128,
            46.506029,
            2890.8
          ],
          [
            11.820082,
            46.505963,
            2890.8
          ],
          [
            11.820039,
            46.505835,
            2891.3
          ],
          [
            11.82004,
            46.505747,
            2890.8
          ],
          [
            11.820054,
            46.505679,
            2890.8
          ],
          [
            11.820099,
            46.505563,
            2890.5
          ],
          [
            11.820145,
            46.50548,
            2890.5
          ],
          [
            11.820165,
            46.505425,
            2890.5
          ],
          [
            11.820166,
            46.505387,
            2890.3
          ],
          [
            11.820153,
            46.505367,
            2890
          ],
          [
            11.820131,
            46.505361,
            2889.8
          ],
          [
            11.820077,
            46.505372,
            2889
          ],
          [
            11.820037,
            46.505342,
            2888.3
          ],
          [
            11.820057,
            46.50528,
            2888
          ],
          [
            11.820114,
            46.505197,
            2886.3
          ],
          [
            11.820118,
            46.505164,
            2885
          ],
          [
            11.820148,
            46.505079,
            2882.8
          ],
          [
            11.820188,
            46.504998,
            2880.8
          ],
          [
            11.820195,
            46.504944,
            2879.3
          ],
          [
            11.82018,
            46.504886,
            2877.3
          ],
          [
            11.8202,
            46.5048,
            2875
          ],
          [
            11.820245,
            46.504701,
            2872.5
          ],
          [
            11.820307,
            46.504612,
            2870.3
          ],
          [
            11.820359,
            46.504558,
            2868.8
          ],
          [
            11.820396,
            46.504432,
            2865
          ],
          [
            11.820393,
            46.504361,
            2864.5
          ],
          [
            11.820334,
            46.504173,
            2863
          ],
          [
            11.820309,
            46.504121,
            2863.3
          ],
          [
            11.82027,
            46.50409,
            2863.3
          ],
          [
            11.820212,
            46.503955,
            2863.5
          ],
          [
            11.820208,
            46.503895,
            2863.8
          ],
          [
            11.820129,
            46.503798,
            2864.3
          ],
          [
            11.820126,
            46.503769,
            2864.8
          ],
          [
            11.820109,
            46.503738,
            2865
          ],
          [
            11.820035,
            46.503681,
            2865
          ],
          [
            11.81995,
            46.503562,
            2866
          ],
          [
            11.819926,
            46.503534,
            2866.3
          ],
          [
            11.819881,
            46.5035,
            2866.3
          ],
          [
            11.819844,
            46.503441,
            2867
          ],
          [
            11.819758,
            46.503404,
            2866.8
          ],
          [
            11.819674,
            46.503355,
            2866.8
          ],
          [
            11.819589,
            46.503323,
            2866
          ],
          [
            11.819528,
            46.503241,
            2865.5
          ],
          [
            11.819503,
            46.503156,
            2865
          ],
          [
            11.819458,
            46.503112,
            2864.3
          ],
          [
            11.819443,
            46.503084,
            2863.8
          ],
          [
            11.819444,
            46.503025,
            2864
          ],
          [
            11.819453,
            46.502996,
            2864.3
          ],
          [
            11.819446,
            46.502967,
            2864.3
          ],
          [
            11.81934,
            46.502836,
            2858
          ],
          [
            11.819332,
            46.502745,
            2858
          ],
          [
            11.819308,
            46.502634,
            2856.5
          ],
          [
            11.819327,
            46.502535,
            2857.5
          ],
          [
            11.819312,
            46.502472,
            2855.8
          ],
          [
            11.81932,
            46.502451,
            2855.5
          ],
          [
            11.819305,
            46.502412,
            2853.5
          ],
          [
            11.819324,
            46.502346,
            2852.5
          ],
          [
            11.819327,
            46.502306,
            2851.3
          ],
          [
            11.819352,
            46.502231,
            2850.3
          ],
          [
            11.819397,
            46.502201,
            2852.3
          ],
          [
            11.819302,
            46.502131,
            2846.8
          ],
          [
            11.819298,
            46.502063,
            2846.5
          ],
          [
            11.819241,
            46.501953,
            2843
          ],
          [
            11.819176,
            46.501885,
            2840.3
          ],
          [
            11.819028,
            46.50179,
            2839.3
          ],
          [
            11.818827,
            46.501688,
            2838.5
          ],
          [
            11.818673,
            46.501627,
            2838.3
          ],
          [
            11.818567,
            46.501571,
            2837.3
          ],
          [
            11.81854,
            46.501551,
            2836.8
          ],
          [
            11.818424,
            46.501521,
            2835.5
          ],
          [
            11.818269,
            46.501457,
            2835.3
          ],
          [
            11.818214,
            46.501422,
            2835.8
          ],
          [
            11.818133,
            46.501403,
            2835.8
          ],
          [
            11.818063,
            46.5014,
            2835.8
          ],
          [
            11.817908,
            46.501405,
            2836
          ],
          [
            11.817585,
            46.501422,
            2836.5
          ],
          [
            11.81711,
            46.501481,
            2836.8
          ],
          [
            11.816931,
            46.501487,
            2837
          ],
          [
            11.816821,
            46.501507,
            2836.8
          ],
          [
            11.816708,
            46.5015,
            2838
          ],
          [
            11.816513,
            46.501505,
            2840
          ],
          [
            11.81642,
            46.501523,
            2840.3
          ],
          [
            11.816296,
            46.501528,
            2841.8
          ],
          [
            11.816013,
            46.501583,
            2843
          ],
          [
            11.815883,
            46.501626,
            2842.3
          ],
          [
            11.815734,
            46.501663,
            2841.3
          ],
          [
            11.815486,
            46.501695,
            2842.5
          ],
          [
            11.815277,
            46.50169,
            2842.8
          ],
          [
            11.815196,
            46.50171,
            2841.5
          ],
          [
            11.815072,
            46.501689,
            2842.5
          ],
          [
            11.81492,
            46.501694,
            2841.5
          ],
          [
            11.81481,
            46.501674,
            2842.3
          ],
          [
            11.814722,
            46.501682,
            2841.3
          ],
          [
            11.814455,
            46.501806,
            2845
          ],
          [
            11.814099,
            46.501945,
            2846.5
          ],
          [
            11.813948,
            46.501963,
            2847.8
          ],
          [
            11.813845,
            46.501985,
            2848.5
          ],
          [
            11.813694,
            46.502035,
            2848.8
          ],
          [
            11.813629,
            46.502045,
            2849
          ],
          [
            11.813485,
            46.502053,
            2848
          ],
          [
            11.813347,
            46.502012,
            2850.5
          ],
          [
            11.813293,
            46.502005,
            2850.3
          ],
          [
            11.813161,
            46.50196,
            2850.3
          ],
          [
            11.813075,
            46.50191,
            2852.3
          ],
          [
            11.812875,
            46.501879,
            2852.5
          ],
          [
            11.812672,
            46.501861,
            2851.5
          ],
          [
            11.812554,
            46.501807,
            2852
          ],
          [
            11.812491,
            46.501812,
            2850.8
          ],
          [
            11.812447,
            46.501804,
            2850.3
          ],
          [
            11.812397,
            46.50176,
            2849.8
          ],
          [
            11.812326,
            46.501765,
            2848.3
          ],
          [
            11.812395,
            46.50167,
            2849.8
          ],
          [
            11.812402,
            46.501587,
            2848.3
          ],
          [
            11.812374,
            46.501531,
            2845.5
          ],
          [
            11.812256,
            46.50154,
            2839
          ],
          [
            11.812052,
            46.501542,
            2835.3
          ],
          [
            11.812173,
            46.501471,
            2832.8
          ],
          [
            11.812092,
            46.501447,
            2829.8
          ],
          [
            11.812173,
            46.501343,
            2825.8
          ],
          [
            11.811932,
            46.501332,
            2820
          ],
          [
            11.812034,
            46.501194,
            2811.8
          ],
          [
            11.811803,
            46.50119,
            2814.8
          ],
          [
            11.81202,
            46.501058,
            2803.5
          ],
          [
            11.811686,
            46.501084,
            2796.3
          ],
          [
            11.811782,
            46.500931,
            2787.5
          ],
          [
            11.811517,
            46.50094,
            2795.5
          ],
          [
            11.811635,
            46.500796,
            2774.3
          ],
          [
            11.811401,
            46.500795,
            2767.8
          ],
          [
            11.811496,
            46.500674,
            2762
          ],
          [
            11.811172,
            46.500676,
            2770
          ],
          [
            11.811442,
            46.500468,
            2746.8
          ],
          [
            11.811247,
            46.500472,
            2743
          ],
          [
            11.811041,
            46.500485,
            2740.3
          ],
          [
            11.8108,
            46.500409,
            2734.8
          ],
          [
            11.810588,
            46.500332,
            2733
          ],
          [
            11.81046,
            46.500304,
            2730
          ],
          [
            11.810423,
            46.50024,
            2719.3
          ],
          [
            11.81034,
            46.500177,
            2715.8
          ],
          [
            11.81019,
            46.500035,
            2709.5
          ],
          [
            11.810418,
            46.500061,
            2707.5
          ],
          [
            11.81036,
            46.499987,
            2703.3
          ],
          [
            11.810277,
            46.499915,
            2699.5
          ],
          [
            11.810169,
            46.499839,
            2697
          ],
          [
            11.810231,
            46.499823,
            2694.5
          ],
          [
            11.810349,
            46.499826,
            2692.8
          ],
          [
            11.810445,
            46.499819,
            2691.3
          ],
          [
            11.810284,
            46.499679,
            2683.8
          ],
          [
            11.810203,
            46.49962,
            2681.5
          ],
          [
            11.810317,
            46.499573,
            2676.3
          ],
          [
            11.810323,
            46.49955,
            2674.8
          ],
          [
            11.810251,
            46.499462,
            2669.5
          ],
          [
            11.810258,
            46.499404,
            2665.5
          ],
          [
            11.810479,
            46.499208,
            2651.8
          ],
          [
            11.810438,
            46.499072,
            2643.5
          ],
          [
            11.810603,
            46.498953,
            2636.5
          ],
          [
            11.810508,
            46.498806,
            2628.3
          ],
          [
            11.810429,
            46.498712,
            2622.8
          ],
          [
            11.810515,
            46.498592,
            2617.5
          ],
          [
            11.81048,
            46.498534,
            2614.3
          ],
          [
            11.810488,
            46.49842,
            2608.8
          ],
          [
            11.810554,
            46.498277,
            2603.5
          ],
          [
            11.810531,
            46.498189,
            2599.8
          ],
          [
            11.810497,
            46.498117,
            2596
          ],
          [
            11.81049,
            46.498042,
            2593
          ],
          [
            11.810526,
            46.497996,
            2592
          ],
          [
            11.810547,
            46.497955,
            2591
          ],
          [
            11.810593,
            46.497758,
            2585.3
          ],
          [
            11.810596,
            46.497589,
            2582.5
          ],
          [
            11.810636,
            46.497398,
            2577.8
          ],
          [
            11.810615,
            46.49735,
            2575.5
          ],
          [
            11.810586,
            46.497329,
            2573.8
          ],
          [
            11.810542,
            46.497328,
            2572.5
          ],
          [
            11.810405,
            46.497352,
            2569.3
          ],
          [
            11.810373,
            46.497321,
            2566.8
          ],
          [
            11.810388,
            46.497185,
            2561.5
          ],
          [
            11.81045,
            46.497062,
            2557
          ],
          [
            11.810526,
            46.496961,
            2553.3
          ],
          [
            11.810612,
            46.496886,
            2551
          ],
          [
            11.810743,
            46.496815,
            2548.3
          ],
          [
            11.810834,
            46.496808,
            2548
          ],
          [
            11.811073,
            46.496707,
            2542.5
          ],
          [
            11.811261,
            46.496673,
            2539.8
          ],
          [
            11.811466,
            46.496611,
            2534.5
          ],
          [
            11.811667,
            46.496577,
            2530
          ],
          [
            11.811798,
            46.496527,
            2527.8
          ],
          [
            11.811854,
            46.496496,
            2525.8
          ],
          [
            11.812003,
            46.496454,
            2524.3
          ],
          [
            11.812137,
            46.496383,
            2518.5
          ],
          [
            11.812203,
            46.496342,
            2517
          ],
          [
            11.812202,
            46.496291,
            2514.3
          ],
          [
            11.812075,
            46.496291,
            2512.8
          ],
          [
            11.811937,
            46.496246,
            2508
          ],
          [
            11.811714,
            46.496159,
            2501.3
          ],
          [
            11.811568,
            46.496123,
            2497.8
          ],
          [
            11.81144,
            46.496108,
            2495.3
          ],
          [
            11.811372,
            46.496092,
            2494.3
          ],
          [
            11.811391,
            46.496053,
            2491.5
          ],
          [
            11.811488,
            46.495955,
            2486.8
          ],
          [
            11.8116,
            46.495866,
            2482.3
          ],
          [
            11.811784,
            46.495755,
            2478.5
          ],
          [
            11.811815,
            46.495726,
            2477.5
          ],
          [
            11.811814,
            46.495674,
            2474.8
          ],
          [
            11.811747,
            46.495661,
            2473.3
          ],
          [
            11.811596,
            46.495599,
            2468.8
          ],
          [
            11.81141,
            46.495489,
            2463.3
          ],
          [
            11.81142,
            46.495428,
            2460.8
          ],
          [
            11.811492,
            46.495376,
            2458.8
          ],
          [
            11.811534,
            46.49532,
            2456.3
          ],
          [
            11.811684,
            46.49524,
            2452.3
          ],
          [
            11.811733,
            46.49519,
            2450.3
          ],
          [
            11.811706,
            46.495144,
            2448.3
          ],
          [
            11.811615,
            46.49509,
            2446
          ],
          [
            11.811543,
            46.494991,
            2442.3
          ],
          [
            11.811397,
            46.494852,
            2435.3
          ],
          [
            11.811355,
            46.494799,
            2433.3
          ],
          [
            11.811241,
            46.49471,
            2430.8
          ],
          [
            11.811217,
            46.494661,
            2428
          ],
          [
            11.811148,
            46.494582,
            2423.5
          ],
          [
            11.811283,
            46.494577,
            2420.8
          ],
          [
            11.811489,
            46.494551,
            2417.5
          ],
          [
            11.811666,
            46.494426,
            2410.8
          ],
          [
            11.811821,
            46.494371,
            2406.8
          ],
          [
            11.812026,
            46.494339,
            2402.8
          ],
          [
            11.812214,
            46.494319,
            2397.8
          ],
          [
            11.812307,
            46.494293,
            2395.8
          ],
          [
            11.812387,
            46.494238,
            2392
          ],
          [
            11.812425,
            46.494194,
            2389
          ],
          [
            11.812459,
            46.494134,
            2386
          ],
          [
            11.812601,
            46.49407,
            2382.8
          ],
          [
            11.812668,
            46.493974,
            2378.5
          ],
          [
            11.812768,
            46.493784,
            2369.8
          ],
          [
            11.812896,
            46.493588,
            2362.5
          ],
          [
            11.813031,
            46.493355,
            2355.5
          ],
          [
            11.813175,
            46.49318,
            2353
          ],
          [
            11.813215,
            46.493168,
            2353
          ],
          [
            11.813434,
            46.492792,
            2348.3
          ],
          [
            11.813473,
            46.492604,
            2347.3
          ],
          [
            11.813419,
            46.492417,
            2345.3
          ],
          [
            11.813331,
            46.492193,
            2343.5
          ],
          [
            11.813373,
            46.492004,
            2342.3
          ],
          [
            11.813353,
            46.491921,
            2341.5
          ],
          [
            11.813199,
            46.491758,
            2339.8
          ],
          [
            11.812862,
            46.491375,
            2337
          ],
          [
            11.812696,
            46.491164,
            2336
          ],
          [
            11.812507,
            46.491022,
            2332.3
          ],
          [
            11.81241,
            46.490888,
            2331.8
          ],
          [
            11.812353,
            46.490663,
            2328.5
          ],
          [
            11.812375,
            46.490572,
            2327.5
          ],
          [
            11.812363,
            46.490477,
            2325
          ],
          [
            11.812292,
            46.490374,
            2321.3
          ],
          [
            11.812244,
            46.490286,
            2318.3
          ],
          [
            11.812194,
            46.490245,
            2316.3
          ],
          [
            11.812055,
            46.490204,
            2312.8
          ],
          [
            11.811834,
            46.490159,
            2307.5
          ],
          [
            11.811601,
            46.490132,
            2302.8
          ],
          [
            11.811562,
            46.490094,
            2301.3
          ],
          [
            11.811547,
            46.490031,
            2300.3
          ],
          [
            11.811637,
            46.48995,
            2299.3
          ],
          [
            11.811824,
            46.489847,
            2297.3
          ],
          [
            11.811907,
            46.489778,
            2295.5
          ],
          [
            11.811946,
            46.489693,
            2293.3
          ],
          [
            11.81193,
            46.489656,
            2292.5
          ],
          [
            11.811828,
            46.489609,
            2290.3
          ],
          [
            11.811784,
            46.489564,
            2289
          ],
          [
            11.811768,
            46.489516,
            2288
          ],
          [
            11.811802,
            46.489366,
            2284.5
          ],
          [
            11.811839,
            46.489283,
            2282
          ],
          [
            11.811937,
            46.48917,
            2279
          ],
          [
            11.811904,
            46.489119,
            2276.5
          ],
          [
            11.811945,
            46.489076,
            2275
          ],
          [
            11.812009,
            46.488932,
            2269
          ],
          [
            11.812046,
            46.48888,
            2267
          ],
          [
            11.81204,
            46.488838,
            2265.8
          ],
          [
            11.81198,
            46.488795,
            2264
          ],
          [
            11.811946,
            46.48874,
            2262
          ],
          [
            11.811985,
            46.488709,
            2261.3
          ],
          [
            11.811993,
            46.488659,
            2259.8
          ],
          [
            11.811989,
            46.488606,
            2258
          ],
          [
            11.811947,
            46.488552,
            2256.5
          ],
          [
            11.811759,
            46.488492,
            2253.3
          ],
          [
            11.811683,
            46.488434,
            2251
          ],
          [
            11.81164,
            46.488371,
            2248.5
          ],
          [
            11.811622,
            46.488287,
            2246.3
          ],
          [
            11.811581,
            46.488216,
            2244
          ],
          [
            11.811573,
            46.488159,
            2242.8
          ],
          [
            11.811442,
            46.48812,
            2240
          ],
          [
            11.811318,
            46.488039,
            2237.5
          ],
          [
            11.811634,
            46.487863,
            2239.5
          ],
          [
            11.811843,
            46.487741,
            2239
          ],
          [
            11.812016,
            46.487641,
            2239.8
          ],
          [
            11.812144,
            46.487573,
            2240
          ],
          [
            11.812194,
            46.487553,
            2240
          ],
          [
            11.812226,
            46.487541,
            2240
          ],
          [
            11.81236,
            46.487504,
            2239.5
          ],
          [
            11.812525,
            46.487468,
            2238.8
          ],
          [
            11.812703,
            46.487439,
            2238.3
          ],
          [
            11.812963,
            46.487422,
            2237
          ],
          [
            11.813339,
            46.487396,
            2235.3
          ],
          [
            11.813436,
            46.487388,
            2234.8
          ],
          [
            11.813535,
            46.487368,
            2234.3
          ],
          [
            11.813614,
            46.487334,
            2233.8
          ],
          [
            11.81367,
            46.487279,
            2233.8
          ],
          [
            11.813677,
            46.487221,
            2233.8
          ],
          [
            11.813663,
            46.487161,
            2233
          ],
          [
            11.81363,
            46.487109,
            2232.5
          ],
          [
            11.813539,
            46.486967,
            2232
          ],
          [
            11.813528,
            46.486898,
            2232.8
          ],
          [
            11.813545,
            46.486839,
            2233.3
          ],
          [
            11.813618,
            46.48677,
            2233.3
          ],
          [
            11.813721,
            46.486739,
            2232.8
          ],
          [
            11.813844,
            46.486722,
            2231.5
          ],
          [
            11.813872,
            46.486723,
            2231
          ],
          [
            11.813971,
            46.486726,
            2230.3
          ],
          [
            11.814849,
            46.486835,
            2221.5
          ],
          [
            11.814988,
            46.486842,
            2221
          ],
          [
            11.815103,
            46.486828,
            2220.5
          ],
          [
            11.815228,
            46.486786,
            2220
          ],
          [
            11.815334,
            46.48672,
            2220
          ],
          [
            11.815482,
            46.486588,
            2219.8
          ],
          [
            11.815965,
            46.486094,
            2214
          ],
          [
            11.815993,
            46.486004,
            2212.8
          ],
          [
            11.815987,
            46.485938,
            2212.5
          ],
          [
            11.815729,
            46.485493,
            2211.3
          ],
          [
            11.815728,
            46.485382,
            2211.5
          ],
          [
            11.815765,
            46.485294,
            2210.5
          ],
          [
            11.81585,
            46.485225,
            2210.3
          ],
          [
            11.816957,
            46.484679,
            2203.8
          ],
          [
            11.817046,
            46.484612,
            2202.8
          ],
          [
            11.817096,
            46.484541,
            2203
          ],
          [
            11.817219,
            46.484093,
            2203
          ],
          [
            11.817266,
            46.483991,
            2201.8
          ],
          [
            11.817363,
            46.483915,
            2199.3
          ],
          [
            11.817745,
            46.483798,
            2195
          ],
          [
            11.817949,
            46.483737,
            2196.3
          ],
          [
            11.818257,
            46.483646,
            2196.8
          ],
          [
            11.81814,
            46.483336,
            2197
          ],
          [
            11.817977,
            46.483239,
            2200.5
          ],
          [
            11.817695,
            46.482936,
            2207.5
          ],
          [
            11.817575,
            46.482896,
            2209.3
          ],
          [
            11.817577,
            46.48279,
            2210.5
          ],
          [
            11.817444,
            46.482708,
            2213.5
          ],
          [
            11.817263,
            46.482496,
            2218.8
          ],
          [
            11.817058,
            46.482477,
            2222
          ],
          [
            11.816896,
            46.482333,
            2225.5
          ],
          [
            11.816744,
            46.482369,
            2228.3
          ],
          [
            11.816676,
            46.482363,
            2229.8
          ],
          [
            11.816716,
            46.482274,
            2229.5
          ],
          [
            11.816716,
            46.482201,
            2230
          ],
          [
            11.816607,
            46.482157,
            2232.5
          ],
          [
            11.816638,
            46.482012,
            2233.3
          ],
          [
            11.816625,
            46.481902,
            2235.8
          ],
          [
            11.816613,
            46.481882,
            2236.8
          ],
          [
            11.816566,
            46.481877,
            2238
          ],
          [
            11.816528,
            46.481882,
            2238.8
          ],
          [
            11.816509,
            46.481905,
            2238.5
          ],
          [
            11.816489,
            46.482004,
            2237.3
          ],
          [
            11.816467,
            46.482025,
            2237.5
          ],
          [
            11.816433,
            46.482036,
            2238
          ],
          [
            11.816391,
            46.482029,
            2239.3
          ],
          [
            11.816369,
            46.482004,
            2240.3
          ],
          [
            11.816367,
            46.481881,
            2242.8
          ],
          [
            11.816398,
            46.481779,
            2243.8
          ],
          [
            11.816401,
            46.481595,
            2247
          ],
          [
            11.816395,
            46.481581,
            2247
          ],
          [
            11.816377,
            46.481575,
            2247.5
          ],
          [
            11.816351,
            46.481579,
            2248.3
          ],
          [
            11.816326,
            46.481594,
            2248.8
          ],
          [
            11.81624,
            46.481683,
            2249.8
          ],
          [
            11.816204,
            46.481697,
            2250.8
          ],
          [
            11.816182,
            46.481699,
            2251.3
          ],
          [
            11.816153,
            46.481693,
            2252.3
          ],
          [
            11.816135,
            46.481681,
            2253
          ],
          [
            11.816131,
            46.481666,
            2253.3
          ],
          [
            11.816139,
            46.481633,
            2253.8
          ],
          [
            11.816176,
            46.481553,
            2254
          ],
          [
            11.816161,
            46.481471,
            2255.8
          ],
          [
            11.816163,
            46.481388,
            2257.3
          ],
          [
            11.816216,
            46.481292,
            2258
          ],
          [
            11.816238,
            46.481229,
            2259
          ],
          [
            11.816237,
            46.481204,
            2259.8
          ],
          [
            11.816224,
            46.481147,
            2261.3
          ],
          [
            11.81619,
            46.481087,
            2263.3
          ],
          [
            11.816126,
            46.481043,
            2265.3
          ],
          [
            11.816073,
            46.481022,
            2266.8
          ],
          [
            11.81604,
            46.480992,
            2268.5
          ],
          [
            11.816037,
            46.480972,
            2269
          ],
          [
            11.816043,
            46.480954,
            2269
          ],
          [
            11.81606,
            46.480939,
            2269
          ],
          [
            11.816082,
            46.48093,
            2268.5
          ],
          [
            11.816127,
            46.480896,
            2268.5
          ],
          [
            11.816149,
            46.480868,
            2269
          ],
          [
            11.816153,
            46.480832,
            2270
          ],
          [
            11.816135,
            46.4808,
            2271
          ],
          [
            11.816118,
            46.480791,
            2271.3
          ],
          [
            11.816078,
            46.480783,
            2272.3
          ],
          [
            11.816023,
            46.480794,
            2273.3
          ],
          [
            11.815988,
            46.480814,
            2273.5
          ],
          [
            11.815887,
            46.480821,
            2275.8
          ],
          [
            11.81584,
            46.4808,
            2277.3
          ],
          [
            11.815832,
            46.480766,
            2278.3
          ],
          [
            11.815858,
            46.480737,
            2278
          ],
          [
            11.815918,
            46.480721,
            2277.3
          ],
          [
            11.816058,
            46.48066,
            2276.3
          ],
          [
            11.816107,
            46.480619,
            2277
          ],
          [
            11.816139,
            46.480571,
            2278.3
          ],
          [
            11.816139,
            46.480541,
            2279
          ],
          [
            11.816105,
            46.480507,
            2280.3
          ],
          [
            11.81605,
            46.480482,
            2281.8
          ],
          [
            11.815993,
            46.480476,
            2282.5
          ],
          [
            11.815944,
            46.480462,
            2283.3
          ],
          [
            11.815928,
            46.48043,
            2284.5
          ],
          [
            11.815934,
            46.480403,
            2285.3
          ],
          [
            11.816019,
            46.48036,
            2285.5
          ],
          [
            11.81604,
            46.480337,
            2286
          ],
          [
            11.816027,
            46.480308,
            2287
          ],
          [
            11.815988,
            46.480299,
            2287.5
          ],
          [
            11.81591,
            46.480294,
            2288.5
          ],
          [
            11.815845,
            46.48028,
            2289.8
          ],
          [
            11.815822,
            46.480253,
            2290.8
          ],
          [
            11.81583,
            46.48019,
            2292.5
          ],
          [
            11.815863,
            46.480167,
            2292.8
          ],
          [
            11.815913,
            46.480144,
            2292.8
          ],
          [
            11.815928,
            46.480126,
            2293
          ],
          [
            11.815921,
            46.480099,
            2293.8
          ],
          [
            11.815889,
            46.480085,
            2294.8
          ],
          [
            11.815783,
            46.48009,
            2296.5
          ],
          [
            11.815671,
            46.480115,
            2298.3
          ],
          [
            11.815599,
            46.48011,
            2300
          ],
          [
            11.815547,
            46.480099,
            2301.8
          ],
          [
            11.815516,
            46.480081,
            2303
          ],
          [
            11.815508,
            46.480051,
            2304.3
          ],
          [
            11.815562,
            46.480005,
            2303.5
          ],
          [
            11.815684,
            46.479951,
            2302.5
          ],
          [
            11.815739,
            46.479914,
            2302.5
          ],
          [
            11.815783,
            46.479863,
            2303
          ],
          [
            11.815897,
            46.47956,
            2308.8
          ],
          [
            11.815939,
            46.479413,
            2311.8
          ],
          [
            11.815975,
            46.479348,
            2312.5
          ],
          [
            11.816117,
            46.479206,
            2313
          ],
          [
            11.816167,
            46.479119,
            2313.5
          ],
          [
            11.816199,
            46.478709,
            2318.8
          ],
          [
            11.81624,
            46.478619,
            2319.5
          ],
          [
            11.816322,
            46.478511,
            2320.8
          ],
          [
            11.816391,
            46.478451,
            2321.5
          ],
          [
            11.816505,
            46.478485,
            2321
          ],
          [
            11.816789,
            46.478502,
            2322.8
          ],
          [
            11.817043,
            46.478532,
            2324.3
          ],
          [
            11.817378,
            46.478546,
            2327.3
          ],
          [
            11.817693,
            46.478473,
            2331.3
          ],
          [
            11.817846,
            46.478396,
            2332.8
          ],
          [
            11.817933,
            46.478344,
            2333.3
          ],
          [
            11.8181,
            46.47822,
            2336
          ],
          [
            11.818096,
            46.47819,
            2337.3
          ],
          [
            11.818035,
            46.478163,
            2339
          ],
          [
            11.818052,
            46.478129,
            2340
          ],
          [
            11.818115,
            46.478109,
            2340.5
          ],
          [
            11.818146,
            46.478073,
            2341.8
          ],
          [
            11.818114,
            46.478067,
            2342.3
          ],
          [
            11.817821,
            46.478103,
            2345
          ],
          [
            11.817741,
            46.478091,
            2346.5
          ],
          [
            11.817607,
            46.478032,
            2350
          ],
          [
            11.817528,
            46.477988,
            2353
          ],
          [
            11.817381,
            46.477945,
            2355
          ],
          [
            11.817219,
            46.477874,
            2356.8
          ],
          [
            11.816873,
            46.477658,
            2361.8
          ],
          [
            11.816365,
            46.477395,
            2368
          ],
          [
            11.816207,
            46.47735,
            2369.5
          ],
          [
            11.816018,
            46.477345,
            2371.8
          ],
          [
            11.815301,
            46.477574,
            2378.5
          ],
          [
            11.81493,
            46.477573,
            2383.3
          ],
          [
            11.814867,
            46.477555,
            2384
          ],
          [
            11.814784,
            46.477546,
            2385.3
          ],
          [
            11.814867,
            46.477555,
            2384
          ],
          [
            11.815002,
            46.477504,
            2383.8
          ],
          [
            11.81513,
            46.477445,
            2384.3
          ],
          [
            11.81518,
            46.477395,
            2385.3
          ],
          [
            11.815226,
            46.477322,
            2387.5
          ],
          [
            11.815255,
            46.477258,
            2389.5
          ],
          [
            11.815337,
            46.477215,
            2390.3
          ],
          [
            11.815628,
            46.477112,
            2387.5
          ],
          [
            11.815825,
            46.476951,
            2389.8
          ],
          [
            11.816003,
            46.476906,
            2387.8
          ],
          [
            11.816388,
            46.476771,
            2387.3
          ],
          [
            11.816761,
            46.476443,
            2391.3
          ],
          [
            11.817096,
            46.476299,
            2393.5
          ],
          [
            11.817218,
            46.476261,
            2395.3
          ],
          [
            11.817499,
            46.476098,
            2397.3
          ],
          [
            11.817645,
            46.476051,
            2398.5
          ],
          [
            11.81778,
            46.47599,
            2398.8
          ],
          [
            11.817971,
            46.475944,
            2400.8
          ],
          [
            11.818073,
            46.4759,
            2401.3
          ],
          [
            11.818104,
            46.475903,
            2400.8
          ],
          [
            11.818135,
            46.475907,
            2400.3
          ],
          [
            11.818309,
            46.476056,
            2399.5
          ],
          [
            11.818366,
            46.476076,
            2399.3
          ],
          [
            11.818456,
            46.476088,
            2399.3
          ],
          [
            11.818545,
            46.476063,
            2397.8
          ],
          [
            11.818626,
            46.476024,
            2394.3
          ],
          [
            11.818714,
            46.476032,
            2392.8
          ],
          [
            11.818963,
            46.476148,
            2394.8
          ],
          [
            11.81908,
            46.476162,
            2395.3
          ],
          [
            11.819176,
            46.476137,
            2393.3
          ],
          [
            11.819272,
            46.476085,
            2389
          ],
          [
            11.819334,
            46.476097,
            2389
          ],
          [
            11.819475,
            46.476152,
            2391.5
          ],
          [
            11.81956,
            46.476161,
            2392.3
          ],
          [
            11.81967,
            46.476136,
            2391.3
          ],
          [
            11.819968,
            46.475998,
            2386.3
          ],
          [
            11.82021,
            46.475909,
            2385
          ],
          [
            11.820264,
            46.475832,
            2382.5
          ],
          [
            11.820302,
            46.475754,
            2381.3
          ],
          [
            11.820421,
            46.475439,
            2374
          ],
          [
            11.820522,
            46.475334,
            2373
          ],
          [
            11.820581,
            46.475307,
            2373.8
          ],
          [
            11.820724,
            46.47526,
            2375.5
          ],
          [
            11.820779,
            46.475218,
            2375.3
          ],
          [
            11.820806,
            46.475102,
            2372
          ],
          [
            11.820851,
            46.475067,
            2372.8
          ],
          [
            11.82088,
            46.475005,
            2372
          ],
          [
            11.820944,
            46.474932,
            2372.3
          ],
          [
            11.821184,
            46.474695,
            2374.5
          ],
          [
            11.821287,
            46.474564,
            2375
          ],
          [
            11.821435,
            46.474346,
            2376.5
          ],
          [
            11.821648,
            46.474156,
            2380.8
          ],
          [
            11.82223,
            46.47369,
            2385.5
          ],
          [
            11.822362,
            46.473602,
            2386
          ],
          [
            11.82255,
            46.473506,
            2386.5
          ],
          [
            11.823127,
            46.473451,
            2387.5
          ],
          [
            11.823321,
            46.47346,
            2387.3
          ],
          [
            11.823508,
            46.473517,
            2387.8
          ],
          [
            11.823642,
            46.473519,
            2387
          ],
          [
            11.823741,
            46.473486,
            2387.8
          ],
          [
            11.823849,
            46.473406,
            2385.5
          ],
          [
            11.823961,
            46.473398,
            2387
          ],
          [
            11.824137,
            46.473425,
            2390.8
          ],
          [
            11.824209,
            46.47342,
            2392.5
          ],
          [
            11.824458,
            46.473264,
            2395
          ],
          [
            11.824636,
            46.47318,
            2398.3
          ],
          [
            11.824769,
            46.473155,
            2400.3
          ],
          [
            11.825406,
            46.473193,
            2406
          ],
          [
            11.825702,
            46.473144,
            2409.5
          ],
          [
            11.825955,
            46.473071,
            2411.8
          ],
          [
            11.826285,
            46.473143,
            2415.8
          ],
          [
            11.826466,
            46.473189,
            2414
          ],
          [
            11.826589,
            46.473257,
            2413.5
          ],
          [
            11.826657,
            46.473351,
            2415.5
          ],
          [
            11.826681,
            46.473435,
            2416.5
          ],
          [
            11.826794,
            46.473597,
            2416.3
          ],
          [
            11.826977,
            46.473707,
            2418.3
          ],
          [
            11.827147,
            46.473745,
            2417.5
          ],
          [
            11.827257,
            46.473757,
            2416.5
          ],
          [
            11.827371,
            46.473762,
            2416
          ],
          [
            11.827552,
            46.473757,
            2414
          ],
          [
            11.827603,
            46.473742,
            2412.8
          ],
          [
            11.827678,
            46.473668,
            2410.5
          ],
          [
            11.827845,
            46.473873,
            2407
          ],
          [
            11.827995,
            46.473992,
            2405.5
          ],
          [
            11.828142,
            46.474049,
            2404.3
          ],
          [
            11.82819,
            46.474085,
            2405.3
          ],
          [
            11.828291,
            46.474114,
            2405.3
          ],
          [
            11.828445,
            46.47413,
            2404
          ],
          [
            11.828568,
            46.47416,
            2404
          ],
          [
            11.828641,
            46.474195,
            2405
          ],
          [
            11.828712,
            46.47422,
            2405
          ],
          [
            11.828897,
            46.474265,
            2405
          ],
          [
            11.829027,
            46.474221,
            2406
          ],
          [
            11.829101,
            46.474185,
            2406
          ],
          [
            11.829195,
            46.474153,
            2406
          ],
          [
            11.829281,
            46.474158,
            2406
          ],
          [
            11.829391,
            46.474189,
            2407
          ],
          [
            11.829563,
            46.47428,
            2407.3
          ],
          [
            11.829793,
            46.474389,
            2406.3
          ],
          [
            11.830034,
            46.474468,
            2406.8
          ],
          [
            11.830303,
            46.474535,
            2407.3
          ],
          [
            11.830425,
            46.474561,
            2408
          ],
          [
            11.830559,
            46.474566,
            2407.5
          ],
          [
            11.830737,
            46.474543,
            2409.5
          ],
          [
            11.830895,
            46.474482,
            2410.3
          ],
          [
            11.831125,
            46.474347,
            2413.3
          ],
          [
            11.831281,
            46.474314,
            2412.5
          ],
          [
            11.831494,
            46.474422,
            2414
          ],
          [
            11.831851,
            46.474586,
            2416
          ],
          [
            11.832002,
            46.4746,
            2415.3
          ],
          [
            11.832218,
            46.474607,
            2415.5
          ],
          [
            11.832437,
            46.474634,
            2418
          ],
          [
            11.832911,
            46.474615,
            2419.5
          ],
          [
            11.833117,
            46.47462,
            2421
          ],
          [
            11.83353,
            46.474496,
            2423
          ],
          [
            11.833601,
            46.474481,
            2424.3
          ],
          [
            11.834018,
            46.474288,
            2429.3
          ],
          [
            11.834038,
            46.474279,
            2429.5
          ],
          [
            11.834049,
            46.474254,
            2427.3
          ],
          [
            11.834107,
            46.474135,
            2427.3
          ],
          [
            11.834292,
            46.474155,
            2426.8
          ],
          [
            11.834415,
            46.47443,
            2428.3
          ],
          [
            11.834358,
            46.474478,
            2430.8
          ],
          [
            11.834364,
            46.474513,
            2431.3
          ],
          [
            11.83438,
            46.474581,
            2432.3
          ],
          [
            11.834397,
            46.474653,
            2433
          ],
          [
            11.834395,
            46.474765,
            2435
          ],
          [
            11.834431,
            46.474901,
            2436
          ],
          [
            11.834529,
            46.475099,
            2436.5
          ],
          [
            11.834546,
            46.475107,
            2436
          ],
          [
            11.834952,
            46.475551,
            2434.5
          ],
          [
            11.835142,
            46.475735,
            2435.8
          ],
          [
            11.835425,
            46.475881,
            2436.3
          ],
          [
            11.835726,
            46.476022,
            2437.8
          ],
          [
            11.836541,
            46.476236,
            2432.5
          ],
          [
            11.836673,
            46.476165,
            2431.5
          ],
          [
            11.836893,
            46.476014,
            2426.3
          ],
          [
            11.837427,
            46.475602,
            2409.3
          ],
          [
            11.837732,
            46.47539,
            2402.5
          ],
          [
            11.837813,
            46.47532,
            2400
          ],
          [
            11.837938,
            46.475175,
            2394.3
          ],
          [
            11.838029,
            46.475043,
            2388
          ],
          [
            11.838199,
            46.474855,
            2382.3
          ],
          [
            11.838331,
            46.474777,
            2382.3
          ],
          [
            11.839371,
            46.474281,
            2379.8
          ],
          [
            11.839394,
            46.474337,
            2382.3
          ],
          [
            11.839431,
            46.474367,
            2383.8
          ],
          [
            11.839652,
            46.474377,
            2379
          ],
          [
            11.839926,
            46.474452,
            2375.8
          ],
          [
            11.840155,
            46.474479,
            2372.3
          ],
          [
            11.840434,
            46.474649,
            2371.8
          ],
          [
            11.840501,
            46.474717,
            2372
          ],
          [
            11.840669,
            46.474773,
            2372.3
          ],
          [
            11.840762,
            46.474796,
            2373
          ],
          [
            11.840949,
            46.474785,
            2371.5
          ],
          [
            11.841108,
            46.474812,
            2373.8
          ],
          [
            11.841308,
            46.474895,
            2372
          ],
          [
            11.841493,
            46.47502,
            2369.8
          ],
          [
            11.841583,
            46.47513,
            2372.3
          ],
          [
            11.841673,
            46.475167,
            2372
          ],
          [
            11.841871,
            46.475135,
            2371.8
          ],
          [
            11.842176,
            46.475151,
            2370.8
          ],
          [
            11.842307,
            46.475223,
            2371
          ],
          [
            11.842351,
            46.475274,
            2372.5
          ],
          [
            11.842373,
            46.475333,
            2375.5
          ],
          [
            11.842425,
            46.475383,
            2376.8
          ],
          [
            11.842521,
            46.475415,
            2375.5
          ],
          [
            11.842667,
            46.475488,
            2376.8
          ],
          [
            11.842779,
            46.475522,
            2376.3
          ],
          [
            11.842867,
            46.47552,
            2380
          ],
          [
            11.842971,
            46.475451,
            2380.5
          ],
          [
            11.843146,
            46.47532,
            2384
          ],
          [
            11.84322,
            46.475199,
            2381
          ],
          [
            11.843647,
            46.474975,
            2383.8
          ],
          [
            11.843824,
            46.474934,
            2384
          ],
          [
            11.843979,
            46.474883,
            2381.8
          ],
          [
            11.844179,
            46.474849,
            2379.3
          ],
          [
            11.844348,
            46.474839,
            2377.5
          ],
          [
            11.844442,
            46.474871,
            2379
          ],
          [
            11.844521,
            46.47491,
            2379
          ],
          [
            11.844705,
            46.474964,
            2376.3
          ],
          [
            11.844835,
            46.475046,
            2376.5
          ],
          [
            11.844958,
            46.475135,
            2378.3
          ],
          [
            11.845073,
            46.475202,
            2379.8
          ],
          [
            11.845248,
            46.475222,
            2376
          ],
          [
            11.845432,
            46.475258,
            2374.3
          ],
          [
            11.845624,
            46.475356,
            2371.8
          ],
          [
            11.845695,
            46.475378,
            2370.5
          ],
          [
            11.845758,
            46.475296,
            2372.3
          ],
          [
            11.845875,
            46.475231,
            2371
          ],
          [
            11.846097,
            46.475153,
            2370.5
          ],
          [
            11.846925,
            46.474969,
            2372.8
          ],
          [
            11.847208,
            46.474948,
            2372.3
          ],
          [
            11.84745,
            46.474952,
            2370.8
          ],
          [
            11.847485,
            46.474979,
            2372.5
          ],
          [
            11.847633,
            46.475018,
            2375.3
          ],
          [
            11.847786,
            46.475075,
            2379.5
          ],
          [
            11.847929,
            46.475139,
            2383
          ],
          [
            11.848047,
            46.47516,
            2383
          ],
          [
            11.848163,
            46.475207,
            2384
          ],
          [
            11.848274,
            46.47512,
            2383
          ],
          [
            11.848494,
            46.474925,
            2386.8
          ],
          [
            11.848679,
            46.474657,
            2385.5
          ],
          [
            11.848758,
            46.474489,
            2386
          ],
          [
            11.848755,
            46.474412,
            2385
          ],
          [
            11.848816,
            46.474201,
            2387.8
          ],
          [
            11.848813,
            46.473997,
            2387
          ],
          [
            11.848802,
            46.473941,
            2386.3
          ],
          [
            11.848846,
            46.473868,
            2388.3
          ],
          [
            11.848907,
            46.473679,
            2388.5
          ],
          [
            11.848977,
            46.473601,
            2390.3
          ],
          [
            11.849094,
            46.473337,
            2392
          ],
          [
            11.849247,
            46.473223,
            2393
          ],
          [
            11.849446,
            46.473123,
            2393.5
          ],
          [
            11.849763,
            46.473048,
            2393.5
          ],
          [
            11.850165,
            46.473013,
            2389.8
          ],
          [
            11.850361,
            46.47305,
            2388.5
          ],
          [
            11.850521,
            46.47307,
            2387.5
          ],
          [
            11.850708,
            46.473048,
            2385.5
          ],
          [
            11.851431,
            46.472892,
            2384
          ],
          [
            11.851775,
            46.472789,
            2383.8
          ],
          [
            11.85211,
            46.472783,
            2384
          ],
          [
            11.852307,
            46.472827,
            2385
          ],
          [
            11.852543,
            46.472853,
            2382.8
          ],
          [
            11.852676,
            46.472905,
            2382
          ],
          [
            11.852792,
            46.472974,
            2382.3
          ],
          [
            11.853067,
            46.472965,
            2379.5
          ],
          [
            11.853161,
            46.472934,
            2378
          ],
          [
            11.853268,
            46.472939,
            2378.8
          ],
          [
            11.85338,
            46.472913,
            2378
          ],
          [
            11.853653,
            46.472909,
            2379
          ],
          [
            11.854162,
            46.472876,
            2379.5
          ],
          [
            11.85439,
            46.472849,
            2380
          ],
          [
            11.854873,
            46.472683,
            2384.3
          ],
          [
            11.854983,
            46.472665,
            2386.8
          ],
          [
            11.855022,
            46.472557,
            2384.5
          ],
          [
            11.855184,
            46.472438,
            2385.8
          ],
          [
            11.855264,
            46.472335,
            2385.3
          ],
          [
            11.85549,
            46.472182,
            2387.5
          ],
          [
            11.855695,
            46.472061,
            2389.8
          ],
          [
            11.855757,
            46.472001,
            2389.8
          ],
          [
            11.855815,
            46.471927,
            2389.8
          ],
          [
            11.855817,
            46.471904,
            2389.3
          ],
          [
            11.856018,
            46.471709,
            2391
          ],
          [
            11.856158,
            46.471598,
            2392.3
          ],
          [
            11.856607,
            46.471289,
            2393.3
          ],
          [
            11.856708,
            46.471244,
            2393.3
          ],
          [
            11.856906,
            46.471186,
            2394
          ],
          [
            11.856988,
            46.471148,
            2393.8
          ],
          [
            11.857115,
            46.471107,
            2394.5
          ],
          [
            11.85717,
            46.471052,
            2394.8
          ],
          [
            11.857208,
            46.470993,
            2394.5
          ],
          [
            11.857251,
            46.470944,
            2394.8
          ],
          [
            11.857294,
            46.470902,
            2395.3
          ],
          [
            11.857357,
            46.470869,
            2396.5
          ],
          [
            11.857606,
            46.470589,
            2398.3
          ],
          [
            11.857719,
            46.47052,
            2399
          ],
          [
            11.85779,
            46.470489,
            2399.3
          ],
          [
            11.857935,
            46.470448,
            2399.5
          ],
          [
            11.858015,
            46.470446,
            2400.5
          ],
          [
            11.858077,
            46.470435,
            2401
          ],
          [
            11.858403,
            46.470334,
            2401.3
          ],
          [
            11.858595,
            46.470296,
            2404.3
          ],
          [
            11.858633,
            46.470227,
            2402.5
          ],
          [
            11.858899,
            46.470117,
            2405
          ],
          [
            11.859004,
            46.470084,
            2405.3
          ],
          [
            11.859613,
            46.470044,
            2412
          ],
          [
            11.860138,
            46.469877,
            2413.5
          ],
          [
            11.860265,
            46.469798,
            2413
          ],
          [
            11.860513,
            46.469741,
            2419.3
          ],
          [
            11.86083,
            46.469529,
            2420.5
          ],
          [
            11.861207,
            46.469326,
            2421.3
          ],
          [
            11.861637,
            46.469189,
            2428.3
          ],
          [
            11.861814,
            46.469175,
            2431.5
          ],
          [
            11.861975,
            46.469133,
            2431
          ],
          [
            11.862206,
            46.469139,
            2433
          ],
          [
            11.862369,
            46.469159,
            2433
          ],
          [
            11.862473,
            46.469183,
            2433.3
          ],
          [
            11.862502,
            46.46922,
            2434.8
          ],
          [
            11.862509,
            46.469268,
            2436.8
          ],
          [
            11.862535,
            46.469294,
            2436.8
          ],
          [
            11.862708,
            46.469395,
            2434
          ],
          [
            11.862843,
            46.469417,
            2429.8
          ],
          [
            11.863262,
            46.469543,
            2426.3
          ],
          [
            11.863446,
            46.469632,
            2424.5
          ],
          [
            11.863525,
            46.469691,
            2424.3
          ],
          [
            11.863582,
            46.469837,
            2425
          ],
          [
            11.863644,
            46.469942,
            2423.5
          ],
          [
            11.863612,
            46.469978,
            2425.5
          ],
          [
            11.863627,
            46.470006,
            2425.8
          ],
          [
            11.863676,
            46.470018,
            2424.8
          ],
          [
            11.863778,
            46.470063,
            2424
          ],
          [
            11.863884,
            46.470134,
            2424.8
          ],
          [
            11.864271,
            46.47022,
            2424
          ],
          [
            11.864564,
            46.470345,
            2425
          ],
          [
            11.864917,
            46.470673,
            2424.3
          ],
          [
            11.865167,
            46.470876,
            2421.5
          ],
          [
            11.865239,
            46.470975,
            2421.5
          ],
          [
            11.865529,
            46.471196,
            2420.8
          ],
          [
            11.865515,
            46.47123,
            2422
          ],
          [
            11.865563,
            46.471299,
            2423.3
          ],
          [
            11.865918,
            46.47152,
            2428.8
          ],
          [
            11.866003,
            46.471537,
            2429.5
          ],
          [
            11.866364,
            46.471712,
            2436.8
          ],
          [
            11.866672,
            46.471911,
            2444.3
          ],
          [
            11.866911,
            46.472119,
            2449.8
          ],
          [
            11.866865,
            46.472147,
            2450
          ],
          [
            11.866651,
            46.472318,
            2453
          ],
          [
            11.86641,
            46.47242,
            2456
          ],
          [
            11.866218,
            46.47249,
            2460.3
          ],
          [
            11.866068,
            46.47251,
            2463
          ],
          [
            11.865973,
            46.472515,
            2464.8
          ],
          [
            11.865926,
            46.472535,
            2466
          ],
          [
            11.865919,
            46.472562,
            2466.8
          ],
          [
            11.865986,
            46.472624,
            2467.5
          ],
          [
            11.866013,
            46.472686,
            2469.3
          ],
          [
            11.866178,
            46.472753,
            2471.3
          ],
          [
            11.866259,
            46.472731,
            2470.3
          ],
          [
            11.866392,
            46.472724,
            2470.3
          ],
          [
            11.866546,
            46.472744,
            2478.3
          ],
          [
            11.86687,
            46.472789,
            2478.3
          ],
          [
            11.867093,
            46.472796,
            2481.3
          ],
          [
            11.867282,
            46.472785,
            2483.5
          ],
          [
            11.867881,
            46.472653,
            2486
          ],
          [
            11.868292,
            46.472637,
            2491.3
          ],
          [
            11.86842,
            46.472635,
            2493.3
          ],
          [
            11.868672,
            46.472633,
            2497.5
          ],
          [
            11.86899,
            46.472609,
            2500.3
          ],
          [
            11.86934,
            46.472621,
            2503.5
          ],
          [
            11.870088,
            46.472773,
            2509
          ],
          [
            11.870347,
            46.472815,
            2511.5
          ],
          [
            11.870608,
            46.472818,
            2513.3
          ],
          [
            11.870767,
            46.472833,
            2513.8
          ],
          [
            11.87081,
            46.472872,
            2513.5
          ],
          [
            11.87124,
            46.472699,
            2517.8
          ],
          [
            11.871523,
            46.472515,
            2513.8
          ],
          [
            11.871693,
            46.472376,
            2512
          ],
          [
            11.871842,
            46.47219,
            2506.5
          ],
          [
            11.872031,
            46.472156,
            2512
          ],
          [
            11.872384,
            46.472041,
            2518
          ],
          [
            11.87273,
            46.471948,
            2523.5
          ],
          [
            11.873619,
            46.472026,
            2547.3
          ],
          [
            11.87366,
            46.47203,
            2548.5
          ],
          [
            11.873981,
            46.471987,
            2553.5
          ],
          [
            11.87395,
            46.472083,
            2558.8
          ],
          [
            11.873776,
            46.472216,
            2563
          ],
          [
            11.873802,
            46.472308,
            2570
          ],
          [
            11.873729,
            46.472347,
            2571.3
          ],
          [
            11.873801,
            46.472438,
            2579
          ],
          [
            11.873392,
            46.472679,
            2585.3
          ],
          [
            11.873275,
            46.472731,
            2586.3
          ],
          [
            11.873094,
            46.472837,
            2589.8
          ],
          [
            11.873354,
            46.472923,
            2593.5
          ],
          [
            11.873614,
            46.472858,
            2596.3
          ],
          [
            11.873668,
            46.472941,
            2598.3
          ],
          [
            11.873614,
            46.472858,
            2596.3
          ],
          [
            11.873354,
            46.472923,
            2593.5
          ],
          [
            11.873094,
            46.472837,
            2589.8
          ],
          [
            11.873275,
            46.472731,
            2586.3
          ],
          [
            11.873392,
            46.472679,
            2585.3
          ],
          [
            11.873801,
            46.472438,
            2579
          ],
          [
            11.873729,
            46.472347,
            2571.3
          ],
          [
            11.873802,
            46.472308,
            2570
          ],
          [
            11.873776,
            46.472216,
            2563
          ],
          [
            11.87395,
            46.472083,
            2558.8
          ],
          [
            11.873981,
            46.471987,
            2553.5
          ],
          [
            11.874427,
            46.471853,
            2560
          ],
          [
            11.874713,
            46.471715,
            2567.3
          ],
          [
            11.874741,
            46.471618,
            2565.8
          ],
          [
            11.87484,
            46.471538,
            2568.5
          ],
          [
            11.874991,
            46.471215,
            2568.5
          ],
          [
            11.875206,
            46.471041,
            2572.3
          ],
          [
            11.875387,
            46.470881,
            2578.8
          ],
          [
            11.875248,
            46.47066,
            2568.3
          ],
          [
            11.875051,
            46.470373,
            2557.5
          ],
          [
            11.875054,
            46.470121,
            2555
          ],
          [
            11.875128,
            46.470002,
            2556
          ],
          [
            11.875054,
            46.469842,
            2548.3
          ],
          [
            11.875567,
            46.469927,
            2557
          ],
          [
            11.876042,
            46.469951,
            2557
          ],
          [
            11.876929,
            46.470002,
            2565.8
          ],
          [
            11.877063,
            46.469977,
            2568
          ],
          [
            11.877292,
            46.469933,
            2569.3
          ],
          [
            11.877423,
            46.470013,
            2571
          ],
          [
            11.877763,
            46.469957,
            2566
          ],
          [
            11.878508,
            46.469606,
            2573.8
          ],
          [
            11.878863,
            46.46937,
            2571.8
          ],
          [
            11.879562,
            46.469021,
            2575.5
          ],
          [
            11.880056,
            46.468787,
            2576.3
          ],
          [
            11.880276,
            46.468567,
            2570
          ],
          [
            11.880342,
            46.468501,
            2567
          ],
          [
            11.880313,
            46.468441,
            2562.8
          ],
          [
            11.880327,
            46.46832,
            2556.3
          ],
          [
            11.88044,
            46.46823,
            2556.3
          ],
          [
            11.880548,
            46.468172,
            2558
          ],
          [
            11.88065,
            46.468009,
            2553
          ],
          [
            11.880693,
            46.467866,
            2552.5
          ],
          [
            11.880774,
            46.467767,
            2556.5
          ],
          [
            11.880985,
            46.467671,
            2557.3
          ],
          [
            11.881023,
            46.467602,
            2555.5
          ],
          [
            11.881123,
            46.46754,
            2557.3
          ],
          [
            11.881235,
            46.467484,
            2562
          ],
          [
            11.881327,
            46.467413,
            2562.5
          ],
          [
            11.881552,
            46.467392,
            2570.3
          ],
          [
            11.881675,
            46.46737,
            2572.5
          ],
          [
            11.882011,
            46.467239,
            2563.8
          ],
          [
            11.882115,
            46.466947,
            2568.8
          ],
          [
            11.882275,
            46.466869,
            2564.3
          ],
          [
            11.882392,
            46.466764,
            2558.3
          ],
          [
            11.882445,
            46.466726,
            2558.3
          ],
          [
            11.882525,
            46.466753,
            2562.3
          ],
          [
            11.882586,
            46.466805,
            2564.5
          ],
          [
            11.882592,
            46.466874,
            2564.5
          ],
          [
            11.882541,
            46.466967,
            2563.5
          ],
          [
            11.882764,
            46.466848,
            2565.5
          ],
          [
            11.882814,
            46.466704,
            2573
          ],
          [
            11.882985,
            46.466515,
            2569
          ],
          [
            11.883148,
            46.46641,
            2573.3
          ],
          [
            11.883318,
            46.466393,
            2570
          ],
          [
            11.883609,
            46.466207,
            2556.5
          ],
          [
            11.883697,
            46.466081,
            2562.8
          ],
          [
            11.883848,
            46.465993,
            2560.3
          ],
          [
            11.88401,
            46.465849,
            2559.3
          ],
          [
            11.884122,
            46.465679,
            2549.8
          ],
          [
            11.884208,
            46.465658,
            2551.8
          ],
          [
            11.884278,
            46.465727,
            2563.3
          ],
          [
            11.884607,
            46.465603,
            2555.3
          ],
          [
            11.884798,
            46.465522,
            2555
          ],
          [
            11.885114,
            46.465357,
            2560.8
          ],
          [
            11.885249,
            46.465238,
            2557.5
          ],
          [
            11.885388,
            46.464955,
            2549.8
          ],
          [
            11.885467,
            46.464851,
            2546.5
          ],
          [
            11.885443,
            46.464782,
            2535.8
          ],
          [
            11.885524,
            46.464698,
            2530.3
          ],
          [
            11.885583,
            46.464544,
            2522
          ],
          [
            11.885718,
            46.464459,
            2526
          ],
          [
            11.885808,
            46.464368,
            2524
          ],
          [
            11.885878,
            46.464269,
            2518
          ],
          [
            11.885882,
            46.464183,
            2509
          ],
          [
            11.886062,
            46.464135,
            2513.5
          ],
          [
            11.88617,
            46.464092,
            2516.5
          ],
          [
            11.886265,
            46.463974,
            2513.3
          ],
          [
            11.88637,
            46.463925,
            2515
          ],
          [
            11.88648,
            46.46393,
            2525
          ],
          [
            11.886614,
            46.463835,
            2527
          ],
          [
            11.886668,
            46.463874,
            2528
          ],
          [
            11.886801,
            46.463815,
            2529.8
          ],
          [
            11.887007,
            46.463673,
            2533
          ],
          [
            11.887684,
            46.463617,
            2540.8
          ],
          [
            11.887924,
            46.463587,
            2543.5
          ],
          [
            11.888134,
            46.463648,
            2546.3
          ],
          [
            11.888313,
            46.463584,
            2546.3
          ]
        ]
      }
    },
    {
      "type": "Feature",
      "properties": {
        "kind": "waypoint",
        "name": "Rifugio Boè",
        "show_label": true
      },
      "geometry": {
        "type": "Point",
        "coordinates": [
          11.823167,
          46.514696,
          2869
        ]
      }
    },
    {
      "type": "Feature",
      "properties": {
        "kind": "waypoint",
        "name": "Forcella Pordoi",
        "show_label": false
      },
      "geometry": {
        "type": "Point",
        "coordinates": [
          11.812326,
          46.501765,
          2848
        ]
      }
    },
    {
      "type": "Feature",
      "properties": {
        "kind": "waypoint",
        "name": "Passo Pordoi",
        "show_label": true
      },
      "geometry": {
        "type": "Point",
        "coordinates": [
          11.812194,
          46.487552,
          2239
        ]
      }
    },
    {
      "type": "Feature",
      "properties": {
        "kind": "waypoint",
        "name": "Rifugio Viel dal Pan",
        "show_label": true
      },
      "geometry": {
        "type": "Point",
        "coordinates": [
          11.834177,
          46.474284,
          2432
        ]
      }
    },
    {
      "type": "Feature",
      "properties": {
        "kind": "waypoint",
        "name": "Porta Vescovo",
        "show_label": false
      },
      "geometry": {
        "type": "Point",
        "coordinates": [
          11.866515,
          46.472856,
          2478
        ]
      }
    },
    {
      "type": "Feature",
      "properties": {
        "kind": "waypoint",
        "name": "Ferrata Trincee",
        "show_label": false
      },
      "geometry": {
        "type": "Point",
        "coordinates": [
          11.880342,
          46.468501,
          2550
        ]
      }
    },
    {
      "type": "Feature",
      "properties": {
        "kind": "waypoint",
        "name": "Bivacco Bontadini",
        "show_label": true
      },
      "geometry": {
        "type": "Point",
        "coordinates": [
          11.888313,
          46.463584,
          2546
        ]
      }
    }
  ]
}
