{
  "type": "FeatureCollection",
  "features": [
    {
      "type": "Feature",
      "properties": {
        "kind": "route",
        "name": "День 6 · Passo delle Selle → Passo San Pellegrino",
        "distance_km": 5.047,
        "ascent_m": 1,
        "source": "BRouter / OpenStreetMap"
      },
      "geometry": {
        "type": "LineString",
        "coordinates": [
          [
            11.762657,
            46.397024,
            2527.5
          ],
          [
            11.762933,
            46.39738,
            2523.3
          ],
          [
            11.763103,
            46.397503,
            2518.8
          ],
          [
            11.76331,
            46.397564,
            2516
          ],
          [
            11.763522,
            46.397567,
            2511.5
          ],
          [
            11.763703,
            46.397535,
            2507.3
          ],
          [
            11.764152,
            46.397363,
            2494.5
          ],
          [
            11.764313,
            46.397261,
            2488.8
          ],
          [
            11.764411,
            46.397181,
            2484.5
          ],
          [
            11.764632,
            46.397076,
            2479.3
          ],
          [
            11.764919,
            46.396926,
            2472.8
          ],
          [
            11.764875,
            46.396857,
            2472.5
          ],
          [
            11.764771,
            46.396831,
            2472.5
          ],
          [
            11.764667,
            46.396855,
            2473
          ],
          [
            11.76458,
            46.396846,
            2473.8
          ],
          [
            11.764555,
            46.396781,
            2473.8
          ],
          [
            11.764476,
            46.396712,
            2474.5
          ],
          [
            11.764263,
            46.396614,
            2475.5
          ],
          [
            11.764019,
            46.396401,
            2476
          ],
          [
            11.763884,
            46.396218,
            2472.8
          ],
          [
            11.763747,
            46.395909,
            2466
          ],
          [
            11.763783,
            46.395865,
            2463.5
          ],
          [
            11.763911,
            46.395843,
            2460
          ],
          [
            11.763928,
            46.395802,
            2458.5
          ],
          [
            11.76389,
            46.395714,
            2456.5
          ],
          [
            11.763669,
            46.395425,
            2453.8
          ],
          [
            11.763379,
            46.394987,
            2449
          ],
          [
            11.763418,
            46.39492,
            2448
          ],
          [
            11.763504,
            46.394901,
            2446.5
          ],
          [
            11.763787,
            46.394954,
            2442.8
          ],
          [
            11.764254,
            46.395056,
            2437.5
          ],
          [
            11.764668,
            46.395165,
            2431.3
          ],
          [
            11.764812,
            46.395188,
            2429.3
          ],
          [
            11.764877,
            46.395156,
            2427.5
          ],
          [
            11.7649,
            46.395091,
            2425.5
          ],
          [
            11.764814,
            46.394962,
            2423.3
          ],
          [
            11.764619,
            46.39477,
            2420
          ],
          [
            11.764619,
            46.39462,
            2415
          ],
          [
            11.764512,
            46.394311,
            2408.8
          ],
          [
            11.764534,
            46.394148,
            2405
          ],
          [
            11.764802,
            46.393849,
            2396.3
          ],
          [
            11.764837,
            46.393761,
            2393.8
          ],
          [
            11.764809,
            46.393681,
            2392.5
          ],
          [
            11.764744,
            46.393591,
            2391.5
          ],
          [
            11.76473,
            46.393553,
            2391.3
          ],
          [
            11.764759,
            46.393496,
            2390.3
          ],
          [
            11.76507,
            46.393418,
            2385
          ],
          [
            11.765429,
            46.393258,
            2377
          ],
          [
            11.765751,
            46.393058,
            2370
          ],
          [
            11.765931,
            46.392753,
            2364.3
          ],
          [
            11.766034,
            46.392505,
            2360.5
          ],
          [
            11.766143,
            46.392367,
            2359
          ],
          [
            11.766336,
            46.392174,
            2355.8
          ],
          [
            11.766808,
            46.391873,
            2347
          ],
          [
            11.766905,
            46.391804,
            2344.5
          ],
          [
            11.76698,
            46.391573,
            2340.5
          ],
          [
            11.767194,
            46.39153,
            2337.3
          ],
          [
            11.767709,
            46.391619,
            2332.5
          ],
          [
            11.767988,
            46.391624,
            2330.3
          ],
          [
            11.768589,
            46.391659,
            2326
          ],
          [
            11.769362,
            46.391809,
            2322.5
          ],
          [
            11.769533,
            46.391702,
            2321.8
          ],
          [
            11.770048,
            46.391101,
            2320
          ],
          [
            11.770155,
            46.390843,
            2319.3
          ],
          [
            11.770778,
            46.390543,
            2313.3
          ],
          [
            11.770875,
            46.390543,
            2312.3
          ],
          [
            11.771057,
            46.390543,
            2310.5
          ],
          [
            11.771829,
            46.390371,
            2302.5
          ],
          [
            11.772237,
            46.390436,
            2300
          ],
          [
            11.772516,
            46.390371,
            2296.8
          ],
          [
            11.772752,
            46.390436,
            2294
          ],
          [
            11.772902,
            46.390564,
            2293
          ],
          [
            11.773331,
            46.390736,
            2289.3
          ],
          [
            11.773717,
            46.390972,
            2285.5
          ],
          [
            11.773846,
            46.39123,
            2284.8
          ],
          [
            11.773846,
            46.391444,
            2284.3
          ],
          [
            11.77376,
            46.391637,
            2284.3
          ],
          [
            11.773932,
            46.391702,
            2283.3
          ],
          [
            11.774049,
            46.391702,
            2282
          ],
          [
            11.774361,
            46.391702,
            2280.8
          ],
          [
            11.774683,
            46.391788,
            2279.8
          ],
          [
            11.775048,
            46.39183,
            2278.3
          ],
          [
            11.775556,
            46.392156,
            2274.8
          ],
          [
            11.775584,
            46.392174,
            2274.5
          ],
          [
            11.775893,
            46.392023,
            2268.8
          ],
          [
            11.77607,
            46.391928,
            2267
          ],
          [
            11.776207,
            46.391903,
            2265.8
          ],
          [
            11.776317,
            46.391869,
            2264.5
          ],
          [
            11.776464,
            46.391853,
            2262.3
          ],
          [
            11.776555,
            46.391819,
            2259.8
          ],
          [
            11.776646,
            46.391751,
            2258
          ],
          [
            11.776727,
            46.391714,
            2257
          ],
          [
            11.776958,
            46.391745,
            2253.8
          ],
          [
            11.777344,
            46.391745,
            2246.8
          ],
          [
            11.777478,
            46.391714,
            2244.8
          ],
          [
            11.777583,
            46.391647,
            2244
          ],
          [
            11.77787,
            46.391497,
            2241.5
          ],
          [
            11.778009,
            46.391475,
            2240.3
          ],
          [
            11.778159,
            46.391486,
            2239
          ],
          [
            11.778395,
            46.391552,
            2238.5
          ],
          [
            11.778513,
            46.391534,
            2238.3
          ],
          [
            11.778747,
            46.391433,
            2237
          ],
          [
            11.779004,
            46.391407,
            2236.3
          ],
          [
            11.779141,
            46.391359,
            2235.3
          ],
          [
            11.780106,
            46.390844,
            2232.5
          ],
          [
            11.780393,
            46.390681,
            2230.5
          ],
          [
            11.780813,
            46.390463,
            2227.3
          ],
          [
            11.781027,
            46.390325,
            2224.8
          ],
          [
            11.781217,
            46.390226,
            2223.3
          ],
          [
            11.781657,
            46.389973,
            2219.3
          ],
          [
            11.781818,
            46.389861,
            2218
          ],
          [
            11.781953,
            46.389783,
            2217
          ],
          [
            11.782147,
            46.389701,
            2215.8
          ],
          [
            11.782318,
            46.389653,
            2215
          ],
          [
            11.782723,
            46.389504,
            2210.5
          ],
          [
            11.783223,
            46.389277,
            2202
          ],
          [
            11.783412,
            46.389204,
            2199
          ],
          [
            11.783603,
            46.389142,
            2195.3
          ],
          [
            11.78425,
            46.388971,
            2186.3
          ],
          [
            11.784427,
            46.388913,
            2184.5
          ],
          [
            11.7849,
            46.388718,
            2178.8
          ],
          [
            11.785085,
            46.388655,
            2176.8
          ],
          [
            11.785694,
            46.388484,
            2169.8
          ],
          [
            11.786228,
            46.388309,
            2165.3
          ],
          [
            11.786687,
            46.38819,
            2162.3
          ],
          [
            11.786827,
            46.388169,
            2161.8
          ],
          [
            11.786952,
            46.388167,
            2161.5
          ],
          [
            11.787172,
            46.388201,
            2159.8
          ],
          [
            11.787322,
            46.388207,
            2158.3
          ],
          [
            11.787439,
            46.388201,
            2156.8
          ],
          [
            11.787969,
            46.388146,
            2148.5
          ],
          [
            11.788171,
            46.388118,
            2145.5
          ],
          [
            11.788366,
            46.38807,
            2142.8
          ],
          [
            11.788797,
            46.387923,
            2137.8
          ],
          [
            11.789415,
            46.387798,
            2132
          ],
          [
            11.789516,
            46.387796,
            2130.8
          ],
          [
            11.789596,
            46.387818,
            2129.3
          ],
          [
            11.789655,
            46.387862,
            2128
          ],
          [
            11.789792,
            46.388029,
            2124.5
          ],
          [
            11.789887,
            46.388114,
            2123.5
          ],
          [
            11.790008,
            46.388186,
            2122.8
          ],
          [
            11.790286,
            46.388305,
            2119.3
          ],
          [
            11.790495,
            46.388371,
            2117.5
          ],
          [
            11.790599,
            46.388371,
            2116
          ],
          [
            11.79069,
            46.388362,
            2115
          ],
          [
            11.790819,
            46.388333,
            2113
          ],
          [
            11.791389,
            46.388168,
            2105.8
          ],
          [
            11.791812,
            46.388083,
            2099.8
          ],
          [
            11.791975,
            46.388077,
            2097.8
          ],
          [
            11.792162,
            46.388101,
            2095.5
          ],
          [
            11.792367,
            46.388157,
            2093
          ],
          [
            11.792525,
            46.388229,
            2090.8
          ],
          [
            11.792569,
            46.388257,
            2090.3
          ],
          [
            11.792655,
            46.38828,
            2089.3
          ],
          [
            11.792727,
            46.388277,
            2088.3
          ],
          [
            11.792771,
            46.388257,
            2087.5
          ],
          [
            11.792812,
            46.388218,
            2087.3
          ],
          [
            11.792833,
            46.388144,
            2086.8
          ],
          [
            11.792832,
            46.388094,
            2086
          ],
          [
            11.79282,
            46.38806,
            2085.8
          ],
          [
            11.792775,
            46.387986,
            2085
          ],
          [
            11.792548,
            46.387646,
            2079
          ],
          [
            11.792492,
            46.387532,
            2077
          ],
          [
            11.792473,
            46.387451,
            2075.8
          ],
          [
            11.792471,
            46.387377,
            2074.8
          ],
          [
            11.792505,
            46.387304,
            2073.5
          ],
          [
            11.792562,
            46.387237,
            2070.5
          ],
          [
            11.792678,
            46.387138,
            2066.3
          ],
          [
            11.792782,
            46.387073,
            2064
          ],
          [
            11.79283,
            46.387028,
            2063.8
          ],
          [
            11.792869,
            46.386956,
            2063
          ],
          [
            11.792881,
            46.386883,
            2062
          ],
          [
            11.792856,
            46.386798,
            2061.8
          ],
          [
            11.792758,
            46.386607,
            2059.5
          ],
          [
            11.79273,
            46.386525,
            2057.5
          ],
          [
            11.792652,
            46.386463,
            2055.8
          ],
          [
            11.792441,
            46.38628,
            2050.8
          ],
          [
            11.792303,
            46.386172,
            2048.3
          ],
          [
            11.792031,
            46.385982,
            2044
          ],
          [
            11.791931,
            46.385897,
            2042.3
          ],
          [
            11.791875,
            46.385829,
            2040.3
          ],
          [
            11.791769,
            46.385649,
            2035.5
          ],
          [
            11.791651,
            46.38551,
            2034.3
          ],
          [
            11.791545,
            46.385358,
            2032.8
          ],
          [
            11.791503,
            46.385267,
            2030.5
          ],
          [
            11.791458,
            46.385139,
            2027.5
          ],
          [
            11.791433,
            46.385048,
            2025
          ],
          [
            11.791433,
            46.384976,
            2023
          ],
          [
            11.791448,
            46.38491,
            2021.5
          ],
          [
            11.791468,
            46.384867,
            2020.5
          ],
          [
            11.791635,
            46.384573,
            2014.8
          ],
          [
            11.791641,
            46.3845,
            2013.5
          ],
          [
            11.79162,
            46.384421,
            2012
          ],
          [
            11.791536,
            46.384309,
            2008.8
          ],
          [
            11.791441,
            46.384228,
            2007
          ],
          [
            11.791328,
            46.384155,
            2005.5
          ],
          [
            11.790676,
            46.38377,
            1997
          ],
          [
            11.790685,
            46.383613,
            1994.5
          ],
          [
            11.790809,
            46.383567,
            1993
          ],
          [
            11.791106,
            46.383637,
            1992.8
          ],
          [
            11.791338,
            46.383673,
            1990.8
          ],
          [
            11.791459,
            46.383658,
            1989
          ],
          [
            11.791669,
            46.383652,
            1986.8
          ],
          [
            11.792363,
            46.383475,
            1979
          ],
          [
            11.792614,
            46.383367,
            1976
          ],
          [
            11.792696,
            46.383301,
            1974
          ],
          [
            11.792857,
            46.383121,
            1969
          ],
          [
            11.793014,
            46.38298,
            1964.5
          ],
          [
            11.793115,
            46.382832,
            1959.3
          ],
          [
            11.793237,
            46.382711,
            1954.8
          ],
          [
            11.793345,
            46.382569,
            1950.5
          ],
          [
            11.793398,
            46.382339,
            1946
          ],
          [
            11.793443,
            46.3823,
            1945
          ],
          [
            11.793536,
            46.382268,
            1943.5
          ],
          [
            11.793614,
            46.38222,
            1941.8
          ],
          [
            11.793697,
            46.382141,
            1940.8
          ],
          [
            11.793781,
            46.382012,
            1938.8
          ],
          [
            11.793844,
            46.381966,
            1937.5
          ],
          [
            11.793915,
            46.381946,
            1936.8
          ],
          [
            11.794012,
            46.381941,
            1936.5
          ],
          [
            11.794131,
            46.381894,
            1935.5
          ],
          [
            11.794237,
            46.381891,
            1935
          ],
          [
            11.794211,
            46.381789,
            1934.3
          ],
          [
            11.794193,
            46.381668,
            1933
          ],
          [
            11.794215,
            46.381489,
            1931.5
          ],
          [
            11.794296,
            46.381139,
            1928.5
          ],
          [
            11.794339,
            46.381026,
            1927.8
          ],
          [
            11.794394,
            46.380933,
            1927.3
          ],
          [
            11.7945,
            46.380797,
            1926.3
          ],
          [
            11.794554,
            46.380706,
            1925
          ],
          [
            11.794575,
            46.380622,
            1924
          ],
          [
            11.794587,
            46.380405,
            1922.8
          ],
          [
            11.794605,
            46.38026,
            1922.3
          ],
          [
            11.794607,
            46.380139,
            1921.5
          ],
          [
            11.794591,
            46.380002,
            1920.8
          ],
          [
            11.794565,
            46.37987,
            1920
          ],
          [
            11.794514,
            46.379667,
            1918.3
          ],
          [
            11.794481,
            46.379569,
            1917.3
          ],
          [
            11.794424,
            46.379447,
            1916.3
          ],
          [
            11.794182,
            46.379011,
            1914.3
          ],
          [
            11.79402,
            46.378754,
            1914
          ],
          [
            11.793998,
            46.378663,
            1913.8
          ],
          [
            11.794004,
            46.378615,
            1913.5
          ],
          [
            11.793847,
            46.378632,
            1914.3
          ],
          [
            11.793632,
            46.378678,
            1916.3
          ],
          [
            11.793547,
            46.378701,
            1917.3
          ],
          [
            11.793513,
            46.378735,
            1918
          ],
          [
            11.793443,
            46.378704,
            1918.3
          ],
          [
            11.793204,
            46.378621,
            1919
          ],
          [
            11.793129,
            46.378567,
            1918.8
          ],
          [
            11.793063,
            46.378495,
            1918.3
          ],
          [
            11.793002,
            46.378411,
            1917.3
          ],
          [
            11.792945,
            46.378279,
            1916.8
          ],
          [
            11.79172,
            46.378358,
            1920.3
          ]
        ]
      }
    },
    {
      "type": "Feature",
      "properties": {
        "kind": "waypoint",
        "name": "Passo delle Selle",
        "show_label": true
      },
      "geometry": {
        "type": "Point",
        "coordinates": [
          11.762657,
          46.397024,
          2528
        ]
      }
    },
    {
      "type": "Feature",
      "properties": {
        "kind": "waypoint",
        "name": "Passo San Pellegrino",
        "show_label": true
      },
      "geometry": {
        "type": "Point",
        "coordinates": [
          11.79172,
          46.378358,
          1920
        ]
      }
    }
  ]
}
