<?xml version="1.0" encoding="UTF-8"?>
<gpx version="1.1" creator="Dolomites 2026" xmlns="http://www.topografix.com/GPX/1/1" xmlns:xsi="http://www.w3.org/2001/XMLSchema-instance" xsi:schemaLocation="http://www.topografix.com/GPX/1/1 http://www.topografix.com/GPX/1/1/gpx.xsd">
  <metadata><name>День 3 · Boè → Bontadini</name></metadata>
  <wpt lat="46.514696" lon="11.823167"><ele>2869</ele><name>Rifugio Boè</name></wpt>
  <wpt lat="46.501765" lon="11.812326"><ele>2848</ele><name>Forcella Pordoi</name></wpt>
  <wpt lat="46.487552" lon="11.812194"><ele>2239</ele><name>Passo Pordoi</name></wpt>
  <wpt lat="46.474284" lon="11.834177"><ele>2432</ele><name>Rifugio Viel dal Pan</name></wpt>
  <wpt lat="46.472856" lon="11.866515"><ele>2478</ele><name>Porta Vescovo</name></wpt>
  <wpt lat="46.468501" lon="11.880342"><ele>2550</ele><name>Ferrata Trincee</name></wpt>
  <wpt lat="46.463584" lon="11.888313"><ele>2546</ele><name>Bivacco Bontadini</name></wpt>
  <trk>
    <name>День 3 · Boè → Bontadini</name>
    <trkseg>
      <trkpt lat="46.514696" lon="11.823167"><ele>2869</ele></trkpt>
      <trkpt lat="46.514564" lon="11.822943"><ele>2866.8</ele></trkpt>
      <trkpt lat="46.514375" lon="11.822999"><ele>2867</ele></trkpt>
      <trkpt lat="46.514386" lon="11.823189"><ele>2869</ele></trkpt>
      <trkpt lat="46.514481" lon="11.823353"><ele>2870.8</ele></trkpt>
      <trkpt lat="46.5144" lon="11.823438"><ele>2870.8</ele></trkpt>
      <trkpt lat="46.514346" lon="11.823467"><ele>2870.8</ele></trkpt>
      <trkpt lat="46.514217" lon="11.8236"><ele>2870.8</ele></trkpt>
      <trkpt lat="46.514116" lon="11.823598"><ele>2871.3</ele></trkpt>
      <trkpt lat="46.513988" lon="11.823644"><ele>2872.8</ele></trkpt>
      <trkpt lat="46.513563" lon="11.823707"><ele>2876.5</ele></trkpt>
      <trkpt lat="46.51335" lon="11.823639"><ele>2878</ele></trkpt>
      <trkpt lat="46.513205" lon="11.823639"><ele>2882.3</ele></trkpt>
      <trkpt lat="46.513095" lon="11.823666"><ele>2886</ele></trkpt>
      <trkpt lat="46.513032" lon="11.823612"><ele>2887.8</ele></trkpt>
      <trkpt lat="46.513014" lon="11.823558"><ele>2888</ele></trkpt>
      <trkpt lat="46.513021" lon="11.823518"><ele>2887.8</ele></trkpt>
      <trkpt lat="46.513015" lon="11.823456"><ele>2887.8</ele></trkpt>
      <trkpt lat="46.51299" lon="11.823416"><ele>2888.3</ele></trkpt>
      <trkpt lat="46.512928" lon="11.823361"><ele>2890</ele></trkpt>
      <trkpt lat="46.512806" lon="11.823122"><ele>2893</ele></trkpt>
      <trkpt lat="46.512748" lon="11.823072"><ele>2894.3</ele></trkpt>
      <trkpt lat="46.512713" lon="11.822995"><ele>2894.5</ele></trkpt>
      <trkpt lat="46.512657" lon="11.822909"><ele>2894.8</ele></trkpt>
      <trkpt lat="46.512591" lon="11.822837"><ele>2895.3</ele></trkpt>
      <trkpt lat="46.512482" lon="11.82277"><ele>2896</ele></trkpt>
      <trkpt lat="46.512346" lon="11.822742"><ele>2896.8</ele></trkpt>
      <trkpt lat="46.512134" lon="11.822768"><ele>2897.5</ele></trkpt>
      <trkpt lat="46.512044" lon="11.82281"><ele>2897.5</ele></trkpt>
      <trkpt lat="46.511933" lon="11.822879"><ele>2897.5</ele></trkpt>
      <trkpt lat="46.511807" lon="11.822849"><ele>2897</ele></trkpt>
      <trkpt lat="46.511762" lon="11.822852"><ele>2896.8</ele></trkpt>
      <trkpt lat="46.511739" lon="11.822902"><ele>2897</ele></trkpt>
      <trkpt lat="46.511677" lon="11.822917"><ele>2897</ele></trkpt>
      <trkpt lat="46.511594" lon="11.822959"><ele>2896.5</ele></trkpt>
      <trkpt lat="46.511535" lon="11.822985"><ele>2896.3</ele></trkpt>
      <trkpt lat="46.511435" lon="11.823001"><ele>2895.8</ele></trkpt>
      <trkpt lat="46.511381" lon="11.82303"><ele>2895.5</ele></trkpt>
      <trkpt lat="46.511293" lon="11.823059"><ele>2894.5</ele></trkpt>
      <trkpt lat="46.511128" lon="11.823075"><ele>2892.5</ele></trkpt>
      <trkpt lat="46.511096" lon="11.82309"><ele>2892</ele></trkpt>
      <trkpt lat="46.511051" lon="11.823161"><ele>2892</ele></trkpt>
      <trkpt lat="46.510953" lon="11.823177"><ele>2890</ele></trkpt>
      <trkpt lat="46.510892" lon="11.823211"><ele>2889.5</ele></trkpt>
      <trkpt lat="46.510854" lon="11.823187"><ele>2888</ele></trkpt>
      <trkpt lat="46.510795" lon="11.823201"><ele>2886.3</ele></trkpt>
      <trkpt lat="46.510768" lon="11.82329"><ele>2888</ele></trkpt>
      <trkpt lat="46.510737" lon="11.823311"><ele>2887.5</ele></trkpt>
      <trkpt lat="46.510583" lon="11.823319"><ele>2882</ele></trkpt>
      <trkpt lat="46.510556" lon="11.823342"><ele>2882.3</ele></trkpt>
      <trkpt lat="46.510527" lon="11.823382"><ele>2882</ele></trkpt>
      <trkpt lat="46.510471" lon="11.823555"><ele>2886.3</ele></trkpt>
      <trkpt lat="46.510435" lon="11.823589"><ele>2885.5</ele></trkpt>
      <trkpt lat="46.510394" lon="11.823594"><ele>2883</ele></trkpt>
      <trkpt lat="46.51036" lon="11.823615"><ele>2881.8</ele></trkpt>
      <trkpt lat="46.510284" lon="11.823696"><ele>2880</ele></trkpt>
      <trkpt lat="46.510276" lon="11.823744"><ele>2881.5</ele></trkpt>
      <trkpt lat="46.510251" lon="11.823788"><ele>2882</ele></trkpt>
      <trkpt lat="46.51021" lon="11.823817"><ele>2881.3</ele></trkpt>
      <trkpt lat="46.510163" lon="11.823904"><ele>2882.8</ele></trkpt>
      <trkpt lat="46.510018" lon="11.823951"><ele>2877.8</ele></trkpt>
      <trkpt lat="46.509973" lon="11.823988"><ele>2878</ele></trkpt>
      <trkpt lat="46.509775" lon="11.824058"><ele>2876.5</ele></trkpt>
      <trkpt lat="46.509673" lon="11.824078"><ele>2875.5</ele></trkpt>
      <trkpt lat="46.509588" lon="11.82411"><ele>2876</ele></trkpt>
      <trkpt lat="46.509524" lon="11.824122"><ele>2875.8</ele></trkpt>
      <trkpt lat="46.509206" lon="11.824113"><ele>2875.3</ele></trkpt>
      <trkpt lat="46.509166" lon="11.824137"><ele>2876</ele></trkpt>
      <trkpt lat="46.509111" lon="11.824098"><ele>2875.5</ele></trkpt>
      <trkpt lat="46.509088" lon="11.824097"><ele>2875.5</ele></trkpt>
      <trkpt lat="46.509071" lon="11.824117"><ele>2876.3</ele></trkpt>
      <trkpt lat="46.509024" lon="11.824088"><ele>2876</ele></trkpt>
      <trkpt lat="46.509014" lon="11.824053"><ele>2875.3</ele></trkpt>
      <trkpt lat="46.508972" lon="11.823986"><ele>2874</ele></trkpt>
      <trkpt lat="46.508942" lon="11.823952"><ele>2873.5</ele></trkpt>
      <trkpt lat="46.50891" lon="11.823942"><ele>2873.8</ele></trkpt>
      <trkpt lat="46.508823" lon="11.823846"><ele>2873</ele></trkpt>
      <trkpt lat="46.508792" lon="11.823828"><ele>2873</ele></trkpt>
      <trkpt lat="46.508759" lon="11.823811"><ele>2873</ele></trkpt>
      <trkpt lat="46.508643" lon="11.823788"><ele>2874</ele></trkpt>
      <trkpt lat="46.50857" lon="11.823783"><ele>2875</ele></trkpt>
      <trkpt lat="46.508445" lon="11.823702"><ele>2876</ele></trkpt>
      <trkpt lat="46.508339" lon="11.823663"><ele>2877.8</ele></trkpt>
      <trkpt lat="46.508289" lon="11.823596"><ele>2877.8</ele></trkpt>
      <trkpt lat="46.508242" lon="11.823514"><ele>2878.8</ele></trkpt>
      <trkpt lat="46.508201" lon="11.823475"><ele>2879.5</ele></trkpt>
      <trkpt lat="46.508136" lon="11.823344"><ele>2880.3</ele></trkpt>
      <trkpt lat="46.508072" lon="11.823291"><ele>2880.8</ele></trkpt>
      <trkpt lat="46.50802" lon="11.823236"><ele>2881.3</ele></trkpt>
      <trkpt lat="46.507873" lon="11.822995"><ele>2882.5</ele></trkpt>
      <trkpt lat="46.50784" lon="11.82293"><ele>2883</ele></trkpt>
      <trkpt lat="46.50774" lon="11.822611"><ele>2885.5</ele></trkpt>
      <trkpt lat="46.507712" lon="11.822499"><ele>2886.3</ele></trkpt>
      <trkpt lat="46.507673" lon="11.822408"><ele>2886.8</ele></trkpt>
      <trkpt lat="46.507642" lon="11.822367"><ele>2887.3</ele></trkpt>
      <trkpt lat="46.507647" lon="11.822282"><ele>2887.5</ele></trkpt>
      <trkpt lat="46.507701" lon="11.822037"><ele>2887.8</ele></trkpt>
      <trkpt lat="46.507717" lon="11.821936"><ele>2888.3</ele></trkpt>
      <trkpt lat="46.507692" lon="11.821828"><ele>2889.5</ele></trkpt>
      <trkpt lat="46.507695" lon="11.821694"><ele>2890.3</ele></trkpt>
      <trkpt lat="46.507681" lon="11.821533"><ele>2890.5</ele></trkpt>
      <trkpt lat="46.50764" lon="11.821407"><ele>2891.3</ele></trkpt>
      <trkpt lat="46.50757" lon="11.8213"><ele>2891.8</ele></trkpt>
      <trkpt lat="46.507511" lon="11.821195"><ele>2891.5</ele></trkpt>
      <trkpt lat="46.507374" lon="11.820914"><ele>2889.8</ele></trkpt>
      <trkpt lat="46.5073" lon="11.82079"><ele>2889.3</ele></trkpt>
      <trkpt lat="46.507254" lon="11.820668"><ele>2889.5</ele></trkpt>
      <trkpt lat="46.507216" lon="11.82065"><ele>2889.5</ele></trkpt>
      <trkpt lat="46.507183" lon="11.82061"><ele>2889.8</ele></trkpt>
      <trkpt lat="46.507144" lon="11.820579"><ele>2889.8</ele></trkpt>
      <trkpt lat="46.507026" lon="11.820574"><ele>2889.8</ele></trkpt>
      <trkpt lat="46.506921" lon="11.820539"><ele>2890</ele></trkpt>
      <trkpt lat="46.506866" lon="11.820529"><ele>2890.3</ele></trkpt>
      <trkpt lat="46.506829" lon="11.820502"><ele>2890.3</ele></trkpt>
      <trkpt lat="46.50673" lon="11.820487"><ele>2890.5</ele></trkpt>
      <trkpt lat="46.506521" lon="11.820425"><ele>2890.8</ele></trkpt>
      <trkpt lat="46.506377" lon="11.820332"><ele>2890.3</ele></trkpt>
      <trkpt lat="46.506305" lon="11.820247"><ele>2890.3</ele></trkpt>
      <trkpt lat="46.506246" lon="11.820217"><ele>2890.3</ele></trkpt>
      <trkpt lat="46.506148" lon="11.820195"><ele>2890.8</ele></trkpt>
      <trkpt lat="46.506029" lon="11.820128"><ele>2890.8</ele></trkpt>
      <trkpt lat="46.505963" lon="11.820082"><ele>2890.8</ele></trkpt>
      <trkpt lat="46.505835" lon="11.820039"><ele>2891.3</ele></trkpt>
      <trkpt lat="46.505747" lon="11.82004"><ele>2890.8</ele></trkpt>
      <trkpt lat="46.505679" lon="11.820054"><ele>2890.8</ele></trkpt>
      <trkpt lat="46.505563" lon="11.820099"><ele>2890.5</ele></trkpt>
      <trkpt lat="46.50548" lon="11.820145"><ele>2890.5</ele></trkpt>
      <trkpt lat="46.505425" lon="11.820165"><ele>2890.5</ele></trkpt>
      <trkpt lat="46.505387" lon="11.820166"><ele>2890.3</ele></trkpt>
      <trkpt lat="46.505367" lon="11.820153"><ele>2890</ele></trkpt>
      <trkpt lat="46.505361" lon="11.820131"><ele>2889.8</ele></trkpt>
      <trkpt lat="46.505372" lon="11.820077"><ele>2889</ele></trkpt>
      <trkpt lat="46.505342" lon="11.820037"><ele>2888.3</ele></trkpt>
      <trkpt lat="46.50528" lon="11.820057"><ele>2888</ele></trkpt>
      <trkpt lat="46.505197" lon="11.820114"><ele>2886.3</ele></trkpt>
      <trkpt lat="46.505164" lon="11.820118"><ele>2885</ele></trkpt>
      <trkpt lat="46.505079" lon="11.820148"><ele>2882.8</ele></trkpt>
      <trkpt lat="46.504998" lon="11.820188"><ele>2880.8</ele></trkpt>
      <trkpt lat="46.504944" lon="11.820195"><ele>2879.3</ele></trkpt>
      <trkpt lat="46.504886" lon="11.82018"><ele>2877.3</ele></trkpt>
      <trkpt lat="46.5048" lon="11.8202"><ele>2875</ele></trkpt>
      <trkpt lat="46.504701" lon="11.820245"><ele>2872.5</ele></trkpt>
      <trkpt lat="46.504612" lon="11.820307"><ele>2870.3</ele></trkpt>
      <trkpt lat="46.504558" lon="11.820359"><ele>2868.8</ele></trkpt>
      <trkpt lat="46.504432" lon="11.820396"><ele>2865</ele></trkpt>
      <trkpt lat="46.504361" lon="11.820393"><ele>2864.5</ele></trkpt>
      <trkpt lat="46.504173" lon="11.820334"><ele>2863</ele></trkpt>
      <trkpt lat="46.504121" lon="11.820309"><ele>2863.3</ele></trkpt>
      <trkpt lat="46.50409" lon="11.82027"><ele>2863.3</ele></trkpt>
      <trkpt lat="46.503955" lon="11.820212"><ele>2863.5</ele></trkpt>
      <trkpt lat="46.503895" lon="11.820208"><ele>2863.8</ele></trkpt>
      <trkpt lat="46.503798" lon="11.820129"><ele>2864.3</ele></trkpt>
      <trkpt lat="46.503769" lon="11.820126"><ele>2864.8</ele></trkpt>
      <trkpt lat="46.503738" lon="11.820109"><ele>2865</ele></trkpt>
      <trkpt lat="46.503681" lon="11.820035"><ele>2865</ele></trkpt>
      <trkpt lat="46.503562" lon="11.81995"><ele>2866</ele></trkpt>
      <trkpt lat="46.503534" lon="11.819926"><ele>2866.3</ele></trkpt>
      <trkpt lat="46.5035" lon="11.819881"><ele>2866.3</ele></trkpt>
      <trkpt lat="46.503441" lon="11.819844"><ele>2867</ele></trkpt>
      <trkpt lat="46.503404" lon="11.819758"><ele>2866.8</ele></trkpt>
      <trkpt lat="46.503355" lon="11.819674"><ele>2866.8</ele></trkpt>
      <trkpt lat="46.503323" lon="11.819589"><ele>2866</ele></trkpt>
      <trkpt lat="46.503241" lon="11.819528"><ele>2865.5</ele></trkpt>
      <trkpt lat="46.503156" lon="11.819503"><ele>2865</ele></trkpt>
      <trkpt lat="46.503112" lon="11.819458"><ele>2864.3</ele></trkpt>
      <trkpt lat="46.503084" lon="11.819443"><ele>2863.8</ele></trkpt>
      <trkpt lat="46.503025" lon="11.819444"><ele>2864</ele></trkpt>
      <trkpt lat="46.502996" lon="11.819453"><ele>2864.3</ele></trkpt>
      <trkpt lat="46.502967" lon="11.819446"><ele>2864.3</ele></trkpt>
      <trkpt lat="46.502836" lon="11.81934"><ele>2858</ele></trkpt>
      <trkpt lat="46.502745" lon="11.819332"><ele>2858</ele></trkpt>
      <trkpt lat="46.502634" lon="11.819308"><ele>2856.5</ele></trkpt>
      <trkpt lat="46.502535" lon="11.819327"><ele>2857.5</ele></trkpt>
      <trkpt lat="46.502472" lon="11.819312"><ele>2855.8</ele></trkpt>
      <trkpt lat="46.502451" lon="11.81932"><ele>2855.5</ele></trkpt>
      <trkpt lat="46.502412" lon="11.819305"><ele>2853.5</ele></trkpt>
      <trkpt lat="46.502346" lon="11.819324"><ele>2852.5</ele></trkpt>
      <trkpt lat="46.502306" lon="11.819327"><ele>2851.3</ele></trkpt>
      <trkpt lat="46.502231" lon="11.819352"><ele>2850.3</ele></trkpt>
      <trkpt lat="46.502201" lon="11.819397"><ele>2852.3</ele></trkpt>
      <trkpt lat="46.502131" lon="11.819302"><ele>2846.8</ele></trkpt>
      <trkpt lat="46.502063" lon="11.819298"><ele>2846.5</ele></trkpt>
      <trkpt lat="46.501953" lon="11.819241"><ele>2843</ele></trkpt>
      <trkpt lat="46.501885" lon="11.819176"><ele>2840.3</ele></trkpt>
      <trkpt lat="46.50179" lon="11.819028"><ele>2839.3</ele></trkpt>
      <trkpt lat="46.501688" lon="11.818827"><ele>2838.5</ele></trkpt>
      <trkpt lat="46.501627" lon="11.818673"><ele>2838.3</ele></trkpt>
      <trkpt lat="46.501571" lon="11.818567"><ele>2837.3</ele></trkpt>
      <trkpt lat="46.501551" lon="11.81854"><ele>2836.8</ele></trkpt>
      <trkpt lat="46.501521" lon="11.818424"><ele>2835.5</ele></trkpt>
      <trkpt lat="46.501457" lon="11.818269"><ele>2835.3</ele></trkpt>
      <trkpt lat="46.501422" lon="11.818214"><ele>2835.8</ele></trkpt>
      <trkpt lat="46.501403" lon="11.818133"><ele>2835.8</ele></trkpt>
      <trkpt lat="46.5014" lon="11.818063"><ele>2835.8</ele></trkpt>
      <trkpt lat="46.501405" lon="11.817908"><ele>2836</ele></trkpt>
      <trkpt lat="46.501422" lon="11.817585"><ele>2836.5</ele></trkpt>
      <trkpt lat="46.501481" lon="11.81711"><ele>2836.8</ele></trkpt>
      <trkpt lat="46.501487" lon="11.816931"><ele>2837</ele></trkpt>
      <trkpt lat="46.501507" lon="11.816821"><ele>2836.8</ele></trkpt>
      <trkpt lat="46.5015" lon="11.816708"><ele>2838</ele></trkpt>
      <trkpt lat="46.501505" lon="11.816513"><ele>2840</ele></trkpt>
      <trkpt lat="46.501523" lon="11.81642"><ele>2840.3</ele></trkpt>
      <trkpt lat="46.501528" lon="11.816296"><ele>2841.8</ele></trkpt>
      <trkpt lat="46.501583" lon="11.816013"><ele>2843</ele></trkpt>
      <trkpt lat="46.501626" lon="11.815883"><ele>2842.3</ele></trkpt>
      <trkpt lat="46.501663" lon="11.815734"><ele>2841.3</ele></trkpt>
      <trkpt lat="46.501695" lon="11.815486"><ele>2842.5</ele></trkpt>
      <trkpt lat="46.50169" lon="11.815277"><ele>2842.8</ele></trkpt>
      <trkpt lat="46.50171" lon="11.815196"><ele>2841.5</ele></trkpt>
      <trkpt lat="46.501689" lon="11.815072"><ele>2842.5</ele></trkpt>
      <trkpt lat="46.501694" lon="11.81492"><ele>2841.5</ele></trkpt>
      <trkpt lat="46.501674" lon="11.81481"><ele>2842.3</ele></trkpt>
      <trkpt lat="46.501682" lon="11.814722"><ele>2841.3</ele></trkpt>
      <trkpt lat="46.501806" lon="11.814455"><ele>2845</ele></trkpt>
      <trkpt lat="46.501945" lon="11.814099"><ele>2846.5</ele></trkpt>
      <trkpt lat="46.501963" lon="11.813948"><ele>2847.8</ele></trkpt>
      <trkpt lat="46.501985" lon="11.813845"><ele>2848.5</ele></trkpt>
      <trkpt lat="46.502035" lon="11.813694"><ele>2848.8</ele></trkpt>
      <trkpt lat="46.502045" lon="11.813629"><ele>2849</ele></trkpt>
      <trkpt lat="46.502053" lon="11.813485"><ele>2848</ele></trkpt>
      <trkpt lat="46.502012" lon="11.813347"><ele>2850.5</ele></trkpt>
      <trkpt lat="46.502005" lon="11.813293"><ele>2850.3</ele></trkpt>
      <trkpt lat="46.50196" lon="11.813161"><ele>2850.3</ele></trkpt>
      <trkpt lat="46.50191" lon="11.813075"><ele>2852.3</ele></trkpt>
      <trkpt lat="46.501879" lon="11.812875"><ele>2852.5</ele></trkpt>
      <trkpt lat="46.501861" lon="11.812672"><ele>2851.5</ele></trkpt>
      <trkpt lat="46.501807" lon="11.812554"><ele>2852</ele></trkpt>
      <trkpt lat="46.501812" lon="11.812491"><ele>2850.8</ele></trkpt>
      <trkpt lat="46.501804" lon="11.812447"><ele>2850.3</ele></trkpt>
      <trkpt lat="46.50176" lon="11.812397"><ele>2849.8</ele></trkpt>
      <trkpt lat="46.501765" lon="11.812326"><ele>2848.3</ele></trkpt>
      <trkpt lat="46.50167" lon="11.812395"><ele>2849.8</ele></trkpt>
      <trkpt lat="46.501587" lon="11.812402"><ele>2848.3</ele></trkpt>
      <trkpt lat="46.501531" lon="11.812374"><ele>2845.5</ele></trkpt>
      <trkpt lat="46.50154" lon="11.812256"><ele>2839</ele></trkpt>
      <trkpt lat="46.501542" lon="11.812052"><ele>2835.3</ele></trkpt>
      <trkpt lat="46.501471" lon="11.812173"><ele>2832.8</ele></trkpt>
      <trkpt lat="46.501447" lon="11.812092"><ele>2829.8</ele></trkpt>
      <trkpt lat="46.501343" lon="11.812173"><ele>2825.8</ele></trkpt>
      <trkpt lat="46.501332" lon="11.811932"><ele>2820</ele></trkpt>
      <trkpt lat="46.501194" lon="11.812034"><ele>2811.8</ele></trkpt>
      <trkpt lat="46.50119" lon="11.811803"><ele>2814.8</ele></trkpt>
      <trkpt lat="46.501058" lon="11.81202"><ele>2803.5</ele></trkpt>
      <trkpt lat="46.501084" lon="11.811686"><ele>2796.3</ele></trkpt>
      <trkpt lat="46.500931" lon="11.811782"><ele>2787.5</ele></trkpt>
      <trkpt lat="46.50094" lon="11.811517"><ele>2795.5</ele></trkpt>
      <trkpt lat="46.500796" lon="11.811635"><ele>2774.3</ele></trkpt>
      <trkpt lat="46.500795" lon="11.811401"><ele>2767.8</ele></trkpt>
      <trkpt lat="46.500674" lon="11.811496"><ele>2762</ele></trkpt>
      <trkpt lat="46.500676" lon="11.811172"><ele>2770</ele></trkpt>
      <trkpt lat="46.500468" lon="11.811442"><ele>2746.8</ele></trkpt>
      <trkpt lat="46.500472" lon="11.811247"><ele>2743</ele></trkpt>
      <trkpt lat="46.500485" lon="11.811041"><ele>2740.3</ele></trkpt>
      <trkpt lat="46.500409" lon="11.8108"><ele>2734.8</ele></trkpt>
      <trkpt lat="46.500332" lon="11.810588"><ele>2733</ele></trkpt>
      <trkpt lat="46.500304" lon="11.81046"><ele>2730</ele></trkpt>
      <trkpt lat="46.50024" lon="11.810423"><ele>2719.3</ele></trkpt>
      <trkpt lat="46.500177" lon="11.81034"><ele>2715.8</ele></trkpt>
      <trkpt lat="46.500035" lon="11.81019"><ele>2709.5</ele></trkpt>
      <trkpt lat="46.500061" lon="11.810418"><ele>2707.5</ele></trkpt>
      <trkpt lat="46.499987" lon="11.81036"><ele>2703.3</ele></trkpt>
      <trkpt lat="46.499915" lon="11.810277"><ele>2699.5</ele></trkpt>
      <trkpt lat="46.499839" lon="11.810169"><ele>2697</ele></trkpt>
      <trkpt lat="46.499823" lon="11.810231"><ele>2694.5</ele></trkpt>
      <trkpt lat="46.499826" lon="11.810349"><ele>2692.8</ele></trkpt>
      <trkpt lat="46.499819" lon="11.810445"><ele>2691.3</ele></trkpt>
      <trkpt lat="46.499679" lon="11.810284"><ele>2683.8</ele></trkpt>
      <trkpt lat="46.49962" lon="11.810203"><ele>2681.5</ele></trkpt>
      <trkpt lat="46.499573" lon="11.810317"><ele>2676.3</ele></trkpt>
      <trkpt lat="46.49955" lon="11.810323"><ele>2674.8</ele></trkpt>
      <trkpt lat="46.499462" lon="11.810251"><ele>2669.5</ele></trkpt>
      <trkpt lat="46.499404" lon="11.810258"><ele>2665.5</ele></trkpt>
      <trkpt lat="46.499208" lon="11.810479"><ele>2651.8</ele></trkpt>
      <trkpt lat="46.499072" lon="11.810438"><ele>2643.5</ele></trkpt>
      <trkpt lat="46.498953" lon="11.810603"><ele>2636.5</ele></trkpt>
      <trkpt lat="46.498806" lon="11.810508"><ele>2628.3</ele></trkpt>
      <trkpt lat="46.498712" lon="11.810429"><ele>2622.8</ele></trkpt>
      <trkpt lat="46.498592" lon="11.810515"><ele>2617.5</ele></trkpt>
      <trkpt lat="46.498534" lon="11.81048"><ele>2614.3</ele></trkpt>
      <trkpt lat="46.49842" lon="11.810488"><ele>2608.8</ele></trkpt>
      <trkpt lat="46.498277" lon="11.810554"><ele>2603.5</ele></trkpt>
      <trkpt lat="46.498189" lon="11.810531"><ele>2599.8</ele></trkpt>
      <trkpt lat="46.498117" lon="11.810497"><ele>2596</ele></trkpt>
      <trkpt lat="46.498042" lon="11.81049"><ele>2593</ele></trkpt>
      <trkpt lat="46.497996" lon="11.810526"><ele>2592</ele></trkpt>
      <trkpt lat="46.497955" lon="11.810547"><ele>2591</ele></trkpt>
      <trkpt lat="46.497758" lon="11.810593"><ele>2585.3</ele></trkpt>
      <trkpt lat="46.497589" lon="11.810596"><ele>2582.5</ele></trkpt>
      <trkpt lat="46.497398" lon="11.810636"><ele>2577.8</ele></trkpt>
      <trkpt lat="46.49735" lon="11.810615"><ele>2575.5</ele></trkpt>
      <trkpt lat="46.497329" lon="11.810586"><ele>2573.8</ele></trkpt>
      <trkpt lat="46.497328" lon="11.810542"><ele>2572.5</ele></trkpt>
      <trkpt lat="46.497352" lon="11.810405"><ele>2569.3</ele></trkpt>
      <trkpt lat="46.497321" lon="11.810373"><ele>2566.8</ele></trkpt>
      <trkpt lat="46.497185" lon="11.810388"><ele>2561.5</ele></trkpt>
      <trkpt lat="46.497062" lon="11.81045"><ele>2557</ele></trkpt>
      <trkpt lat="46.496961" lon="11.810526"><ele>2553.3</ele></trkpt>
      <trkpt lat="46.496886" lon="11.810612"><ele>2551</ele></trkpt>
      <trkpt lat="46.496815" lon="11.810743"><ele>2548.3</ele></trkpt>
      <trkpt lat="46.496808" lon="11.810834"><ele>2548</ele></trkpt>
      <trkpt lat="46.496707" lon="11.811073"><ele>2542.5</ele></trkpt>
      <trkpt lat="46.496673" lon="11.811261"><ele>2539.8</ele></trkpt>
      <trkpt lat="46.496611" lon="11.811466"><ele>2534.5</ele></trkpt>
      <trkpt lat="46.496577" lon="11.811667"><ele>2530</ele></trkpt>
      <trkpt lat="46.496527" lon="11.811798"><ele>2527.8</ele></trkpt>
      <trkpt lat="46.496496" lon="11.811854"><ele>2525.8</ele></trkpt>
      <trkpt lat="46.496454" lon="11.812003"><ele>2524.3</ele></trkpt>
      <trkpt lat="46.496383" lon="11.812137"><ele>2518.5</ele></trkpt>
      <trkpt lat="46.496342" lon="11.812203"><ele>2517</ele></trkpt>
      <trkpt lat="46.496291" lon="11.812202"><ele>2514.3</ele></trkpt>
      <trkpt lat="46.496291" lon="11.812075"><ele>2512.8</ele></trkpt>
      <trkpt lat="46.496246" lon="11.811937"><ele>2508</ele></trkpt>
      <trkpt lat="46.496159" lon="11.811714"><ele>2501.3</ele></trkpt>
      <trkpt lat="46.496123" lon="11.811568"><ele>2497.8</ele></trkpt>
      <trkpt lat="46.496108" lon="11.81144"><ele>2495.3</ele></trkpt>
      <trkpt lat="46.496092" lon="11.811372"><ele>2494.3</ele></trkpt>
      <trkpt lat="46.496053" lon="11.811391"><ele>2491.5</ele></trkpt>
      <trkpt lat="46.495955" lon="11.811488"><ele>2486.8</ele></trkpt>
      <trkpt lat="46.495866" lon="11.8116"><ele>2482.3</ele></trkpt>
      <trkpt lat="46.495755" lon="11.811784"><ele>2478.5</ele></trkpt>
      <trkpt lat="46.495726" lon="11.811815"><ele>2477.5</ele></trkpt>
      <trkpt lat="46.495674" lon="11.811814"><ele>2474.8</ele></trkpt>
      <trkpt lat="46.495661" lon="11.811747"><ele>2473.3</ele></trkpt>
      <trkpt lat="46.495599" lon="11.811596"><ele>2468.8</ele></trkpt>
      <trkpt lat="46.495489" lon="11.81141"><ele>2463.3</ele></trkpt>
      <trkpt lat="46.495428" lon="11.81142"><ele>2460.8</ele></trkpt>
      <trkpt lat="46.495376" lon="11.811492"><ele>2458.8</ele></trkpt>
      <trkpt lat="46.49532" lon="11.811534"><ele>2456.3</ele></trkpt>
      <trkpt lat="46.49524" lon="11.811684"><ele>2452.3</ele></trkpt>
      <trkpt lat="46.49519" lon="11.811733"><ele>2450.3</ele></trkpt>
      <trkpt lat="46.495144" lon="11.811706"><ele>2448.3</ele></trkpt>
      <trkpt lat="46.49509" lon="11.811615"><ele>2446</ele></trkpt>
      <trkpt lat="46.494991" lon="11.811543"><ele>2442.3</ele></trkpt>
      <trkpt lat="46.494852" lon="11.811397"><ele>2435.3</ele></trkpt>
      <trkpt lat="46.494799" lon="11.811355"><ele>2433.3</ele></trkpt>
      <trkpt lat="46.49471" lon="11.811241"><ele>2430.8</ele></trkpt>
      <trkpt lat="46.494661" lon="11.811217"><ele>2428</ele></trkpt>
      <trkpt lat="46.494582" lon="11.811148"><ele>2423.5</ele></trkpt>
      <trkpt lat="46.494577" lon="11.811283"><ele>2420.8</ele></trkpt>
      <trkpt lat="46.494551" lon="11.811489"><ele>2417.5</ele></trkpt>
      <trkpt lat="46.494426" lon="11.811666"><ele>2410.8</ele></trkpt>
      <trkpt lat="46.494371" lon="11.811821"><ele>2406.8</ele></trkpt>
      <trkpt lat="46.494339" lon="11.812026"><ele>2402.8</ele></trkpt>
      <trkpt lat="46.494319" lon="11.812214"><ele>2397.8</ele></trkpt>
      <trkpt lat="46.494293" lon="11.812307"><ele>2395.8</ele></trkpt>
      <trkpt lat="46.494238" lon="11.812387"><ele>2392</ele></trkpt>
      <trkpt lat="46.494194" lon="11.812425"><ele>2389</ele></trkpt>
      <trkpt lat="46.494134" lon="11.812459"><ele>2386</ele></trkpt>
      <trkpt lat="46.49407" lon="11.812601"><ele>2382.8</ele></trkpt>
      <trkpt lat="46.493974" lon="11.812668"><ele>2378.5</ele></trkpt>
      <trkpt lat="46.493784" lon="11.812768"><ele>2369.8</ele></trkpt>
      <trkpt lat="46.493588" lon="11.812896"><ele>2362.5</ele></trkpt>
      <trkpt lat="46.493355" lon="11.813031"><ele>2355.5</ele></trkpt>
      <trkpt lat="46.49318" lon="11.813175"><ele>2353</ele></trkpt>
      <trkpt lat="46.493168" lon="11.813215"><ele>2353</ele></trkpt>
      <trkpt lat="46.492792" lon="11.813434"><ele>2348.3</ele></trkpt>
      <trkpt lat="46.492604" lon="11.813473"><ele>2347.3</ele></trkpt>
      <trkpt lat="46.492417" lon="11.813419"><ele>2345.3</ele></trkpt>
      <trkpt lat="46.492193" lon="11.813331"><ele>2343.5</ele></trkpt>
      <trkpt lat="46.492004" lon="11.813373"><ele>2342.3</ele></trkpt>
      <trkpt lat="46.491921" lon="11.813353"><ele>2341.5</ele></trkpt>
      <trkpt lat="46.491758" lon="11.813199"><ele>2339.8</ele></trkpt>
      <trkpt lat="46.491375" lon="11.812862"><ele>2337</ele></trkpt>
      <trkpt lat="46.491164" lon="11.812696"><ele>2336</ele></trkpt>
      <trkpt lat="46.491022" lon="11.812507"><ele>2332.3</ele></trkpt>
      <trkpt lat="46.490888" lon="11.81241"><ele>2331.8</ele></trkpt>
      <trkpt lat="46.490663" lon="11.812353"><ele>2328.5</ele></trkpt>
      <trkpt lat="46.490572" lon="11.812375"><ele>2327.5</ele></trkpt>
      <trkpt lat="46.490477" lon="11.812363"><ele>2325</ele></trkpt>
      <trkpt lat="46.490374" lon="11.812292"><ele>2321.3</ele></trkpt>
      <trkpt lat="46.490286" lon="11.812244"><ele>2318.3</ele></trkpt>
      <trkpt lat="46.490245" lon="11.812194"><ele>2316.3</ele></trkpt>
      <trkpt lat="46.490204" lon="11.812055"><ele>2312.8</ele></trkpt>
      <trkpt lat="46.490159" lon="11.811834"><ele>2307.5</ele></trkpt>
      <trkpt lat="46.490132" lon="11.811601"><ele>2302.8</ele></trkpt>
      <trkpt lat="46.490094" lon="11.811562"><ele>2301.3</ele></trkpt>
      <trkpt lat="46.490031" lon="11.811547"><ele>2300.3</ele></trkpt>
      <trkpt lat="46.48995" lon="11.811637"><ele>2299.3</ele></trkpt>
      <trkpt lat="46.489847" lon="11.811824"><ele>2297.3</ele></trkpt>
      <trkpt lat="46.489778" lon="11.811907"><ele>2295.5</ele></trkpt>
      <trkpt lat="46.489693" lon="11.811946"><ele>2293.3</ele></trkpt>
      <trkpt lat="46.489656" lon="11.81193"><ele>2292.5</ele></trkpt>
      <trkpt lat="46.489609" lon="11.811828"><ele>2290.3</ele></trkpt>
      <trkpt lat="46.489564" lon="11.811784"><ele>2289</ele></trkpt>
      <trkpt lat="46.489516" lon="11.811768"><ele>2288</ele></trkpt>
      <trkpt lat="46.489366" lon="11.811802"><ele>2284.5</ele></trkpt>
      <trkpt lat="46.489283" lon="11.811839"><ele>2282</ele></trkpt>
      <trkpt lat="46.48917" lon="11.811937"><ele>2279</ele></trkpt>
      <trkpt lat="46.489119" lon="11.811904"><ele>2276.5</ele></trkpt>
      <trkpt lat="46.489076" lon="11.811945"><ele>2275</ele></trkpt>
      <trkpt lat="46.488932" lon="11.812009"><ele>2269</ele></trkpt>
      <trkpt lat="46.48888" lon="11.812046"><ele>2267</ele></trkpt>
      <trkpt lat="46.488838" lon="11.81204"><ele>2265.8</ele></trkpt>
      <trkpt lat="46.488795" lon="11.81198"><ele>2264</ele></trkpt>
      <trkpt lat="46.48874" lon="11.811946"><ele>2262</ele></trkpt>
      <trkpt lat="46.488709" lon="11.811985"><ele>2261.3</ele></trkpt>
      <trkpt lat="46.488659" lon="11.811993"><ele>2259.8</ele></trkpt>
      <trkpt lat="46.488606" lon="11.811989"><ele>2258</ele></trkpt>
      <trkpt lat="46.488552" lon="11.811947"><ele>2256.5</ele></trkpt>
      <trkpt lat="46.488492" lon="11.811759"><ele>2253.3</ele></trkpt>
      <trkpt lat="46.488434" lon="11.811683"><ele>2251</ele></trkpt>
      <trkpt lat="46.488371" lon="11.81164"><ele>2248.5</ele></trkpt>
      <trkpt lat="46.488287" lon="11.811622"><ele>2246.3</ele></trkpt>
      <trkpt lat="46.488216" lon="11.811581"><ele>2244</ele></trkpt>
      <trkpt lat="46.488159" lon="11.811573"><ele>2242.8</ele></trkpt>
      <trkpt lat="46.48812" lon="11.811442"><ele>2240</ele></trkpt>
      <trkpt lat="46.488039" lon="11.811318"><ele>2237.5</ele></trkpt>
      <trkpt lat="46.487863" lon="11.811634"><ele>2239.5</ele></trkpt>
      <trkpt lat="46.487741" lon="11.811843"><ele>2239</ele></trkpt>
      <trkpt lat="46.487641" lon="11.812016"><ele>2239.8</ele></trkpt>
      <trkpt lat="46.487573" lon="11.812144"><ele>2240</ele></trkpt>
      <trkpt lat="46.487553" lon="11.812194"><ele>2240</ele></trkpt>
      <trkpt lat="46.487541" lon="11.812226"><ele>2240</ele></trkpt>
      <trkpt lat="46.487504" lon="11.81236"><ele>2239.5</ele></trkpt>
      <trkpt lat="46.487468" lon="11.812525"><ele>2238.8</ele></trkpt>
      <trkpt lat="46.487439" lon="11.812703"><ele>2238.3</ele></trkpt>
      <trkpt lat="46.487422" lon="11.812963"><ele>2237</ele></trkpt>
      <trkpt lat="46.487396" lon="11.813339"><ele>2235.3</ele></trkpt>
      <trkpt lat="46.487388" lon="11.813436"><ele>2234.8</ele></trkpt>
      <trkpt lat="46.487368" lon="11.813535"><ele>2234.3</ele></trkpt>
      <trkpt lat="46.487334" lon="11.813614"><ele>2233.8</ele></trkpt>
      <trkpt lat="46.487279" lon="11.81367"><ele>2233.8</ele></trkpt>
      <trkpt lat="46.487221" lon="11.813677"><ele>2233.8</ele></trkpt>
      <trkpt lat="46.487161" lon="11.813663"><ele>2233</ele></trkpt>
      <trkpt lat="46.487109" lon="11.81363"><ele>2232.5</ele></trkpt>
      <trkpt lat="46.486967" lon="11.813539"><ele>2232</ele></trkpt>
      <trkpt lat="46.486898" lon="11.813528"><ele>2232.8</ele></trkpt>
      <trkpt lat="46.486839" lon="11.813545"><ele>2233.3</ele></trkpt>
      <trkpt lat="46.48677" lon="11.813618"><ele>2233.3</ele></trkpt>
      <trkpt lat="46.486739" lon="11.813721"><ele>2232.8</ele></trkpt>
      <trkpt lat="46.486722" lon="11.813844"><ele>2231.5</ele></trkpt>
      <trkpt lat="46.486723" lon="11.813872"><ele>2231</ele></trkpt>
      <trkpt lat="46.486726" lon="11.813971"><ele>2230.3</ele></trkpt>
      <trkpt lat="46.486835" lon="11.814849"><ele>2221.5</ele></trkpt>
      <trkpt lat="46.486842" lon="11.814988"><ele>2221</ele></trkpt>
      <trkpt lat="46.486828" lon="11.815103"><ele>2220.5</ele></trkpt>
      <trkpt lat="46.486786" lon="11.815228"><ele>2220</ele></trkpt>
      <trkpt lat="46.48672" lon="11.815334"><ele>2220</ele></trkpt>
      <trkpt lat="46.486588" lon="11.815482"><ele>2219.8</ele></trkpt>
      <trkpt lat="46.486094" lon="11.815965"><ele>2214</ele></trkpt>
      <trkpt lat="46.486004" lon="11.815993"><ele>2212.8</ele></trkpt>
      <trkpt lat="46.485938" lon="11.815987"><ele>2212.5</ele></trkpt>
      <trkpt lat="46.485493" lon="11.815729"><ele>2211.3</ele></trkpt>
      <trkpt lat="46.485382" lon="11.815728"><ele>2211.5</ele></trkpt>
      <trkpt lat="46.485294" lon="11.815765"><ele>2210.5</ele></trkpt>
      <trkpt lat="46.485225" lon="11.81585"><ele>2210.3</ele></trkpt>
      <trkpt lat="46.484679" lon="11.816957"><ele>2203.8</ele></trkpt>
      <trkpt lat="46.484612" lon="11.817046"><ele>2202.8</ele></trkpt>
      <trkpt lat="46.484541" lon="11.817096"><ele>2203</ele></trkpt>
      <trkpt lat="46.484093" lon="11.817219"><ele>2203</ele></trkpt>
      <trkpt lat="46.483991" lon="11.817266"><ele>2201.8</ele></trkpt>
      <trkpt lat="46.483915" lon="11.817363"><ele>2199.3</ele></trkpt>
      <trkpt lat="46.483798" lon="11.817745"><ele>2195</ele></trkpt>
      <trkpt lat="46.483737" lon="11.817949"><ele>2196.3</ele></trkpt>
      <trkpt lat="46.483646" lon="11.818257"><ele>2196.8</ele></trkpt>
      <trkpt lat="46.483336" lon="11.81814"><ele>2197</ele></trkpt>
      <trkpt lat="46.483239" lon="11.817977"><ele>2200.5</ele></trkpt>
      <trkpt lat="46.482936" lon="11.817695"><ele>2207.5</ele></trkpt>
      <trkpt lat="46.482896" lon="11.817575"><ele>2209.3</ele></trkpt>
      <trkpt lat="46.48279" lon="11.817577"><ele>2210.5</ele></trkpt>
      <trkpt lat="46.482708" lon="11.817444"><ele>2213.5</ele></trkpt>
      <trkpt lat="46.482496" lon="11.817263"><ele>2218.8</ele></trkpt>
      <trkpt lat="46.482477" lon="11.817058"><ele>2222</ele></trkpt>
      <trkpt lat="46.482333" lon="11.816896"><ele>2225.5</ele></trkpt>
      <trkpt lat="46.482369" lon="11.816744"><ele>2228.3</ele></trkpt>
      <trkpt lat="46.482363" lon="11.816676"><ele>2229.8</ele></trkpt>
      <trkpt lat="46.482274" lon="11.816716"><ele>2229.5</ele></trkpt>
      <trkpt lat="46.482201" lon="11.816716"><ele>2230</ele></trkpt>
      <trkpt lat="46.482157" lon="11.816607"><ele>2232.5</ele></trkpt>
      <trkpt lat="46.482012" lon="11.816638"><ele>2233.3</ele></trkpt>
      <trkpt lat="46.481902" lon="11.816625"><ele>2235.8</ele></trkpt>
      <trkpt lat="46.481882" lon="11.816613"><ele>2236.8</ele></trkpt>
      <trkpt lat="46.481877" lon="11.816566"><ele>2238</ele></trkpt>
      <trkpt lat="46.481882" lon="11.816528"><ele>2238.8</ele></trkpt>
      <trkpt lat="46.481905" lon="11.816509"><ele>2238.5</ele></trkpt>
      <trkpt lat="46.482004" lon="11.816489"><ele>2237.3</ele></trkpt>
      <trkpt lat="46.482025" lon="11.816467"><ele>2237.5</ele></trkpt>
      <trkpt lat="46.482036" lon="11.816433"><ele>2238</ele></trkpt>
      <trkpt lat="46.482029" lon="11.816391"><ele>2239.3</ele></trkpt>
      <trkpt lat="46.482004" lon="11.816369"><ele>2240.3</ele></trkpt>
      <trkpt lat="46.481881" lon="11.816367"><ele>2242.8</ele></trkpt>
      <trkpt lat="46.481779" lon="11.816398"><ele>2243.8</ele></trkpt>
      <trkpt lat="46.481595" lon="11.816401"><ele>2247</ele></trkpt>
      <trkpt lat="46.481581" lon="11.816395"><ele>2247</ele></trkpt>
      <trkpt lat="46.481575" lon="11.816377"><ele>2247.5</ele></trkpt>
      <trkpt lat="46.481579" lon="11.816351"><ele>2248.3</ele></trkpt>
      <trkpt lat="46.481594" lon="11.816326"><ele>2248.8</ele></trkpt>
      <trkpt lat="46.481683" lon="11.81624"><ele>2249.8</ele></trkpt>
      <trkpt lat="46.481697" lon="11.816204"><ele>2250.8</ele></trkpt>
      <trkpt lat="46.481699" lon="11.816182"><ele>2251.3</ele></trkpt>
      <trkpt lat="46.481693" lon="11.816153"><ele>2252.3</ele></trkpt>
      <trkpt lat="46.481681" lon="11.816135"><ele>2253</ele></trkpt>
      <trkpt lat="46.481666" lon="11.816131"><ele>2253.3</ele></trkpt>
      <trkpt lat="46.481633" lon="11.816139"><ele>2253.8</ele></trkpt>
      <trkpt lat="46.481553" lon="11.816176"><ele>2254</ele></trkpt>
      <trkpt lat="46.481471" lon="11.816161"><ele>2255.8</ele></trkpt>
      <trkpt lat="46.481388" lon="11.816163"><ele>2257.3</ele></trkpt>
      <trkpt lat="46.481292" lon="11.816216"><ele>2258</ele></trkpt>
      <trkpt lat="46.481229" lon="11.816238"><ele>2259</ele></trkpt>
      <trkpt lat="46.481204" lon="11.816237"><ele>2259.8</ele></trkpt>
      <trkpt lat="46.481147" lon="11.816224"><ele>2261.3</ele></trkpt>
      <trkpt lat="46.481087" lon="11.81619"><ele>2263.3</ele></trkpt>
      <trkpt lat="46.481043" lon="11.816126"><ele>2265.3</ele></trkpt>
      <trkpt lat="46.481022" lon="11.816073"><ele>2266.8</ele></trkpt>
      <trkpt lat="46.480992" lon="11.81604"><ele>2268.5</ele></trkpt>
      <trkpt lat="46.480972" lon="11.816037"><ele>2269</ele></trkpt>
      <trkpt lat="46.480954" lon="11.816043"><ele>2269</ele></trkpt>
      <trkpt lat="46.480939" lon="11.81606"><ele>2269</ele></trkpt>
      <trkpt lat="46.48093" lon="11.816082"><ele>2268.5</ele></trkpt>
      <trkpt lat="46.480896" lon="11.816127"><ele>2268.5</ele></trkpt>
      <trkpt lat="46.480868" lon="11.816149"><ele>2269</ele></trkpt>
      <trkpt lat="46.480832" lon="11.816153"><ele>2270</ele></trkpt>
      <trkpt lat="46.4808" lon="11.816135"><ele>2271</ele></trkpt>
      <trkpt lat="46.480791" lon="11.816118"><ele>2271.3</ele></trkpt>
      <trkpt lat="46.480783" lon="11.816078"><ele>2272.3</ele></trkpt>
      <trkpt lat="46.480794" lon="11.816023"><ele>2273.3</ele></trkpt>
      <trkpt lat="46.480814" lon="11.815988"><ele>2273.5</ele></trkpt>
      <trkpt lat="46.480821" lon="11.815887"><ele>2275.8</ele></trkpt>
      <trkpt lat="46.4808" lon="11.81584"><ele>2277.3</ele></trkpt>
      <trkpt lat="46.480766" lon="11.815832"><ele>2278.3</ele></trkpt>
      <trkpt lat="46.480737" lon="11.815858"><ele>2278</ele></trkpt>
      <trkpt lat="46.480721" lon="11.815918"><ele>2277.3</ele></trkpt>
      <trkpt lat="46.48066" lon="11.816058"><ele>2276.3</ele></trkpt>
      <trkpt lat="46.480619" lon="11.816107"><ele>2277</ele></trkpt>
      <trkpt lat="46.480571" lon="11.816139"><ele>2278.3</ele></trkpt>
      <trkpt lat="46.480541" lon="11.816139"><ele>2279</ele></trkpt>
      <trkpt lat="46.480507" lon="11.816105"><ele>2280.3</ele></trkpt>
      <trkpt lat="46.480482" lon="11.81605"><ele>2281.8</ele></trkpt>
      <trkpt lat="46.480476" lon="11.815993"><ele>2282.5</ele></trkpt>
      <trkpt lat="46.480462" lon="11.815944"><ele>2283.3</ele></trkpt>
      <trkpt lat="46.48043" lon="11.815928"><ele>2284.5</ele></trkpt>
      <trkpt lat="46.480403" lon="11.815934"><ele>2285.3</ele></trkpt>
      <trkpt lat="46.48036" lon="11.816019"><ele>2285.5</ele></trkpt>
      <trkpt lat="46.480337" lon="11.81604"><ele>2286</ele></trkpt>
      <trkpt lat="46.480308" lon="11.816027"><ele>2287</ele></trkpt>
      <trkpt lat="46.480299" lon="11.815988"><ele>2287.5</ele></trkpt>
      <trkpt lat="46.480294" lon="11.81591"><ele>2288.5</ele></trkpt>
      <trkpt lat="46.48028" lon="11.815845"><ele>2289.8</ele></trkpt>
      <trkpt lat="46.480253" lon="11.815822"><ele>2290.8</ele></trkpt>
      <trkpt lat="46.48019" lon="11.81583"><ele>2292.5</ele></trkpt>
      <trkpt lat="46.480167" lon="11.815863"><ele>2292.8</ele></trkpt>
      <trkpt lat="46.480144" lon="11.815913"><ele>2292.8</ele></trkpt>
      <trkpt lat="46.480126" lon="11.815928"><ele>2293</ele></trkpt>
      <trkpt lat="46.480099" lon="11.815921"><ele>2293.8</ele></trkpt>
      <trkpt lat="46.480085" lon="11.815889"><ele>2294.8</ele></trkpt>
      <trkpt lat="46.48009" lon="11.815783"><ele>2296.5</ele></trkpt>
      <trkpt lat="46.480115" lon="11.815671"><ele>2298.3</ele></trkpt>
      <trkpt lat="46.48011" lon="11.815599"><ele>2300</ele></trkpt>
      <trkpt lat="46.480099" lon="11.815547"><ele>2301.8</ele></trkpt>
      <trkpt lat="46.480081" lon="11.815516"><ele>2303</ele></trkpt>
      <trkpt lat="46.480051" lon="11.815508"><ele>2304.3</ele></trkpt>
      <trkpt lat="46.480005" lon="11.815562"><ele>2303.5</ele></trkpt>
      <trkpt lat="46.479951" lon="11.815684"><ele>2302.5</ele></trkpt>
      <trkpt lat="46.479914" lon="11.815739"><ele>2302.5</ele></trkpt>
      <trkpt lat="46.479863" lon="11.815783"><ele>2303</ele></trkpt>
      <trkpt lat="46.47956" lon="11.815897"><ele>2308.8</ele></trkpt>
      <trkpt lat="46.479413" lon="11.815939"><ele>2311.8</ele></trkpt>
      <trkpt lat="46.479348" lon="11.815975"><ele>2312.5</ele></trkpt>
      <trkpt lat="46.479206" lon="11.816117"><ele>2313</ele></trkpt>
      <trkpt lat="46.479119" lon="11.816167"><ele>2313.5</ele></trkpt>
      <trkpt lat="46.478709" lon="11.816199"><ele>2318.8</ele></trkpt>
      <trkpt lat="46.478619" lon="11.81624"><ele>2319.5</ele></trkpt>
      <trkpt lat="46.478511" lon="11.816322"><ele>2320.8</ele></trkpt>
      <trkpt lat="46.478451" lon="11.816391"><ele>2321.5</ele></trkpt>
      <trkpt lat="46.478485" lon="11.816505"><ele>2321</ele></trkpt>
      <trkpt lat="46.478502" lon="11.816789"><ele>2322.8</ele></trkpt>
      <trkpt lat="46.478532" lon="11.817043"><ele>2324.3</ele></trkpt>
      <trkpt lat="46.478546" lon="11.817378"><ele>2327.3</ele></trkpt>
      <trkpt lat="46.478473" lon="11.817693"><ele>2331.3</ele></trkpt>
      <trkpt lat="46.478396" lon="11.817846"><ele>2332.8</ele></trkpt>
      <trkpt lat="46.478344" lon="11.817933"><ele>2333.3</ele></trkpt>
      <trkpt lat="46.47822" lon="11.8181"><ele>2336</ele></trkpt>
      <trkpt lat="46.47819" lon="11.818096"><ele>2337.3</ele></trkpt>
      <trkpt lat="46.478163" lon="11.818035"><ele>2339</ele></trkpt>
      <trkpt lat="46.478129" lon="11.818052"><ele>2340</ele></trkpt>
      <trkpt lat="46.478109" lon="11.818115"><ele>2340.5</ele></trkpt>
      <trkpt lat="46.478073" lon="11.818146"><ele>2341.8</ele></trkpt>
      <trkpt lat="46.478067" lon="11.818114"><ele>2342.3</ele></trkpt>
      <trkpt lat="46.478103" lon="11.817821"><ele>2345</ele></trkpt>
      <trkpt lat="46.478091" lon="11.817741"><ele>2346.5</ele></trkpt>
      <trkpt lat="46.478032" lon="11.817607"><ele>2350</ele></trkpt>
      <trkpt lat="46.477988" lon="11.817528"><ele>2353</ele></trkpt>
      <trkpt lat="46.477945" lon="11.817381"><ele>2355</ele></trkpt>
      <trkpt lat="46.477874" lon="11.817219"><ele>2356.8</ele></trkpt>
      <trkpt lat="46.477658" lon="11.816873"><ele>2361.8</ele></trkpt>
      <trkpt lat="46.477395" lon="11.816365"><ele>2368</ele></trkpt>
      <trkpt lat="46.47735" lon="11.816207"><ele>2369.5</ele></trkpt>
      <trkpt lat="46.477345" lon="11.816018"><ele>2371.8</ele></trkpt>
      <trkpt lat="46.477574" lon="11.815301"><ele>2378.5</ele></trkpt>
      <trkpt lat="46.477573" lon="11.81493"><ele>2383.3</ele></trkpt>
      <trkpt lat="46.477555" lon="11.814867"><ele>2384</ele></trkpt>
      <trkpt lat="46.477546" lon="11.814784"><ele>2385.3</ele></trkpt>
      <trkpt lat="46.477555" lon="11.814867"><ele>2384</ele></trkpt>
      <trkpt lat="46.477504" lon="11.815002"><ele>2383.8</ele></trkpt>
      <trkpt lat="46.477445" lon="11.81513"><ele>2384.3</ele></trkpt>
      <trkpt lat="46.477395" lon="11.81518"><ele>2385.3</ele></trkpt>
      <trkpt lat="46.477322" lon="11.815226"><ele>2387.5</ele></trkpt>
      <trkpt lat="46.477258" lon="11.815255"><ele>2389.5</ele></trkpt>
      <trkpt lat="46.477215" lon="11.815337"><ele>2390.3</ele></trkpt>
      <trkpt lat="46.477112" lon="11.815628"><ele>2387.5</ele></trkpt>
      <trkpt lat="46.476951" lon="11.815825"><ele>2389.8</ele></trkpt>
      <trkpt lat="46.476906" lon="11.816003"><ele>2387.8</ele></trkpt>
      <trkpt lat="46.476771" lon="11.816388"><ele>2387.3</ele></trkpt>
      <trkpt lat="46.476443" lon="11.816761"><ele>2391.3</ele></trkpt>
      <trkpt lat="46.476299" lon="11.817096"><ele>2393.5</ele></trkpt>
      <trkpt lat="46.476261" lon="11.817218"><ele>2395.3</ele></trkpt>
      <trkpt lat="46.476098" lon="11.817499"><ele>2397.3</ele></trkpt>
      <trkpt lat="46.476051" lon="11.817645"><ele>2398.5</ele></trkpt>
      <trkpt lat="46.47599" lon="11.81778"><ele>2398.8</ele></trkpt>
      <trkpt lat="46.475944" lon="11.817971"><ele>2400.8</ele></trkpt>
      <trkpt lat="46.4759" lon="11.818073"><ele>2401.3</ele></trkpt>
      <trkpt lat="46.475903" lon="11.818104"><ele>2400.8</ele></trkpt>
      <trkpt lat="46.475907" lon="11.818135"><ele>2400.3</ele></trkpt>
      <trkpt lat="46.476056" lon="11.818309"><ele>2399.5</ele></trkpt>
      <trkpt lat="46.476076" lon="11.818366"><ele>2399.3</ele></trkpt>
      <trkpt lat="46.476088" lon="11.818456"><ele>2399.3</ele></trkpt>
      <trkpt lat="46.476063" lon="11.818545"><ele>2397.8</ele></trkpt>
      <trkpt lat="46.476024" lon="11.818626"><ele>2394.3</ele></trkpt>
      <trkpt lat="46.476032" lon="11.818714"><ele>2392.8</ele></trkpt>
      <trkpt lat="46.476148" lon="11.818963"><ele>2394.8</ele></trkpt>
      <trkpt lat="46.476162" lon="11.81908"><ele>2395.3</ele></trkpt>
      <trkpt lat="46.476137" lon="11.819176"><ele>2393.3</ele></trkpt>
      <trkpt lat="46.476085" lon="11.819272"><ele>2389</ele></trkpt>
      <trkpt lat="46.476097" lon="11.819334"><ele>2389</ele></trkpt>
      <trkpt lat="46.476152" lon="11.819475"><ele>2391.5</ele></trkpt>
      <trkpt lat="46.476161" lon="11.81956"><ele>2392.3</ele></trkpt>
      <trkpt lat="46.476136" lon="11.81967"><ele>2391.3</ele></trkpt>
      <trkpt lat="46.475998" lon="11.819968"><ele>2386.3</ele></trkpt>
      <trkpt lat="46.475909" lon="11.82021"><ele>2385</ele></trkpt>
      <trkpt lat="46.475832" lon="11.820264"><ele>2382.5</ele></trkpt>
      <trkpt lat="46.475754" lon="11.820302"><ele>2381.3</ele></trkpt>
      <trkpt lat="46.475439" lon="11.820421"><ele>2374</ele></trkpt>
      <trkpt lat="46.475334" lon="11.820522"><ele>2373</ele></trkpt>
      <trkpt lat="46.475307" lon="11.820581"><ele>2373.8</ele></trkpt>
      <trkpt lat="46.47526" lon="11.820724"><ele>2375.5</ele></trkpt>
      <trkpt lat="46.475218" lon="11.820779"><ele>2375.3</ele></trkpt>
      <trkpt lat="46.475102" lon="11.820806"><ele>2372</ele></trkpt>
      <trkpt lat="46.475067" lon="11.820851"><ele>2372.8</ele></trkpt>
      <trkpt lat="46.475005" lon="11.82088"><ele>2372</ele></trkpt>
      <trkpt lat="46.474932" lon="11.820944"><ele>2372.3</ele></trkpt>
      <trkpt lat="46.474695" lon="11.821184"><ele>2374.5</ele></trkpt>
      <trkpt lat="46.474564" lon="11.821287"><ele>2375</ele></trkpt>
      <trkpt lat="46.474346" lon="11.821435"><ele>2376.5</ele></trkpt>
      <trkpt lat="46.474156" lon="11.821648"><ele>2380.8</ele></trkpt>
      <trkpt lat="46.47369" lon="11.82223"><ele>2385.5</ele></trkpt>
      <trkpt lat="46.473602" lon="11.822362"><ele>2386</ele></trkpt>
      <trkpt lat="46.473506" lon="11.82255"><ele>2386.5</ele></trkpt>
      <trkpt lat="46.473451" lon="11.823127"><ele>2387.5</ele></trkpt>
      <trkpt lat="46.47346" lon="11.823321"><ele>2387.3</ele></trkpt>
      <trkpt lat="46.473517" lon="11.823508"><ele>2387.8</ele></trkpt>
      <trkpt lat="46.473519" lon="11.823642"><ele>2387</ele></trkpt>
      <trkpt lat="46.473486" lon="11.823741"><ele>2387.8</ele></trkpt>
      <trkpt lat="46.473406" lon="11.823849"><ele>2385.5</ele></trkpt>
      <trkpt lat="46.473398" lon="11.823961"><ele>2387</ele></trkpt>
      <trkpt lat="46.473425" lon="11.824137"><ele>2390.8</ele></trkpt>
      <trkpt lat="46.47342" lon="11.824209"><ele>2392.5</ele></trkpt>
      <trkpt lat="46.473264" lon="11.824458"><ele>2395</ele></trkpt>
      <trkpt lat="46.47318" lon="11.824636"><ele>2398.3</ele></trkpt>
      <trkpt lat="46.473155" lon="11.824769"><ele>2400.3</ele></trkpt>
      <trkpt lat="46.473193" lon="11.825406"><ele>2406</ele></trkpt>
      <trkpt lat="46.473144" lon="11.825702"><ele>2409.5</ele></trkpt>
      <trkpt lat="46.473071" lon="11.825955"><ele>2411.8</ele></trkpt>
      <trkpt lat="46.473143" lon="11.826285"><ele>2415.8</ele></trkpt>
      <trkpt lat="46.473189" lon="11.826466"><ele>2414</ele></trkpt>
      <trkpt lat="46.473257" lon="11.826589"><ele>2413.5</ele></trkpt>
      <trkpt lat="46.473351" lon="11.826657"><ele>2415.5</ele></trkpt>
      <trkpt lat="46.473435" lon="11.826681"><ele>2416.5</ele></trkpt>
      <trkpt lat="46.473597" lon="11.826794"><ele>2416.3</ele></trkpt>
      <trkpt lat="46.473707" lon="11.826977"><ele>2418.3</ele></trkpt>
      <trkpt lat="46.473745" lon="11.827147"><ele>2417.5</ele></trkpt>
      <trkpt lat="46.473757" lon="11.827257"><ele>2416.5</ele></trkpt>
      <trkpt lat="46.473762" lon="11.827371"><ele>2416</ele></trkpt>
      <trkpt lat="46.473757" lon="11.827552"><ele>2414</ele></trkpt>
      <trkpt lat="46.473742" lon="11.827603"><ele>2412.8</ele></trkpt>
      <trkpt lat="46.473668" lon="11.827678"><ele>2410.5</ele></trkpt>
      <trkpt lat="46.473873" lon="11.827845"><ele>2407</ele></trkpt>
      <trkpt lat="46.473992" lon="11.827995"><ele>2405.5</ele></trkpt>
      <trkpt lat="46.474049" lon="11.828142"><ele>2404.3</ele></trkpt>
      <trkpt lat="46.474085" lon="11.82819"><ele>2405.3</ele></trkpt>
      <trkpt lat="46.474114" lon="11.828291"><ele>2405.3</ele></trkpt>
      <trkpt lat="46.47413" lon="11.828445"><ele>2404</ele></trkpt>
      <trkpt lat="46.47416" lon="11.828568"><ele>2404</ele></trkpt>
      <trkpt lat="46.474195" lon="11.828641"><ele>2405</ele></trkpt>
      <trkpt lat="46.47422" lon="11.828712"><ele>2405</ele></trkpt>
      <trkpt lat="46.474265" lon="11.828897"><ele>2405</ele></trkpt>
      <trkpt lat="46.474221" lon="11.829027"><ele>2406</ele></trkpt>
      <trkpt lat="46.474185" lon="11.829101"><ele>2406</ele></trkpt>
      <trkpt lat="46.474153" lon="11.829195"><ele>2406</ele></trkpt>
      <trkpt lat="46.474158" lon="11.829281"><ele>2406</ele></trkpt>
      <trkpt lat="46.474189" lon="11.829391"><ele>2407</ele></trkpt>
      <trkpt lat="46.47428" lon="11.829563"><ele>2407.3</ele></trkpt>
      <trkpt lat="46.474389" lon="11.829793"><ele>2406.3</ele></trkpt>
      <trkpt lat="46.474468" lon="11.830034"><ele>2406.8</ele></trkpt>
      <trkpt lat="46.474535" lon="11.830303"><ele>2407.3</ele></trkpt>
      <trkpt lat="46.474561" lon="11.830425"><ele>2408</ele></trkpt>
      <trkpt lat="46.474566" lon="11.830559"><ele>2407.5</ele></trkpt>
      <trkpt lat="46.474543" lon="11.830737"><ele>2409.5</ele></trkpt>
      <trkpt lat="46.474482" lon="11.830895"><ele>2410.3</ele></trkpt>
      <trkpt lat="46.474347" lon="11.831125"><ele>2413.3</ele></trkpt>
      <trkpt lat="46.474314" lon="11.831281"><ele>2412.5</ele></trkpt>
      <trkpt lat="46.474422" lon="11.831494"><ele>2414</ele></trkpt>
      <trkpt lat="46.474586" lon="11.831851"><ele>2416</ele></trkpt>
      <trkpt lat="46.4746" lon="11.832002"><ele>2415.3</ele></trkpt>
      <trkpt lat="46.474607" lon="11.832218"><ele>2415.5</ele></trkpt>
      <trkpt lat="46.474634" lon="11.832437"><ele>2418</ele></trkpt>
      <trkpt lat="46.474615" lon="11.832911"><ele>2419.5</ele></trkpt>
      <trkpt lat="46.47462" lon="11.833117"><ele>2421</ele></trkpt>
      <trkpt lat="46.474496" lon="11.83353"><ele>2423</ele></trkpt>
      <trkpt lat="46.474481" lon="11.833601"><ele>2424.3</ele></trkpt>
      <trkpt lat="46.474288" lon="11.834018"><ele>2429.3</ele></trkpt>
      <trkpt lat="46.474279" lon="11.834038"><ele>2429.5</ele></trkpt>
      <trkpt lat="46.474254" lon="11.834049"><ele>2427.3</ele></trkpt>
      <trkpt lat="46.474135" lon="11.834107"><ele>2427.3</ele></trkpt>
      <trkpt lat="46.474155" lon="11.834292"><ele>2426.8</ele></trkpt>
      <trkpt lat="46.47443" lon="11.834415"><ele>2428.3</ele></trkpt>
      <trkpt lat="46.474478" lon="11.834358"><ele>2430.8</ele></trkpt>
      <trkpt lat="46.474513" lon="11.834364"><ele>2431.3</ele></trkpt>
      <trkpt lat="46.474581" lon="11.83438"><ele>2432.3</ele></trkpt>
      <trkpt lat="46.474653" lon="11.834397"><ele>2433</ele></trkpt>
      <trkpt lat="46.474765" lon="11.834395"><ele>2435</ele></trkpt>
      <trkpt lat="46.474901" lon="11.834431"><ele>2436</ele></trkpt>
      <trkpt lat="46.475099" lon="11.834529"><ele>2436.5</ele></trkpt>
      <trkpt lat="46.475107" lon="11.834546"><ele>2436</ele></trkpt>
      <trkpt lat="46.475551" lon="11.834952"><ele>2434.5</ele></trkpt>
      <trkpt lat="46.475735" lon="11.835142"><ele>2435.8</ele></trkpt>
      <trkpt lat="46.475881" lon="11.835425"><ele>2436.3</ele></trkpt>
      <trkpt lat="46.476022" lon="11.835726"><ele>2437.8</ele></trkpt>
      <trkpt lat="46.476236" lon="11.836541"><ele>2432.5</ele></trkpt>
      <trkpt lat="46.476165" lon="11.836673"><ele>2431.5</ele></trkpt>
      <trkpt lat="46.476014" lon="11.836893"><ele>2426.3</ele></trkpt>
      <trkpt lat="46.475602" lon="11.837427"><ele>2409.3</ele></trkpt>
      <trkpt lat="46.47539" lon="11.837732"><ele>2402.5</ele></trkpt>
      <trkpt lat="46.47532" lon="11.837813"><ele>2400</ele></trkpt>
      <trkpt lat="46.475175" lon="11.837938"><ele>2394.3</ele></trkpt>
      <trkpt lat="46.475043" lon="11.838029"><ele>2388</ele></trkpt>
      <trkpt lat="46.474855" lon="11.838199"><ele>2382.3</ele></trkpt>
      <trkpt lat="46.474777" lon="11.838331"><ele>2382.3</ele></trkpt>
      <trkpt lat="46.474281" lon="11.839371"><ele>2379.8</ele></trkpt>
      <trkpt lat="46.474337" lon="11.839394"><ele>2382.3</ele></trkpt>
      <trkpt lat="46.474367" lon="11.839431"><ele>2383.8</ele></trkpt>
      <trkpt lat="46.474377" lon="11.839652"><ele>2379</ele></trkpt>
      <trkpt lat="46.474452" lon="11.839926"><ele>2375.8</ele></trkpt>
      <trkpt lat="46.474479" lon="11.840155"><ele>2372.3</ele></trkpt>
      <trkpt lat="46.474649" lon="11.840434"><ele>2371.8</ele></trkpt>
      <trkpt lat="46.474717" lon="11.840501"><ele>2372</ele></trkpt>
      <trkpt lat="46.474773" lon="11.840669"><ele>2372.3</ele></trkpt>
      <trkpt lat="46.474796" lon="11.840762"><ele>2373</ele></trkpt>
      <trkpt lat="46.474785" lon="11.840949"><ele>2371.5</ele></trkpt>
      <trkpt lat="46.474812" lon="11.841108"><ele>2373.8</ele></trkpt>
      <trkpt lat="46.474895" lon="11.841308"><ele>2372</ele></trkpt>
      <trkpt lat="46.47502" lon="11.841493"><ele>2369.8</ele></trkpt>
      <trkpt lat="46.47513" lon="11.841583"><ele>2372.3</ele></trkpt>
      <trkpt lat="46.475167" lon="11.841673"><ele>2372</ele></trkpt>
      <trkpt lat="46.475135" lon="11.841871"><ele>2371.8</ele></trkpt>
      <trkpt lat="46.475151" lon="11.842176"><ele>2370.8</ele></trkpt>
      <trkpt lat="46.475223" lon="11.842307"><ele>2371</ele></trkpt>
      <trkpt lat="46.475274" lon="11.842351"><ele>2372.5</ele></trkpt>
      <trkpt lat="46.475333" lon="11.842373"><ele>2375.5</ele></trkpt>
      <trkpt lat="46.475383" lon="11.842425"><ele>2376.8</ele></trkpt>
      <trkpt lat="46.475415" lon="11.842521"><ele>2375.5</ele></trkpt>
      <trkpt lat="46.475488" lon="11.842667"><ele>2376.8</ele></trkpt>
      <trkpt lat="46.475522" lon="11.842779"><ele>2376.3</ele></trkpt>
      <trkpt lat="46.47552" lon="11.842867"><ele>2380</ele></trkpt>
      <trkpt lat="46.475451" lon="11.842971"><ele>2380.5</ele></trkpt>
      <trkpt lat="46.47532" lon="11.843146"><ele>2384</ele></trkpt>
      <trkpt lat="46.475199" lon="11.84322"><ele>2381</ele></trkpt>
      <trkpt lat="46.474975" lon="11.843647"><ele>2383.8</ele></trkpt>
      <trkpt lat="46.474934" lon="11.843824"><ele>2384</ele></trkpt>
      <trkpt lat="46.474883" lon="11.843979"><ele>2381.8</ele></trkpt>
      <trkpt lat="46.474849" lon="11.844179"><ele>2379.3</ele></trkpt>
      <trkpt lat="46.474839" lon="11.844348"><ele>2377.5</ele></trkpt>
      <trkpt lat="46.474871" lon="11.844442"><ele>2379</ele></trkpt>
      <trkpt lat="46.47491" lon="11.844521"><ele>2379</ele></trkpt>
      <trkpt lat="46.474964" lon="11.844705"><ele>2376.3</ele></trkpt>
      <trkpt lat="46.475046" lon="11.844835"><ele>2376.5</ele></trkpt>
      <trkpt lat="46.475135" lon="11.844958"><ele>2378.3</ele></trkpt>
      <trkpt lat="46.475202" lon="11.845073"><ele>2379.8</ele></trkpt>
      <trkpt lat="46.475222" lon="11.845248"><ele>2376</ele></trkpt>
      <trkpt lat="46.475258" lon="11.845432"><ele>2374.3</ele></trkpt>
      <trkpt lat="46.475356" lon="11.845624"><ele>2371.8</ele></trkpt>
      <trkpt lat="46.475378" lon="11.845695"><ele>2370.5</ele></trkpt>
      <trkpt lat="46.475296" lon="11.845758"><ele>2372.3</ele></trkpt>
      <trkpt lat="46.475231" lon="11.845875"><ele>2371</ele></trkpt>
      <trkpt lat="46.475153" lon="11.846097"><ele>2370.5</ele></trkpt>
      <trkpt lat="46.474969" lon="11.846925"><ele>2372.8</ele></trkpt>
      <trkpt lat="46.474948" lon="11.847208"><ele>2372.3</ele></trkpt>
      <trkpt lat="46.474952" lon="11.84745"><ele>2370.8</ele></trkpt>
      <trkpt lat="46.474979" lon="11.847485"><ele>2372.5</ele></trkpt>
      <trkpt lat="46.475018" lon="11.847633"><ele>2375.3</ele></trkpt>
      <trkpt lat="46.475075" lon="11.847786"><ele>2379.5</ele></trkpt>
      <trkpt lat="46.475139" lon="11.847929"><ele>2383</ele></trkpt>
      <trkpt lat="46.47516" lon="11.848047"><ele>2383</ele></trkpt>
      <trkpt lat="46.475207" lon="11.848163"><ele>2384</ele></trkpt>
      <trkpt lat="46.47512" lon="11.848274"><ele>2383</ele></trkpt>
      <trkpt lat="46.474925" lon="11.848494"><ele>2386.8</ele></trkpt>
      <trkpt lat="46.474657" lon="11.848679"><ele>2385.5</ele></trkpt>
      <trkpt lat="46.474489" lon="11.848758"><ele>2386</ele></trkpt>
      <trkpt lat="46.474412" lon="11.848755"><ele>2385</ele></trkpt>
      <trkpt lat="46.474201" lon="11.848816"><ele>2387.8</ele></trkpt>
      <trkpt lat="46.473997" lon="11.848813"><ele>2387</ele></trkpt>
      <trkpt lat="46.473941" lon="11.848802"><ele>2386.3</ele></trkpt>
      <trkpt lat="46.473868" lon="11.848846"><ele>2388.3</ele></trkpt>
      <trkpt lat="46.473679" lon="11.848907"><ele>2388.5</ele></trkpt>
      <trkpt lat="46.473601" lon="11.848977"><ele>2390.3</ele></trkpt>
      <trkpt lat="46.473337" lon="11.849094"><ele>2392</ele></trkpt>
      <trkpt lat="46.473223" lon="11.849247"><ele>2393</ele></trkpt>
      <trkpt lat="46.473123" lon="11.849446"><ele>2393.5</ele></trkpt>
      <trkpt lat="46.473048" lon="11.849763"><ele>2393.5</ele></trkpt>
      <trkpt lat="46.473013" lon="11.850165"><ele>2389.8</ele></trkpt>
      <trkpt lat="46.47305" lon="11.850361"><ele>2388.5</ele></trkpt>
      <trkpt lat="46.47307" lon="11.850521"><ele>2387.5</ele></trkpt>
      <trkpt lat="46.473048" lon="11.850708"><ele>2385.5</ele></trkpt>
      <trkpt lat="46.472892" lon="11.851431"><ele>2384</ele></trkpt>
      <trkpt lat="46.472789" lon="11.851775"><ele>2383.8</ele></trkpt>
      <trkpt lat="46.472783" lon="11.85211"><ele>2384</ele></trkpt>
      <trkpt lat="46.472827" lon="11.852307"><ele>2385</ele></trkpt>
      <trkpt lat="46.472853" lon="11.852543"><ele>2382.8</ele></trkpt>
      <trkpt lat="46.472905" lon="11.852676"><ele>2382</ele></trkpt>
      <trkpt lat="46.472974" lon="11.852792"><ele>2382.3</ele></trkpt>
      <trkpt lat="46.472965" lon="11.853067"><ele>2379.5</ele></trkpt>
      <trkpt lat="46.472934" lon="11.853161"><ele>2378</ele></trkpt>
      <trkpt lat="46.472939" lon="11.853268"><ele>2378.8</ele></trkpt>
      <trkpt lat="46.472913" lon="11.85338"><ele>2378</ele></trkpt>
      <trkpt lat="46.472909" lon="11.853653"><ele>2379</ele></trkpt>
      <trkpt lat="46.472876" lon="11.854162"><ele>2379.5</ele></trkpt>
      <trkpt lat="46.472849" lon="11.85439"><ele>2380</ele></trkpt>
      <trkpt lat="46.472683" lon="11.854873"><ele>2384.3</ele></trkpt>
      <trkpt lat="46.472665" lon="11.854983"><ele>2386.8</ele></trkpt>
      <trkpt lat="46.472557" lon="11.855022"><ele>2384.5</ele></trkpt>
      <trkpt lat="46.472438" lon="11.855184"><ele>2385.8</ele></trkpt>
      <trkpt lat="46.472335" lon="11.855264"><ele>2385.3</ele></trkpt>
      <trkpt lat="46.472182" lon="11.85549"><ele>2387.5</ele></trkpt>
      <trkpt lat="46.472061" lon="11.855695"><ele>2389.8</ele></trkpt>
      <trkpt lat="46.472001" lon="11.855757"><ele>2389.8</ele></trkpt>
      <trkpt lat="46.471927" lon="11.855815"><ele>2389.8</ele></trkpt>
      <trkpt lat="46.471904" lon="11.855817"><ele>2389.3</ele></trkpt>
      <trkpt lat="46.471709" lon="11.856018"><ele>2391</ele></trkpt>
      <trkpt lat="46.471598" lon="11.856158"><ele>2392.3</ele></trkpt>
      <trkpt lat="46.471289" lon="11.856607"><ele>2393.3</ele></trkpt>
      <trkpt lat="46.471244" lon="11.856708"><ele>2393.3</ele></trkpt>
      <trkpt lat="46.471186" lon="11.856906"><ele>2394</ele></trkpt>
      <trkpt lat="46.471148" lon="11.856988"><ele>2393.8</ele></trkpt>
      <trkpt lat="46.471107" lon="11.857115"><ele>2394.5</ele></trkpt>
      <trkpt lat="46.471052" lon="11.85717"><ele>2394.8</ele></trkpt>
      <trkpt lat="46.470993" lon="11.857208"><ele>2394.5</ele></trkpt>
      <trkpt lat="46.470944" lon="11.857251"><ele>2394.8</ele></trkpt>
      <trkpt lat="46.470902" lon="11.857294"><ele>2395.3</ele></trkpt>
      <trkpt lat="46.470869" lon="11.857357"><ele>2396.5</ele></trkpt>
      <trkpt lat="46.470589" lon="11.857606"><ele>2398.3</ele></trkpt>
      <trkpt lat="46.47052" lon="11.857719"><ele>2399</ele></trkpt>
      <trkpt lat="46.470489" lon="11.85779"><ele>2399.3</ele></trkpt>
      <trkpt lat="46.470448" lon="11.857935"><ele>2399.5</ele></trkpt>
      <trkpt lat="46.470446" lon="11.858015"><ele>2400.5</ele></trkpt>
      <trkpt lat="46.470435" lon="11.858077"><ele>2401</ele></trkpt>
      <trkpt lat="46.470334" lon="11.858403"><ele>2401.3</ele></trkpt>
      <trkpt lat="46.470296" lon="11.858595"><ele>2404.3</ele></trkpt>
      <trkpt lat="46.470227" lon="11.858633"><ele>2402.5</ele></trkpt>
      <trkpt lat="46.470117" lon="11.858899"><ele>2405</ele></trkpt>
      <trkpt lat="46.470084" lon="11.859004"><ele>2405.3</ele></trkpt>
      <trkpt lat="46.470044" lon="11.859613"><ele>2412</ele></trkpt>
      <trkpt lat="46.469877" lon="11.860138"><ele>2413.5</ele></trkpt>
      <trkpt lat="46.469798" lon="11.860265"><ele>2413</ele></trkpt>
      <trkpt lat="46.469741" lon="11.860513"><ele>2419.3</ele></trkpt>
      <trkpt lat="46.469529" lon="11.86083"><ele>2420.5</ele></trkpt>
      <trkpt lat="46.469326" lon="11.861207"><ele>2421.3</ele></trkpt>
      <trkpt lat="46.469189" lon="11.861637"><ele>2428.3</ele></trkpt>
      <trkpt lat="46.469175" lon="11.861814"><ele>2431.5</ele></trkpt>
      <trkpt lat="46.469133" lon="11.861975"><ele>2431</ele></trkpt>
      <trkpt lat="46.469139" lon="11.862206"><ele>2433</ele></trkpt>
      <trkpt lat="46.469159" lon="11.862369"><ele>2433</ele></trkpt>
      <trkpt lat="46.469183" lon="11.862473"><ele>2433.3</ele></trkpt>
      <trkpt lat="46.46922" lon="11.862502"><ele>2434.8</ele></trkpt>
      <trkpt lat="46.469268" lon="11.862509"><ele>2436.8</ele></trkpt>
      <trkpt lat="46.469294" lon="11.862535"><ele>2436.8</ele></trkpt>
      <trkpt lat="46.469395" lon="11.862708"><ele>2434</ele></trkpt>
      <trkpt lat="46.469417" lon="11.862843"><ele>2429.8</ele></trkpt>
      <trkpt lat="46.469543" lon="11.863262"><ele>2426.3</ele></trkpt>
      <trkpt lat="46.469632" lon="11.863446"><ele>2424.5</ele></trkpt>
      <trkpt lat="46.469691" lon="11.863525"><ele>2424.3</ele></trkpt>
      <trkpt lat="46.469837" lon="11.863582"><ele>2425</ele></trkpt>
      <trkpt lat="46.469942" lon="11.863644"><ele>2423.5</ele></trkpt>
      <trkpt lat="46.469978" lon="11.863612"><ele>2425.5</ele></trkpt>
      <trkpt lat="46.470006" lon="11.863627"><ele>2425.8</ele></trkpt>
      <trkpt lat="46.470018" lon="11.863676"><ele>2424.8</ele></trkpt>
      <trkpt lat="46.470063" lon="11.863778"><ele>2424</ele></trkpt>
      <trkpt lat="46.470134" lon="11.863884"><ele>2424.8</ele></trkpt>
      <trkpt lat="46.47022" lon="11.864271"><ele>2424</ele></trkpt>
      <trkpt lat="46.470345" lon="11.864564"><ele>2425</ele></trkpt>
      <trkpt lat="46.470673" lon="11.864917"><ele>2424.3</ele></trkpt>
      <trkpt lat="46.470876" lon="11.865167"><ele>2421.5</ele></trkpt>
      <trkpt lat="46.470975" lon="11.865239"><ele>2421.5</ele></trkpt>
      <trkpt lat="46.471196" lon="11.865529"><ele>2420.8</ele></trkpt>
      <trkpt lat="46.47123" lon="11.865515"><ele>2422</ele></trkpt>
      <trkpt lat="46.471299" lon="11.865563"><ele>2423.3</ele></trkpt>
      <trkpt lat="46.47152" lon="11.865918"><ele>2428.8</ele></trkpt>
      <trkpt lat="46.471537" lon="11.866003"><ele>2429.5</ele></trkpt>
      <trkpt lat="46.471712" lon="11.866364"><ele>2436.8</ele></trkpt>
      <trkpt lat="46.471911" lon="11.866672"><ele>2444.3</ele></trkpt>
      <trkpt lat="46.472119" lon="11.866911"><ele>2449.8</ele></trkpt>
      <trkpt lat="46.472147" lon="11.866865"><ele>2450</ele></trkpt>
      <trkpt lat="46.472318" lon="11.866651"><ele>2453</ele></trkpt>
      <trkpt lat="46.47242" lon="11.86641"><ele>2456</ele></trkpt>
      <trkpt lat="46.47249" lon="11.866218"><ele>2460.3</ele></trkpt>
      <trkpt lat="46.47251" lon="11.866068"><ele>2463</ele></trkpt>
      <trkpt lat="46.472515" lon="11.865973"><ele>2464.8</ele></trkpt>
      <trkpt lat="46.472535" lon="11.865926"><ele>2466</ele></trkpt>
      <trkpt lat="46.472562" lon="11.865919"><ele>2466.8</ele></trkpt>
      <trkpt lat="46.472624" lon="11.865986"><ele>2467.5</ele></trkpt>
      <trkpt lat="46.472686" lon="11.866013"><ele>2469.3</ele></trkpt>
      <trkpt lat="46.472753" lon="11.866178"><ele>2471.3</ele></trkpt>
      <trkpt lat="46.472731" lon="11.866259"><ele>2470.3</ele></trkpt>
      <trkpt lat="46.472724" lon="11.866392"><ele>2470.3</ele></trkpt>
      <trkpt lat="46.472744" lon="11.866546"><ele>2478.3</ele></trkpt>
      <trkpt lat="46.472789" lon="11.86687"><ele>2478.3</ele></trkpt>
      <trkpt lat="46.472796" lon="11.867093"><ele>2481.3</ele></trkpt>
      <trkpt lat="46.472785" lon="11.867282"><ele>2483.5</ele></trkpt>
      <trkpt lat="46.472653" lon="11.867881"><ele>2486</ele></trkpt>
      <trkpt lat="46.472637" lon="11.868292"><ele>2491.3</ele></trkpt>
      <trkpt lat="46.472635" lon="11.86842"><ele>2493.3</ele></trkpt>
      <trkpt lat="46.472633" lon="11.868672"><ele>2497.5</ele></trkpt>
      <trkpt lat="46.472609" lon="11.86899"><ele>2500.3</ele></trkpt>
      <trkpt lat="46.472621" lon="11.86934"><ele>2503.5</ele></trkpt>
      <trkpt lat="46.472773" lon="11.870088"><ele>2509</ele></trkpt>
      <trkpt lat="46.472815" lon="11.870347"><ele>2511.5</ele></trkpt>
      <trkpt lat="46.472818" lon="11.870608"><ele>2513.3</ele></trkpt>
      <trkpt lat="46.472833" lon="11.870767"><ele>2513.8</ele></trkpt>
      <trkpt lat="46.472872" lon="11.87081"><ele>2513.5</ele></trkpt>
      <trkpt lat="46.472699" lon="11.87124"><ele>2517.8</ele></trkpt>
      <trkpt lat="46.472515" lon="11.871523"><ele>2513.8</ele></trkpt>
      <trkpt lat="46.472376" lon="11.871693"><ele>2512</ele></trkpt>
      <trkpt lat="46.47219" lon="11.871842"><ele>2506.5</ele></trkpt>
      <trkpt lat="46.472156" lon="11.872031"><ele>2512</ele></trkpt>
      <trkpt lat="46.472041" lon="11.872384"><ele>2518</ele></trkpt>
      <trkpt lat="46.471948" lon="11.87273"><ele>2523.5</ele></trkpt>
      <trkpt lat="46.472026" lon="11.873619"><ele>2547.3</ele></trkpt>
      <trkpt lat="46.47203" lon="11.87366"><ele>2548.5</ele></trkpt>
      <trkpt lat="46.471987" lon="11.873981"><ele>2553.5</ele></trkpt>
      <trkpt lat="46.472083" lon="11.87395"><ele>2558.8</ele></trkpt>
      <trkpt lat="46.472216" lon="11.873776"><ele>2563</ele></trkpt>
      <trkpt lat="46.472308" lon="11.873802"><ele>2570</ele></trkpt>
      <trkpt lat="46.472347" lon="11.873729"><ele>2571.3</ele></trkpt>
      <trkpt lat="46.472438" lon="11.873801"><ele>2579</ele></trkpt>
      <trkpt lat="46.472679" lon="11.873392"><ele>2585.3</ele></trkpt>
      <trkpt lat="46.472731" lon="11.873275"><ele>2586.3</ele></trkpt>
      <trkpt lat="46.472837" lon="11.873094"><ele>2589.8</ele></trkpt>
      <trkpt lat="46.472923" lon="11.873354"><ele>2593.5</ele></trkpt>
      <trkpt lat="46.472858" lon="11.873614"><ele>2596.3</ele></trkpt>
      <trkpt lat="46.472941" lon="11.873668"><ele>2598.3</ele></trkpt>
      <trkpt lat="46.472858" lon="11.873614"><ele>2596.3</ele></trkpt>
      <trkpt lat="46.472923" lon="11.873354"><ele>2593.5</ele></trkpt>
      <trkpt lat="46.472837" lon="11.873094"><ele>2589.8</ele></trkpt>
      <trkpt lat="46.472731" lon="11.873275"><ele>2586.3</ele></trkpt>
      <trkpt lat="46.472679" lon="11.873392"><ele>2585.3</ele></trkpt>
      <trkpt lat="46.472438" lon="11.873801"><ele>2579</ele></trkpt>
      <trkpt lat="46.472347" lon="11.873729"><ele>2571.3</ele></trkpt>
      <trkpt lat="46.472308" lon="11.873802"><ele>2570</ele></trkpt>
      <trkpt lat="46.472216" lon="11.873776"><ele>2563</ele></trkpt>
      <trkpt lat="46.472083" lon="11.87395"><ele>2558.8</ele></trkpt>
      <trkpt lat="46.471987" lon="11.873981"><ele>2553.5</ele></trkpt>
      <trkpt lat="46.471853" lon="11.874427"><ele>2560</ele></trkpt>
      <trkpt lat="46.471715" lon="11.874713"><ele>2567.3</ele></trkpt>
      <trkpt lat="46.471618" lon="11.874741"><ele>2565.8</ele></trkpt>
      <trkpt lat="46.471538" lon="11.87484"><ele>2568.5</ele></trkpt>
      <trkpt lat="46.471215" lon="11.874991"><ele>2568.5</ele></trkpt>
      <trkpt lat="46.471041" lon="11.875206"><ele>2572.3</ele></trkpt>
      <trkpt lat="46.470881" lon="11.875387"><ele>2578.8</ele></trkpt>
      <trkpt lat="46.47066" lon="11.875248"><ele>2568.3</ele></trkpt>
      <trkpt lat="46.470373" lon="11.875051"><ele>2557.5</ele></trkpt>
      <trkpt lat="46.470121" lon="11.875054"><ele>2555</ele></trkpt>
      <trkpt lat="46.470002" lon="11.875128"><ele>2556</ele></trkpt>
      <trkpt lat="46.469842" lon="11.875054"><ele>2548.3</ele></trkpt>
      <trkpt lat="46.469927" lon="11.875567"><ele>2557</ele></trkpt>
      <trkpt lat="46.469951" lon="11.876042"><ele>2557</ele></trkpt>
      <trkpt lat="46.470002" lon="11.876929"><ele>2565.8</ele></trkpt>
      <trkpt lat="46.469977" lon="11.877063"><ele>2568</ele></trkpt>
      <trkpt lat="46.469933" lon="11.877292"><ele>2569.3</ele></trkpt>
      <trkpt lat="46.470013" lon="11.877423"><ele>2571</ele></trkpt>
      <trkpt lat="46.469957" lon="11.877763"><ele>2566</ele></trkpt>
      <trkpt lat="46.469606" lon="11.878508"><ele>2573.8</ele></trkpt>
      <trkpt lat="46.46937" lon="11.878863"><ele>2571.8</ele></trkpt>
      <trkpt lat="46.469021" lon="11.879562"><ele>2575.5</ele></trkpt>
      <trkpt lat="46.468787" lon="11.880056"><ele>2576.3</ele></trkpt>
      <trkpt lat="46.468567" lon="11.880276"><ele>2570</ele></trkpt>
      <trkpt lat="46.468501" lon="11.880342"><ele>2567</ele></trkpt>
      <trkpt lat="46.468441" lon="11.880313"><ele>2562.8</ele></trkpt>
      <trkpt lat="46.46832" lon="11.880327"><ele>2556.3</ele></trkpt>
      <trkpt lat="46.46823" lon="11.88044"><ele>2556.3</ele></trkpt>
      <trkpt lat="46.468172" lon="11.880548"><ele>2558</ele></trkpt>
      <trkpt lat="46.468009" lon="11.88065"><ele>2553</ele></trkpt>
      <trkpt lat="46.467866" lon="11.880693"><ele>2552.5</ele></trkpt>
      <trkpt lat="46.467767" lon="11.880774"><ele>2556.5</ele></trkpt>
      <trkpt lat="46.467671" lon="11.880985"><ele>2557.3</ele></trkpt>
      <trkpt lat="46.467602" lon="11.881023"><ele>2555.5</ele></trkpt>
      <trkpt lat="46.46754" lon="11.881123"><ele>2557.3</ele></trkpt>
      <trkpt lat="46.467484" lon="11.881235"><ele>2562</ele></trkpt>
      <trkpt lat="46.467413" lon="11.881327"><ele>2562.5</ele></trkpt>
      <trkpt lat="46.467392" lon="11.881552"><ele>2570.3</ele></trkpt>
      <trkpt lat="46.46737" lon="11.881675"><ele>2572.5</ele></trkpt>
      <trkpt lat="46.467239" lon="11.882011"><ele>2563.8</ele></trkpt>
      <trkpt lat="46.466947" lon="11.882115"><ele>2568.8</ele></trkpt>
      <trkpt lat="46.466869" lon="11.882275"><ele>2564.3</ele></trkpt>
      <trkpt lat="46.466764" lon="11.882392"><ele>2558.3</ele></trkpt>
      <trkpt lat="46.466726" lon="11.882445"><ele>2558.3</ele></trkpt>
      <trkpt lat="46.466753" lon="11.882525"><ele>2562.3</ele></trkpt>
      <trkpt lat="46.466805" lon="11.882586"><ele>2564.5</ele></trkpt>
      <trkpt lat="46.466874" lon="11.882592"><ele>2564.5</ele></trkpt>
      <trkpt lat="46.466967" lon="11.882541"><ele>2563.5</ele></trkpt>
      <trkpt lat="46.466848" lon="11.882764"><ele>2565.5</ele></trkpt>
      <trkpt lat="46.466704" lon="11.882814"><ele>2573</ele></trkpt>
      <trkpt lat="46.466515" lon="11.882985"><ele>2569</ele></trkpt>
      <trkpt lat="46.46641" lon="11.883148"><ele>2573.3</ele></trkpt>
      <trkpt lat="46.466393" lon="11.883318"><ele>2570</ele></trkpt>
      <trkpt lat="46.466207" lon="11.883609"><ele>2556.5</ele></trkpt>
      <trkpt lat="46.466081" lon="11.883697"><ele>2562.8</ele></trkpt>
      <trkpt lat="46.465993" lon="11.883848"><ele>2560.3</ele></trkpt>
      <trkpt lat="46.465849" lon="11.88401"><ele>2559.3</ele></trkpt>
      <trkpt lat="46.465679" lon="11.884122"><ele>2549.8</ele></trkpt>
      <trkpt lat="46.465658" lon="11.884208"><ele>2551.8</ele></trkpt>
      <trkpt lat="46.465727" lon="11.884278"><ele>2563.3</ele></trkpt>
      <trkpt lat="46.465603" lon="11.884607"><ele>2555.3</ele></trkpt>
      <trkpt lat="46.465522" lon="11.884798"><ele>2555</ele></trkpt>
      <trkpt lat="46.465357" lon="11.885114"><ele>2560.8</ele></trkpt>
      <trkpt lat="46.465238" lon="11.885249"><ele>2557.5</ele></trkpt>
      <trkpt lat="46.464955" lon="11.885388"><ele>2549.8</ele></trkpt>
      <trkpt lat="46.464851" lon="11.885467"><ele>2546.5</ele></trkpt>
      <trkpt lat="46.464782" lon="11.885443"><ele>2535.8</ele></trkpt>
      <trkpt lat="46.464698" lon="11.885524"><ele>2530.3</ele></trkpt>
      <trkpt lat="46.464544" lon="11.885583"><ele>2522</ele></trkpt>
      <trkpt lat="46.464459" lon="11.885718"><ele>2526</ele></trkpt>
      <trkpt lat="46.464368" lon="11.885808"><ele>2524</ele></trkpt>
      <trkpt lat="46.464269" lon="11.885878"><ele>2518</ele></trkpt>
      <trkpt lat="46.464183" lon="11.885882"><ele>2509</ele></trkpt>
      <trkpt lat="46.464135" lon="11.886062"><ele>2513.5</ele></trkpt>
      <trkpt lat="46.464092" lon="11.88617"><ele>2516.5</ele></trkpt>
      <trkpt lat="46.463974" lon="11.886265"><ele>2513.3</ele></trkpt>
      <trkpt lat="46.463925" lon="11.88637"><ele>2515</ele></trkpt>
      <trkpt lat="46.46393" lon="11.88648"><ele>2525</ele></trkpt>
      <trkpt lat="46.463835" lon="11.886614"><ele>2527</ele></trkpt>
      <trkpt lat="46.463874" lon="11.886668"><ele>2528</ele></trkpt>
      <trkpt lat="46.463815" lon="11.886801"><ele>2529.8</ele></trkpt>
      <trkpt lat="46.463673" lon="11.887007"><ele>2533</ele></trkpt>
      <trkpt lat="46.463617" lon="11.887684"><ele>2540.8</ele></trkpt>
      <trkpt lat="46.463587" lon="11.887924"><ele>2543.5</ele></trkpt>
      <trkpt lat="46.463648" lon="11.888134"><ele>2546.3</ele></trkpt>
      <trkpt lat="46.463584" lon="11.888313"><ele>2546.3</ele></trkpt>
    </trkseg>
  </trk>
</gpx>
