{
  "type": "FeatureCollection",
  "features": [
    {
      "type": "Feature",
      "properties": {
        "kind": "route",
        "name": "День 2 · Puez → Boè",
        "distance_km": 14.149,
        "ascent_m": 1252,
        "source": "BRouter / OpenStreetMap"
      },
      "geometry": {
        "type": "LineString",
        "coordinates": [
          [
            11.829261,
            46.590032,
            2478.8
          ],
          [
            11.829374,
            46.590048,
            2478.5
          ],
          [
            11.829476,
            46.590036,
            2478.3
          ],
          [
            11.829576,
            46.590005,
            2478.8
          ],
          [
            11.829572,
            46.589965,
            2478.5
          ],
          [
            11.829604,
            46.58986,
            2477.5
          ],
          [
            11.829581,
            46.589756,
            2476.3
          ],
          [
            11.829544,
            46.589683,
            2474.8
          ],
          [
            11.829535,
            46.589633,
            2473.8
          ],
          [
            11.82957,
            46.589586,
            2473.5
          ],
          [
            11.829668,
            46.589548,
            2474.5
          ],
          [
            11.829741,
            46.589483,
            2475
          ],
          [
            11.829781,
            46.589404,
            2474.5
          ],
          [
            11.829869,
            46.589303,
            2474.5
          ],
          [
            11.83016,
            46.589068,
            2479.8
          ],
          [
            11.830242,
            46.588881,
            2479.5
          ],
          [
            11.83036,
            46.588663,
            2480.3
          ],
          [
            11.830387,
            46.588569,
            2479.8
          ],
          [
            11.830433,
            46.588452,
            2479.8
          ],
          [
            11.830462,
            46.588217,
            2477.5
          ],
          [
            11.830426,
            46.588104,
            2475.8
          ],
          [
            11.830415,
            46.588014,
            2475.3
          ],
          [
            11.830387,
            46.587906,
            2475
          ],
          [
            11.830415,
            46.587794,
            2475.3
          ],
          [
            11.830467,
            46.587666,
            2474
          ],
          [
            11.830599,
            46.587486,
            2471.5
          ],
          [
            11.830702,
            46.587404,
            2465
          ],
          [
            11.830784,
            46.587378,
            2464.5
          ],
          [
            11.830835,
            46.587341,
            2463
          ],
          [
            11.830946,
            46.587308,
            2464.5
          ],
          [
            11.831124,
            46.587279,
            2469.3
          ],
          [
            11.831229,
            46.587287,
            2469.5
          ],
          [
            11.831349,
            46.587274,
            2469.3
          ],
          [
            11.83162,
            46.58721,
            2468.5
          ],
          [
            11.831787,
            46.587134,
            2468
          ],
          [
            11.831869,
            46.587124,
            2468.5
          ],
          [
            11.831926,
            46.587092,
            2468
          ],
          [
            11.83202,
            46.587091,
            2468.5
          ],
          [
            11.832115,
            46.587065,
            2468.3
          ],
          [
            11.832182,
            46.587062,
            2468.5
          ],
          [
            11.832349,
            46.587028,
            2467.5
          ],
          [
            11.832364,
            46.586999,
            2466.5
          ],
          [
            11.832397,
            46.58698,
            2465.8
          ],
          [
            11.832472,
            46.586989,
            2465.8
          ],
          [
            11.832624,
            46.586984,
            2466
          ],
          [
            11.832673,
            46.586972,
            2465.8
          ],
          [
            11.832694,
            46.586943,
            2464.5
          ],
          [
            11.832727,
            46.586937,
            2464
          ],
          [
            11.832767,
            46.586942,
            2464.8
          ],
          [
            11.83299,
            46.586916,
            2464.5
          ],
          [
            11.8331,
            46.58688,
            2463
          ],
          [
            11.833188,
            46.586815,
            2459.8
          ],
          [
            11.833315,
            46.586707,
            2453.5
          ],
          [
            11.833419,
            46.586672,
            2454
          ],
          [
            11.833512,
            46.586657,
            2455.5
          ],
          [
            11.833589,
            46.586659,
            2458.5
          ],
          [
            11.833695,
            46.586634,
            2457.5
          ],
          [
            11.83393,
            46.586563,
            2454.3
          ],
          [
            11.833997,
            46.586552,
            2454.8
          ],
          [
            11.834004,
            46.586527,
            2453
          ],
          [
            11.833958,
            46.586505,
            2450.5
          ],
          [
            11.833963,
            46.586486,
            2449.3
          ],
          [
            11.834068,
            46.586456,
            2449.5
          ],
          [
            11.834151,
            46.586418,
            2448.5
          ],
          [
            11.834209,
            46.586383,
            2446.3
          ],
          [
            11.834287,
            46.586378,
            2445.8
          ],
          [
            11.834369,
            46.586393,
            2445.8
          ],
          [
            11.834802,
            46.586584,
            2445
          ],
          [
            11.834993,
            46.586619,
            2441.3
          ],
          [
            11.835156,
            46.58664,
            2440.3
          ],
          [
            11.835433,
            46.586623,
            2438.3
          ],
          [
            11.835511,
            46.586564,
            2436.3
          ],
          [
            11.835605,
            46.586479,
            2433.8
          ],
          [
            11.835713,
            46.586416,
            2432.5
          ],
          [
            11.835951,
            46.58632,
            2430.5
          ],
          [
            11.836076,
            46.586276,
            2429
          ],
          [
            11.836208,
            46.586246,
            2428.5
          ],
          [
            11.836333,
            46.586232,
            2429.3
          ],
          [
            11.836471,
            46.586269,
            2432.8
          ],
          [
            11.836594,
            46.586253,
            2431.5
          ],
          [
            11.836671,
            46.586232,
            2430.5
          ],
          [
            11.836775,
            46.58623,
            2432.3
          ],
          [
            11.836863,
            46.586202,
            2432.5
          ],
          [
            11.83695,
            46.586167,
            2433
          ],
          [
            11.837022,
            46.586119,
            2432
          ],
          [
            11.837183,
            46.586059,
            2431
          ],
          [
            11.837244,
            46.586011,
            2430
          ],
          [
            11.837368,
            46.585861,
            2427.5
          ],
          [
            11.837425,
            46.585799,
            2428.3
          ],
          [
            11.837454,
            46.585627,
            2428
          ],
          [
            11.837438,
            46.58558,
            2427.3
          ],
          [
            11.837357,
            46.585468,
            2427
          ],
          [
            11.83724,
            46.585374,
            2425.5
          ],
          [
            11.837194,
            46.585349,
            2424.8
          ],
          [
            11.837173,
            46.585319,
            2425.3
          ],
          [
            11.837171,
            46.585288,
            2426.3
          ],
          [
            11.837153,
            46.58526,
            2427
          ],
          [
            11.837092,
            46.585236,
            2427
          ],
          [
            11.837062,
            46.58518,
            2427.8
          ],
          [
            11.83705,
            46.58513,
            2428.5
          ],
          [
            11.836969,
            46.585061,
            2427.3
          ],
          [
            11.836895,
            46.5849,
            2424.8
          ],
          [
            11.836982,
            46.584686,
            2428.8
          ],
          [
            11.837032,
            46.584619,
            2429.5
          ],
          [
            11.83705,
            46.584534,
            2428.8
          ],
          [
            11.837139,
            46.584424,
            2429.8
          ],
          [
            11.837153,
            46.584382,
            2429.5
          ],
          [
            11.83716,
            46.584276,
            2427.8
          ],
          [
            11.837181,
            46.584232,
            2427.5
          ],
          [
            11.837247,
            46.584139,
            2428
          ],
          [
            11.837273,
            46.584073,
            2426.5
          ],
          [
            11.837368,
            46.583973,
            2426.3
          ],
          [
            11.837457,
            46.583781,
            2422.8
          ],
          [
            11.837553,
            46.583691,
            2423.5
          ],
          [
            11.837567,
            46.583646,
            2422.3
          ],
          [
            11.837645,
            46.583544,
            2422.3
          ],
          [
            11.837719,
            46.583489,
            2423.8
          ],
          [
            11.837741,
            46.583339,
            2423
          ],
          [
            11.837762,
            46.583082,
            2421.8
          ],
          [
            11.837775,
            46.583054,
            2421.8
          ],
          [
            11.837804,
            46.583028,
            2421.8
          ],
          [
            11.837918,
            46.582977,
            2423
          ],
          [
            11.837946,
            46.582953,
            2423
          ],
          [
            11.837962,
            46.582924,
            2422.8
          ],
          [
            11.837966,
            46.582844,
            2421.5
          ],
          [
            11.83804,
            46.582696,
            2421.5
          ],
          [
            11.838052,
            46.582655,
            2421.8
          ],
          [
            11.838122,
            46.582575,
            2423.3
          ],
          [
            11.838146,
            46.582515,
            2423.5
          ],
          [
            11.83815,
            46.58248,
            2423.8
          ],
          [
            11.838203,
            46.582397,
            2425
          ],
          [
            11.838213,
            46.582332,
            2425.3
          ],
          [
            11.838234,
            46.582293,
            2425.8
          ],
          [
            11.838267,
            46.582265,
            2426.5
          ],
          [
            11.838274,
            46.582192,
            2426.5
          ],
          [
            11.838252,
            46.582116,
            2425.5
          ],
          [
            11.838247,
            46.582028,
            2424.5
          ],
          [
            11.838254,
            46.581934,
            2423.5
          ],
          [
            11.838241,
            46.581747,
            2421.3
          ],
          [
            11.838279,
            46.581642,
            2420.5
          ],
          [
            11.838277,
            46.581553,
            2419
          ],
          [
            11.838304,
            46.581455,
            2418.3
          ],
          [
            11.838248,
            46.581294,
            2414.8
          ],
          [
            11.838244,
            46.581128,
            2412.8
          ],
          [
            11.838312,
            46.581034,
            2413
          ],
          [
            11.838348,
            46.580888,
            2411.3
          ],
          [
            11.838367,
            46.580841,
            2410.8
          ],
          [
            11.838383,
            46.58075,
            2410.3
          ],
          [
            11.838414,
            46.580714,
            2410.5
          ],
          [
            11.83846,
            46.580678,
            2411.3
          ],
          [
            11.838482,
            46.580608,
            2410.8
          ],
          [
            11.838538,
            46.580561,
            2411.3
          ],
          [
            11.83865,
            46.58035,
            2410
          ],
          [
            11.838768,
            46.580279,
            2410.3
          ],
          [
            11.838796,
            46.580249,
            2410
          ],
          [
            11.838822,
            46.580178,
            2409.3
          ],
          [
            11.838836,
            46.580164,
            2409.3
          ],
          [
            11.838848,
            46.580118,
            2408.8
          ],
          [
            11.838795,
            46.580054,
            2406.8
          ],
          [
            11.838809,
            46.579963,
            2406.3
          ],
          [
            11.838741,
            46.579845,
            2404.8
          ],
          [
            11.838692,
            46.579806,
            2403.5
          ],
          [
            11.838591,
            46.579759,
            2401.5
          ],
          [
            11.838602,
            46.579719,
            2401.8
          ],
          [
            11.838638,
            46.579674,
            2402.5
          ],
          [
            11.838662,
            46.579599,
            2403
          ],
          [
            11.838619,
            46.579549,
            2402
          ],
          [
            11.838598,
            46.579497,
            2401.5
          ],
          [
            11.838553,
            46.579453,
            2399.5
          ],
          [
            11.838543,
            46.579398,
            2399.8
          ],
          [
            11.838552,
            46.579325,
            2400.8
          ],
          [
            11.838544,
            46.579256,
            2401
          ],
          [
            11.838481,
            46.579186,
            2400
          ],
          [
            11.838466,
            46.579147,
            2399.8
          ],
          [
            11.838462,
            46.579102,
            2399.5
          ],
          [
            11.838405,
            46.57902,
            2398.5
          ],
          [
            11.838379,
            46.578884,
            2398.5
          ],
          [
            11.838349,
            46.578843,
            2397.5
          ],
          [
            11.838319,
            46.578717,
            2395.8
          ],
          [
            11.838329,
            46.578642,
            2395.3
          ],
          [
            11.838316,
            46.57859,
            2394.5
          ],
          [
            11.838245,
            46.578428,
            2392
          ],
          [
            11.838225,
            46.578261,
            2390.5
          ],
          [
            11.838263,
            46.578175,
            2390.3
          ],
          [
            11.838253,
            46.578124,
            2390
          ],
          [
            11.838231,
            46.57807,
            2389.5
          ],
          [
            11.838212,
            46.577969,
            2389.3
          ],
          [
            11.838153,
            46.577783,
            2388.5
          ],
          [
            11.838118,
            46.577731,
            2388
          ],
          [
            11.838108,
            46.577678,
            2387.8
          ],
          [
            11.838057,
            46.577577,
            2387.3
          ],
          [
            11.83802,
            46.577525,
            2387
          ],
          [
            11.83807,
            46.577408,
            2382.5
          ],
          [
            11.838051,
            46.577261,
            2375
          ],
          [
            11.838112,
            46.577232,
            2374.8
          ],
          [
            11.838066,
            46.577196,
            2371
          ],
          [
            11.838126,
            46.577178,
            2370.8
          ],
          [
            11.838071,
            46.577167,
            2368.5
          ],
          [
            11.838096,
            46.577152,
            2367.8
          ],
          [
            11.837929,
            46.577147,
            2369.3
          ],
          [
            11.837818,
            46.57709,
            2367
          ],
          [
            11.83763,
            46.577037,
            2366.3
          ],
          [
            11.837576,
            46.576984,
            2366.5
          ],
          [
            11.837507,
            46.576831,
            2370.3
          ],
          [
            11.837426,
            46.576455,
            2371.3
          ],
          [
            11.83738,
            46.576398,
            2372.3
          ],
          [
            11.837227,
            46.576315,
            2376
          ],
          [
            11.837179,
            46.576269,
            2375.5
          ],
          [
            11.837162,
            46.576231,
            2374.5
          ],
          [
            11.837077,
            46.575872,
            2373.3
          ],
          [
            11.837012,
            46.575796,
            2375.5
          ],
          [
            11.836983,
            46.575696,
            2376.8
          ],
          [
            11.836828,
            46.575529,
            2380.3
          ],
          [
            11.83673,
            46.575363,
            2382.3
          ],
          [
            11.836645,
            46.575291,
            2383.3
          ],
          [
            11.836548,
            46.575237,
            2385.5
          ],
          [
            11.836499,
            46.575178,
            2387
          ],
          [
            11.836254,
            46.574891,
            2393.3
          ],
          [
            11.836008,
            46.574797,
            2397.3
          ],
          [
            11.835762,
            46.574734,
            2399
          ],
          [
            11.83567,
            46.574653,
            2400
          ],
          [
            11.835496,
            46.57461,
            2400.3
          ],
          [
            11.835068,
            46.574612,
            2397.3
          ],
          [
            11.834636,
            46.574527,
            2398.3
          ],
          [
            11.834349,
            46.574431,
            2398
          ],
          [
            11.833799,
            46.574217,
            2400.8
          ],
          [
            11.833667,
            46.57412,
            2402.5
          ],
          [
            11.833652,
            46.574058,
            2403
          ],
          [
            11.83367,
            46.573935,
            2403
          ],
          [
            11.833638,
            46.573876,
            2403.8
          ],
          [
            11.833589,
            46.573841,
            2405.5
          ],
          [
            11.833515,
            46.573837,
            2407.3
          ],
          [
            11.833379,
            46.573807,
            2410.5
          ],
          [
            11.833171,
            46.573574,
            2414
          ],
          [
            11.833054,
            46.573427,
            2413.5
          ],
          [
            11.832935,
            46.573363,
            2413.3
          ],
          [
            11.832883,
            46.57327,
            2413.3
          ],
          [
            11.832854,
            46.573178,
            2414
          ],
          [
            11.832846,
            46.573053,
            2415.3
          ],
          [
            11.832778,
            46.572957,
            2414.8
          ],
          [
            11.832709,
            46.572801,
            2413.8
          ],
          [
            11.832457,
            46.572333,
            2417.5
          ],
          [
            11.832435,
            46.572093,
            2420
          ],
          [
            11.832365,
            46.571968,
            2422
          ],
          [
            11.83154,
            46.571417,
            2424.8
          ],
          [
            11.831427,
            46.571242,
            2425.5
          ],
          [
            11.831405,
            46.571035,
            2425
          ],
          [
            11.831201,
            46.570857,
            2423
          ],
          [
            11.830837,
            46.570438,
            2420.5
          ],
          [
            11.830325,
            46.570099,
            2418.3
          ],
          [
            11.829877,
            46.569936,
            2420.8
          ],
          [
            11.829812,
            46.569809,
            2424.3
          ],
          [
            11.829663,
            46.569723,
            2426
          ],
          [
            11.829637,
            46.569563,
            2427.8
          ],
          [
            11.829517,
            46.569391,
            2429.3
          ],
          [
            11.829507,
            46.569237,
            2430.8
          ],
          [
            11.829459,
            46.569084,
            2431.3
          ],
          [
            11.82938,
            46.568955,
            2430
          ],
          [
            11.829344,
            46.568838,
            2428.5
          ],
          [
            11.829391,
            46.568698,
            2426
          ],
          [
            11.829389,
            46.568597,
            2423.5
          ],
          [
            11.829485,
            46.568396,
            2413.3
          ],
          [
            11.829545,
            46.568324,
            2410.5
          ],
          [
            11.829692,
            46.568202,
            2409.5
          ],
          [
            11.829718,
            46.568164,
            2409
          ],
          [
            11.829702,
            46.56813,
            2407.8
          ],
          [
            11.829621,
            46.568088,
            2405
          ],
          [
            11.829583,
            46.568093,
            2404.5
          ],
          [
            11.82955,
            46.568077,
            2403.5
          ],
          [
            11.829556,
            46.568047,
            2403
          ],
          [
            11.829562,
            46.568019,
            2403.5
          ],
          [
            11.829548,
            46.567928,
            2404
          ],
          [
            11.829618,
            46.567771,
            2407
          ],
          [
            11.829571,
            46.567666,
            2406.5
          ],
          [
            11.829496,
            46.567575,
            2405.5
          ],
          [
            11.82947,
            46.567471,
            2405.5
          ],
          [
            11.829406,
            46.56742,
            2404.5
          ],
          [
            11.829318,
            46.567393,
            2402.8
          ],
          [
            11.829258,
            46.567332,
            2401.8
          ],
          [
            11.829178,
            46.567187,
            2401.3
          ],
          [
            11.829101,
            46.567146,
            2400.8
          ],
          [
            11.829105,
            46.567086,
            2402.5
          ],
          [
            11.828801,
            46.566977,
            2399.8
          ],
          [
            11.82864,
            46.566834,
            2399.8
          ],
          [
            11.828452,
            46.566693,
            2400.8
          ],
          [
            11.82829,
            46.566549,
            2402.3
          ],
          [
            11.82805,
            46.566354,
            2402.3
          ],
          [
            11.827866,
            46.566305,
            2401
          ],
          [
            11.827649,
            46.566207,
            2401.3
          ],
          [
            11.827599,
            46.566203,
            2401
          ],
          [
            11.827417,
            46.566134,
            2402
          ],
          [
            11.82715,
            46.566076,
            2403
          ],
          [
            11.826987,
            46.566055,
            2403
          ],
          [
            11.826863,
            46.566048,
            2403.3
          ],
          [
            11.826555,
            46.566005,
            2405.3
          ],
          [
            11.826341,
            46.565945,
            2407.3
          ],
          [
            11.826231,
            46.565939,
            2408
          ],
          [
            11.825529,
            46.565925,
            2418.3
          ],
          [
            11.825575,
            46.566032,
            2418.5
          ],
          [
            11.82557,
            46.566089,
            2419.3
          ],
          [
            11.825518,
            46.566115,
            2420.3
          ],
          [
            11.825404,
            46.566106,
            2421.5
          ],
          [
            11.82527,
            46.566037,
            2422.8
          ],
          [
            11.825159,
            46.56592,
            2424.8
          ],
          [
            11.824932,
            46.565776,
            2434.3
          ],
          [
            11.824852,
            46.565746,
            2437
          ],
          [
            11.824799,
            46.565639,
            2441.3
          ],
          [
            11.824802,
            46.565497,
            2445.5
          ],
          [
            11.824716,
            46.565482,
            2450
          ],
          [
            11.824564,
            46.565507,
            2455.8
          ],
          [
            11.824366,
            46.565531,
            2463.5
          ],
          [
            11.824227,
            46.565637,
            2467.8
          ],
          [
            11.824159,
            46.565648,
            2470.8
          ],
          [
            11.824106,
            46.565473,
            2476.8
          ],
          [
            11.8238,
            46.565512,
            2486.5
          ],
          [
            11.823818,
            46.565433,
            2489
          ],
          [
            11.823645,
            46.565409,
            2495.5
          ],
          [
            11.823729,
            46.565233,
            2499.5
          ],
          [
            11.823642,
            46.565141,
            2505.8
          ],
          [
            11.823494,
            46.565129,
            2509
          ],
          [
            11.823253,
            46.565046,
            2515
          ],
          [
            11.823237,
            46.56502,
            2516
          ],
          [
            11.823182,
            46.565003,
            2516.8
          ],
          [
            11.823127,
            46.564954,
            2518.8
          ],
          [
            11.823132,
            46.564918,
            2519.8
          ],
          [
            11.823204,
            46.564886,
            2520.3
          ],
          [
            11.823206,
            46.564846,
            2521.5
          ],
          [
            11.822918,
            46.564677,
            2525.5
          ],
          [
            11.822758,
            46.564576,
            2523.5
          ],
          [
            11.822745,
            46.564572,
            2523.3
          ],
          [
            11.82267,
            46.564557,
            2521.3
          ],
          [
            11.822597,
            46.564574,
            2520.3
          ],
          [
            11.822534,
            46.564568,
            2518.8
          ],
          [
            11.822468,
            46.564611,
            2519.5
          ],
          [
            11.822398,
            46.56458,
            2515.8
          ],
          [
            11.822306,
            46.564598,
            2514.3
          ],
          [
            11.822296,
            46.56456,
            2511.5
          ],
          [
            11.822097,
            46.564576,
            2506.5
          ],
          [
            11.82208,
            46.564547,
            2504
          ],
          [
            11.82201,
            46.564575,
            2503.8
          ],
          [
            11.821975,
            46.564531,
            2499.8
          ],
          [
            11.821877,
            46.564554,
            2498.8
          ],
          [
            11.821861,
            46.564526,
            2496.3
          ],
          [
            11.821765,
            46.564541,
            2495
          ],
          [
            11.821745,
            46.564512,
            2492.5
          ],
          [
            11.821694,
            46.564519,
            2491.8
          ],
          [
            11.821686,
            46.564463,
            2487.8
          ],
          [
            11.821647,
            46.564425,
            2484.3
          ],
          [
            11.821774,
            46.564222,
            2477
          ],
          [
            11.821781,
            46.564154,
            2474
          ],
          [
            11.82175,
            46.564115,
            2473
          ],
          [
            11.821715,
            46.564062,
            2471.5
          ],
          [
            11.821691,
            46.563971,
            2470.3
          ],
          [
            11.820314,
            46.562587,
            2450.8
          ],
          [
            11.819818,
            46.562434,
            2444.8
          ],
          [
            11.819513,
            46.56224,
            2446.5
          ],
          [
            11.819319,
            46.56215,
            2448.8
          ],
          [
            11.819081,
            46.562089,
            2448
          ],
          [
            11.81891,
            46.56201,
            2448.5
          ],
          [
            11.818782,
            46.561983,
            2447.3
          ],
          [
            11.818606,
            46.56192,
            2448.8
          ],
          [
            11.818393,
            46.56189,
            2449
          ],
          [
            11.818167,
            46.561899,
            2444.8
          ],
          [
            11.817947,
            46.561846,
            2446.8
          ],
          [
            11.81774,
            46.561788,
            2449.5
          ],
          [
            11.817407,
            46.561844,
            2439.3
          ],
          [
            11.816902,
            46.561681,
            2446
          ],
          [
            11.816705,
            46.561696,
            2441.5
          ],
          [
            11.81653,
            46.561677,
            2440
          ],
          [
            11.81635,
            46.561645,
            2440.3
          ],
          [
            11.816144,
            46.56162,
            2444.5
          ],
          [
            11.816135,
            46.56159,
            2447.5
          ],
          [
            11.815998,
            46.56157,
            2449
          ],
          [
            11.816051,
            46.561527,
            2453.8
          ],
          [
            11.815927,
            46.56152,
            2452.8
          ],
          [
            11.815974,
            46.561487,
            2456.5
          ],
          [
            11.815895,
            46.561472,
            2456.5
          ],
          [
            11.815821,
            46.561426,
            2458.5
          ],
          [
            11.815716,
            46.561302,
            2460.5
          ],
          [
            11.815744,
            46.56124,
            2462.8
          ],
          [
            11.815924,
            46.561132,
            2464.3
          ],
          [
            11.815981,
            46.561118,
            2462.8
          ],
          [
            11.816052,
            46.561047,
            2457.3
          ],
          [
            11.816203,
            46.561122,
            2455.8
          ],
          [
            11.816164,
            46.561024,
            2451.8
          ],
          [
            11.816252,
            46.561088,
            2452
          ],
          [
            11.816197,
            46.560969,
            2447.3
          ],
          [
            11.816291,
            46.560996,
            2445
          ],
          [
            11.816154,
            46.560822,
            2440.5
          ],
          [
            11.816164,
            46.560711,
            2433.8
          ],
          [
            11.816391,
            46.560845,
            2432.5
          ],
          [
            11.816364,
            46.56074,
            2428.8
          ],
          [
            11.816421,
            46.560752,
            2428.3
          ],
          [
            11.81655,
            46.56075,
            2427.8
          ],
          [
            11.816645,
            46.560591,
            2422.8
          ],
          [
            11.816689,
            46.560457,
            2422
          ],
          [
            11.816669,
            46.560359,
            2421.3
          ],
          [
            11.816992,
            46.559927,
            2419.5
          ],
          [
            11.81713,
            46.559786,
            2419.5
          ],
          [
            11.817236,
            46.559637,
            2419.8
          ],
          [
            11.81719,
            46.559454,
            2420.3
          ],
          [
            11.816973,
            46.559369,
            2413.8
          ],
          [
            11.816625,
            46.559335,
            2412.3
          ],
          [
            11.816477,
            46.559409,
            2413.5
          ],
          [
            11.816369,
            46.559442,
            2414.3
          ],
          [
            11.816209,
            46.559684,
            2418.8
          ],
          [
            11.816098,
            46.559736,
            2419.8
          ],
          [
            11.815797,
            46.559593,
            2417.8
          ],
          [
            11.815394,
            46.559463,
            2417
          ],
          [
            11.814891,
            46.559413,
            2417.3
          ],
          [
            11.814372,
            46.559153,
            2408.5
          ],
          [
            11.813854,
            46.559107,
            2388.8
          ],
          [
            11.8135,
            46.558987,
            2380.8
          ],
          [
            11.813465,
            46.558963,
            2379.8
          ],
          [
            11.81342,
            46.55888,
            2376.3
          ],
          [
            11.813358,
            46.558853,
            2375
          ],
          [
            11.813387,
            46.558805,
            2373
          ],
          [
            11.813275,
            46.558615,
            2362.8
          ],
          [
            11.813253,
            46.558541,
            2361.5
          ],
          [
            11.813092,
            46.558334,
            2346
          ],
          [
            11.813055,
            46.558334,
            2343
          ],
          [
            11.81298,
            46.558261,
            2339
          ],
          [
            11.813001,
            46.558189,
            2336.3
          ],
          [
            11.812827,
            46.557943,
            2315.3
          ],
          [
            11.812776,
            46.557929,
            2312.3
          ],
          [
            11.812813,
            46.557735,
            2301
          ],
          [
            11.812662,
            46.557439,
            2282.3
          ],
          [
            11.812386,
            46.557358,
            2274
          ],
          [
            11.812377,
            46.557279,
            2269.3
          ],
          [
            11.812285,
            46.557221,
            2265.8
          ],
          [
            11.812288,
            46.557138,
            2261
          ],
          [
            11.812106,
            46.556998,
            2252
          ],
          [
            11.811997,
            46.557009,
            2251.8
          ],
          [
            11.811922,
            46.55694,
            2247.5
          ],
          [
            11.811812,
            46.556928,
            2245.5
          ],
          [
            11.811777,
            46.556836,
            2240.8
          ],
          [
            11.811635,
            46.556815,
            2238.3
          ],
          [
            11.811603,
            46.556669,
            2230.8
          ],
          [
            11.811353,
            46.556643,
            2226.3
          ],
          [
            11.811283,
            46.556597,
            2224.8
          ],
          [
            11.811301,
            46.556564,
            2223.8
          ],
          [
            11.811436,
            46.556441,
            2221.5
          ],
          [
            11.811494,
            46.556366,
            2219.8
          ],
          [
            11.811533,
            46.556229,
            2217.8
          ],
          [
            11.811435,
            46.556269,
            2217.5
          ],
          [
            11.811301,
            46.556294,
            2216.8
          ],
          [
            11.811092,
            46.556306,
            2215.5
          ],
          [
            11.810904,
            46.556292,
            2214.3
          ],
          [
            11.810568,
            46.556222,
            2212.5
          ],
          [
            11.810251,
            46.556138,
            2208.5
          ],
          [
            11.810171,
            46.556098,
            2207
          ],
          [
            11.809876,
            46.556008,
            2203.8
          ],
          [
            11.809595,
            46.555899,
            2199
          ],
          [
            11.809377,
            46.555794,
            2196
          ],
          [
            11.809252,
            46.555722,
            2194.8
          ],
          [
            11.809127,
            46.555632,
            2193
          ],
          [
            11.80898,
            46.555492,
            2190.5
          ],
          [
            11.808891,
            46.555388,
            2190
          ],
          [
            11.808836,
            46.555271,
            2189.3
          ],
          [
            11.808819,
            46.555186,
            2189.3
          ],
          [
            11.808815,
            46.555063,
            2188.8
          ],
          [
            11.808849,
            46.55488,
            2188
          ],
          [
            11.808885,
            46.554778,
            2187.3
          ],
          [
            11.808923,
            46.554674,
            2185.3
          ],
          [
            11.808957,
            46.554537,
            2182
          ],
          [
            11.808938,
            46.554363,
            2178
          ],
          [
            11.808873,
            46.554148,
            2173
          ],
          [
            11.808859,
            46.553933,
            2168.5
          ],
          [
            11.808921,
            46.553788,
            2164.5
          ],
          [
            11.808967,
            46.553581,
            2159.8
          ],
          [
            11.808903,
            46.553318,
            2155.5
          ],
          [
            11.808635,
            46.552961,
            2154
          ],
          [
            11.808254,
            46.552602,
            2155
          ],
          [
            11.808319,
            46.552459,
            2155.3
          ],
          [
            11.808338,
            46.552398,
            2155.3
          ],
          [
            11.80833,
            46.552329,
            2155.5
          ],
          [
            11.808276,
            46.552106,
            2153.8
          ],
          [
            11.808287,
            46.552043,
            2152.3
          ],
          [
            11.808315,
            46.551982,
            2150.8
          ],
          [
            11.80836,
            46.551938,
            2149.8
          ],
          [
            11.808455,
            46.551898,
            2149.5
          ],
          [
            11.808517,
            46.55186,
            2148.8
          ],
          [
            11.808691,
            46.551648,
            2144
          ],
          [
            11.80877,
            46.551528,
            2142.3
          ],
          [
            11.808856,
            46.55143,
            2140.8
          ],
          [
            11.809167,
            46.551157,
            2132.3
          ],
          [
            11.809191,
            46.551106,
            2131.3
          ],
          [
            11.80912,
            46.551066,
            2131
          ],
          [
            11.808789,
            46.550921,
            2129.8
          ],
          [
            11.80871,
            46.550878,
            2129.3
          ],
          [
            11.808672,
            46.550843,
            2128.8
          ],
          [
            11.808672,
            46.550734,
            2128.3
          ],
          [
            11.808704,
            46.550688,
            2128
          ],
          [
            11.808828,
            46.550596,
            2126.8
          ],
          [
            11.808896,
            46.550534,
            2125.5
          ],
          [
            11.808988,
            46.550431,
            2123
          ],
          [
            11.809145,
            46.550283,
            2118.5
          ],
          [
            11.809265,
            46.550192,
            2116
          ],
          [
            11.809049,
            46.550015,
            2119
          ],
          [
            11.808961,
            46.549943,
            2119.8
          ],
          [
            11.808831,
            46.549874,
            2121.5
          ],
          [
            11.80872,
            46.54984,
            2123
          ],
          [
            11.808605,
            46.549816,
            2124.3
          ],
          [
            11.80854,
            46.549806,
            2123.3
          ],
          [
            11.808471,
            46.549805,
            2122.3
          ],
          [
            11.808389,
            46.549819,
            2121.5
          ],
          [
            11.808471,
            46.549805,
            2122.3
          ],
          [
            11.80854,
            46.549806,
            2123.3
          ],
          [
            11.808605,
            46.549816,
            2124.3
          ],
          [
            11.80872,
            46.54984,
            2123
          ],
          [
            11.808831,
            46.549874,
            2121.5
          ],
          [
            11.808961,
            46.549943,
            2119.8
          ],
          [
            11.809049,
            46.550015,
            2119
          ],
          [
            11.809265,
            46.550192,
            2116
          ],
          [
            11.809318,
            46.550234,
            2115.8
          ],
          [
            11.809464,
            46.550351,
            2114.8
          ],
          [
            11.809805,
            46.550606,
            2112.3
          ],
          [
            11.810018,
            46.550527,
            2108.3
          ],
          [
            11.810128,
            46.550471,
            2106.5
          ],
          [
            11.81024,
            46.550373,
            2104.3
          ],
          [
            11.810424,
            46.550151,
            2099.3
          ],
          [
            11.810622,
            46.549951,
            2095.3
          ],
          [
            11.810694,
            46.549895,
            2093.8
          ],
          [
            11.810777,
            46.549862,
            2092.5
          ],
          [
            11.810924,
            46.549832,
            2090.8
          ],
          [
            11.811119,
            46.549757,
            2088.3
          ],
          [
            11.81132,
            46.549715,
            2087
          ],
          [
            11.811382,
            46.549697,
            2086.8
          ],
          [
            11.811482,
            46.549604,
            2084.8
          ],
          [
            11.811573,
            46.54956,
            2083.5
          ],
          [
            11.811681,
            46.549543,
            2082
          ],
          [
            11.81178,
            46.549545,
            2080
          ],
          [
            11.811858,
            46.549573,
            2078.5
          ],
          [
            11.811922,
            46.549637,
            2077.3
          ],
          [
            11.812033,
            46.549692,
            2075.3
          ],
          [
            11.812123,
            46.549739,
            2073.5
          ],
          [
            11.812183,
            46.549792,
            2071.8
          ],
          [
            11.812213,
            46.550022,
            2068.5
          ],
          [
            11.812228,
            46.550068,
            2069
          ],
          [
            11.81237,
            46.550085,
            2068.5
          ],
          [
            11.812452,
            46.550085,
            2068
          ],
          [
            11.812627,
            46.550117,
            2066.8
          ],
          [
            11.812753,
            46.55019,
            2066.5
          ],
          [
            11.812912,
            46.550306,
            2064.5
          ],
          [
            11.812993,
            46.550438,
            2064.5
          ],
          [
            11.813047,
            46.550467,
            2064
          ],
          [
            11.81312,
            46.550468,
            2063.5
          ],
          [
            11.813153,
            46.550429,
            2062
          ],
          [
            11.813162,
            46.550158,
            2055.8
          ],
          [
            11.813279,
            46.550114,
            2052.3
          ],
          [
            11.813242,
            46.550026,
            2052.3
          ],
          [
            11.813186,
            46.549955,
            2052.8
          ],
          [
            11.813173,
            46.549807,
            2051.8
          ],
          [
            11.813217,
            46.549689,
            2050.8
          ],
          [
            11.813375,
            46.5495,
            2048.3
          ],
          [
            11.813641,
            46.549112,
            2046.5
          ],
          [
            11.813811,
            46.549074,
            2043.5
          ],
          [
            11.813964,
            46.549013,
            2040.8
          ],
          [
            11.81415,
            46.548985,
            2038.5
          ],
          [
            11.814254,
            46.548939,
            2037.5
          ],
          [
            11.814312,
            46.548921,
            2037.3
          ],
          [
            11.814707,
            46.548932,
            2032.3
          ],
          [
            11.814808,
            46.548904,
            2030.8
          ],
          [
            11.81496,
            46.54891,
            2027.5
          ],
          [
            11.815129,
            46.548829,
            2025
          ],
          [
            11.81556,
            46.548757,
            2017.3
          ],
          [
            11.81575,
            46.548741,
            2015
          ],
          [
            11.816049,
            46.548653,
            2010.3
          ],
          [
            11.816296,
            46.548555,
            2008.3
          ],
          [
            11.816437,
            46.548515,
            2007.3
          ],
          [
            11.816563,
            46.548467,
            2006
          ],
          [
            11.816751,
            46.548418,
            2004.3
          ],
          [
            11.816805,
            46.548396,
            2003.8
          ],
          [
            11.816826,
            46.548374,
            2003.3
          ],
          [
            11.816824,
            46.548335,
            2002.8
          ],
          [
            11.816733,
            46.548278,
            2002
          ],
          [
            11.816713,
            46.548239,
            2001.3
          ],
          [
            11.816763,
            46.547912,
            1997.3
          ],
          [
            11.816794,
            46.547883,
            1996.8
          ],
          [
            11.816836,
            46.547862,
            1996.3
          ],
          [
            11.81688,
            46.547855,
            1995.5
          ],
          [
            11.816945,
            46.547806,
            1994.8
          ],
          [
            11.817124,
            46.54774,
            1991.5
          ],
          [
            11.81724,
            46.547751,
            1988.5
          ],
          [
            11.817379,
            46.547756,
            1985.8
          ],
          [
            11.81747,
            46.547729,
            1985.3
          ],
          [
            11.817571,
            46.547743,
            1983
          ],
          [
            11.817632,
            46.547721,
            1983
          ],
          [
            11.817701,
            46.547724,
            1981.8
          ],
          [
            11.817798,
            46.547697,
            1981.3
          ],
          [
            11.817857,
            46.547708,
            1979.3
          ],
          [
            11.817994,
            46.547691,
            1977
          ],
          [
            11.818064,
            46.547647,
            1977.3
          ],
          [
            11.818314,
            46.547561,
            1973
          ],
          [
            11.818543,
            46.547406,
            1968.8
          ],
          [
            11.818643,
            46.5473,
            1968
          ],
          [
            11.818682,
            46.547247,
            1968.5
          ],
          [
            11.818871,
            46.547217,
            1966.3
          ],
          [
            11.81907,
            46.547155,
            1967
          ],
          [
            11.819335,
            46.547058,
            1966.5
          ],
          [
            11.819436,
            46.547032,
            1964.8
          ],
          [
            11.819825,
            46.546948,
            1961.5
          ],
          [
            11.820147,
            46.546982,
            1960.3
          ],
          [
            11.820232,
            46.546991,
            1960
          ],
          [
            11.820306,
            46.547018,
            1960
          ],
          [
            11.82043,
            46.547014,
            1960
          ],
          [
            11.820776,
            46.547067,
            1959.5
          ],
          [
            11.82084,
            46.547072,
            1959.3
          ],
          [
            11.820985,
            46.547123,
            1958.5
          ],
          [
            11.821041,
            46.547179,
            1958.3
          ],
          [
            11.821055,
            46.547203,
            1958.3
          ],
          [
            11.821085,
            46.547236,
            1958.3
          ],
          [
            11.82114,
            46.547285,
            1958.5
          ],
          [
            11.821167,
            46.547372,
            1959.5
          ],
          [
            11.821179,
            46.547458,
            1960.8
          ],
          [
            11.821224,
            46.547508,
            1961
          ],
          [
            11.821293,
            46.547557,
            1960.3
          ],
          [
            11.821345,
            46.547543,
            1960
          ],
          [
            11.82141,
            46.547543,
            1959
          ],
          [
            11.821473,
            46.547561,
            1957.5
          ],
          [
            11.821519,
            46.547585,
            1956.5
          ],
          [
            11.821548,
            46.54762,
            1955.8
          ],
          [
            11.821564,
            46.547665,
            1955.5
          ],
          [
            11.821611,
            46.548026,
            1956.5
          ],
          [
            11.821626,
            46.548113,
            1953.8
          ],
          [
            11.821611,
            46.548026,
            1956.5
          ],
          [
            11.821564,
            46.547665,
            1955.5
          ],
          [
            11.821548,
            46.54762,
            1955.8
          ],
          [
            11.821519,
            46.547585,
            1956.5
          ],
          [
            11.821473,
            46.547561,
            1957.5
          ],
          [
            11.82141,
            46.547543,
            1959
          ],
          [
            11.821345,
            46.547543,
            1960
          ],
          [
            11.821293,
            46.547557,
            1960.3
          ],
          [
            11.821224,
            46.547508,
            1961
          ],
          [
            11.821179,
            46.547458,
            1960.8
          ],
          [
            11.821167,
            46.547372,
            1959.5
          ],
          [
            11.82114,
            46.547285,
            1958.5
          ],
          [
            11.821085,
            46.547236,
            1958.3
          ],
          [
            11.821055,
            46.547203,
            1958.3
          ],
          [
            11.821041,
            46.547179,
            1958.3
          ],
          [
            11.820985,
            46.547123,
            1958.5
          ],
          [
            11.82084,
            46.547072,
            1959.3
          ],
          [
            11.820856,
            46.547045,
            1959
          ],
          [
            11.820966,
            46.54687,
            1959
          ],
          [
            11.820966,
            46.546855,
            1959.3
          ],
          [
            11.821019,
            46.54684,
            1959.3
          ],
          [
            11.8211,
            46.546792,
            1959.8
          ],
          [
            11.821196,
            46.54675,
            1959.3
          ],
          [
            11.821231,
            46.546727,
            1959.5
          ],
          [
            11.821325,
            46.546643,
            1960.8
          ],
          [
            11.821432,
            46.546624,
            1960.5
          ],
          [
            11.821526,
            46.546557,
            1962.3
          ],
          [
            11.821536,
            46.546534,
            1963.3
          ],
          [
            11.821653,
            46.546476,
            1963.8
          ],
          [
            11.821684,
            46.546475,
            1963.3
          ],
          [
            11.821782,
            46.546431,
            1963.5
          ],
          [
            11.821818,
            46.546433,
            1962.8
          ],
          [
            11.822018,
            46.546375,
            1961.8
          ],
          [
            11.822113,
            46.546323,
            1962.3
          ],
          [
            11.822361,
            46.546222,
            1961.3
          ],
          [
            11.822431,
            46.546205,
            1960.3
          ],
          [
            11.822562,
            46.546174,
            1958
          ],
          [
            11.822785,
            46.546025,
            1960.5
          ],
          [
            11.822863,
            46.545984,
            1960.8
          ],
          [
            11.822959,
            46.545944,
            1960.3
          ],
          [
            11.823099,
            46.545896,
            1958.8
          ],
          [
            11.823545,
            46.54592,
            1950
          ],
          [
            11.823943,
            46.545934,
            1950.5
          ],
          [
            11.82424,
            46.545893,
            1953
          ],
          [
            11.824556,
            46.545829,
            1957.3
          ],
          [
            11.824728,
            46.545781,
            1961.3
          ],
          [
            11.824769,
            46.54573,
            1966.5
          ],
          [
            11.824941,
            46.545657,
            1969.3
          ],
          [
            11.824958,
            46.545562,
            1976.5
          ],
          [
            11.824901,
            46.545542,
            1981.8
          ],
          [
            11.824905,
            46.545522,
            1984.3
          ],
          [
            11.82503,
            46.545412,
            1995
          ],
          [
            11.824976,
            46.545367,
            2002.5
          ],
          [
            11.824913,
            46.545267,
            2018.3
          ],
          [
            11.824925,
            46.54522,
            2022.5
          ],
          [
            11.824945,
            46.545038,
            2040.5
          ],
          [
            11.825044,
            46.544995,
            2044.5
          ],
          [
            11.825075,
            46.544959,
            2046.3
          ],
          [
            11.825038,
            46.544874,
            2049.3
          ],
          [
            11.825072,
            46.544855,
            2050.3
          ],
          [
            11.825083,
            46.544797,
            2052.5
          ],
          [
            11.825098,
            46.544772,
            2053.8
          ],
          [
            11.825134,
            46.54474,
            2055.3
          ],
          [
            11.825166,
            46.544669,
            2057.5
          ],
          [
            11.825195,
            46.544518,
            2060.5
          ],
          [
            11.825251,
            46.544429,
            2060.5
          ],
          [
            11.825239,
            46.544366,
            2063.3
          ],
          [
            11.825247,
            46.544338,
            2064
          ],
          [
            11.825318,
            46.544303,
            2063
          ],
          [
            11.825382,
            46.544171,
            2065.8
          ],
          [
            11.825386,
            46.544131,
            2067
          ],
          [
            11.825426,
            46.544083,
            2067.5
          ],
          [
            11.825487,
            46.544033,
            2067.8
          ],
          [
            11.825642,
            46.543834,
            2069.8
          ],
          [
            11.825736,
            46.543799,
            2067.5
          ],
          [
            11.825783,
            46.543755,
            2067.3
          ],
          [
            11.825835,
            46.543744,
            2065.5
          ],
          [
            11.825918,
            46.54367,
            2064.5
          ],
          [
            11.826003,
            46.543624,
            2062.3
          ],
          [
            11.826217,
            46.543257,
            2058.5
          ],
          [
            11.826362,
            46.543092,
            2055.3
          ],
          [
            11.82642,
            46.542896,
            2052.3
          ],
          [
            11.826394,
            46.542798,
            2052.8
          ],
          [
            11.826378,
            46.542774,
            2054.5
          ],
          [
            11.826554,
            46.542605,
            2057.5
          ],
          [
            11.826598,
            46.542542,
            2055.8
          ],
          [
            11.826642,
            46.542515,
            2050.3
          ],
          [
            11.826661,
            46.542485,
            2048.5
          ],
          [
            11.826726,
            46.542421,
            2047.5
          ],
          [
            11.826761,
            46.542352,
            2048.5
          ],
          [
            11.826763,
            46.542302,
            2050.8
          ],
          [
            11.826813,
            46.542239,
            2050.3
          ],
          [
            11.826874,
            46.542184,
            2048.5
          ],
          [
            11.826888,
            46.542144,
            2049.5
          ],
          [
            11.826919,
            46.542122,
            2047.8
          ],
          [
            11.826931,
            46.542084,
            2048.3
          ],
          [
            11.82698,
            46.542039,
            2046.8
          ],
          [
            11.827054,
            46.541938,
            2047
          ],
          [
            11.827118,
            46.541899,
            2045.3
          ],
          [
            11.827133,
            46.541862,
            2045.5
          ],
          [
            11.827095,
            46.541848,
            2048
          ],
          [
            11.827075,
            46.541763,
            2052
          ],
          [
            11.827043,
            46.541717,
            2055.8
          ],
          [
            11.827065,
            46.541666,
            2056
          ],
          [
            11.827223,
            46.541588,
            2051
          ],
          [
            11.82732,
            46.541574,
            2049.8
          ],
          [
            11.827486,
            46.541482,
            2051.5
          ],
          [
            11.827587,
            46.541398,
            2052.5
          ],
          [
            11.827485,
            46.541424,
            2055
          ],
          [
            11.827579,
            46.541327,
            2056
          ],
          [
            11.827487,
            46.541334,
            2059.5
          ],
          [
            11.827543,
            46.541264,
            2060.3
          ],
          [
            11.827545,
            46.54119,
            2063.5
          ],
          [
            11.827581,
            46.540956,
            2065.8
          ],
          [
            11.827606,
            46.540939,
            2064.5
          ],
          [
            11.827541,
            46.540845,
            2068
          ],
          [
            11.827532,
            46.54081,
            2069.5
          ],
          [
            11.827565,
            46.540786,
            2069.3
          ],
          [
            11.827582,
            46.540718,
            2072
          ],
          [
            11.827675,
            46.540725,
            2067.8
          ],
          [
            11.827793,
            46.540689,
            2065
          ],
          [
            11.827911,
            46.540638,
            2062
          ],
          [
            11.827978,
            46.540386,
            2077
          ],
          [
            11.827938,
            46.540396,
            2078.5
          ],
          [
            11.827871,
            46.540425,
            2080
          ],
          [
            11.827849,
            46.540395,
            2084
          ],
          [
            11.827841,
            46.540344,
            2089
          ],
          [
            11.827858,
            46.540305,
            2091.3
          ],
          [
            11.827915,
            46.540263,
            2092.3
          ],
          [
            11.827924,
            46.540242,
            2094.8
          ],
          [
            11.827911,
            46.540194,
            2102.8
          ],
          [
            11.827806,
            46.540149,
            2116.5
          ],
          [
            11.827815,
            46.540059,
            2129.5
          ],
          [
            11.827727,
            46.539948,
            2149.8
          ],
          [
            11.827761,
            46.539876,
            2154
          ],
          [
            11.827693,
            46.539849,
            2162.3
          ],
          [
            11.827668,
            46.53981,
            2168.3
          ],
          [
            11.827544,
            46.539825,
            2177.5
          ],
          [
            11.82751,
            46.539847,
            2178
          ],
          [
            11.827477,
            46.53984,
            2183.5
          ],
          [
            11.82739,
            46.53977,
            2207
          ],
          [
            11.827366,
            46.539689,
            2219.3
          ],
          [
            11.827494,
            46.539535,
            2201.5
          ],
          [
            11.827486,
            46.539509,
            2216
          ],
          [
            11.827461,
            46.539414,
            2216
          ],
          [
            11.827397,
            46.539314,
            2238.8
          ],
          [
            11.827414,
            46.539188,
            2248.3
          ],
          [
            11.827214,
            46.539063,
            2274.3
          ],
          [
            11.826904,
            46.539127,
            2309
          ],
          [
            11.826639,
            46.539086,
            2333.5
          ],
          [
            11.826389,
            46.539199,
            2370
          ],
          [
            11.826213,
            46.539198,
            2394.8
          ],
          [
            11.825969,
            46.539104,
            2408.8
          ],
          [
            11.825739,
            46.539078,
            2425.3
          ],
          [
            11.825664,
            46.539082,
            2431.3
          ],
          [
            11.825618,
            46.539125,
            2443
          ],
          [
            11.825572,
            46.539142,
            2449.8
          ],
          [
            11.825451,
            46.53915,
            2450.5
          ],
          [
            11.825417,
            46.539174,
            2452.8
          ],
          [
            11.825411,
            46.539212,
            2454.8
          ],
          [
            11.825439,
            46.539234,
            2456
          ],
          [
            11.825453,
            46.539268,
            2457.3
          ],
          [
            11.825437,
            46.539276,
            2457.8
          ],
          [
            11.825345,
            46.539281,
            2460.3
          ],
          [
            11.825299,
            46.53928,
            2461.5
          ],
          [
            11.825243,
            46.539268,
            2462.3
          ],
          [
            11.825202,
            46.539285,
            2466.3
          ],
          [
            11.825193,
            46.539325,
            2471
          ],
          [
            11.825291,
            46.539412,
            2476
          ],
          [
            11.825272,
            46.539418,
            2478
          ],
          [
            11.825337,
            46.539474,
            2475.5
          ],
          [
            11.825355,
            46.539516,
            2474
          ],
          [
            11.825328,
            46.539579,
            2478
          ],
          [
            11.82526,
            46.539585,
            2485.8
          ],
          [
            11.825212,
            46.539597,
            2488
          ],
          [
            11.8252,
            46.539622,
            2489.3
          ],
          [
            11.825162,
            46.539621,
            2491
          ],
          [
            11.825155,
            46.539669,
            2492.8
          ],
          [
            11.825135,
            46.539694,
            2494.5
          ],
          [
            11.825048,
            46.539681,
            2498
          ],
          [
            11.824997,
            46.53969,
            2500.8
          ],
          [
            11.824965,
            46.539706,
            2502.5
          ],
          [
            11.824885,
            46.53967,
            2504.3
          ],
          [
            11.824832,
            46.539659,
            2505.8
          ],
          [
            11.824812,
            46.539667,
            2506.8
          ],
          [
            11.824809,
            46.539687,
            2507.8
          ],
          [
            11.824823,
            46.53979,
            2510.5
          ],
          [
            11.824771,
            46.539782,
            2512.5
          ],
          [
            11.824714,
            46.539813,
            2515.5
          ],
          [
            11.824587,
            46.539764,
            2519
          ],
          [
            11.82453,
            46.539697,
            2519.5
          ],
          [
            11.824471,
            46.539663,
            2520.8
          ],
          [
            11.824417,
            46.539651,
            2522
          ],
          [
            11.824301,
            46.539669,
            2524.3
          ],
          [
            11.824237,
            46.539666,
            2525
          ],
          [
            11.824146,
            46.539635,
            2526
          ],
          [
            11.824065,
            46.539576,
            2526.3
          ],
          [
            11.823957,
            46.539545,
            2527.3
          ],
          [
            11.823907,
            46.539517,
            2527.8
          ],
          [
            11.823851,
            46.539458,
            2527.3
          ],
          [
            11.823784,
            46.539412,
            2527.3
          ],
          [
            11.823715,
            46.539382,
            2527.5
          ],
          [
            11.823648,
            46.539367,
            2528.3
          ],
          [
            11.823592,
            46.539331,
            2529
          ],
          [
            11.823549,
            46.539293,
            2529.8
          ],
          [
            11.823476,
            46.539179,
            2531.3
          ],
          [
            11.823427,
            46.53913,
            2533.3
          ],
          [
            11.823428,
            46.539082,
            2534.5
          ],
          [
            11.823536,
            46.538956,
            2534
          ],
          [
            11.823517,
            46.538909,
            2535.5
          ],
          [
            11.823488,
            46.538881,
            2537
          ],
          [
            11.823446,
            46.538893,
            2538.3
          ],
          [
            11.823404,
            46.538879,
            2539.8
          ],
          [
            11.823358,
            46.538878,
            2541.3
          ],
          [
            11.823356,
            46.538813,
            2542.8
          ],
          [
            11.823335,
            46.53879,
            2544
          ],
          [
            11.823372,
            46.538757,
            2543.3
          ],
          [
            11.823251,
            46.538575,
            2550.5
          ],
          [
            11.823251,
            46.538548,
            2550.5
          ],
          [
            11.823213,
            46.538514,
            2552
          ],
          [
            11.823196,
            46.538469,
            2552.8
          ],
          [
            11.823143,
            46.538469,
            2555
          ],
          [
            11.823137,
            46.53843,
            2555.5
          ],
          [
            11.82311,
            46.538383,
            2557
          ],
          [
            11.823022,
            46.538352,
            2560.3
          ],
          [
            11.82294,
            46.538341,
            2561.8
          ],
          [
            11.822864,
            46.538298,
            2562.5
          ],
          [
            11.822805,
            46.538284,
            2563.5
          ],
          [
            11.822746,
            46.538253,
            2564.3
          ],
          [
            11.822669,
            46.538188,
            2565
          ],
          [
            11.822581,
            46.538144,
            2566.8
          ],
          [
            11.822504,
            46.538084,
            2568
          ],
          [
            11.82245,
            46.538023,
            2569
          ],
          [
            11.822359,
            46.537977,
            2571.3
          ],
          [
            11.822179,
            46.537827,
            2575
          ],
          [
            11.822149,
            46.537748,
            2575.3
          ],
          [
            11.822047,
            46.537631,
            2580
          ],
          [
            11.822053,
            46.537514,
            2579.8
          ],
          [
            11.822074,
            46.537463,
            2578.8
          ],
          [
            11.822027,
            46.537427,
            2580.8
          ],
          [
            11.821996,
            46.537372,
            2582
          ],
          [
            11.822015,
            46.537262,
            2581
          ],
          [
            11.821981,
            46.53718,
            2582.5
          ],
          [
            11.821948,
            46.537146,
            2583.8
          ],
          [
            11.821939,
            46.537098,
            2584
          ],
          [
            11.821888,
            46.537064,
            2585
          ],
          [
            11.821895,
            46.536958,
            2584.8
          ],
          [
            11.821886,
            46.536879,
            2585
          ],
          [
            11.821874,
            46.536799,
            2585.5
          ],
          [
            11.821846,
            46.536744,
            2585.8
          ],
          [
            11.821831,
            46.536684,
            2586
          ],
          [
            11.821806,
            46.536632,
            2586.5
          ],
          [
            11.821758,
            46.536594,
            2587
          ],
          [
            11.82165,
            46.536537,
            2588
          ],
          [
            11.821617,
            46.536499,
            2589
          ],
          [
            11.82158,
            46.536458,
            2589
          ],
          [
            11.821541,
            46.536359,
            2589.3
          ],
          [
            11.821598,
            46.536261,
            2587.5
          ],
          [
            11.821468,
            46.536099,
            2587.5
          ],
          [
            11.820969,
            46.535823,
            2583.5
          ],
          [
            11.820786,
            46.535809,
            2586.3
          ],
          [
            11.820348,
            46.535569,
            2589.5
          ],
          [
            11.82016,
            46.535385,
            2589.3
          ],
          [
            11.81981,
            46.535187,
            2595
          ],
          [
            11.819731,
            46.535071,
            2595
          ],
          [
            11.819444,
            46.534746,
            2599.5
          ],
          [
            11.819041,
            46.534171,
            2614.8
          ],
          [
            11.818905,
            46.533824,
            2621.5
          ],
          [
            11.818698,
            46.533711,
            2629.8
          ],
          [
            11.818547,
            46.533386,
            2633.3
          ],
          [
            11.818429,
            46.533202,
            2637
          ],
          [
            11.818307,
            46.533118,
            2642
          ],
          [
            11.818206,
            46.532899,
            2645.3
          ],
          [
            11.817796,
            46.532633,
            2661.8
          ],
          [
            11.817475,
            46.532574,
            2677
          ],
          [
            11.81711,
            46.532249,
            2693.8
          ],
          [
            11.816767,
            46.532043,
            2707.3
          ],
          [
            11.816294,
            46.531718,
            2719.5
          ],
          [
            11.816058,
            46.53157,
            2725.8
          ],
          [
            11.816294,
            46.531083,
            2732
          ],
          [
            11.81623,
            46.530891,
            2737.5
          ],
          [
            11.816101,
            46.53067,
            2743.5
          ],
          [
            11.81593,
            46.530493,
            2748
          ],
          [
            11.815565,
            46.530389,
            2755
          ],
          [
            11.815222,
            46.530094,
            2771
          ],
          [
            11.815114,
            46.529887,
            2781.3
          ],
          [
            11.814835,
            46.529784,
            2792.3
          ],
          [
            11.814642,
            46.529814,
            2796.3
          ],
          [
            11.814556,
            46.52971,
            2801.5
          ],
          [
            11.814256,
            46.529651,
            2812.3
          ],
          [
            11.814036,
            46.529698,
            2813.8
          ],
          [
            11.813261,
            46.529612,
            2831
          ],
          [
            11.81296,
            46.529513,
            2841.3
          ],
          [
            11.812719,
            46.529502,
            2847.8
          ],
          [
            11.812467,
            46.529494,
            2854.5
          ],
          [
            11.812407,
            46.529427,
            2857
          ],
          [
            11.812438,
            46.529364,
            2861.3
          ],
          [
            11.812406,
            46.529319,
            2865.3
          ],
          [
            11.812426,
            46.529276,
            2868.3
          ],
          [
            11.812525,
            46.529238,
            2870.3
          ],
          [
            11.812583,
            46.529157,
            2877.8
          ],
          [
            11.81222,
            46.528953,
            2893.5
          ],
          [
            11.812157,
            46.528857,
            2899.8
          ],
          [
            11.811882,
            46.528564,
            2906.8
          ],
          [
            11.811635,
            46.528509,
            2907.3
          ],
          [
            11.811732,
            46.528439,
            2908.3
          ],
          [
            11.812209,
            46.528339,
            2910
          ],
          [
            11.812724,
            46.528365,
            2910.8
          ],
          [
            11.813497,
            46.52805,
            2910
          ],
          [
            11.813711,
            46.527892,
            2908.5
          ],
          [
            11.814023,
            46.527645,
            2908
          ],
          [
            11.814344,
            46.527413,
            2909.3
          ],
          [
            11.814693,
            46.527014,
            2906
          ],
          [
            11.81487,
            46.526907,
            2905
          ],
          [
            11.815327,
            46.526728,
            2902.8
          ],
          [
            11.815707,
            46.526523,
            2899.3
          ],
          [
            11.815964,
            46.526313,
            2895.5
          ],
          [
            11.816056,
            46.526187,
            2893.5
          ],
          [
            11.816233,
            46.526036,
            2894.8
          ],
          [
            11.81641,
            46.525748,
            2893.3
          ],
          [
            11.816549,
            46.5256,
            2889.3
          ],
          [
            11.816769,
            46.525608,
            2891.3
          ],
          [
            11.817102,
            46.525265,
            2890.3
          ],
          [
            11.817391,
            46.525065,
            2889.5
          ],
          [
            11.817617,
            46.524722,
            2890
          ],
          [
            11.817821,
            46.524364,
            2891.3
          ],
          [
            11.818035,
            46.524113,
            2895
          ],
          [
            11.818314,
            46.523873,
            2893.5
          ],
          [
            11.818475,
            46.523862,
            2891
          ],
          [
            11.818668,
            46.523877,
            2889
          ],
          [
            11.819011,
            46.523869,
            2881
          ],
          [
            11.819205,
            46.523928,
            2877.8
          ],
          [
            11.819234,
            46.523976,
            2879
          ],
          [
            11.819307,
            46.523978,
            2877.5
          ],
          [
            11.81948,
            46.523941,
            2872
          ],
          [
            11.819556,
            46.52395,
            2871.8
          ],
          [
            11.819617,
            46.523914,
            2869.3
          ],
          [
            11.819853,
            46.523876,
            2866.8
          ],
          [
            11.819939,
            46.523811,
            2864.8
          ],
          [
            11.820078,
            46.523781,
            2864.5
          ],
          [
            11.820196,
            46.523627,
            2860.5
          ],
          [
            11.820257,
            46.523597,
            2860.5
          ],
          [
            11.820327,
            46.523492,
            2860.3
          ],
          [
            11.820377,
            46.523463,
            2860.8
          ],
          [
            11.820443,
            46.523384,
            2861.3
          ],
          [
            11.820516,
            46.523225,
            2859.5
          ],
          [
            11.82065,
            46.523144,
            2860.8
          ],
          [
            11.820666,
            46.523102,
            2860.3
          ],
          [
            11.820577,
            46.523057,
            2856.5
          ],
          [
            11.820579,
            46.522983,
            2853.5
          ],
          [
            11.820545,
            46.522853,
            2847.8
          ],
          [
            11.8206,
            46.52283,
            2847
          ],
          [
            11.820729,
            46.522707,
            2842
          ],
          [
            11.820831,
            46.522579,
            2837.5
          ],
          [
            11.820947,
            46.522517,
            2838
          ],
          [
            11.821307,
            46.522136,
            2837.8
          ],
          [
            11.821458,
            46.522041,
            2838.5
          ],
          [
            11.821508,
            46.52189,
            2838
          ],
          [
            11.82155,
            46.521865,
            2837.8
          ],
          [
            11.82157,
            46.521774,
            2837.8
          ],
          [
            11.8216,
            46.521743,
            2837.5
          ],
          [
            11.821674,
            46.521562,
            2836.5
          ],
          [
            11.821753,
            46.521496,
            2836.3
          ],
          [
            11.821788,
            46.521493,
            2836
          ],
          [
            11.821785,
            46.521459,
            2836
          ],
          [
            11.821822,
            46.521402,
            2836
          ],
          [
            11.821985,
            46.521332,
            2835
          ],
          [
            11.822186,
            46.521274,
            2833.8
          ],
          [
            11.822404,
            46.521169,
            2832.3
          ],
          [
            11.822468,
            46.521149,
            2832.5
          ],
          [
            11.822647,
            46.521032,
            2833.8
          ],
          [
            11.822616,
            46.520994,
            2833.8
          ],
          [
            11.822638,
            46.520894,
            2834.3
          ],
          [
            11.822498,
            46.52071,
            2834.3
          ],
          [
            11.822386,
            46.520547,
            2833.5
          ],
          [
            11.822396,
            46.520282,
            2837.5
          ],
          [
            11.822316,
            46.52016,
            2836.8
          ],
          [
            11.822332,
            46.519754,
            2841
          ],
          [
            11.82238,
            46.51961,
            2843
          ],
          [
            11.82238,
            46.519447,
            2841.5
          ],
          [
            11.822429,
            46.519267,
            2843.3
          ],
          [
            11.822439,
            46.519145,
            2843.3
          ],
          [
            11.822514,
            46.519027,
            2845.3
          ],
          [
            11.822509,
            46.518875,
            2843
          ],
          [
            11.822547,
            46.518724,
            2841.5
          ],
          [
            11.822697,
            46.518576,
            2847.5
          ],
          [
            11.822949,
            46.518421,
            2855.3
          ],
          [
            11.82303,
            46.518388,
            2858.3
          ],
          [
            11.82314,
            46.518256,
            2856.8
          ],
          [
            11.823196,
            46.518067,
            2849.3
          ],
          [
            11.823247,
            46.51801,
            2851.3
          ],
          [
            11.82333,
            46.517872,
            2850.8
          ],
          [
            11.823376,
            46.517816,
            2849
          ],
          [
            11.823539,
            46.517707,
            2852.3
          ],
          [
            11.823607,
            46.51765,
            2854
          ],
          [
            11.823656,
            46.517596,
            2853.8
          ],
          [
            11.823721,
            46.517547,
            2854
          ],
          [
            11.823753,
            46.517511,
            2853.8
          ],
          [
            11.823789,
            46.517434,
            2853.3
          ],
          [
            11.823787,
            46.517405,
            2852.8
          ],
          [
            11.823764,
            46.517365,
            2851.8
          ],
          [
            11.823761,
            46.517326,
            2851.3
          ],
          [
            11.823824,
            46.517224,
            2851.8
          ],
          [
            11.823905,
            46.517146,
            2852.3
          ],
          [
            11.823956,
            46.517113,
            2852
          ],
          [
            11.823999,
            46.517072,
            2851.8
          ],
          [
            11.824123,
            46.517015,
            2852.8
          ],
          [
            11.82416,
            46.517011,
            2853.5
          ],
          [
            11.824185,
            46.516996,
            2853.5
          ],
          [
            11.824199,
            46.516997,
            2853.8
          ],
          [
            11.824205,
            46.516938,
            2853.3
          ],
          [
            11.824262,
            46.516837,
            2853.3
          ],
          [
            11.824288,
            46.516724,
            2853
          ],
          [
            11.824331,
            46.516634,
            2853
          ],
          [
            11.824303,
            46.516595,
            2853.5
          ],
          [
            11.824188,
            46.516504,
            2854
          ],
          [
            11.824025,
            46.516427,
            2855.3
          ],
          [
            11.823889,
            46.516418,
            2856.3
          ],
          [
            11.823629,
            46.516344,
            2860.3
          ],
          [
            11.823585,
            46.516313,
            2860.3
          ],
          [
            11.823525,
            46.516286,
            2858
          ],
          [
            11.823482,
            46.516251,
            2856.8
          ],
          [
            11.823467,
            46.516177,
            2858
          ],
          [
            11.823513,
            46.516033,
            2865.5
          ],
          [
            11.823588,
            46.515938,
            2869.8
          ],
          [
            11.823697,
            46.515834,
            2870.5
          ],
          [
            11.823731,
            46.51577,
            2870.3
          ],
          [
            11.823729,
            46.515735,
            2870.3
          ],
          [
            11.8237,
            46.515676,
            2870.3
          ],
          [
            11.823645,
            46.515598,
            2870.5
          ],
          [
            11.823608,
            46.515538,
            2870.8
          ],
          [
            11.82359,
            46.515483,
            2870.5
          ],
          [
            11.823537,
            46.515437,
            2871.3
          ],
          [
            11.823506,
            46.515367,
            2870.5
          ],
          [
            11.823322,
            46.515203,
            2870.5
          ],
          [
            11.823293,
            46.515156,
            2870.5
          ],
          [
            11.823131,
            46.515,
            2868.8
          ],
          [
            11.823107,
            46.514964,
            2868.8
          ],
          [
            11.823107,
            46.514918,
            2868.8
          ],
          [
            11.823178,
            46.514738,
            2869.3
          ],
          [
            11.823167,
            46.514696,
            2869
          ]
        ]
      }
    },
    {
      "type": "Feature",
      "properties": {
        "kind": "waypoint",
        "name": "Rifugio Puez",
        "show_label": true
      },
      "geometry": {
        "type": "Point",
        "coordinates": [
          11.829263,
          46.590032,
          2479
        ]
      }
    },
    {
      "type": "Feature",
      "properties": {
        "kind": "waypoint",
        "name": "Passo Crespeina",
        "show_label": false
      },
      "geometry": {
        "type": "Point",
        "coordinates": [
          11.822758,
          46.564576,
          2528
        ]
      }
    },
    {
      "type": "Feature",
      "properties": {
        "kind": "waypoint",
        "name": "Furcela de Cir",
        "show_label": false
      },
      "geometry": {
        "type": "Point",
        "coordinates": [
          11.815924,
          46.561132,
          2469
        ]
      }
    },
    {
      "type": "Feature",
      "properties": {
        "kind": "waypoint",
        "name": "Passo Gardena",
        "show_label": true
      },
      "geometry": {
        "type": "Point",
        "coordinates": [
          11.808389,
          46.549819,
          2121
        ]
      }
    },
    {
      "type": "Feature",
      "properties": {
        "kind": "waypoint",
        "name": "Brigata Tridentina",
        "show_label": false
      },
      "geometry": {
        "type": "Point",
        "coordinates": [
          11.827487,
          46.53951,
          2360
        ]
      }
    },
    {
      "type": "Feature",
      "properties": {
        "kind": "waypoint",
        "name": "Rifugio Pisciadù",
        "show_label": true
      },
      "geometry": {
        "type": "Point",
        "coordinates": [
          11.821805,
          46.536422,
          2587
        ]
      }
    },
    {
      "type": "Feature",
      "properties": {
        "kind": "waypoint",
        "name": "Rifugio Boè",
        "show_label": true
      },
      "geometry": {
        "type": "Point",
        "coordinates": [
          11.823167,
          46.514696,
          2869
        ]
      }
    }
  ]
}
