{
  "type": "FeatureCollection",
  "features": [
    {
      "type": "Feature",
      "properties": {
        "kind": "route",
        "name": "День 2 · Langkofelhütte → Mesules → Boè",
        "distance_km": 15.17,
        "ascent_m": 1572,
        "descent_m": 960,
        "source": "BRouter / OpenStreetMap + official Val Gardena Mesules GPX"
      },
      "geometry": {
        "type": "LineString",
        "coordinates": [
          [
            11.723838,
            46.519898,
            2257.5
          ],
          [
            11.723906,
            46.520011,
            2254.8
          ],
          [
            11.724103,
            46.520221,
            2249.3
          ],
          [
            11.724265,
            46.520287,
            2248.5
          ],
          [
            11.724381,
            46.520379,
            2245.8
          ],
          [
            11.724464,
            46.520464,
            2244
          ],
          [
            11.724535,
            46.520563,
            2242.5
          ],
          [
            11.72453,
            46.520647,
            2243.8
          ],
          [
            11.72431,
            46.520861,
            2237.8
          ],
          [
            11.724108,
            46.521015,
            2234.3
          ],
          [
            11.723711,
            46.521258,
            2228
          ],
          [
            11.723331,
            46.521403,
            2221.5
          ],
          [
            11.723231,
            46.521449,
            2219.5
          ],
          [
            11.722836,
            46.521712,
            2213
          ],
          [
            11.722666,
            46.521721,
            2207
          ],
          [
            11.721835,
            46.522311,
            2181.3
          ],
          [
            11.721363,
            46.522702,
            2169.5
          ],
          [
            11.721323,
            46.522814,
            2169.3
          ],
          [
            11.721358,
            46.523067,
            2167.5
          ],
          [
            11.721288,
            46.523193,
            2166.5
          ],
          [
            11.720938,
            46.52344,
            2151.8
          ],
          [
            11.720799,
            46.523717,
            2146.5
          ],
          [
            11.720729,
            46.523636,
            2143.3
          ],
          [
            11.720667,
            46.523747,
            2138.5
          ],
          [
            11.720479,
            46.523612,
            2131
          ],
          [
            11.720415,
            46.523984,
            2118.3
          ],
          [
            11.720204,
            46.523843,
            2113.3
          ],
          [
            11.720202,
            46.524422,
            2088.3
          ],
          [
            11.720329,
            46.524448,
            2090
          ],
          [
            11.720449,
            46.524455,
            2093
          ],
          [
            11.720478,
            46.524472,
            2092.8
          ],
          [
            11.720509,
            46.524519,
            2090.8
          ],
          [
            11.720619,
            46.524583,
            2093.5
          ],
          [
            11.720733,
            46.52468,
            2091.8
          ],
          [
            11.720843,
            46.524832,
            2090.5
          ],
          [
            11.720891,
            46.525007,
            2097.5
          ],
          [
            11.720971,
            46.525161,
            2108.5
          ],
          [
            11.721034,
            46.525469,
            2095
          ],
          [
            11.721015,
            46.52553,
            2089.5
          ],
          [
            11.720977,
            46.525586,
            2087.3
          ],
          [
            11.720799,
            46.52577,
            2086
          ],
          [
            11.72072,
            46.525882,
            2087.5
          ],
          [
            11.720583,
            46.525997,
            2087
          ],
          [
            11.72049,
            46.526053,
            2086
          ],
          [
            11.720409,
            46.526116,
            2085.8
          ],
          [
            11.720331,
            46.526196,
            2084
          ],
          [
            11.720289,
            46.526284,
            2083.3
          ],
          [
            11.720293,
            46.526394,
            2084.8
          ],
          [
            11.720224,
            46.526491,
            2085
          ],
          [
            11.720157,
            46.526526,
            2083
          ],
          [
            11.720104,
            46.526569,
            2081.8
          ],
          [
            11.720034,
            46.526704,
            2082.5
          ],
          [
            11.719989,
            46.526731,
            2080.8
          ],
          [
            11.719891,
            46.52688,
            2079
          ],
          [
            11.719859,
            46.527018,
            2079.8
          ],
          [
            11.719792,
            46.527174,
            2078.5
          ],
          [
            11.719797,
            46.527368,
            2077.3
          ],
          [
            11.719863,
            46.527438,
            2079
          ],
          [
            11.719856,
            46.527614,
            2075
          ],
          [
            11.719933,
            46.527732,
            2075.8
          ],
          [
            11.719876,
            46.527893,
            2069.3
          ],
          [
            11.720091,
            46.528248,
            2067.3
          ],
          [
            11.720091,
            46.528395,
            2063.5
          ],
          [
            11.72019,
            46.528701,
            2060.5
          ],
          [
            11.720389,
            46.528906,
            2062
          ],
          [
            11.720455,
            46.52907,
            2063.8
          ],
          [
            11.720381,
            46.529233,
            2058.3
          ],
          [
            11.720512,
            46.529474,
            2060.5
          ],
          [
            11.720636,
            46.529678,
            2061.3
          ],
          [
            11.720738,
            46.529761,
            2062.3
          ],
          [
            11.721012,
            46.529828,
            2067.5
          ],
          [
            11.721236,
            46.529918,
            2069.5
          ],
          [
            11.721546,
            46.530151,
            2068.8
          ],
          [
            11.72179,
            46.530245,
            2076
          ],
          [
            11.722143,
            46.530518,
            2077.5
          ],
          [
            11.722288,
            46.530536,
            2083.8
          ],
          [
            11.722358,
            46.530658,
            2083.8
          ],
          [
            11.722557,
            46.53088,
            2091.5
          ],
          [
            11.722786,
            46.53108,
            2100.8
          ],
          [
            11.722801,
            46.530919,
            2107.8
          ],
          [
            11.722901,
            46.531072,
            2108.3
          ],
          [
            11.722979,
            46.531105,
            2112
          ],
          [
            11.723107,
            46.531269,
            2115.5
          ],
          [
            11.723113,
            46.531351,
            2114.3
          ],
          [
            11.723137,
            46.531379,
            2114
          ],
          [
            11.723127,
            46.531405,
            2113.5
          ],
          [
            11.72323,
            46.53145,
            2114
          ],
          [
            11.723235,
            46.53142,
            2114.3
          ],
          [
            11.723195,
            46.531374,
            2114.8
          ],
          [
            11.723184,
            46.531328,
            2115.8
          ],
          [
            11.723226,
            46.531281,
            2117.5
          ],
          [
            11.72349,
            46.531012,
            2123.3
          ],
          [
            11.723574,
            46.530959,
            2122.3
          ],
          [
            11.723877,
            46.530635,
            2122.8
          ],
          [
            11.724162,
            46.530532,
            2126.3
          ],
          [
            11.724221,
            46.530525,
            2126.3
          ],
          [
            11.724319,
            46.530489,
            2128
          ],
          [
            11.724557,
            46.53047,
            2128.8
          ],
          [
            11.724752,
            46.530418,
            2131.8
          ],
          [
            11.724909,
            46.530404,
            2132.3
          ],
          [
            11.725008,
            46.530373,
            2134
          ],
          [
            11.72529,
            46.5304,
            2132.5
          ],
          [
            11.725428,
            46.5304,
            2134.3
          ],
          [
            11.725588,
            46.530493,
            2131
          ],
          [
            11.725782,
            46.53053,
            2131
          ],
          [
            11.72589,
            46.530588,
            2128.5
          ],
          [
            11.726035,
            46.530607,
            2128.8
          ],
          [
            11.726168,
            46.530648,
            2128
          ],
          [
            11.726348,
            46.530753,
            2125.8
          ],
          [
            11.726566,
            46.530868,
            2126.5
          ],
          [
            11.726822,
            46.531096,
            2124.5
          ],
          [
            11.727168,
            46.531193,
            2129.5
          ],
          [
            11.727714,
            46.531342,
            2127.3
          ],
          [
            11.727877,
            46.531337,
            2128
          ],
          [
            11.727992,
            46.531318,
            2129
          ],
          [
            11.728159,
            46.531351,
            2126
          ],
          [
            11.728278,
            46.531331,
            2126.8
          ],
          [
            11.728359,
            46.531348,
            2125.3
          ],
          [
            11.728466,
            46.531306,
            2126
          ],
          [
            11.728575,
            46.53132,
            2123.5
          ],
          [
            11.72868,
            46.531299,
            2122.3
          ],
          [
            11.728784,
            46.53124,
            2122.8
          ],
          [
            11.728903,
            46.531199,
            2121.8
          ],
          [
            11.729085,
            46.531157,
            2120
          ],
          [
            11.729312,
            46.531158,
            2115
          ],
          [
            11.72959,
            46.531056,
            2112.5
          ],
          [
            11.730127,
            46.530798,
            2103.5
          ],
          [
            11.73049,
            46.530749,
            2094.3
          ],
          [
            11.730795,
            46.530723,
            2090.3
          ],
          [
            11.731124,
            46.530732,
            2087.8
          ],
          [
            11.731315,
            46.530783,
            2088
          ],
          [
            11.731608,
            46.530807,
            2091.8
          ],
          [
            11.731885,
            46.530871,
            2092.8
          ],
          [
            11.732249,
            46.531001,
            2093.8
          ],
          [
            11.7324,
            46.531062,
            2093.3
          ],
          [
            11.732495,
            46.531077,
            2093.8
          ],
          [
            11.732608,
            46.531054,
            2095
          ],
          [
            11.732706,
            46.531079,
            2093.8
          ],
          [
            11.732822,
            46.531082,
            2093
          ],
          [
            11.73295,
            46.531069,
            2091.8
          ],
          [
            11.733144,
            46.530998,
            2091.5
          ],
          [
            11.733452,
            46.530819,
            2090
          ],
          [
            11.733727,
            46.530644,
            2085.8
          ],
          [
            11.733821,
            46.53056,
            2083.8
          ],
          [
            11.734158,
            46.530556,
            2073
          ],
          [
            11.734349,
            46.530591,
            2071.5
          ],
          [
            11.734514,
            46.530575,
            2071.8
          ],
          [
            11.734862,
            46.530509,
            2086.3
          ],
          [
            11.735537,
            46.530456,
            2085.5
          ],
          [
            11.735934,
            46.530374,
            2080
          ],
          [
            11.736463,
            46.530283,
            2069.5
          ],
          [
            11.736945,
            46.530213,
            2073.5
          ],
          [
            11.737371,
            46.530089,
            2085.5
          ],
          [
            11.737771,
            46.530045,
            2071.8
          ],
          [
            11.738101,
            46.529981,
            2071.3
          ],
          [
            11.738371,
            46.529956,
            2073
          ],
          [
            11.738593,
            46.529993,
            2061.5
          ],
          [
            11.738959,
            46.529912,
            2064.3
          ],
          [
            11.73941,
            46.529846,
            2071.8
          ],
          [
            11.739591,
            46.529803,
            2068.5
          ],
          [
            11.740081,
            46.52974,
            2065.5
          ],
          [
            11.741093,
            46.529699,
            2083.8
          ],
          [
            11.741331,
            46.529737,
            2082.8
          ],
          [
            11.741528,
            46.529672,
            2089.3
          ],
          [
            11.741609,
            46.529685,
            2088.5
          ],
          [
            11.741679,
            46.529715,
            2087.5
          ],
          [
            11.74175,
            46.529669,
            2090.8
          ],
          [
            11.741793,
            46.529625,
            2093.5
          ],
          [
            11.741916,
            46.529633,
            2094.8
          ],
          [
            11.741954,
            46.529625,
            2095.5
          ],
          [
            11.74198,
            46.52959,
            2097
          ],
          [
            11.741973,
            46.529552,
            2098.3
          ],
          [
            11.741919,
            46.529484,
            2100.3
          ],
          [
            11.741977,
            46.529438,
            2102.3
          ],
          [
            11.742201,
            46.529409,
            2104
          ],
          [
            11.74243,
            46.529329,
            2105.5
          ],
          [
            11.74288,
            46.529221,
            2107
          ],
          [
            11.743002,
            46.529226,
            2106.5
          ],
          [
            11.743261,
            46.529174,
            2108.5
          ],
          [
            11.743582,
            46.529233,
            2107.5
          ],
          [
            11.743706,
            46.529203,
            2109.8
          ],
          [
            11.743924,
            46.52912,
            2119
          ],
          [
            11.744346,
            46.529135,
            2124.3
          ],
          [
            11.744809,
            46.529202,
            2124.3
          ],
          [
            11.745242,
            46.529126,
            2133.3
          ],
          [
            11.745718,
            46.529084,
            2137.8
          ],
          [
            11.746079,
            46.528979,
            2144.3
          ],
          [
            11.746344,
            46.528947,
            2145.8
          ],
          [
            11.746439,
            46.528951,
            2145.5
          ],
          [
            11.746571,
            46.528894,
            2147.8
          ],
          [
            11.746765,
            46.528869,
            2148
          ],
          [
            11.746904,
            46.528864,
            2147.3
          ],
          [
            11.747014,
            46.52885,
            2147.8
          ],
          [
            11.747128,
            46.528815,
            2149.5
          ],
          [
            11.747263,
            46.528796,
            2150.8
          ],
          [
            11.747409,
            46.528767,
            2152.3
          ],
          [
            11.747554,
            46.528786,
            2152.3
          ],
          [
            11.747827,
            46.528786,
            2153.5
          ],
          [
            11.748042,
            46.528831,
            2153.8
          ],
          [
            11.748226,
            46.528878,
            2153.3
          ],
          [
            11.747998,
            46.528778,
            2153.8
          ],
          [
            11.747922,
            46.528727,
            2154
          ],
          [
            11.747903,
            46.528691,
            2154.5
          ],
          [
            11.747922,
            46.528727,
            2154
          ],
          [
            11.747998,
            46.528778,
            2153.8
          ],
          [
            11.748226,
            46.528878,
            2153.3
          ],
          [
            11.748302,
            46.528884,
            2153
          ],
          [
            11.748594,
            46.528799,
            2151.3
          ],
          [
            11.748847,
            46.5284,
            2146.5
          ],
          [
            11.748912,
            46.528263,
            2145.3
          ],
          [
            11.748996,
            46.528138,
            2143.5
          ],
          [
            11.749179,
            46.527894,
            2140.3
          ],
          [
            11.749237,
            46.527735,
            2139.3
          ],
          [
            11.749256,
            46.52765,
            2139.3
          ],
          [
            11.749247,
            46.527606,
            2139.5
          ],
          [
            11.749139,
            46.527394,
            2141
          ],
          [
            11.74915,
            46.527296,
            2140.3
          ],
          [
            11.749084,
            46.527177,
            2140
          ],
          [
            11.749076,
            46.527091,
            2138.8
          ],
          [
            11.749098,
            46.527022,
            2137.3
          ],
          [
            11.74907,
            46.526873,
            2135.8
          ],
          [
            11.749064,
            46.526744,
            2134.8
          ],
          [
            11.74897,
            46.526626,
            2134.8
          ],
          [
            11.748911,
            46.526606,
            2135.3
          ],
          [
            11.748866,
            46.526559,
            2135.5
          ],
          [
            11.748865,
            46.526504,
            2135
          ],
          [
            11.748823,
            46.526464,
            2135.5
          ],
          [
            11.748855,
            46.526395,
            2134.5
          ],
          [
            11.748832,
            46.526356,
            2135.3
          ],
          [
            11.748853,
            46.526308,
            2135.3
          ],
          [
            11.748746,
            46.526205,
            2137.8
          ],
          [
            11.748737,
            46.526103,
            2138.5
          ],
          [
            11.748807,
            46.52601,
            2137.3
          ],
          [
            11.748718,
            46.525955,
            2138
          ],
          [
            11.748663,
            46.525811,
            2138.3
          ],
          [
            11.748671,
            46.525741,
            2138.5
          ],
          [
            11.748725,
            46.525642,
            2138.3
          ],
          [
            11.748732,
            46.525557,
            2138.8
          ],
          [
            11.748674,
            46.525484,
            2139.3
          ],
          [
            11.748678,
            46.525437,
            2138.8
          ],
          [
            11.748639,
            46.525382,
            2139
          ],
          [
            11.748637,
            46.525331,
            2138.8
          ],
          [
            11.748626,
            46.525197,
            2139.3
          ],
          [
            11.748667,
            46.525053,
            2139.5
          ],
          [
            11.748647,
            46.524735,
            2142.3
          ],
          [
            11.748732,
            46.524388,
            2143.5
          ],
          [
            11.74871,
            46.524274,
            2144.8
          ],
          [
            11.748733,
            46.524074,
            2144.8
          ],
          [
            11.748663,
            46.523895,
            2145
          ],
          [
            11.748828,
            46.52379,
            2144
          ],
          [
            11.748919,
            46.523622,
            2146.3
          ],
          [
            11.748939,
            46.523523,
            2146
          ],
          [
            11.748918,
            46.523392,
            2145.8
          ],
          [
            11.749006,
            46.523163,
            2147.5
          ],
          [
            11.749093,
            46.523056,
            2148.5
          ],
          [
            11.749116,
            46.522988,
            2148.3
          ],
          [
            11.749118,
            46.522808,
            2148.5
          ],
          [
            11.74928,
            46.52264,
            2148.3
          ],
          [
            11.749393,
            46.522585,
            2147.8
          ],
          [
            11.74944,
            46.522525,
            2148.5
          ],
          [
            11.749486,
            46.522482,
            2148.8
          ],
          [
            11.749498,
            46.522256,
            2151.8
          ],
          [
            11.749527,
            46.522229,
            2152
          ],
          [
            11.749697,
            46.52217,
            2153.3
          ],
          [
            11.749707,
            46.522135,
            2153.5
          ],
          [
            11.749644,
            46.522084,
            2154.5
          ],
          [
            11.74956,
            46.52188,
            2159
          ],
          [
            11.74963,
            46.521634,
            2160.5
          ],
          [
            11.749684,
            46.521553,
            2161.3
          ],
          [
            11.749747,
            46.521243,
            2167
          ],
          [
            11.749798,
            46.521095,
            2170
          ],
          [
            11.749992,
            46.520733,
            2178.5
          ],
          [
            11.750062,
            46.520567,
            2182.3
          ],
          [
            11.750206,
            46.520388,
            2186
          ],
          [
            11.750381,
            46.520032,
            2191.3
          ],
          [
            11.750456,
            46.519897,
            2193
          ],
          [
            11.750575,
            46.519569,
            2196.8
          ],
          [
            11.750635,
            46.519431,
            2198
          ],
          [
            11.750704,
            46.519272,
            2199.8
          ],
          [
            11.750707,
            46.519241,
            2200.3
          ],
          [
            11.750719,
            46.51913,
            2202.3
          ],
          [
            11.750773,
            46.519003,
            2203.8
          ],
          [
            11.750835,
            46.518896,
            2204.8
          ],
          [
            11.750988,
            46.518779,
            2209
          ],
          [
            11.751165,
            46.518705,
            2212.5
          ],
          [
            11.751344,
            46.518649,
            2215.8
          ],
          [
            11.751636,
            46.518546,
            2223.8
          ],
          [
            11.751669,
            46.518527,
            2224.8
          ],
          [
            11.751789,
            46.51846,
            2227.5
          ],
          [
            11.751899,
            46.518343,
            2230.3
          ],
          [
            11.75195,
            46.518225,
            2232.5
          ],
          [
            11.752019,
            46.518029,
            2235.5
          ],
          [
            11.752193,
            46.517685,
            2238.8
          ],
          [
            11.752208,
            46.517623,
            2239.3
          ],
          [
            11.752195,
            46.517563,
            2240.5
          ],
          [
            11.752098,
            46.517351,
            2244.8
          ],
          [
            11.752041,
            46.517108,
            2248.3
          ],
          [
            11.752133,
            46.516959,
            2246.3
          ],
          [
            11.75231,
            46.516756,
            2246
          ],
          [
            11.75255,
            46.516329,
            2243.5
          ],
          [
            11.752716,
            46.51614,
            2241.5
          ],
          [
            11.752791,
            46.516024,
            2241
          ],
          [
            11.752905,
            46.515756,
            2239.8
          ],
          [
            11.753018,
            46.515562,
            2237
          ],
          [
            11.753039,
            46.515462,
            2235.5
          ],
          [
            11.753018,
            46.515346,
            2234.8
          ],
          [
            11.752902,
            46.515019,
            2231.3
          ],
          [
            11.752821,
            46.514848,
            2230.5
          ],
          [
            11.752795,
            46.51472,
            2229.5
          ],
          [
            11.752802,
            46.514213,
            2229.5
          ],
          [
            11.752751,
            46.514024,
            2229.8
          ],
          [
            11.752637,
            46.513879,
            2228.8
          ],
          [
            11.752591,
            46.513777,
            2226.8
          ],
          [
            11.752584,
            46.513661,
            2224.5
          ],
          [
            11.752621,
            46.513511,
            2222.8
          ],
          [
            11.752602,
            46.513345,
            2223
          ],
          [
            11.752517,
            46.512879,
            2220.8
          ],
          [
            11.752467,
            46.512782,
            2220.5
          ],
          [
            11.752312,
            46.512651,
            2218.5
          ],
          [
            11.751937,
            46.512427,
            2219
          ],
          [
            11.751816,
            46.512334,
            2218
          ],
          [
            11.751785,
            46.512301,
            2217.5
          ],
          [
            11.751623,
            46.512133,
            2216.5
          ],
          [
            11.751516,
            46.512005,
            2216.5
          ],
          [
            11.7515,
            46.511987,
            2216.3
          ],
          [
            11.751297,
            46.511746,
            2216.5
          ],
          [
            11.751298,
            46.511662,
            2216.5
          ],
          [
            11.751339,
            46.511557,
            2216.3
          ],
          [
            11.751435,
            46.511444,
            2214.5
          ],
          [
            11.752059,
            46.510854,
            2213
          ],
          [
            11.752205,
            46.510768,
            2211.3
          ],
          [
            11.752353,
            46.510708,
            2209.8
          ],
          [
            11.752409,
            46.510658,
            2209
          ],
          [
            11.752511,
            46.510514,
            2206.8
          ],
          [
            11.75261,
            46.510442,
            2205.8
          ],
          [
            11.752744,
            46.51036,
            2204
          ],
          [
            11.753109,
            46.510099,
            2201.3
          ],
          [
            11.753204,
            46.510048,
            2200.8
          ],
          [
            11.753439,
            46.509932,
            2199
          ],
          [
            11.753511,
            46.509866,
            2198.3
          ],
          [
            11.753579,
            46.509768,
            2196.8
          ],
          [
            11.753624,
            46.50966,
            2196
          ],
          [
            11.753702,
            46.509581,
            2195.5
          ],
          [
            11.753806,
            46.509517,
            2194.8
          ],
          [
            11.754091,
            46.509401,
            2194
          ],
          [
            11.75459,
            46.509249,
            2188.5
          ],
          [
            11.754606,
            46.509186,
            2188.3
          ],
          [
            11.754917,
            46.508711,
            2194.3
          ],
          [
            11.755033,
            46.508573,
            2197.3
          ],
          [
            11.755162,
            46.508486,
            2198.3
          ],
          [
            11.755266,
            46.508346,
            2200.5
          ],
          [
            11.755335,
            46.508291,
            2201.5
          ],
          [
            11.755476,
            46.508183,
            2203.5
          ],
          [
            11.755596,
            46.508163,
            2203.8
          ],
          [
            11.755703,
            46.508112,
            2204.3
          ],
          [
            11.755906,
            46.507932,
            2206.5
          ],
          [
            11.756053,
            46.50772,
            2207.5
          ],
          [
            11.756257,
            46.507585,
            2206.8
          ],
          [
            11.756296,
            46.507539,
            2207.3
          ],
          [
            11.756716,
            46.50721,
            2208.8
          ],
          [
            11.757051,
            46.50691,
            2212.5
          ],
          [
            11.757046,
            46.506763,
            2214
          ],
          [
            11.756968,
            46.506613,
            2215.5
          ],
          [
            11.757073,
            46.5066,
            2214.8
          ],
          [
            11.757195,
            46.506605,
            2213.8
          ],
          [
            11.75747,
            46.506627,
            2216.3
          ],
          [
            11.757886,
            46.506675,
            2222.3
          ],
          [
            11.758124,
            46.506687,
            2227
          ],
          [
            11.7587,
            46.506694,
            2238
          ],
          [
            11.758826,
            46.506664,
            2242
          ],
          [
            11.759182,
            46.506546,
            2251
          ],
          [
            11.759348,
            46.506526,
            2254.3
          ],
          [
            11.759559,
            46.50653,
            2256.8
          ],
          [
            11.759708,
            46.506555,
            2257.5
          ],
          [
            11.759964,
            46.506636,
            2256.3
          ],
          [
            11.760139,
            46.506641,
            2255.3
          ],
          [
            11.760195,
            46.506651,
            2254.8
          ],
          [
            11.760496,
            46.506795,
            2253.8
          ],
          [
            11.760624,
            46.506822,
            2253.8
          ],
          [
            11.760834,
            46.50682,
            2254.5
          ],
          [
            11.760919,
            46.5068,
            2254.3
          ],
          [
            11.76106,
            46.506737,
            2255
          ],
          [
            11.761338,
            46.506695,
            2253.5
          ],
          [
            11.761424,
            46.506708,
            2252.5
          ],
          [
            11.761512,
            46.50671,
            2252.5
          ],
          [
            11.761581,
            46.506687,
            2252.8
          ],
          [
            11.761808,
            46.506668,
            2253.3
          ],
          [
            11.761912,
            46.506671,
            2253.8
          ],
          [
            11.761953,
            46.506667,
            2253.8
          ],
          [
            11.762144,
            46.506943,
            2256.5
          ],
          [
            11.762268,
            46.507028,
            2259.3
          ],
          [
            11.76237,
            46.507118,
            2262.3
          ],
          [
            11.762421,
            46.507223,
            2267.5
          ],
          [
            11.762404,
            46.507276,
            2267.8
          ],
          [
            11.76242,
            46.507298,
            2268.3
          ],
          [
            11.762476,
            46.507334,
            2270
          ],
          [
            11.762561,
            46.507349,
            2270
          ],
          [
            11.762722,
            46.507351,
            2268.3
          ],
          [
            11.763095,
            46.507442,
            2263
          ],
          [
            11.763918,
            46.50779,
            2249.8
          ],
          [
            11.764154,
            46.507845,
            2242
          ],
          [
            11.764465,
            46.507883,
            2232
          ],
          [
            11.764886,
            46.507888,
            2231
          ],
          [
            11.765069,
            46.507932,
            2230.3
          ],
          [
            11.765128,
            46.507966,
            2229.8
          ],
          [
            11.765256,
            46.508016,
            2230
          ],
          [
            11.7653,
            46.5081,
            2229.8
          ],
          [
            11.765314,
            46.508189,
            2229.5
          ],
          [
            11.76533,
            46.508233,
            2229.5
          ],
          [
            11.765548,
            46.508374,
            2230.5
          ],
          [
            11.76573,
            46.508478,
            2229.8
          ],
          [
            11.765851,
            46.508523,
            2231.8
          ],
          [
            11.766018,
            46.508556,
            2235
          ],
          [
            11.766109,
            46.50856,
            2236
          ],
          [
            11.766506,
            46.508537,
            2237.8
          ],
          [
            11.766633,
            46.50854,
            2239.5
          ],
          [
            11.767024,
            46.508329,
            2243.8
          ],
          [
            11.767144,
            46.508251,
            2243.8
          ],
          [
            11.767196,
            46.508213,
            2244
          ],
          [
            11.767327,
            46.508069,
            2243
          ],
          [
            11.767349,
            46.508047,
            2242.5
          ],
          [
            11.767447,
            46.508011,
            2244
          ],
          [
            11.768087,
            46.507953,
            2241.1
          ],
          [
            11.767949,
            46.50813,
            2242.1
          ],
          [
            11.768654,
            46.508094,
            2253.5
          ],
          [
            11.768998,
            46.508172,
            2259.6
          ],
          [
            11.76922,
            46.508283,
            2260.7
          ],
          [
            11.769396,
            46.508274,
            2264.6
          ],
          [
            11.770489,
            46.507937,
            2282.2
          ],
          [
            11.770647,
            46.507807,
            2281.3
          ],
          [
            11.770821,
            46.507737,
            2281.8
          ],
          [
            11.771174,
            46.507695,
            2285
          ],
          [
            11.771782,
            46.507548,
            2290.4
          ],
          [
            11.772156,
            46.507686,
            2291.4
          ],
          [
            11.772431,
            46.507736,
            2292.8
          ],
          [
            11.772601,
            46.50782,
            2290.5
          ],
          [
            11.772717,
            46.508055,
            2288.8
          ],
          [
            11.77296,
            46.508043,
            2289.1
          ],
          [
            11.773435,
            46.508106,
            2286.8
          ],
          [
            11.773872,
            46.508087,
            2285.5
          ],
          [
            11.774084,
            46.508153,
            2288
          ],
          [
            11.774922,
            46.508094,
            2295
          ],
          [
            11.775162,
            46.50812,
            2294.9
          ],
          [
            11.775362,
            46.508206,
            2295.8
          ],
          [
            11.775599,
            46.508244,
            2295.5
          ],
          [
            11.77587,
            46.508218,
            2289.8
          ],
          [
            11.77688,
            46.507828,
            2266.2
          ],
          [
            11.777628,
            46.507709,
            2253.5
          ],
          [
            11.777817,
            46.507778,
            2255.6
          ],
          [
            11.7782,
            46.507741,
            2246.3
          ],
          [
            11.778538,
            46.507794,
            2241.3
          ],
          [
            11.778942,
            46.507892,
            2235.5
          ],
          [
            11.779024,
            46.507944,
            2236
          ],
          [
            11.779226,
            46.507958,
            2229.2
          ],
          [
            11.779463,
            46.50803,
            2225.5
          ],
          [
            11.780295,
            46.508062,
            2202.9
          ],
          [
            11.780376,
            46.50802,
            2199.3
          ],
          [
            11.780408,
            46.507864,
            2193.5
          ],
          [
            11.780448,
            46.507869,
            2192.9
          ],
          [
            11.780514,
            46.50773,
            2188
          ],
          [
            11.780623,
            46.507642,
            2184.3
          ],
          [
            11.780842,
            46.50762,
            2180.2
          ],
          [
            11.781241,
            46.50769,
            2174.6
          ],
          [
            11.781386,
            46.507647,
            2171.1
          ],
          [
            11.781438,
            46.507575,
            2166.7
          ],
          [
            11.781741,
            46.50749,
            2156
          ],
          [
            11.781738,
            46.507448,
            2153.3
          ],
          [
            11.781949,
            46.50743,
            2148.5
          ],
          [
            11.782058,
            46.507081,
            2131
          ],
          [
            11.782236,
            46.506896,
            2122.6
          ],
          [
            11.782237,
            46.506797,
            2119.6
          ],
          [
            11.782362,
            46.506739,
            2116.1
          ],
          [
            11.782568,
            46.506534,
            2106.3
          ],
          [
            11.782613,
            46.506381,
            2100.3
          ],
          [
            11.78282,
            46.506286,
            2093.6
          ],
          [
            11.782929,
            46.506282,
            2091.8
          ],
          [
            11.782927,
            46.506217,
            2089.5
          ],
          [
            11.783649,
            46.506409,
            2086.1
          ],
          [
            11.784746,
            46.506612,
            2080.3
          ],
          [
            11.786133,
            46.506638,
            2072.2
          ],
          [
            11.786988,
            46.506787,
            2066
          ],
          [
            11.788424,
            46.506842,
            2058.5
          ],
          [
            11.788635,
            46.506789,
            2058
          ],
          [
            11.788817,
            46.506687,
            2055.2
          ],
          [
            11.789052,
            46.506723,
            2059
          ],
          [
            11.789231,
            46.506801,
            2058.5
          ],
          [
            11.789244,
            46.506863,
            2060.7
          ],
          [
            11.789411,
            46.506954,
            2058
          ],
          [
            11.789532,
            46.506982,
            2057.6
          ],
          [
            11.790314,
            46.506848,
            2052.6
          ],
          [
            11.791153,
            46.506863,
            2028.5
          ],
          [
            11.791499,
            46.506909,
            2017.3
          ],
          [
            11.791612,
            46.506789,
            2009
          ],
          [
            11.791741,
            46.506822,
            2005
          ],
          [
            11.791801,
            46.506768,
            1999.5
          ],
          [
            11.792351,
            46.506762,
            1980.5
          ],
          [
            11.792674,
            46.506693,
            1979.1
          ],
          [
            11.792675,
            46.506733,
            1983.9
          ],
          [
            11.792997,
            46.506728,
            1993.2
          ],
          [
            11.793281,
            46.506851,
            2005.9
          ],
          [
            11.793321,
            46.506931,
            2015.3
          ],
          [
            11.793538,
            46.50701,
            2019.3
          ],
          [
            11.794082,
            46.507119,
            2030.1
          ],
          [
            11.794575,
            46.507378,
            2037.7
          ],
          [
            11.794608,
            46.507445,
            2051.4
          ],
          [
            11.794995,
            46.507501,
            2059.2
          ],
          [
            11.795515,
            46.50772,
            2064.6
          ],
          [
            11.795776,
            46.507757,
            2069.7
          ],
          [
            11.79589,
            46.507831,
            2075.6
          ],
          [
            11.796307,
            46.507931,
            2082.1
          ],
          [
            11.796536,
            46.508027,
            2089
          ],
          [
            11.796602,
            46.507905,
            2087.6
          ],
          [
            11.796711,
            46.507961,
            2091.7
          ],
          [
            11.796756,
            46.508069,
            2094.6
          ],
          [
            11.796984,
            46.508113,
            2101.5
          ],
          [
            11.796902,
            46.508222,
            2104.2
          ],
          [
            11.797115,
            46.508238,
            2111.5
          ],
          [
            11.797093,
            46.508386,
            2115.5
          ],
          [
            11.797365,
            46.508356,
            2127.3
          ],
          [
            11.797396,
            46.50848,
            2130.9
          ],
          [
            11.797521,
            46.508435,
            2134.5
          ],
          [
            11.797725,
            46.508215,
            2142.6
          ],
          [
            11.797986,
            46.508144,
            2152.9
          ],
          [
            11.79811,
            46.508224,
            2161.6
          ],
          [
            11.798128,
            46.508319,
            2165.4
          ],
          [
            11.798302,
            46.508425,
            2179.5
          ],
          [
            11.798472,
            46.508301,
            2183.8
          ],
          [
            11.798593,
            46.508265,
            2186.7
          ],
          [
            11.798518,
            46.508412,
            2190.3
          ],
          [
            11.798593,
            46.508533,
            2196.6
          ],
          [
            11.798751,
            46.50854,
            2202
          ],
          [
            11.798876,
            46.508699,
            2207
          ],
          [
            11.799016,
            46.508719,
            2208.6
          ],
          [
            11.799214,
            46.508663,
            2209.1
          ],
          [
            11.799298,
            46.508682,
            2209.1
          ],
          [
            11.799949,
            46.508493,
            2219.1
          ],
          [
            11.800024,
            46.50865,
            2223.5
          ],
          [
            11.800206,
            46.508656,
            2229.8
          ],
          [
            11.800533,
            46.508548,
            2239.7
          ],
          [
            11.800483,
            46.5087,
            2240
          ],
          [
            11.800517,
            46.508742,
            2240.7
          ],
          [
            11.800825,
            46.508803,
            2248.3
          ],
          [
            11.800791,
            46.508711,
            2250.3
          ],
          [
            11.801036,
            46.508764,
            2257.4
          ],
          [
            11.801051,
            46.508719,
            2258.7
          ],
          [
            11.80138,
            46.509005,
            2269.5
          ],
          [
            11.801465,
            46.508789,
            2275.9
          ],
          [
            11.801727,
            46.508648,
            2282
          ],
          [
            11.801846,
            46.508639,
            2283
          ],
          [
            11.801942,
            46.508681,
            2284.4
          ],
          [
            11.802151,
            46.508852,
            2289.2
          ],
          [
            11.802227,
            46.508765,
            2291.3
          ],
          [
            11.802661,
            46.508758,
            2296.2
          ],
          [
            11.802758,
            46.508892,
            2299.2
          ],
          [
            11.802977,
            46.50895,
            2301.6
          ],
          [
            11.8031,
            46.509042,
            2303.6
          ],
          [
            11.803413,
            46.509148,
            2310.9
          ],
          [
            11.803503,
            46.509129,
            2312.3
          ],
          [
            11.803674,
            46.509223,
            2316.6
          ],
          [
            11.804959,
            46.509481,
            2326
          ],
          [
            11.805602,
            46.509702,
            2325.3
          ],
          [
            11.80586,
            46.509909,
            2327.9
          ],
          [
            11.806012,
            46.509936,
            2328.8
          ],
          [
            11.806238,
            46.510064,
            2330.3
          ],
          [
            11.806507,
            46.510404,
            2334.3
          ],
          [
            11.806701,
            46.510455,
            2335
          ],
          [
            11.806878,
            46.510448,
            2335.2
          ],
          [
            11.80714,
            46.510742,
            2340.6
          ],
          [
            11.80732,
            46.510821,
            2341.2
          ],
          [
            11.807471,
            46.511013,
            2344.3
          ],
          [
            11.80757,
            46.51118,
            2346.9
          ],
          [
            11.80803,
            46.51146,
            2360.8
          ],
          [
            11.80794,
            46.51164,
            2366.2
          ],
          [
            11.80812,
            46.51168,
            2370.6
          ],
          [
            11.80808,
            46.5118,
            2374
          ],
          [
            11.80844,
            46.51217,
            2391.9
          ],
          [
            11.80859,
            46.51226,
            2397.9
          ],
          [
            11.80884,
            46.51216,
            2402
          ],
          [
            11.80977,
            46.51222,
            2426.1
          ],
          [
            11.80983,
            46.51238,
            2433.9
          ],
          [
            11.80981,
            46.51259,
            2439
          ],
          [
            11.81028,
            46.51282,
            2455.6
          ],
          [
            11.81041,
            46.51304,
            2461.5
          ],
          [
            11.81068,
            46.51324,
            2465.4
          ],
          [
            11.8109,
            46.5139,
            2466.9
          ],
          [
            11.8109,
            46.51449,
            2467.1
          ],
          [
            11.81129,
            46.5148,
            2469
          ],
          [
            11.8114,
            46.51501,
            2470.3
          ],
          [
            11.81178,
            46.51521,
            2472.6
          ],
          [
            11.812,
            46.51541,
            2475.3
          ],
          [
            11.81185,
            46.51591,
            2489.2
          ],
          [
            11.81157,
            46.51613,
            2504.7
          ],
          [
            11.8117,
            46.51666,
            2536.5
          ],
          [
            11.81168,
            46.51682,
            2543.1
          ],
          [
            11.81153,
            46.51699,
            2551.9
          ],
          [
            11.81148,
            46.51727,
            2562.8
          ],
          [
            11.81185,
            46.51756,
            2561.8
          ],
          [
            11.81191,
            46.51777,
            2564.3
          ],
          [
            11.81187,
            46.518,
            2571.6
          ],
          [
            11.81165,
            46.51846,
            2595.2
          ],
          [
            11.81172,
            46.51891,
            2617.2
          ],
          [
            11.81146,
            46.51905,
            2641.2
          ],
          [
            11.81138,
            46.51944,
            2649.1
          ],
          [
            11.81123,
            46.5196,
            2655.7
          ],
          [
            11.81127,
            46.51992,
            2661.7
          ],
          [
            11.81161,
            46.51986,
            2661.7
          ],
          [
            11.81198,
            46.51992,
            2662.9
          ],
          [
            11.81283,
            46.51978,
            2682.4
          ],
          [
            11.81311,
            46.52007,
            2694.2
          ],
          [
            11.81376,
            46.52006,
            2712.7
          ],
          [
            11.81369,
            46.51976,
            2713.5
          ],
          [
            11.81406,
            46.51985,
            2723
          ],
          [
            11.81423,
            46.51973,
            2727
          ],
          [
            11.81472,
            46.51992,
            2740.9
          ],
          [
            11.81487,
            46.52004,
            2746.5
          ],
          [
            11.81515,
            46.51997,
            2761.8
          ],
          [
            11.8153,
            46.52009,
            2766.2
          ],
          [
            11.81573,
            46.51979,
            2783
          ],
          [
            11.81683,
            46.52032,
            2805.6
          ],
          [
            11.817,
            46.52054,
            2810.3
          ],
          [
            11.81738,
            46.52053,
            2812.6
          ],
          [
            11.81773,
            46.52065,
            2810.6
          ],
          [
            11.81831,
            46.52063,
            2808.4
          ],
          [
            11.81895,
            46.52066,
            2811.1
          ],
          [
            11.81966,
            46.52075,
            2827.4
          ],
          [
            11.82045,
            46.52107,
            2834.7
          ],
          [
            11.82097,
            46.52122,
            2834.8
          ],
          [
            11.82131,
            46.52144,
            2836.4
          ],
          [
            11.82129,
            46.5214,
            2835.9
          ],
          [
            11.82133,
            46.52177,
            2839.1
          ],
          [
            11.82122,
            46.52201,
            2838.5
          ],
          [
            11.8211,
            46.52236,
            2835.2
          ],
          [
            11.8206,
            46.52279,
            2844.2
          ],
          [
            11.82067,
            46.5231,
            2857.9
          ],
          [
            11.82062,
            46.5232,
            2859.6
          ],
          [
            11.820592,
            46.523178,
            2860
          ],
          [
            11.82065,
            46.523144,
            2860.8
          ],
          [
            11.820666,
            46.523102,
            2860.3
          ],
          [
            11.820577,
            46.523057,
            2856.5
          ],
          [
            11.820579,
            46.522983,
            2853.5
          ],
          [
            11.820545,
            46.522853,
            2847.8
          ],
          [
            11.8206,
            46.52283,
            2847
          ],
          [
            11.820729,
            46.522707,
            2842
          ],
          [
            11.820831,
            46.522579,
            2837.5
          ],
          [
            11.820947,
            46.522517,
            2838
          ],
          [
            11.821307,
            46.522136,
            2837.8
          ],
          [
            11.821458,
            46.522041,
            2838.5
          ],
          [
            11.821508,
            46.52189,
            2838
          ],
          [
            11.82155,
            46.521865,
            2837.8
          ],
          [
            11.82157,
            46.521774,
            2837.8
          ],
          [
            11.8216,
            46.521743,
            2837.5
          ],
          [
            11.821674,
            46.521562,
            2836.5
          ],
          [
            11.821753,
            46.521496,
            2836.3
          ],
          [
            11.821788,
            46.521493,
            2836
          ],
          [
            11.821785,
            46.521459,
            2836
          ],
          [
            11.821822,
            46.521402,
            2836
          ],
          [
            11.821985,
            46.521332,
            2835
          ],
          [
            11.822186,
            46.521274,
            2833.8
          ],
          [
            11.822404,
            46.521169,
            2832.3
          ],
          [
            11.822468,
            46.521149,
            2832.5
          ],
          [
            11.822647,
            46.521032,
            2833.8
          ],
          [
            11.822726,
            46.521035,
            2834.3
          ],
          [
            11.822803,
            46.521025,
            2833.8
          ],
          [
            11.822861,
            46.520999,
            2832.5
          ],
          [
            11.822904,
            46.52095,
            2832.5
          ],
          [
            11.822967,
            46.520928,
            2832
          ],
          [
            11.823001,
            46.520925,
            2831.5
          ],
          [
            11.823022,
            46.520902,
            2832
          ],
          [
            11.823022,
            46.520853,
            2834.3
          ],
          [
            11.823037,
            46.520782,
            2837.5
          ],
          [
            11.823033,
            46.520692,
            2841.8
          ],
          [
            11.82299,
            46.520649,
            2843.5
          ],
          [
            11.822948,
            46.520593,
            2845.3
          ],
          [
            11.822997,
            46.520588,
            2846.3
          ],
          [
            11.823019,
            46.520551,
            2848.3
          ],
          [
            11.822975,
            46.520515,
            2848.8
          ],
          [
            11.82298,
            46.520461,
            2850.5
          ],
          [
            11.823016,
            46.520459,
            2851.3
          ],
          [
            11.823081,
            46.5205,
            2851.3
          ],
          [
            11.823111,
            46.520421,
            2854.5
          ],
          [
            11.823091,
            46.52029,
            2858.3
          ],
          [
            11.823106,
            46.520172,
            2863.5
          ],
          [
            11.823137,
            46.520171,
            2864.3
          ],
          [
            11.823175,
            46.520198,
            2864
          ],
          [
            11.823229,
            46.520194,
            2865.3
          ],
          [
            11.823227,
            46.52016,
            2866.5
          ],
          [
            11.823276,
            46.52015,
            2867.8
          ],
          [
            11.823128,
            46.519985,
            2871.5
          ],
          [
            11.823152,
            46.519956,
            2873
          ],
          [
            11.82314,
            46.519885,
            2876
          ],
          [
            11.823103,
            46.519865,
            2876
          ],
          [
            11.82318,
            46.519822,
            2879.3
          ],
          [
            11.82317,
            46.519796,
            2880.3
          ],
          [
            11.823207,
            46.519772,
            2882
          ],
          [
            11.823212,
            46.519729,
            2884
          ],
          [
            11.823325,
            46.519734,
            2886.3
          ],
          [
            11.823343,
            46.519689,
            2888.8
          ],
          [
            11.823385,
            46.5197,
            2888.5
          ],
          [
            11.823361,
            46.51966,
            2890.3
          ],
          [
            11.823279,
            46.519614,
            2891
          ],
          [
            11.823194,
            46.519527,
            2892.8
          ],
          [
            11.823199,
            46.519506,
            2893.8
          ],
          [
            11.823326,
            46.51953,
            2896.3
          ],
          [
            11.823369,
            46.51956,
            2895.5
          ],
          [
            11.823401,
            46.519568,
            2895.5
          ],
          [
            11.823489,
            46.519575,
            2896.3
          ],
          [
            11.823489,
            46.519548,
            2897.8
          ],
          [
            11.823422,
            46.519505,
            2899.3
          ],
          [
            11.823596,
            46.519512,
            2901.5
          ],
          [
            11.82366,
            46.51951,
            2899.3
          ],
          [
            11.823674,
            46.519473,
            2901.3
          ],
          [
            11.823572,
            46.519421,
            2905
          ],
          [
            11.823548,
            46.519374,
            2904.5
          ],
          [
            11.823616,
            46.519237,
            2904.3
          ],
          [
            11.823566,
            46.519158,
            2903.3
          ],
          [
            11.823618,
            46.519092,
            2902.3
          ],
          [
            11.823635,
            46.518998,
            2900.3
          ],
          [
            11.823696,
            46.51891,
            2898.3
          ],
          [
            11.823743,
            46.518879,
            2897.5
          ],
          [
            11.823751,
            46.518835,
            2896.5
          ],
          [
            11.823808,
            46.51881,
            2895.8
          ],
          [
            11.823825,
            46.518776,
            2894.8
          ],
          [
            11.823902,
            46.518723,
            2893
          ],
          [
            11.823921,
            46.518684,
            2892
          ],
          [
            11.823894,
            46.518624,
            2890.3
          ],
          [
            11.823852,
            46.518567,
            2888.5
          ],
          [
            11.823721,
            46.51849,
            2886
          ],
          [
            11.823836,
            46.51845,
            2884.3
          ],
          [
            11.824002,
            46.518431,
            2882.8
          ],
          [
            11.824134,
            46.518399,
            2881
          ],
          [
            11.824191,
            46.518376,
            2879.5
          ],
          [
            11.82419,
            46.518358,
            2878.8
          ],
          [
            11.824226,
            46.518335,
            2877.8
          ],
          [
            11.824231,
            46.518307,
            2877
          ],
          [
            11.82414,
            46.51823,
            2875.5
          ],
          [
            11.824151,
            46.518197,
            2874.5
          ],
          [
            11.824211,
            46.518169,
            2873.8
          ],
          [
            11.824245,
            46.518123,
            2872.5
          ],
          [
            11.824282,
            46.518099,
            2872
          ],
          [
            11.824292,
            46.518063,
            2871
          ],
          [
            11.824254,
            46.518029,
            2870.3
          ],
          [
            11.824278,
            46.517959,
            2868.5
          ],
          [
            11.824229,
            46.517927,
            2867.8
          ],
          [
            11.824203,
            46.517893,
            2866.8
          ],
          [
            11.824201,
            46.517854,
            2865.8
          ],
          [
            11.824162,
            46.517812,
            2864.8
          ],
          [
            11.824168,
            46.51777,
            2863.8
          ],
          [
            11.824219,
            46.517725,
            2863.3
          ],
          [
            11.824248,
            46.51769,
            2862.8
          ],
          [
            11.82427,
            46.517638,
            2862.3
          ],
          [
            11.824364,
            46.51754,
            2860.8
          ],
          [
            11.824371,
            46.517455,
            2859.5
          ],
          [
            11.824309,
            46.517361,
            2858.3
          ],
          [
            11.824276,
            46.517229,
            2856.3
          ],
          [
            11.824218,
            46.517128,
            2855
          ],
          [
            11.824199,
            46.516997,
            2853.8
          ],
          [
            11.824205,
            46.516938,
            2853.3
          ],
          [
            11.824262,
            46.516837,
            2853.3
          ],
          [
            11.824288,
            46.516724,
            2853
          ],
          [
            11.824331,
            46.516634,
            2853
          ],
          [
            11.824303,
            46.516595,
            2853.5
          ],
          [
            11.824188,
            46.516504,
            2854
          ],
          [
            11.824025,
            46.516427,
            2855.3
          ],
          [
            11.823889,
            46.516418,
            2856.3
          ],
          [
            11.823629,
            46.516344,
            2860.3
          ],
          [
            11.823585,
            46.516313,
            2860.3
          ],
          [
            11.823525,
            46.516286,
            2858
          ],
          [
            11.823482,
            46.516251,
            2856.8
          ],
          [
            11.823467,
            46.516177,
            2858
          ],
          [
            11.823513,
            46.516033,
            2865.5
          ],
          [
            11.823588,
            46.515938,
            2869.8
          ],
          [
            11.823697,
            46.515834,
            2870.5
          ],
          [
            11.823731,
            46.51577,
            2870.3
          ],
          [
            11.823729,
            46.515735,
            2870.3
          ],
          [
            11.8237,
            46.515676,
            2870.3
          ],
          [
            11.823645,
            46.515598,
            2870.5
          ],
          [
            11.823608,
            46.515538,
            2870.8
          ],
          [
            11.82359,
            46.515483,
            2870.5
          ],
          [
            11.823537,
            46.515437,
            2871.3
          ],
          [
            11.823506,
            46.515367,
            2870.5
          ],
          [
            11.823322,
            46.515203,
            2870.5
          ],
          [
            11.823293,
            46.515156,
            2870.5
          ],
          [
            11.823131,
            46.515,
            2868.8
          ],
          [
            11.823107,
            46.514964,
            2868.8
          ],
          [
            11.823107,
            46.514918,
            2868.8
          ],
          [
            11.823178,
            46.514738,
            2869.3
          ],
          [
            11.823167,
            46.514696,
            2869
          ]
        ]
      }
    },
    {
      "type": "Feature",
      "properties": {
        "kind": "waypoint",
        "name": "Langkofelhütte",
        "show_label": true
      },
      "geometry": {
        "type": "Point",
        "coordinates": [
          11.723838,
          46.519898,
          2257.5
        ]
      }
    },
    {
      "type": "Feature",
      "properties": {
        "kind": "waypoint",
        "name": "Rifugio Comici",
        "show_label": true
      },
      "geometry": {
        "type": "Point",
        "coordinates": [
          11.747903,
          46.528691,
          2154.5
        ]
      }
    },
    {
      "type": "Feature",
      "properties": {
        "kind": "waypoint",
        "name": "Passo Sella",
        "show_label": true
      },
      "geometry": {
        "type": "Point",
        "coordinates": [
          11.767327,
          46.508069,
          2243
        ]
      }
    },
    {
      "type": "Feature",
      "properties": {
        "kind": "waypoint",
        "name": "Ferrata Mesules",
        "show_label": false
      },
      "geometry": {
        "type": "Point",
        "coordinates": [
          11.780295,
          46.508062,
          2202.9
        ]
      }
    },
    {
      "type": "Feature",
      "properties": {
        "kind": "waypoint",
        "name": "Altopiano delle Mesules",
        "show_label": false
      },
      "geometry": {
        "type": "Point",
        "coordinates": [
          11.82062,
          46.5232,
          2859.6
        ]
      }
    },
    {
      "type": "Feature",
      "properties": {
        "kind": "waypoint",
        "name": "Rifugio Boè",
        "show_label": true
      },
      "geometry": {
        "type": "Point",
        "coordinates": [
          11.823167,
          46.514696,
          2869
        ]
      }
    }
  ]
}
