{
  "type": "FeatureCollection",
  "features": [
    {
      "type": "Feature",
      "properties": {
        "kind": "route",
        "name": "День 1 · Santa Cristina → Langkofelhütte",
        "distance_km": 7.2,
        "ascent_m": 906,
        "descent_m": 44,
        "source": "BRouter / OpenStreetMap"
      },
      "geometry": {
        "type": "LineString",
        "coordinates": [
          [
            11.721047,
            46.558173,
            1395.5
          ],
          [
            11.721246,
            46.558088,
            1394
          ],
          [
            11.721235,
            46.558036,
            1393
          ],
          [
            11.721457,
            46.55801,
            1393.8
          ],
          [
            11.721593,
            46.557996,
            1394
          ],
          [
            11.72211,
            46.557942,
            1396.8
          ],
          [
            11.722248,
            46.557926,
            1397.3
          ],
          [
            11.722256,
            46.557904,
            1397
          ],
          [
            11.722274,
            46.557885,
            1397
          ],
          [
            11.7223,
            46.557871,
            1397
          ],
          [
            11.722363,
            46.557863,
            1397.5
          ],
          [
            11.72239,
            46.557816,
            1397.3
          ],
          [
            11.722446,
            46.557494,
            1395.8
          ],
          [
            11.722469,
            46.557398,
            1395.3
          ],
          [
            11.722515,
            46.557265,
            1395
          ],
          [
            11.722606,
            46.557127,
            1393.5
          ],
          [
            11.722728,
            46.556995,
            1392.3
          ],
          [
            11.722952,
            46.556802,
            1390.3
          ],
          [
            11.723029,
            46.556727,
            1389.8
          ],
          [
            11.723069,
            46.556673,
            1389
          ],
          [
            11.723088,
            46.556617,
            1389
          ],
          [
            11.723083,
            46.556566,
            1389
          ],
          [
            11.723065,
            46.556524,
            1389.3
          ],
          [
            11.723019,
            46.556471,
            1389.5
          ],
          [
            11.722952,
            46.556425,
            1389.8
          ],
          [
            11.722894,
            46.556404,
            1389.8
          ],
          [
            11.722813,
            46.556398,
            1390.5
          ],
          [
            11.722678,
            46.556411,
            1391.8
          ],
          [
            11.722492,
            46.556457,
            1392.5
          ],
          [
            11.721998,
            46.556505,
            1397
          ],
          [
            11.721794,
            46.556549,
            1397.8
          ],
          [
            11.72169,
            46.556604,
            1397
          ],
          [
            11.721515,
            46.556613,
            1397
          ],
          [
            11.721105,
            46.556453,
            1404.5
          ],
          [
            11.720927,
            46.556424,
            1405.3
          ],
          [
            11.720823,
            46.556376,
            1407.5
          ],
          [
            11.720788,
            46.556284,
            1412.5
          ],
          [
            11.720556,
            46.556174,
            1416.3
          ],
          [
            11.72027,
            46.55607,
            1421.5
          ],
          [
            11.720252,
            46.556022,
            1424.8
          ],
          [
            11.720294,
            46.555992,
            1426.8
          ],
          [
            11.720364,
            46.555982,
            1427.8
          ],
          [
            11.720671,
            46.55598,
            1430.3
          ],
          [
            11.720903,
            46.555968,
            1433.5
          ],
          [
            11.721153,
            46.555944,
            1438
          ],
          [
            11.721574,
            46.555891,
            1442.3
          ],
          [
            11.721704,
            46.555864,
            1444.5
          ],
          [
            11.721911,
            46.555783,
            1450.3
          ],
          [
            11.722093,
            46.555684,
            1455.5
          ],
          [
            11.72248,
            46.5556,
            1461
          ],
          [
            11.722657,
            46.555535,
            1465.8
          ],
          [
            11.722891,
            46.555434,
            1470.5
          ],
          [
            11.723005,
            46.555368,
            1473.3
          ],
          [
            11.723034,
            46.555334,
            1474.8
          ],
          [
            11.723037,
            46.555295,
            1477.3
          ],
          [
            11.723008,
            46.555257,
            1479.8
          ],
          [
            11.722913,
            46.555238,
            1482.3
          ],
          [
            11.722824,
            46.555242,
            1483.5
          ],
          [
            11.722756,
            46.555262,
            1483.8
          ],
          [
            11.722691,
            46.555272,
            1484.3
          ],
          [
            11.722511,
            46.555256,
            1487.5
          ],
          [
            11.722303,
            46.555163,
            1490.5
          ],
          [
            11.72223,
            46.555137,
            1491.5
          ],
          [
            11.722165,
            46.555103,
            1494
          ],
          [
            11.722081,
            46.555068,
            1496.8
          ],
          [
            11.721972,
            46.555064,
            1498.5
          ],
          [
            11.721805,
            46.555085,
            1500.5
          ],
          [
            11.721547,
            46.555094,
            1504
          ],
          [
            11.72136,
            46.555084,
            1507.3
          ],
          [
            11.721215,
            46.555067,
            1510.3
          ],
          [
            11.721089,
            46.555066,
            1511.8
          ],
          [
            11.721004,
            46.555045,
            1513
          ],
          [
            11.720827,
            46.554973,
            1516.5
          ],
          [
            11.720766,
            46.554834,
            1519.3
          ],
          [
            11.720744,
            46.554739,
            1521.3
          ],
          [
            11.720664,
            46.554587,
            1525.8
          ],
          [
            11.720608,
            46.554574,
            1526.3
          ],
          [
            11.720504,
            46.554562,
            1526.5
          ],
          [
            11.72051,
            46.554534,
            1527.5
          ],
          [
            11.720474,
            46.554504,
            1528.5
          ],
          [
            11.720383,
            46.554499,
            1528.5
          ],
          [
            11.72028,
            46.554478,
            1528.8
          ],
          [
            11.720279,
            46.554465,
            1529.3
          ],
          [
            11.720317,
            46.554434,
            1530.3
          ],
          [
            11.720329,
            46.554412,
            1531
          ],
          [
            11.720313,
            46.554391,
            1531.8
          ],
          [
            11.720188,
            46.554321,
            1533.8
          ],
          [
            11.720078,
            46.554167,
            1538.3
          ],
          [
            11.720058,
            46.554096,
            1539.8
          ],
          [
            11.720062,
            46.553995,
            1542
          ],
          [
            11.720096,
            46.553946,
            1543.3
          ],
          [
            11.720114,
            46.553914,
            1544
          ],
          [
            11.720112,
            46.553837,
            1546
          ],
          [
            11.719979,
            46.553692,
            1548.8
          ],
          [
            11.719835,
            46.553564,
            1552.3
          ],
          [
            11.719717,
            46.553441,
            1556.5
          ],
          [
            11.719573,
            46.55333,
            1560
          ],
          [
            11.719417,
            46.553248,
            1562.5
          ],
          [
            11.719249,
            46.553151,
            1565
          ],
          [
            11.719084,
            46.553029,
            1569
          ],
          [
            11.718885,
            46.552919,
            1573.3
          ],
          [
            11.718762,
            46.55286,
            1575.8
          ],
          [
            11.71862,
            46.552774,
            1579
          ],
          [
            11.718408,
            46.552672,
            1583.3
          ],
          [
            11.718305,
            46.552644,
            1584.3
          ],
          [
            11.718213,
            46.552605,
            1586.3
          ],
          [
            11.717969,
            46.552538,
            1590
          ],
          [
            11.717831,
            46.552518,
            1591.8
          ],
          [
            11.71768,
            46.552486,
            1593.5
          ],
          [
            11.717566,
            46.55243,
            1596
          ],
          [
            11.717391,
            46.5523,
            1601.5
          ],
          [
            11.717264,
            46.552234,
            1603.5
          ],
          [
            11.716867,
            46.552132,
            1609.5
          ],
          [
            11.716757,
            46.552096,
            1611.5
          ],
          [
            11.716685,
            46.552064,
            1613
          ],
          [
            11.71656,
            46.552049,
            1614.8
          ],
          [
            11.716451,
            46.552022,
            1617
          ],
          [
            11.71635,
            46.552007,
            1618.5
          ],
          [
            11.71621,
            46.551996,
            1620
          ],
          [
            11.715994,
            46.551887,
            1623.8
          ],
          [
            11.715938,
            46.551794,
            1625.3
          ],
          [
            11.71592,
            46.551692,
            1626.8
          ],
          [
            11.71578,
            46.551518,
            1627.3
          ],
          [
            11.715726,
            46.551443,
            1627.3
          ],
          [
            11.715674,
            46.551357,
            1627.3
          ],
          [
            11.715637,
            46.551258,
            1626.5
          ],
          [
            11.715625,
            46.55116,
            1626
          ],
          [
            11.715682,
            46.55111,
            1626.3
          ],
          [
            11.715719,
            46.551032,
            1626.3
          ],
          [
            11.715683,
            46.55091,
            1625.5
          ],
          [
            11.715775,
            46.550854,
            1625.8
          ],
          [
            11.715814,
            46.550788,
            1626.3
          ],
          [
            11.717247,
            46.550329,
            1633.5
          ],
          [
            11.718077,
            46.550514,
            1637.8
          ],
          [
            11.717247,
            46.550329,
            1633.5
          ],
          [
            11.715814,
            46.550788,
            1626.3
          ],
          [
            11.715775,
            46.550854,
            1625.8
          ],
          [
            11.715683,
            46.55091,
            1625.5
          ],
          [
            11.71554,
            46.550881,
            1624.8
          ],
          [
            11.71549,
            46.550924,
            1624.5
          ],
          [
            11.715501,
            46.550858,
            1624.8
          ],
          [
            11.71548,
            46.550811,
            1624.8
          ],
          [
            11.715285,
            46.550555,
            1626
          ],
          [
            11.715136,
            46.550385,
            1627.5
          ],
          [
            11.715077,
            46.550278,
            1628.3
          ],
          [
            11.715017,
            46.550181,
            1629.3
          ],
          [
            11.715002,
            46.550103,
            1630.5
          ],
          [
            11.714934,
            46.550043,
            1631.8
          ],
          [
            11.714497,
            46.549878,
            1636.5
          ],
          [
            11.714385,
            46.549811,
            1638.5
          ],
          [
            11.714343,
            46.549753,
            1640.3
          ],
          [
            11.714319,
            46.549653,
            1641.3
          ],
          [
            11.714361,
            46.54955,
            1641.8
          ],
          [
            11.714525,
            46.54931,
            1643.3
          ],
          [
            11.714577,
            46.549181,
            1644.3
          ],
          [
            11.714577,
            46.549093,
            1644.8
          ],
          [
            11.714558,
            46.549027,
            1645
          ],
          [
            11.71451,
            46.548949,
            1645
          ],
          [
            11.71423,
            46.548619,
            1650
          ],
          [
            11.714117,
            46.548459,
            1653.8
          ],
          [
            11.714054,
            46.548241,
            1657
          ],
          [
            11.713786,
            46.547982,
            1660.5
          ],
          [
            11.713579,
            46.547824,
            1662.8
          ],
          [
            11.713093,
            46.547431,
            1667
          ],
          [
            11.712774,
            46.547344,
            1669
          ],
          [
            11.712576,
            46.547271,
            1670.8
          ],
          [
            11.712441,
            46.547191,
            1672.5
          ],
          [
            11.711959,
            46.546826,
            1681.8
          ],
          [
            11.71129,
            46.546429,
            1685.5
          ],
          [
            11.711137,
            46.546029,
            1689.8
          ],
          [
            11.710685,
            46.54569,
            1695.3
          ],
          [
            11.710147,
            46.545323,
            1703
          ],
          [
            11.709979,
            46.545196,
            1704.3
          ],
          [
            11.709893,
            46.545143,
            1704.3
          ],
          [
            11.709744,
            46.545073,
            1705
          ],
          [
            11.709648,
            46.545046,
            1706.3
          ],
          [
            11.709129,
            46.544937,
            1713.3
          ],
          [
            11.708949,
            46.544812,
            1716.8
          ],
          [
            11.708735,
            46.544647,
            1720.5
          ],
          [
            11.708573,
            46.544485,
            1723.8
          ],
          [
            11.708296,
            46.543861,
            1731.3
          ],
          [
            11.708085,
            46.543697,
            1733
          ],
          [
            11.706458,
            46.542782,
            1747.8
          ],
          [
            11.705933,
            46.542601,
            1751.3
          ],
          [
            11.705436,
            46.54238,
            1753.3
          ],
          [
            11.705053,
            46.542161,
            1754.8
          ],
          [
            11.704899,
            46.54195,
            1755.8
          ],
          [
            11.704808,
            46.541824,
            1755.8
          ],
          [
            11.704764,
            46.541377,
            1756.5
          ],
          [
            11.704788,
            46.541164,
            1756.3
          ],
          [
            11.704827,
            46.540948,
            1756.5
          ],
          [
            11.704987,
            46.540671,
            1758.5
          ],
          [
            11.705041,
            46.540548,
            1759
          ],
          [
            11.705015,
            46.540484,
            1759.5
          ],
          [
            11.704897,
            46.54046,
            1760.3
          ],
          [
            11.704702,
            46.540481,
            1760.3
          ],
          [
            11.704426,
            46.540538,
            1759.5
          ],
          [
            11.704241,
            46.540541,
            1760
          ],
          [
            11.704066,
            46.540502,
            1760.3
          ],
          [
            11.703904,
            46.540391,
            1761.5
          ],
          [
            11.703759,
            46.540268,
            1763.5
          ],
          [
            11.70328,
            46.539813,
            1773
          ],
          [
            11.703116,
            46.539724,
            1774.8
          ],
          [
            11.702765,
            46.539638,
            1779.5
          ],
          [
            11.702608,
            46.539554,
            1781.5
          ],
          [
            11.702518,
            46.539457,
            1782.8
          ],
          [
            11.702485,
            46.539404,
            1782.8
          ],
          [
            11.702457,
            46.539337,
            1782.5
          ],
          [
            11.702462,
            46.539272,
            1782.5
          ],
          [
            11.702493,
            46.539158,
            1782.5
          ],
          [
            11.702538,
            46.539075,
            1781.3
          ],
          [
            11.7026,
            46.539009,
            1780.8
          ],
          [
            11.703162,
            46.538698,
            1780.8
          ],
          [
            11.703333,
            46.538573,
            1781.3
          ],
          [
            11.703697,
            46.538238,
            1784.8
          ],
          [
            11.703701,
            46.538171,
            1785
          ],
          [
            11.703654,
            46.538112,
            1784.8
          ],
          [
            11.703541,
            46.53803,
            1784.5
          ],
          [
            11.703472,
            46.537952,
            1784
          ],
          [
            11.703463,
            46.537846,
            1784
          ],
          [
            11.703475,
            46.537725,
            1783.8
          ],
          [
            11.703541,
            46.537596,
            1783.5
          ],
          [
            11.703798,
            46.537224,
            1782.5
          ],
          [
            11.704071,
            46.536856,
            1781.5
          ],
          [
            11.704119,
            46.536689,
            1781.5
          ],
          [
            11.704095,
            46.536565,
            1781.5
          ],
          [
            11.704066,
            46.536452,
            1781.5
          ],
          [
            11.704058,
            46.53635,
            1781.3
          ],
          [
            11.704103,
            46.536259,
            1781.3
          ],
          [
            11.704258,
            46.536088,
            1781.8
          ],
          [
            11.704503,
            46.535683,
            1782.8
          ],
          [
            11.7048,
            46.535303,
            1782.3
          ],
          [
            11.704913,
            46.535295,
            1782.8
          ],
          [
            11.705024,
            46.535298,
            1783.5
          ],
          [
            11.705339,
            46.535353,
            1787.5
          ],
          [
            11.70543,
            46.535354,
            1788.5
          ],
          [
            11.705653,
            46.535324,
            1790.3
          ],
          [
            11.705716,
            46.535307,
            1790.5
          ],
          [
            11.705753,
            46.535278,
            1790.3
          ],
          [
            11.705864,
            46.535126,
            1790.8
          ],
          [
            11.706111,
            46.534944,
            1791.8
          ],
          [
            11.706201,
            46.53462,
            1791.5
          ],
          [
            11.706415,
            46.534159,
            1795.3
          ],
          [
            11.706654,
            46.53382,
            1794.3
          ],
          [
            11.706706,
            46.533629,
            1794
          ],
          [
            11.706938,
            46.533448,
            1800.8
          ],
          [
            11.707005,
            46.533126,
            1803.3
          ],
          [
            11.707208,
            46.532993,
            1803
          ],
          [
            11.707238,
            46.532738,
            1799.8
          ],
          [
            11.707418,
            46.532578,
            1799.3
          ],
          [
            11.707532,
            46.532352,
            1798.5
          ],
          [
            11.707685,
            46.532221,
            1798.5
          ],
          [
            11.707766,
            46.531934,
            1797.8
          ],
          [
            11.708058,
            46.531728,
            1799.3
          ],
          [
            11.708319,
            46.531391,
            1801.8
          ],
          [
            11.708351,
            46.531296,
            1802.3
          ],
          [
            11.708359,
            46.531186,
            1802.3
          ],
          [
            11.708393,
            46.531118,
            1802.5
          ],
          [
            11.70893,
            46.530533,
            1810.5
          ],
          [
            11.709041,
            46.530335,
            1813
          ],
          [
            11.709092,
            46.530118,
            1814.5
          ],
          [
            11.709201,
            46.529941,
            1814.8
          ],
          [
            11.70927,
            46.529798,
            1814
          ],
          [
            11.709302,
            46.52965,
            1813.3
          ],
          [
            11.709083,
            46.528974,
            1818.5
          ],
          [
            11.709094,
            46.528828,
            1820.5
          ],
          [
            11.709161,
            46.52865,
            1822.5
          ],
          [
            11.709284,
            46.528573,
            1824.3
          ],
          [
            11.709753,
            46.528378,
            1829.8
          ],
          [
            11.709853,
            46.528316,
            1831
          ],
          [
            11.710102,
            46.528093,
            1835.3
          ],
          [
            11.710321,
            46.527935,
            1838
          ],
          [
            11.710466,
            46.527856,
            1839.8
          ],
          [
            11.710721,
            46.527639,
            1843.8
          ],
          [
            11.710987,
            46.527449,
            1847.5
          ],
          [
            11.71136,
            46.527211,
            1852
          ],
          [
            11.711829,
            46.527003,
            1858.5
          ],
          [
            11.712086,
            46.526922,
            1861.3
          ],
          [
            11.712309,
            46.526793,
            1864.8
          ],
          [
            11.712552,
            46.526597,
            1869
          ],
          [
            11.712767,
            46.526341,
            1875.3
          ],
          [
            11.712887,
            46.526241,
            1877.3
          ],
          [
            11.713162,
            46.526122,
            1881.8
          ],
          [
            11.713275,
            46.526052,
            1884.5
          ],
          [
            11.713313,
            46.525993,
            1885.8
          ],
          [
            11.713315,
            46.525918,
            1886.8
          ],
          [
            11.71334,
            46.525856,
            1887.8
          ],
          [
            11.713426,
            46.525824,
            1889
          ],
          [
            11.713683,
            46.52579,
            1892
          ],
          [
            11.713905,
            46.525775,
            1894.8
          ],
          [
            11.71405,
            46.525825,
            1896.3
          ],
          [
            11.714203,
            46.525901,
            1899.8
          ],
          [
            11.714278,
            46.525986,
            1902
          ],
          [
            11.714317,
            46.526004,
            1902.5
          ],
          [
            11.71439,
            46.526007,
            1903
          ],
          [
            11.714548,
            46.525953,
            1903.5
          ],
          [
            11.714609,
            46.525942,
            1904
          ],
          [
            11.714671,
            46.525966,
            1905
          ],
          [
            11.714826,
            46.526046,
            1906.5
          ],
          [
            11.714897,
            46.526064,
            1907.3
          ],
          [
            11.714975,
            46.526068,
            1907.8
          ],
          [
            11.715364,
            46.526009,
            1912.8
          ],
          [
            11.715432,
            46.525987,
            1913.3
          ],
          [
            11.715475,
            46.525954,
            1914
          ],
          [
            11.715689,
            46.525726,
            1919.5
          ],
          [
            11.71569,
            46.525628,
            1921.5
          ],
          [
            11.715869,
            46.525432,
            1927
          ],
          [
            11.716001,
            46.525338,
            1930.3
          ],
          [
            11.716996,
            46.524455,
            1964.5
          ],
          [
            11.716988,
            46.524276,
            1970
          ],
          [
            11.716858,
            46.524089,
            1973
          ],
          [
            11.716882,
            46.523961,
            1976.3
          ],
          [
            11.717019,
            46.523985,
            1979.5
          ],
          [
            11.717699,
            46.524184,
            1993.3
          ],
          [
            11.717734,
            46.524177,
            1994.5
          ],
          [
            11.717742,
            46.524154,
            1995
          ],
          [
            11.717675,
            46.523852,
            2003.3
          ],
          [
            11.717696,
            46.523657,
            2008.3
          ],
          [
            11.717653,
            46.52355,
            2009.3
          ],
          [
            11.717691,
            46.523374,
            2014.3
          ],
          [
            11.717778,
            46.523241,
            2016.5
          ],
          [
            11.718016,
            46.523109,
            2025.8
          ],
          [
            11.718226,
            46.522894,
            2033.5
          ],
          [
            11.718545,
            46.522701,
            2044.5
          ],
          [
            11.718647,
            46.522535,
            2048
          ],
          [
            11.718774,
            46.522461,
            2052.5
          ],
          [
            11.718897,
            46.52233,
            2057.3
          ],
          [
            11.718943,
            46.522239,
            2059.3
          ],
          [
            11.719001,
            46.522208,
            2061.8
          ],
          [
            11.71907,
            46.522248,
            2063
          ],
          [
            11.71918,
            46.522456,
            2066.3
          ],
          [
            11.719354,
            46.52302,
            2080.3
          ],
          [
            11.719391,
            46.523082,
            2082.3
          ],
          [
            11.719436,
            46.523062,
            2084.5
          ],
          [
            11.719464,
            46.522993,
            2084.5
          ],
          [
            11.71965,
            46.522842,
            2089.8
          ],
          [
            11.719996,
            46.522635,
            2101.8
          ],
          [
            11.720071,
            46.522473,
            2103.5
          ],
          [
            11.720132,
            46.522367,
            2106
          ],
          [
            11.720229,
            46.522273,
            2110
          ],
          [
            11.720462,
            46.522083,
            2115.3
          ],
          [
            11.720755,
            46.521977,
            2123.8
          ],
          [
            11.720952,
            46.521853,
            2130.8
          ],
          [
            11.721244,
            46.521372,
            2143
          ],
          [
            11.721147,
            46.521226,
            2143.8
          ],
          [
            11.721189,
            46.521094,
            2147.8
          ],
          [
            11.72149,
            46.520904,
            2155
          ],
          [
            11.721718,
            46.520852,
            2160
          ],
          [
            11.721994,
            46.520714,
            2167
          ],
          [
            11.722143,
            46.520657,
            2170
          ],
          [
            11.722256,
            46.520649,
            2172.5
          ],
          [
            11.722332,
            46.520669,
            2174.3
          ],
          [
            11.722422,
            46.520665,
            2176.5
          ],
          [
            11.722528,
            46.520589,
            2179.3
          ],
          [
            11.722659,
            46.520699,
            2181.3
          ],
          [
            11.722813,
            46.520717,
            2184.8
          ],
          [
            11.722928,
            46.520698,
            2190.8
          ],
          [
            11.723025,
            46.520657,
            2197.8
          ],
          [
            11.723093,
            46.520604,
            2203.5
          ],
          [
            11.723169,
            46.520584,
            2207
          ],
          [
            11.723176,
            46.520547,
            2209
          ],
          [
            11.72313,
            46.520508,
            2208.3
          ],
          [
            11.723154,
            46.520466,
            2210.3
          ],
          [
            11.72327,
            46.520493,
            2214
          ],
          [
            11.723307,
            46.520471,
            2216.5
          ],
          [
            11.723338,
            46.52049,
            2217
          ],
          [
            11.723368,
            46.520417,
            2221.3
          ],
          [
            11.723435,
            46.520448,
            2222.8
          ],
          [
            11.723532,
            46.520428,
            2227.3
          ],
          [
            11.723594,
            46.520454,
            2229
          ],
          [
            11.72364,
            46.520435,
            2231
          ],
          [
            11.723692,
            46.520462,
            2231.3
          ],
          [
            11.723753,
            46.520415,
            2234.3
          ],
          [
            11.723818,
            46.52042,
            2235.5
          ],
          [
            11.723843,
            46.520262,
            2242.3
          ],
          [
            11.723945,
            46.520281,
            2243.8
          ],
          [
            11.72399,
            46.520226,
            2247
          ],
          [
            11.724103,
            46.520221,
            2249.3
          ],
          [
            11.723906,
            46.520011,
            2254.8
          ],
          [
            11.723838,
            46.519898,
            2257.5
          ]
        ]
      }
    },
    {
      "type": "Feature",
      "properties": {
        "kind": "waypoint",
        "name": "Santa Cristina",
        "show_label": true
      },
      "geometry": {
        "type": "Point",
        "coordinates": [
          11.721047,
          46.558173,
          1395.5
        ]
      }
    },
    {
      "type": "Feature",
      "properties": {
        "kind": "waypoint",
        "name": "Monte Pana",
        "show_label": true
      },
      "geometry": {
        "type": "Point",
        "coordinates": [
          11.718077,
          46.550514,
          1637.8
        ]
      }
    },
    {
      "type": "Feature",
      "properties": {
        "kind": "waypoint",
        "name": "Langkofelhütte",
        "show_label": true
      },
      "geometry": {
        "type": "Point",
        "coordinates": [
          11.723838,
          46.519898,
          2257.5
        ]
      }
    }
  ]
}
