<?xml version="1.0" encoding="UTF-8"?>
<gpx version="1.1" creator="Dolomites 2026" xmlns="http://www.topografix.com/GPX/1/1" xmlns:xsi="http://www.w3.org/2001/XMLSchema-instance" xsi:schemaLocation="http://www.topografix.com/GPX/1/1 http://www.topografix.com/GPX/1/1/gpx.xsd">
  <metadata><name>День 2 · Toni-Demetz → Val Lasties → Boè</name></metadata>
  <wpt lat="46.519898" lon="11.723838"><ele>2257.5</ele><name>Langkofelhütte</name></wpt>
  <wpt lat="46.514584" lon="11.739691"><ele>2681.8</ele><name>Toni-Demetz-Hütte</name></wpt>
  <wpt lat="46.508069" lon="11.767327"><ele>2243</ele><name>Passo Sella</name></wpt>
  <wpt lat="46.506693" lon="11.792674"><ele>1979.1</ele><name>Val Lasties</name></wpt>
  <wpt lat="46.52147" lon="11.821619"><ele>2836.5</ele><name>Forcella d'Antersass</name></wpt>
  <wpt lat="46.519473" lon="11.823674"><ele>2901.3</ele><name>l'Antersass</name></wpt>
  <wpt lat="46.514696" lon="11.823167"><ele>2869</ele><name>Rifugio Boè</name></wpt>
  <trk>
    <name>День 2 · Toni-Demetz → Val Lasties → Boè</name>
    <trkseg>
      <trkpt lat="46.519898" lon="11.723838"><ele>2257.5</ele></trkpt>
      <trkpt lat="46.520011" lon="11.723906"><ele>2254.8</ele></trkpt>
      <trkpt lat="46.520008" lon="11.723968"><ele>2256.3</ele></trkpt>
      <trkpt lat="46.52004" lon="11.72407"><ele>2257</ele></trkpt>
      <trkpt lat="46.520067" lon="11.724199"><ele>2258.3</ele></trkpt>
      <trkpt lat="46.520077" lon="11.72441"><ele>2261.8</ele></trkpt>
      <trkpt lat="46.520065" lon="11.724525"><ele>2263.8</ele></trkpt>
      <trkpt lat="46.520002" lon="11.72471"><ele>2268.8</ele></trkpt>
      <trkpt lat="46.519983" lon="11.724997"><ele>2271</ele></trkpt>
      <trkpt lat="46.51995" lon="11.725191"><ele>2274.5</ele></trkpt>
      <trkpt lat="46.519971" lon="11.725321"><ele>2274.5</ele></trkpt>
      <trkpt lat="46.519949" lon="11.725489"><ele>2278.5</ele></trkpt>
      <trkpt lat="46.519958" lon="11.725646"><ele>2281.3</ele></trkpt>
      <trkpt lat="46.519994" lon="11.725849"><ele>2284.5</ele></trkpt>
      <trkpt lat="46.520013" lon="11.726134"><ele>2292.3</ele></trkpt>
      <trkpt lat="46.520055" lon="11.726268"><ele>2295</ele></trkpt>
      <trkpt lat="46.520078" lon="11.726387"><ele>2297.8</ele></trkpt>
      <trkpt lat="46.520148" lon="11.726643"><ele>2303</ele></trkpt>
      <trkpt lat="46.520149" lon="11.726829"><ele>2307.3</ele></trkpt>
      <trkpt lat="46.520165" lon="11.727012"><ele>2311</ele></trkpt>
      <trkpt lat="46.5202" lon="11.727112"><ele>2313</ele></trkpt>
      <trkpt lat="46.520278" lon="11.727162"><ele>2314.3</ele></trkpt>
      <trkpt lat="46.520342" lon="11.727232"><ele>2316.8</ele></trkpt>
      <trkpt lat="46.520268" lon="11.727298"><ele>2318.3</ele></trkpt>
      <trkpt lat="46.520267" lon="11.727383"><ele>2321</ele></trkpt>
      <trkpt lat="46.520168" lon="11.727478"><ele>2322.8</ele></trkpt>
      <trkpt lat="46.520119" lon="11.727595"><ele>2325.3</ele></trkpt>
      <trkpt lat="46.520127" lon="11.727737"><ele>2329.3</ele></trkpt>
      <trkpt lat="46.520184" lon="11.727781"><ele>2331</ele></trkpt>
      <trkpt lat="46.520313" lon="11.727853"><ele>2333.3</ele></trkpt>
      <trkpt lat="46.520362" lon="11.728047"><ele>2337.3</ele></trkpt>
      <trkpt lat="46.52041" lon="11.728101"><ele>2339.3</ele></trkpt>
      <trkpt lat="46.520429" lon="11.728192"><ele>2341.3</ele></trkpt>
      <trkpt lat="46.520418" lon="11.728304"><ele>2343.3</ele></trkpt>
      <trkpt lat="46.520352" lon="11.728401"><ele>2344.5</ele></trkpt>
      <trkpt lat="46.520337" lon="11.728499"><ele>2346.3</ele></trkpt>
      <trkpt lat="46.520235" lon="11.728511"><ele>2345.5</ele></trkpt>
      <trkpt lat="46.520166" lon="11.728648"><ele>2348.3</ele></trkpt>
      <trkpt lat="46.520129" lon="11.72874"><ele>2350.3</ele></trkpt>
      <trkpt lat="46.520012" lon="11.728984"><ele>2355</ele></trkpt>
      <trkpt lat="46.52002" lon="11.729144"><ele>2358.8</ele></trkpt>
      <trkpt lat="46.519909" lon="11.729469"><ele>2363.8</ele></trkpt>
      <trkpt lat="46.519885" lon="11.729671"><ele>2365.3</ele></trkpt>
      <trkpt lat="46.519831" lon="11.729835"><ele>2365.5</ele></trkpt>
      <trkpt lat="46.51983" lon="11.730069"><ele>2366.5</ele></trkpt>
      <trkpt lat="46.519787" lon="11.730452"><ele>2367.3</ele></trkpt>
      <trkpt lat="46.519761" lon="11.730544"><ele>2366.8</ele></trkpt>
      <trkpt lat="46.519745" lon="11.730813"><ele>2366.5</ele></trkpt>
      <trkpt lat="46.519638" lon="11.731007"><ele>2367.3</ele></trkpt>
      <trkpt lat="46.519561" lon="11.731115"><ele>2368</ele></trkpt>
      <trkpt lat="46.519466" lon="11.731194"><ele>2369.3</ele></trkpt>
      <trkpt lat="46.519393" lon="11.731328"><ele>2371</ele></trkpt>
      <trkpt lat="46.51916" lon="11.731562"><ele>2374.5</ele></trkpt>
      <trkpt lat="46.519109" lon="11.73168"><ele>2376.5</ele></trkpt>
      <trkpt lat="46.518794" lon="11.731873"><ele>2381.5</ele></trkpt>
      <trkpt lat="46.518774" lon="11.731989"><ele>2383.3</ele></trkpt>
      <trkpt lat="46.518689" lon="11.73213"><ele>2386.3</ele></trkpt>
      <trkpt lat="46.518615" lon="11.732348"><ele>2390.5</ele></trkpt>
      <trkpt lat="46.518506" lon="11.732381"><ele>2392.3</ele></trkpt>
      <trkpt lat="46.518472" lon="11.732455"><ele>2394</ele></trkpt>
      <trkpt lat="46.518454" lon="11.732595"><ele>2396.5</ele></trkpt>
      <trkpt lat="46.518193" lon="11.732803"><ele>2402</ele></trkpt>
      <trkpt lat="46.518089" lon="11.732684"><ele>2402.3</ele></trkpt>
      <trkpt lat="46.518033" lon="11.732706"><ele>2404.3</ele></trkpt>
      <trkpt lat="46.517995" lon="11.732685"><ele>2405.8</ele></trkpt>
      <trkpt lat="46.517963" lon="11.732711"><ele>2407.5</ele></trkpt>
      <trkpt lat="46.517965" lon="11.732748"><ele>2407.5</ele></trkpt>
      <trkpt lat="46.517927" lon="11.732774"><ele>2409.5</ele></trkpt>
      <trkpt lat="46.517893" lon="11.732882"><ele>2411.3</ele></trkpt>
      <trkpt lat="46.517838" lon="11.732995"><ele>2414</ele></trkpt>
      <trkpt lat="46.517801" lon="11.733024"><ele>2415.8</ele></trkpt>
      <trkpt lat="46.517773" lon="11.733"><ele>2417</ele></trkpt>
      <trkpt lat="46.517727" lon="11.733054"><ele>2419.3</ele></trkpt>
      <trkpt lat="46.517738" lon="11.733138"><ele>2419.3</ele></trkpt>
      <trkpt lat="46.51771" lon="11.733177"><ele>2421</ele></trkpt>
      <trkpt lat="46.517704" lon="11.733408"><ele>2423.5</ele></trkpt>
      <trkpt lat="46.517734" lon="11.733592"><ele>2425.3</ele></trkpt>
      <trkpt lat="46.517716" lon="11.73367"><ele>2426.3</ele></trkpt>
      <trkpt lat="46.517668" lon="11.733636"><ele>2428.3</ele></trkpt>
      <trkpt lat="46.517612" lon="11.733678"><ele>2430.5</ele></trkpt>
      <trkpt lat="46.517595" lon="11.733766"><ele>2431.5</ele></trkpt>
      <trkpt lat="46.517559" lon="11.733802"><ele>2433</ele></trkpt>
      <trkpt lat="46.517414" lon="11.73385"><ele>2439.5</ele></trkpt>
      <trkpt lat="46.517378" lon="11.733939"><ele>2441.3</ele></trkpt>
      <trkpt lat="46.517265" lon="11.733931"><ele>2446.3</ele></trkpt>
      <trkpt lat="46.51721" lon="11.733798"><ele>2447.8</ele></trkpt>
      <trkpt lat="46.51717" lon="11.733766"><ele>2449.5</ele></trkpt>
      <trkpt lat="46.517171" lon="11.73384"><ele>2450</ele></trkpt>
      <trkpt lat="46.517118" lon="11.733839"><ele>2452.8</ele></trkpt>
      <trkpt lat="46.5171" lon="11.733921"><ele>2454.3</ele></trkpt>
      <trkpt lat="46.517051" lon="11.734042"><ele>2457.5</ele></trkpt>
      <trkpt lat="46.517034" lon="11.734066"><ele>2458.8</ele></trkpt>
      <trkpt lat="46.51698" lon="11.734098"><ele>2461.5</ele></trkpt>
      <trkpt lat="46.516957" lon="11.734164"><ele>2463.3</ele></trkpt>
      <trkpt lat="46.516927" lon="11.734294"><ele>2466.5</ele></trkpt>
      <trkpt lat="46.516936" lon="11.734367"><ele>2466.5</ele></trkpt>
      <trkpt lat="46.516901" lon="11.734757"><ele>2472.5</ele></trkpt>
      <trkpt lat="46.516879" lon="11.734774"><ele>2473.8</ele></trkpt>
      <trkpt lat="46.516841" lon="11.734919"><ele>2476</ele></trkpt>
      <trkpt lat="46.516773" lon="11.734951"><ele>2479.8</ele></trkpt>
      <trkpt lat="46.516723" lon="11.735"><ele>2482.8</ele></trkpt>
      <trkpt lat="46.516686" lon="11.735057"><ele>2485.5</ele></trkpt>
      <trkpt lat="46.516635" lon="11.735096"><ele>2489</ele></trkpt>
      <trkpt lat="46.51665" lon="11.735138"><ele>2488.5</ele></trkpt>
      <trkpt lat="46.516636" lon="11.735208"><ele>2490</ele></trkpt>
      <trkpt lat="46.516608" lon="11.735198"><ele>2491.8</ele></trkpt>
      <trkpt lat="46.516598" lon="11.735236"><ele>2492.5</ele></trkpt>
      <trkpt lat="46.516633" lon="11.73538"><ele>2493.8</ele></trkpt>
      <trkpt lat="46.516626" lon="11.735488"><ele>2497.3</ele></trkpt>
      <trkpt lat="46.516677" lon="11.735617"><ele>2499.5</ele></trkpt>
      <trkpt lat="46.516697" lon="11.735729"><ele>2502.5</ele></trkpt>
      <trkpt lat="46.516732" lon="11.735861"><ele>2505</ele></trkpt>
      <trkpt lat="46.516655" lon="11.735876"><ele>2509.5</ele></trkpt>
      <trkpt lat="46.516592" lon="11.735903"><ele>2512.8</ele></trkpt>
      <trkpt lat="46.516537" lon="11.735889"><ele>2514.8</ele></trkpt>
      <trkpt lat="46.516493" lon="11.736023"><ele>2522.3</ele></trkpt>
      <trkpt lat="46.516508" lon="11.736197"><ele>2527.5</ele></trkpt>
      <trkpt lat="46.516497" lon="11.736223"><ele>2529</ele></trkpt>
      <trkpt lat="46.516445" lon="11.736162"><ele>2530.5</ele></trkpt>
      <trkpt lat="46.51639" lon="11.736301"><ele>2537.5</ele></trkpt>
      <trkpt lat="46.516397" lon="11.736386"><ele>2539.3</ele></trkpt>
      <trkpt lat="46.516351" lon="11.736384"><ele>2542.3</ele></trkpt>
      <trkpt lat="46.516148" lon="11.736176"><ele>2553</ele></trkpt>
      <trkpt lat="46.516104" lon="11.736195"><ele>2557.5</ele></trkpt>
      <trkpt lat="46.5161" lon="11.736266"><ele>2558.8</ele></trkpt>
      <trkpt lat="46.516068" lon="11.736369"><ele>2562.5</ele></trkpt>
      <trkpt lat="46.516078" lon="11.736498"><ele>2564.8</ele></trkpt>
      <trkpt lat="46.516069" lon="11.736527"><ele>2566.5</ele></trkpt>
      <trkpt lat="46.516072" lon="11.736598"><ele>2568.5</ele></trkpt>
      <trkpt lat="46.51609" lon="11.736676"><ele>2569.5</ele></trkpt>
      <trkpt lat="46.516113" lon="11.736918"><ele>2576</ele></trkpt>
      <trkpt lat="46.516099" lon="11.736952"><ele>2578</ele></trkpt>
      <trkpt lat="46.51612" lon="11.7371"><ele>2581.3</ele></trkpt>
      <trkpt lat="46.516149" lon="11.737186"><ele>2582.3</ele></trkpt>
      <trkpt lat="46.516152" lon="11.737234"><ele>2583.8</ele></trkpt>
      <trkpt lat="46.516149" lon="11.737265"><ele>2585.3</ele></trkpt>
      <trkpt lat="46.516104" lon="11.737286"><ele>2588.8</ele></trkpt>
      <trkpt lat="46.516081" lon="11.737359"><ele>2592.8</ele></trkpt>
      <trkpt lat="46.516098" lon="11.73743"><ele>2594.8</ele></trkpt>
      <trkpt lat="46.516016" lon="11.737453"><ele>2599.8</ele></trkpt>
      <trkpt lat="46.516007" lon="11.737509"><ele>2602.3</ele></trkpt>
      <trkpt lat="46.515941" lon="11.737485"><ele>2604.3</ele></trkpt>
      <trkpt lat="46.515936" lon="11.73752"><ele>2606</ele></trkpt>
      <trkpt lat="46.516002" lon="11.737614"><ele>2607</ele></trkpt>
      <trkpt lat="46.516002" lon="11.737732"><ele>2612</ele></trkpt>
      <trkpt lat="46.515935" lon="11.737792"><ele>2618</ele></trkpt>
      <trkpt lat="46.515872" lon="11.737817"><ele>2622.5</ele></trkpt>
      <trkpt lat="46.515807" lon="11.737811"><ele>2625.3</ele></trkpt>
      <trkpt lat="46.515728" lon="11.737832"><ele>2630.3</ele></trkpt>
      <trkpt lat="46.515673" lon="11.737871"><ele>2634.8</ele></trkpt>
      <trkpt lat="46.515685" lon="11.738038"><ele>2643.3</ele></trkpt>
      <trkpt lat="46.515668" lon="11.738143"><ele>2648</ele></trkpt>
      <trkpt lat="46.515606" lon="11.738086"><ele>2647.5</ele></trkpt>
      <trkpt lat="46.515569" lon="11.738033"><ele>2646.5</ele></trkpt>
      <trkpt lat="46.515519" lon="11.738174"><ele>2653</ele></trkpt>
      <trkpt lat="46.515478" lon="11.738324"><ele>2658.5</ele></trkpt>
      <trkpt lat="46.515448" lon="11.738374"><ele>2661</ele></trkpt>
      <trkpt lat="46.515416" lon="11.738448"><ele>2663.5</ele></trkpt>
      <trkpt lat="46.515272" lon="11.738384"><ele>2666.3</ele></trkpt>
      <trkpt lat="46.5152" lon="11.738517"><ele>2668.8</ele></trkpt>
      <trkpt lat="46.515121" lon="11.738545"><ele>2670.8</ele></trkpt>
      <trkpt lat="46.515039" lon="11.738645"><ele>2672.3</ele></trkpt>
      <trkpt lat="46.515029" lon="11.738725"><ele>2673</ele></trkpt>
      <trkpt lat="46.515052" lon="11.738844"><ele>2673.8</ele></trkpt>
      <trkpt lat="46.514986" lon="11.738919"><ele>2674.8</ele></trkpt>
      <trkpt lat="46.514913" lon="11.738933"><ele>2677.8</ele></trkpt>
      <trkpt lat="46.514802" lon="11.73911"><ele>2682</ele></trkpt>
      <trkpt lat="46.514721" lon="11.739253"><ele>2683.3</ele></trkpt>
      <trkpt lat="46.514606" lon="11.739372"><ele>2685.5</ele></trkpt>
      <trkpt lat="46.514541" lon="11.739527"><ele>2682</ele></trkpt>
      <trkpt lat="46.514505" lon="11.739614"><ele>2678.5</ele></trkpt>
      <trkpt lat="46.514584" lon="11.739691"><ele>2681.8</ele></trkpt>
      <trkpt lat="46.514505" lon="11.739614"><ele>2678.5</ele></trkpt>
      <trkpt lat="46.514541" lon="11.739527"><ele>2682</ele></trkpt>
      <trkpt lat="46.514606" lon="11.739372"><ele>2685.5</ele></trkpt>
      <trkpt lat="46.5146" lon="11.739299"><ele>2687.5</ele></trkpt>
      <trkpt lat="46.514575" lon="11.73923"><ele>2690.5</ele></trkpt>
      <trkpt lat="46.514562" lon="11.739201"><ele>2692</ele></trkpt>
      <trkpt lat="46.514534" lon="11.739197"><ele>2693.5</ele></trkpt>
      <trkpt lat="46.514528" lon="11.739158"><ele>2695.3</ele></trkpt>
      <trkpt lat="46.51446" lon="11.739134"><ele>2699.3</ele></trkpt>
      <trkpt lat="46.514438" lon="11.739082"><ele>2700.8</ele></trkpt>
      <trkpt lat="46.514427" lon="11.73911"><ele>2700.3</ele></trkpt>
      <trkpt lat="46.514411" lon="11.739074"><ele>2701</ele></trkpt>
      <trkpt lat="46.514384" lon="11.739153"><ele>2698.8</ele></trkpt>
      <trkpt lat="46.51434" lon="11.739206"><ele>2695.3</ele></trkpt>
      <trkpt lat="46.51432" lon="11.739201"><ele>2695</ele></trkpt>
      <trkpt lat="46.514284" lon="11.739233"><ele>2692.3</ele></trkpt>
      <trkpt lat="46.514225" lon="11.73927"><ele>2688.5</ele></trkpt>
      <trkpt lat="46.514163" lon="11.739276"><ele>2686.5</ele></trkpt>
      <trkpt lat="46.514169" lon="11.739357"><ele>2682</ele></trkpt>
      <trkpt lat="46.51414" lon="11.73935"><ele>2681.5</ele></trkpt>
      <trkpt lat="46.514087" lon="11.739402"><ele>2677</ele></trkpt>
      <trkpt lat="46.513976" lon="11.73948"><ele>2669.3</ele></trkpt>
      <trkpt lat="46.513911" lon="11.739501"><ele>2666</ele></trkpt>
      <trkpt lat="46.513827" lon="11.739497"><ele>2661</ele></trkpt>
      <trkpt lat="46.513747" lon="11.739472"><ele>2655.3</ele></trkpt>
      <trkpt lat="46.513711" lon="11.739524"><ele>2652</ele></trkpt>
      <trkpt lat="46.51373" lon="11.739561"><ele>2653</ele></trkpt>
      <trkpt lat="46.513671" lon="11.739651"><ele>2651</ele></trkpt>
      <trkpt lat="46.51363" lon="11.739643"><ele>2649.8</ele></trkpt>
      <trkpt lat="46.513567" lon="11.739596"><ele>2643.3</ele></trkpt>
      <trkpt lat="46.513532" lon="11.739582"><ele>2639.5</ele></trkpt>
      <trkpt lat="46.5135" lon="11.73977"><ele>2637</ele></trkpt>
      <trkpt lat="46.513537" lon="11.739897"><ele>2637.3</ele></trkpt>
      <trkpt lat="46.513535" lon="11.740071"><ele>2627.8</ele></trkpt>
      <trkpt lat="46.513459" lon="11.740202"><ele>2617.8</ele></trkpt>
      <trkpt lat="46.513368" lon="11.740246"><ele>2619.3</ele></trkpt>
      <trkpt lat="46.513371" lon="11.740312"><ele>2613.8</ele></trkpt>
      <trkpt lat="46.513212" lon="11.740385"><ele>2587</ele></trkpt>
      <trkpt lat="46.513129" lon="11.740386"><ele>2576</ele></trkpt>
      <trkpt lat="46.513071" lon="11.740406"><ele>2567</ele></trkpt>
      <trkpt lat="46.512991" lon="11.740394"><ele>2562.5</ele></trkpt>
      <trkpt lat="46.512981" lon="11.740365"><ele>2563.5</ele></trkpt>
      <trkpt lat="46.51296" lon="11.740343"><ele>2563.8</ele></trkpt>
      <trkpt lat="46.512932" lon="11.740338"><ele>2562.5</ele></trkpt>
      <trkpt lat="46.512922" lon="11.740383"><ele>2559.5</ele></trkpt>
      <trkpt lat="46.512955" lon="11.740429"><ele>2558.5</ele></trkpt>
      <trkpt lat="46.513032" lon="11.740501"><ele>2558.3</ele></trkpt>
      <trkpt lat="46.513126" lon="11.740901"><ele>2548.3</ele></trkpt>
      <trkpt lat="46.513199" lon="11.741174"><ele>2544.3</ele></trkpt>
      <trkpt lat="46.513244" lon="11.741424"><ele>2539.5</ele></trkpt>
      <trkpt lat="46.513308" lon="11.741529"><ele>2541.3</ele></trkpt>
      <trkpt lat="46.513232" lon="11.74171"><ele>2532</ele></trkpt>
      <trkpt lat="46.513228" lon="11.741813"><ele>2529.8</ele></trkpt>
      <trkpt lat="46.513247" lon="11.742099"><ele>2524.5</ele></trkpt>
      <trkpt lat="46.51324" lon="11.742148"><ele>2523</ele></trkpt>
      <trkpt lat="46.513135" lon="11.742004"><ele>2519.5</ele></trkpt>
      <trkpt lat="46.513025" lon="11.7419"><ele>2514.8</ele></trkpt>
      <trkpt lat="46.513065" lon="11.742242"><ele>2508</ele></trkpt>
      <trkpt lat="46.513049" lon="11.742255"><ele>2506.8</ele></trkpt>
      <trkpt lat="46.512882" lon="11.742119"><ele>2500.8</ele></trkpt>
      <trkpt lat="46.512935" lon="11.742464"><ele>2494.5</ele></trkpt>
      <trkpt lat="46.512934" lon="11.742504"><ele>2493.3</ele></trkpt>
      <trkpt lat="46.512906" lon="11.74251"><ele>2491.5</ele></trkpt>
      <trkpt lat="46.512729" lon="11.742373"><ele>2485.3</ele></trkpt>
      <trkpt lat="46.512762" lon="11.742569"><ele>2481.5</ele></trkpt>
      <trkpt lat="46.512551" lon="11.742398"><ele>2474.3</ele></trkpt>
      <trkpt lat="46.512543" lon="11.742442"><ele>2472.8</ele></trkpt>
      <trkpt lat="46.512572" lon="11.742772"><ele>2465.5</ele></trkpt>
      <trkpt lat="46.512552" lon="11.742795"><ele>2463.8</ele></trkpt>
      <trkpt lat="46.512404" lon="11.742729"><ele>2457.5</ele></trkpt>
      <trkpt lat="46.512385" lon="11.74273"><ele>2456.5</ele></trkpt>
      <trkpt lat="46.512421" lon="11.742925"><ele>2453</ele></trkpt>
      <trkpt lat="46.512414" lon="11.743254"><ele>2445.5</ele></trkpt>
      <trkpt lat="46.512447" lon="11.743436"><ele>2443.5</ele></trkpt>
      <trkpt lat="46.512474" lon="11.743674"><ele>2439</ele></trkpt>
      <trkpt lat="46.512464" lon="11.743862"><ele>2435</ele></trkpt>
      <trkpt lat="46.512488" lon="11.744108"><ele>2431.5</ele></trkpt>
      <trkpt lat="46.512507" lon="11.744178"><ele>2430.8</ele></trkpt>
      <trkpt lat="46.512501" lon="11.744211"><ele>2429.5</ele></trkpt>
      <trkpt lat="46.512473" lon="11.744255"><ele>2426.5</ele></trkpt>
      <trkpt lat="46.512494" lon="11.744324"><ele>2425.5</ele></trkpt>
      <trkpt lat="46.512466" lon="11.744361"><ele>2422.8</ele></trkpt>
      <trkpt lat="46.512424" lon="11.74436"><ele>2420.5</ele></trkpt>
      <trkpt lat="46.512402" lon="11.74441"><ele>2418</ele></trkpt>
      <trkpt lat="46.512363" lon="11.744361"><ele>2417.3</ele></trkpt>
      <trkpt lat="46.512318" lon="11.74433"><ele>2415.5</ele></trkpt>
      <trkpt lat="46.512316" lon="11.744288"><ele>2416.5</ele></trkpt>
      <trkpt lat="46.512271" lon="11.744209"><ele>2415.8</ele></trkpt>
      <trkpt lat="46.512234" lon="11.744211"><ele>2413.5</ele></trkpt>
      <trkpt lat="46.512232" lon="11.744414"><ele>2409</ele></trkpt>
      <trkpt lat="46.512195" lon="11.744628"><ele>2403.3</ele></trkpt>
      <trkpt lat="46.512179" lon="11.744813"><ele>2398.5</ele></trkpt>
      <trkpt lat="46.512209" lon="11.744988"><ele>2395.5</ele></trkpt>
      <trkpt lat="46.512159" lon="11.745032"><ele>2391.3</ele></trkpt>
      <trkpt lat="46.512117" lon="11.745009"><ele>2390.3</ele></trkpt>
      <trkpt lat="46.512077" lon="11.74496"><ele>2389.3</ele></trkpt>
      <trkpt lat="46.512062" lon="11.745029"><ele>2386.8</ele></trkpt>
      <trkpt lat="46.512039" lon="11.745049"><ele>2385</ele></trkpt>
      <trkpt lat="46.51205" lon="11.745173"><ele>2381.3</ele></trkpt>
      <trkpt lat="46.512091" lon="11.745224"><ele>2380.5</ele></trkpt>
      <trkpt lat="46.51212" lon="11.745302"><ele>2378</ele></trkpt>
      <trkpt lat="46.512024" lon="11.745305"><ele>2376.3</ele></trkpt>
      <trkpt lat="46.512055" lon="11.745371"><ele>2374.5</ele></trkpt>
      <trkpt lat="46.512031" lon="11.745393"><ele>2373.3</ele></trkpt>
      <trkpt lat="46.511964" lon="11.745377"><ele>2373.3</ele></trkpt>
      <trkpt lat="46.511946" lon="11.745391"><ele>2372.8</ele></trkpt>
      <trkpt lat="46.511939" lon="11.745448"><ele>2370.8</ele></trkpt>
      <trkpt lat="46.511917" lon="11.745468"><ele>2369.3</ele></trkpt>
      <trkpt lat="46.511898" lon="11.745413"><ele>2369.5</ele></trkpt>
      <trkpt lat="46.511857" lon="11.745424"><ele>2367.3</ele></trkpt>
      <trkpt lat="46.511823" lon="11.745456"><ele>2365</ele></trkpt>
      <trkpt lat="46.511799" lon="11.74539"><ele>2365</ele></trkpt>
      <trkpt lat="46.511781" lon="11.745395"><ele>2364</ele></trkpt>
      <trkpt lat="46.511743" lon="11.745443"><ele>2361.5</ele></trkpt>
      <trkpt lat="46.511721" lon="11.745483"><ele>2360.3</ele></trkpt>
      <trkpt lat="46.511671" lon="11.745337"><ele>2358.3</ele></trkpt>
      <trkpt lat="46.511642" lon="11.745368"><ele>2356.8</ele></trkpt>
      <trkpt lat="46.511613" lon="11.745368"><ele>2355.5</ele></trkpt>
      <trkpt lat="46.511593" lon="11.745441"><ele>2354.5</ele></trkpt>
      <trkpt lat="46.511554" lon="11.745466"><ele>2352.5</ele></trkpt>
      <trkpt lat="46.511491" lon="11.74548"><ele>2349.3</ele></trkpt>
      <trkpt lat="46.511407" lon="11.745475"><ele>2345.3</ele></trkpt>
      <trkpt lat="46.511374" lon="11.74544"><ele>2343.8</ele></trkpt>
      <trkpt lat="46.511352" lon="11.7454"><ele>2343</ele></trkpt>
      <trkpt lat="46.511302" lon="11.745386"><ele>2340.3</ele></trkpt>
      <trkpt lat="46.511256" lon="11.745356"><ele>2338.3</ele></trkpt>
      <trkpt lat="46.511231" lon="11.74532"><ele>2337.8</ele></trkpt>
      <trkpt lat="46.51123" lon="11.74549"><ele>2334.3</ele></trkpt>
      <trkpt lat="46.511212" lon="11.745553"><ele>2331.8</ele></trkpt>
      <trkpt lat="46.511227" lon="11.745644"><ele>2331.8</ele></trkpt>
      <trkpt lat="46.511228" lon="11.745753"><ele>2330.5</ele></trkpt>
      <trkpt lat="46.511194" lon="11.745857"><ele>2327</ele></trkpt>
      <trkpt lat="46.511188" lon="11.745924"><ele>2326</ele></trkpt>
      <trkpt lat="46.511167" lon="11.745997"><ele>2324</ele></trkpt>
      <trkpt lat="46.51117" lon="11.7461"><ele>2323.3</ele></trkpt>
      <trkpt lat="46.511184" lon="11.746224"><ele>2323.3</ele></trkpt>
      <trkpt lat="46.511167" lon="11.74632"><ele>2321.8</ele></trkpt>
      <trkpt lat="46.511122" lon="11.746386"><ele>2318.5</ele></trkpt>
      <trkpt lat="46.511092" lon="11.746338"><ele>2317.3</ele></trkpt>
      <trkpt lat="46.511067" lon="11.746248"><ele>2316.5</ele></trkpt>
      <trkpt lat="46.511041" lon="11.746233"><ele>2315.3</ele></trkpt>
      <trkpt lat="46.510953" lon="11.746377"><ele>2310.5</ele></trkpt>
      <trkpt lat="46.510912" lon="11.746405"><ele>2308.8</ele></trkpt>
      <trkpt lat="46.510895" lon="11.746468"><ele>2308.3</ele></trkpt>
      <trkpt lat="46.510856" lon="11.746469"><ele>2306.3</ele></trkpt>
      <trkpt lat="46.510831" lon="11.746492"><ele>2305.3</ele></trkpt>
      <trkpt lat="46.510831" lon="11.746546"><ele>2305.3</ele></trkpt>
      <trkpt lat="46.510796" lon="11.746546"><ele>2303.8</ele></trkpt>
      <trkpt lat="46.510791" lon="11.74658"><ele>2303.5</ele></trkpt>
      <trkpt lat="46.510766" lon="11.746588"><ele>2302.5</ele></trkpt>
      <trkpt lat="46.510761" lon="11.746622"><ele>2302.3</ele></trkpt>
      <trkpt lat="46.510748" lon="11.746646"><ele>2301.8</ele></trkpt>
      <trkpt lat="46.510663" lon="11.746775"><ele>2299</ele></trkpt>
      <trkpt lat="46.510538" lon="11.746888"><ele>2293.5</ele></trkpt>
      <trkpt lat="46.510467" lon="11.747027"><ele>2289.5</ele></trkpt>
      <trkpt lat="46.510444" lon="11.747118"><ele>2288</ele></trkpt>
      <trkpt lat="46.510419" lon="11.747348"><ele>2285</ele></trkpt>
      <trkpt lat="46.510364" lon="11.747276"><ele>2282.5</ele></trkpt>
      <trkpt lat="46.510361" lon="11.747333"><ele>2281.8</ele></trkpt>
      <trkpt lat="46.510345" lon="11.747404"><ele>2280.3</ele></trkpt>
      <trkpt lat="46.510328" lon="11.747427"><ele>2279</ele></trkpt>
      <trkpt lat="46.510353" lon="11.74747"><ele>2280</ele></trkpt>
      <trkpt lat="46.510314" lon="11.747497"><ele>2277.8</ele></trkpt>
      <trkpt lat="46.510282" lon="11.747584"><ele>2276.3</ele></trkpt>
      <trkpt lat="46.510214" lon="11.747648"><ele>2274.5</ele></trkpt>
      <trkpt lat="46.510158" lon="11.747753"><ele>2274</ele></trkpt>
      <trkpt lat="46.510142" lon="11.747828"><ele>2274</ele></trkpt>
      <trkpt lat="46.510169" lon="11.747943"><ele>2274.8</ele></trkpt>
      <trkpt lat="46.510185" lon="11.747979"><ele>2274.8</ele></trkpt>
      <trkpt lat="46.510182" lon="11.748036"><ele>2274.8</ele></trkpt>
      <trkpt lat="46.510193" lon="11.748131"><ele>2274</ele></trkpt>
      <trkpt lat="46.510144" lon="11.748192"><ele>2272.5</ele></trkpt>
      <trkpt lat="46.510152" lon="11.74824"><ele>2272</ele></trkpt>
      <trkpt lat="46.510134" lon="11.748308"><ele>2270.8</ele></trkpt>
      <trkpt lat="46.510084" lon="11.748336"><ele>2269.3</ele></trkpt>
      <trkpt lat="46.510046" lon="11.748434"><ele>2266.5</ele></trkpt>
      <trkpt lat="46.510023" lon="11.748534"><ele>2264</ele></trkpt>
      <trkpt lat="46.510046" lon="11.748644"><ele>2262.5</ele></trkpt>
      <trkpt lat="46.509982" lon="11.748836"><ele>2261.5</ele></trkpt>
      <trkpt lat="46.509896" lon="11.749028"><ele>2258.8</ele></trkpt>
      <trkpt lat="46.509846" lon="11.749079"><ele>2257.5</ele></trkpt>
      <trkpt lat="46.509804" lon="11.749225"><ele>2256.3</ele></trkpt>
      <trkpt lat="46.509768" lon="11.749297"><ele>2255.5</ele></trkpt>
      <trkpt lat="46.509771" lon="11.74935"><ele>2255.5</ele></trkpt>
      <trkpt lat="46.509717" lon="11.749428"><ele>2254.8</ele></trkpt>
      <trkpt lat="46.509732" lon="11.749506"><ele>2254.3</ele></trkpt>
      <trkpt lat="46.509694" lon="11.749654"><ele>2252.3</ele></trkpt>
      <trkpt lat="46.509579" lon="11.749926"><ele>2248.3</ele></trkpt>
      <trkpt lat="46.509438" lon="11.750192"><ele>2246.8</ele></trkpt>
      <trkpt lat="46.509304" lon="11.75032"><ele>2242.5</ele></trkpt>
      <trkpt lat="46.509259" lon="11.750453"><ele>2240.8</ele></trkpt>
      <trkpt lat="46.509245" lon="11.750628"><ele>2239</ele></trkpt>
      <trkpt lat="46.509259" lon="11.750786"><ele>2236.5</ele></trkpt>
      <trkpt lat="46.509144" lon="11.751157"><ele>2235</ele></trkpt>
      <trkpt lat="46.509091" lon="11.751409"><ele>2235.5</ele></trkpt>
      <trkpt lat="46.509084" lon="11.751512"><ele>2235.3</ele></trkpt>
      <trkpt lat="46.509106" lon="11.751595"><ele>2235</ele></trkpt>
      <trkpt lat="46.509146" lon="11.751667"><ele>2234.8</ele></trkpt>
      <trkpt lat="46.509149" lon="11.751725"><ele>2233.8</ele></trkpt>
      <trkpt lat="46.509122" lon="11.751837"><ele>2232</ele></trkpt>
      <trkpt lat="46.50912" lon="11.751933"><ele>2230.5</ele></trkpt>
      <trkpt lat="46.509065" lon="11.752154"><ele>2225.5</ele></trkpt>
      <trkpt lat="46.508911" lon="11.752349"><ele>2220.5</ele></trkpt>
      <trkpt lat="46.508825" lon="11.752417"><ele>2218.8</ele></trkpt>
      <trkpt lat="46.508778" lon="11.752649"><ele>2213.5</ele></trkpt>
      <trkpt lat="46.508721" lon="11.752799"><ele>2210.5</ele></trkpt>
      <trkpt lat="46.508734" lon="11.753007"><ele>2207.5</ele></trkpt>
      <trkpt lat="46.508729" lon="11.753366"><ele>2204</ele></trkpt>
      <trkpt lat="46.508738" lon="11.753443"><ele>2203</ele></trkpt>
      <trkpt lat="46.508832" lon="11.753748"><ele>2199.5</ele></trkpt>
      <trkpt lat="46.508861" lon="11.753976"><ele>2197.5</ele></trkpt>
      <trkpt lat="46.508858" lon="11.754092"><ele>2196.3</ele></trkpt>
      <trkpt lat="46.508871" lon="11.754144"><ele>2195.5</ele></trkpt>
      <trkpt lat="46.508844" lon="11.754224"><ele>2195.3</ele></trkpt>
      <trkpt lat="46.508736" lon="11.754399"><ele>2195.5</ele></trkpt>
      <trkpt lat="46.508668" lon="11.754537"><ele>2196</ele></trkpt>
      <trkpt lat="46.508652" lon="11.754639"><ele>2196</ele></trkpt>
      <trkpt lat="46.508626" lon="11.754729"><ele>2196.5</ele></trkpt>
      <trkpt lat="46.508569" lon="11.754831"><ele>2197.3</ele></trkpt>
      <trkpt lat="46.508512" lon="11.754968"><ele>2198</ele></trkpt>
      <trkpt lat="46.508435" lon="11.755122"><ele>2199</ele></trkpt>
      <trkpt lat="46.50834" lon="11.755234"><ele>2200.5</ele></trkpt>
      <trkpt lat="46.508314" lon="11.755287"><ele>2201.3</ele></trkpt>
      <trkpt lat="46.508291" lon="11.755335"><ele>2201.5</ele></trkpt>
      <trkpt lat="46.508183" lon="11.755476"><ele>2203.5</ele></trkpt>
      <trkpt lat="46.508163" lon="11.755596"><ele>2203.8</ele></trkpt>
      <trkpt lat="46.508112" lon="11.755703"><ele>2204.3</ele></trkpt>
      <trkpt lat="46.507932" lon="11.755906"><ele>2206.5</ele></trkpt>
      <trkpt lat="46.50772" lon="11.756053"><ele>2207.5</ele></trkpt>
      <trkpt lat="46.507585" lon="11.756257"><ele>2206.8</ele></trkpt>
      <trkpt lat="46.507539" lon="11.756296"><ele>2207.3</ele></trkpt>
      <trkpt lat="46.50721" lon="11.756716"><ele>2208.8</ele></trkpt>
      <trkpt lat="46.50691" lon="11.757051"><ele>2212.5</ele></trkpt>
      <trkpt lat="46.506763" lon="11.757046"><ele>2214</ele></trkpt>
      <trkpt lat="46.506613" lon="11.756968"><ele>2215.5</ele></trkpt>
      <trkpt lat="46.5066" lon="11.757073"><ele>2214.8</ele></trkpt>
      <trkpt lat="46.506605" lon="11.757195"><ele>2213.8</ele></trkpt>
      <trkpt lat="46.506627" lon="11.75747"><ele>2216.3</ele></trkpt>
      <trkpt lat="46.506675" lon="11.757886"><ele>2222.3</ele></trkpt>
      <trkpt lat="46.506687" lon="11.758124"><ele>2227</ele></trkpt>
      <trkpt lat="46.506694" lon="11.7587"><ele>2238</ele></trkpt>
      <trkpt lat="46.506664" lon="11.758826"><ele>2242</ele></trkpt>
      <trkpt lat="46.506546" lon="11.759182"><ele>2251</ele></trkpt>
      <trkpt lat="46.506526" lon="11.759348"><ele>2254.3</ele></trkpt>
      <trkpt lat="46.50653" lon="11.759559"><ele>2256.8</ele></trkpt>
      <trkpt lat="46.506555" lon="11.759708"><ele>2257.5</ele></trkpt>
      <trkpt lat="46.506636" lon="11.759964"><ele>2256.3</ele></trkpt>
      <trkpt lat="46.506641" lon="11.760139"><ele>2255.3</ele></trkpt>
      <trkpt lat="46.506651" lon="11.760195"><ele>2254.8</ele></trkpt>
      <trkpt lat="46.506795" lon="11.760496"><ele>2253.8</ele></trkpt>
      <trkpt lat="46.506822" lon="11.760624"><ele>2253.8</ele></trkpt>
      <trkpt lat="46.50682" lon="11.760834"><ele>2254.5</ele></trkpt>
      <trkpt lat="46.5068" lon="11.760919"><ele>2254.3</ele></trkpt>
      <trkpt lat="46.506737" lon="11.76106"><ele>2255</ele></trkpt>
      <trkpt lat="46.506695" lon="11.761338"><ele>2253.5</ele></trkpt>
      <trkpt lat="46.506708" lon="11.761424"><ele>2252.5</ele></trkpt>
      <trkpt lat="46.50671" lon="11.761512"><ele>2252.5</ele></trkpt>
      <trkpt lat="46.506687" lon="11.761581"><ele>2252.8</ele></trkpt>
      <trkpt lat="46.506668" lon="11.761808"><ele>2253.3</ele></trkpt>
      <trkpt lat="46.506671" lon="11.761912"><ele>2253.8</ele></trkpt>
      <trkpt lat="46.506667" lon="11.761953"><ele>2253.8</ele></trkpt>
      <trkpt lat="46.506943" lon="11.762144"><ele>2256.5</ele></trkpt>
      <trkpt lat="46.507028" lon="11.762268"><ele>2259.3</ele></trkpt>
      <trkpt lat="46.507118" lon="11.76237"><ele>2262.3</ele></trkpt>
      <trkpt lat="46.507223" lon="11.762421"><ele>2267.5</ele></trkpt>
      <trkpt lat="46.507276" lon="11.762404"><ele>2267.8</ele></trkpt>
      <trkpt lat="46.507298" lon="11.76242"><ele>2268.3</ele></trkpt>
      <trkpt lat="46.507334" lon="11.762476"><ele>2270</ele></trkpt>
      <trkpt lat="46.507349" lon="11.762561"><ele>2270</ele></trkpt>
      <trkpt lat="46.507351" lon="11.762722"><ele>2268.3</ele></trkpt>
      <trkpt lat="46.507442" lon="11.763095"><ele>2263</ele></trkpt>
      <trkpt lat="46.50779" lon="11.763918"><ele>2249.8</ele></trkpt>
      <trkpt lat="46.507845" lon="11.764154"><ele>2242</ele></trkpt>
      <trkpt lat="46.507883" lon="11.764465"><ele>2232</ele></trkpt>
      <trkpt lat="46.507888" lon="11.764886"><ele>2231</ele></trkpt>
      <trkpt lat="46.507932" lon="11.765069"><ele>2230.3</ele></trkpt>
      <trkpt lat="46.507966" lon="11.765128"><ele>2229.8</ele></trkpt>
      <trkpt lat="46.508016" lon="11.765256"><ele>2230</ele></trkpt>
      <trkpt lat="46.5081" lon="11.7653"><ele>2229.8</ele></trkpt>
      <trkpt lat="46.508189" lon="11.765314"><ele>2229.5</ele></trkpt>
      <trkpt lat="46.508233" lon="11.76533"><ele>2229.5</ele></trkpt>
      <trkpt lat="46.508374" lon="11.765548"><ele>2230.5</ele></trkpt>
      <trkpt lat="46.508478" lon="11.76573"><ele>2229.8</ele></trkpt>
      <trkpt lat="46.508523" lon="11.765851"><ele>2231.8</ele></trkpt>
      <trkpt lat="46.508556" lon="11.766018"><ele>2235</ele></trkpt>
      <trkpt lat="46.50856" lon="11.766109"><ele>2236</ele></trkpt>
      <trkpt lat="46.508537" lon="11.766506"><ele>2237.8</ele></trkpt>
      <trkpt lat="46.50854" lon="11.766633"><ele>2239.5</ele></trkpt>
      <trkpt lat="46.508329" lon="11.767024"><ele>2243.8</ele></trkpt>
      <trkpt lat="46.508251" lon="11.767144"><ele>2243.8</ele></trkpt>
      <trkpt lat="46.508213" lon="11.767196"><ele>2244</ele></trkpt>
      <trkpt lat="46.508069" lon="11.767327"><ele>2243</ele></trkpt>
      <trkpt lat="46.508047" lon="11.767349"><ele>2242.5</ele></trkpt>
      <trkpt lat="46.508011" lon="11.767447"><ele>2244</ele></trkpt>
      <trkpt lat="46.507953" lon="11.768087"><ele>2241.1</ele></trkpt>
      <trkpt lat="46.50813" lon="11.767949"><ele>2242.1</ele></trkpt>
      <trkpt lat="46.508094" lon="11.768654"><ele>2253.5</ele></trkpt>
      <trkpt lat="46.508172" lon="11.768998"><ele>2259.6</ele></trkpt>
      <trkpt lat="46.508283" lon="11.76922"><ele>2260.7</ele></trkpt>
      <trkpt lat="46.508274" lon="11.769396"><ele>2264.6</ele></trkpt>
      <trkpt lat="46.507937" lon="11.770489"><ele>2282.2</ele></trkpt>
      <trkpt lat="46.507807" lon="11.770647"><ele>2281.3</ele></trkpt>
      <trkpt lat="46.507737" lon="11.770821"><ele>2281.8</ele></trkpt>
      <trkpt lat="46.507695" lon="11.771174"><ele>2285</ele></trkpt>
      <trkpt lat="46.507548" lon="11.771782"><ele>2290.4</ele></trkpt>
      <trkpt lat="46.507686" lon="11.772156"><ele>2291.4</ele></trkpt>
      <trkpt lat="46.507736" lon="11.772431"><ele>2292.8</ele></trkpt>
      <trkpt lat="46.50782" lon="11.772601"><ele>2290.5</ele></trkpt>
      <trkpt lat="46.508055" lon="11.772717"><ele>2288.8</ele></trkpt>
      <trkpt lat="46.508043" lon="11.77296"><ele>2289.1</ele></trkpt>
      <trkpt lat="46.508106" lon="11.773435"><ele>2286.8</ele></trkpt>
      <trkpt lat="46.508087" lon="11.773872"><ele>2285.5</ele></trkpt>
      <trkpt lat="46.508153" lon="11.774084"><ele>2288</ele></trkpt>
      <trkpt lat="46.508094" lon="11.774922"><ele>2295</ele></trkpt>
      <trkpt lat="46.50812" lon="11.775162"><ele>2294.9</ele></trkpt>
      <trkpt lat="46.508206" lon="11.775362"><ele>2295.8</ele></trkpt>
      <trkpt lat="46.508244" lon="11.775599"><ele>2295.5</ele></trkpt>
      <trkpt lat="46.508218" lon="11.77587"><ele>2289.8</ele></trkpt>
      <trkpt lat="46.507828" lon="11.77688"><ele>2266.2</ele></trkpt>
      <trkpt lat="46.507709" lon="11.777628"><ele>2253.5</ele></trkpt>
      <trkpt lat="46.507778" lon="11.777817"><ele>2255.6</ele></trkpt>
      <trkpt lat="46.507741" lon="11.7782"><ele>2246.3</ele></trkpt>
      <trkpt lat="46.507794" lon="11.778538"><ele>2241.3</ele></trkpt>
      <trkpt lat="46.507892" lon="11.778942"><ele>2235.5</ele></trkpt>
      <trkpt lat="46.507944" lon="11.779024"><ele>2236</ele></trkpt>
      <trkpt lat="46.507958" lon="11.779226"><ele>2229.2</ele></trkpt>
      <trkpt lat="46.50803" lon="11.779463"><ele>2225.5</ele></trkpt>
      <trkpt lat="46.508062" lon="11.780295"><ele>2202.9</ele></trkpt>
      <trkpt lat="46.50802" lon="11.780376"><ele>2199.3</ele></trkpt>
      <trkpt lat="46.507864" lon="11.780408"><ele>2193.5</ele></trkpt>
      <trkpt lat="46.507869" lon="11.780448"><ele>2192.9</ele></trkpt>
      <trkpt lat="46.50773" lon="11.780514"><ele>2188</ele></trkpt>
      <trkpt lat="46.507642" lon="11.780623"><ele>2184.3</ele></trkpt>
      <trkpt lat="46.50762" lon="11.780842"><ele>2180.2</ele></trkpt>
      <trkpt lat="46.50769" lon="11.781241"><ele>2174.6</ele></trkpt>
      <trkpt lat="46.507647" lon="11.781386"><ele>2171.1</ele></trkpt>
      <trkpt lat="46.507575" lon="11.781438"><ele>2166.7</ele></trkpt>
      <trkpt lat="46.50749" lon="11.781741"><ele>2156</ele></trkpt>
      <trkpt lat="46.507448" lon="11.781738"><ele>2153.3</ele></trkpt>
      <trkpt lat="46.50743" lon="11.781949"><ele>2148.5</ele></trkpt>
      <trkpt lat="46.507081" lon="11.782058"><ele>2131</ele></trkpt>
      <trkpt lat="46.506896" lon="11.782236"><ele>2122.6</ele></trkpt>
      <trkpt lat="46.506797" lon="11.782237"><ele>2119.6</ele></trkpt>
      <trkpt lat="46.506739" lon="11.782362"><ele>2116.1</ele></trkpt>
      <trkpt lat="46.506534" lon="11.782568"><ele>2106.3</ele></trkpt>
      <trkpt lat="46.506381" lon="11.782613"><ele>2100.3</ele></trkpt>
      <trkpt lat="46.506286" lon="11.78282"><ele>2093.6</ele></trkpt>
      <trkpt lat="46.506282" lon="11.782929"><ele>2091.8</ele></trkpt>
      <trkpt lat="46.506217" lon="11.782927"><ele>2089.5</ele></trkpt>
      <trkpt lat="46.506409" lon="11.783649"><ele>2086.1</ele></trkpt>
      <trkpt lat="46.506612" lon="11.784746"><ele>2080.3</ele></trkpt>
      <trkpt lat="46.506638" lon="11.786133"><ele>2072.2</ele></trkpt>
      <trkpt lat="46.506787" lon="11.786988"><ele>2066</ele></trkpt>
      <trkpt lat="46.506842" lon="11.788424"><ele>2058.5</ele></trkpt>
      <trkpt lat="46.506789" lon="11.788635"><ele>2058</ele></trkpt>
      <trkpt lat="46.506687" lon="11.788817"><ele>2055.2</ele></trkpt>
      <trkpt lat="46.506723" lon="11.789052"><ele>2059</ele></trkpt>
      <trkpt lat="46.506801" lon="11.789231"><ele>2058.5</ele></trkpt>
      <trkpt lat="46.506863" lon="11.789244"><ele>2060.7</ele></trkpt>
      <trkpt lat="46.506954" lon="11.789411"><ele>2058</ele></trkpt>
      <trkpt lat="46.506982" lon="11.789532"><ele>2057.6</ele></trkpt>
      <trkpt lat="46.506848" lon="11.790314"><ele>2052.6</ele></trkpt>
      <trkpt lat="46.506863" lon="11.791153"><ele>2028.5</ele></trkpt>
      <trkpt lat="46.506909" lon="11.791499"><ele>2017.3</ele></trkpt>
      <trkpt lat="46.506789" lon="11.791612"><ele>2009</ele></trkpt>
      <trkpt lat="46.506822" lon="11.791741"><ele>2005</ele></trkpt>
      <trkpt lat="46.506768" lon="11.791801"><ele>1999.5</ele></trkpt>
      <trkpt lat="46.506762" lon="11.792351"><ele>1980.5</ele></trkpt>
      <trkpt lat="46.506693" lon="11.792674"><ele>1979.1</ele></trkpt>
      <trkpt lat="46.506733" lon="11.792675"><ele>1983.9</ele></trkpt>
      <trkpt lat="46.506728" lon="11.792997"><ele>1993.2</ele></trkpt>
      <trkpt lat="46.506851" lon="11.793281"><ele>2005.9</ele></trkpt>
      <trkpt lat="46.506931" lon="11.793321"><ele>2015.3</ele></trkpt>
      <trkpt lat="46.50701" lon="11.793538"><ele>2019.3</ele></trkpt>
      <trkpt lat="46.507119" lon="11.794082"><ele>2030.1</ele></trkpt>
      <trkpt lat="46.507378" lon="11.794575"><ele>2037.7</ele></trkpt>
      <trkpt lat="46.507445" lon="11.794608"><ele>2051.4</ele></trkpt>
      <trkpt lat="46.507501" lon="11.794995"><ele>2059.2</ele></trkpt>
      <trkpt lat="46.50772" lon="11.795515"><ele>2064.6</ele></trkpt>
      <trkpt lat="46.507757" lon="11.795776"><ele>2069.7</ele></trkpt>
      <trkpt lat="46.507831" lon="11.79589"><ele>2075.6</ele></trkpt>
      <trkpt lat="46.507931" lon="11.796307"><ele>2082.1</ele></trkpt>
      <trkpt lat="46.508027" lon="11.796536"><ele>2089</ele></trkpt>
      <trkpt lat="46.507905" lon="11.796602"><ele>2087.6</ele></trkpt>
      <trkpt lat="46.507961" lon="11.796711"><ele>2091.7</ele></trkpt>
      <trkpt lat="46.508069" lon="11.796756"><ele>2094.6</ele></trkpt>
      <trkpt lat="46.508113" lon="11.796984"><ele>2101.5</ele></trkpt>
      <trkpt lat="46.508222" lon="11.796902"><ele>2104.2</ele></trkpt>
      <trkpt lat="46.508238" lon="11.797115"><ele>2111.5</ele></trkpt>
      <trkpt lat="46.508386" lon="11.797093"><ele>2115.5</ele></trkpt>
      <trkpt lat="46.508356" lon="11.797365"><ele>2127.3</ele></trkpt>
      <trkpt lat="46.50848" lon="11.797396"><ele>2130.9</ele></trkpt>
      <trkpt lat="46.508435" lon="11.797521"><ele>2134.5</ele></trkpt>
      <trkpt lat="46.508215" lon="11.797725"><ele>2142.6</ele></trkpt>
      <trkpt lat="46.508144" lon="11.797986"><ele>2152.9</ele></trkpt>
      <trkpt lat="46.508224" lon="11.79811"><ele>2161.6</ele></trkpt>
      <trkpt lat="46.508319" lon="11.798128"><ele>2165.4</ele></trkpt>
      <trkpt lat="46.508425" lon="11.798302"><ele>2179.5</ele></trkpt>
      <trkpt lat="46.508301" lon="11.798472"><ele>2183.8</ele></trkpt>
      <trkpt lat="46.508265" lon="11.798593"><ele>2186.7</ele></trkpt>
      <trkpt lat="46.508412" lon="11.798518"><ele>2190.3</ele></trkpt>
      <trkpt lat="46.508533" lon="11.798593"><ele>2196.6</ele></trkpt>
      <trkpt lat="46.50854" lon="11.798751"><ele>2202</ele></trkpt>
      <trkpt lat="46.508699" lon="11.798876"><ele>2207</ele></trkpt>
      <trkpt lat="46.508719" lon="11.799016"><ele>2208.6</ele></trkpt>
      <trkpt lat="46.508663" lon="11.799214"><ele>2209.1</ele></trkpt>
      <trkpt lat="46.508682" lon="11.799298"><ele>2209.1</ele></trkpt>
      <trkpt lat="46.508493" lon="11.799949"><ele>2219.1</ele></trkpt>
      <trkpt lat="46.50865" lon="11.800024"><ele>2223.5</ele></trkpt>
      <trkpt lat="46.508656" lon="11.800206"><ele>2229.8</ele></trkpt>
      <trkpt lat="46.508548" lon="11.800533"><ele>2239.7</ele></trkpt>
      <trkpt lat="46.5087" lon="11.800483"><ele>2240</ele></trkpt>
      <trkpt lat="46.508742" lon="11.800517"><ele>2240.7</ele></trkpt>
      <trkpt lat="46.508803" lon="11.800825"><ele>2248.3</ele></trkpt>
      <trkpt lat="46.508711" lon="11.800791"><ele>2250.3</ele></trkpt>
      <trkpt lat="46.508764" lon="11.801036"><ele>2257.4</ele></trkpt>
      <trkpt lat="46.508719" lon="11.801051"><ele>2258.7</ele></trkpt>
      <trkpt lat="46.509005" lon="11.80138"><ele>2269.5</ele></trkpt>
      <trkpt lat="46.508789" lon="11.801465"><ele>2275.9</ele></trkpt>
      <trkpt lat="46.508648" lon="11.801727"><ele>2282</ele></trkpt>
      <trkpt lat="46.508639" lon="11.801846"><ele>2283</ele></trkpt>
      <trkpt lat="46.508681" lon="11.801942"><ele>2284.4</ele></trkpt>
      <trkpt lat="46.508852" lon="11.802151"><ele>2289.2</ele></trkpt>
      <trkpt lat="46.508765" lon="11.802227"><ele>2291.3</ele></trkpt>
      <trkpt lat="46.508758" lon="11.802661"><ele>2296.2</ele></trkpt>
      <trkpt lat="46.508892" lon="11.802758"><ele>2299.2</ele></trkpt>
      <trkpt lat="46.50895" lon="11.802977"><ele>2301.6</ele></trkpt>
      <trkpt lat="46.509042" lon="11.8031"><ele>2303.6</ele></trkpt>
      <trkpt lat="46.509148" lon="11.803413"><ele>2310.9</ele></trkpt>
      <trkpt lat="46.509129" lon="11.803503"><ele>2312.3</ele></trkpt>
      <trkpt lat="46.509223" lon="11.803674"><ele>2316.6</ele></trkpt>
      <trkpt lat="46.509481" lon="11.804959"><ele>2326</ele></trkpt>
      <trkpt lat="46.509702" lon="11.805602"><ele>2325.3</ele></trkpt>
      <trkpt lat="46.509909" lon="11.80586"><ele>2327.9</ele></trkpt>
      <trkpt lat="46.509936" lon="11.806012"><ele>2328.8</ele></trkpt>
      <trkpt lat="46.510064" lon="11.806238"><ele>2330.3</ele></trkpt>
      <trkpt lat="46.510404" lon="11.806507"><ele>2334.3</ele></trkpt>
      <trkpt lat="46.510455" lon="11.806701"><ele>2335</ele></trkpt>
      <trkpt lat="46.510448" lon="11.806878"><ele>2335.2</ele></trkpt>
      <trkpt lat="46.510742" lon="11.80714"><ele>2340.6</ele></trkpt>
      <trkpt lat="46.510821" lon="11.80732"><ele>2341.2</ele></trkpt>
      <trkpt lat="46.511013" lon="11.807471"><ele>2344.3</ele></trkpt>
      <trkpt lat="46.51118" lon="11.80757"><ele>2346.9</ele></trkpt>
      <trkpt lat="46.51146" lon="11.80803"><ele>2360.8</ele></trkpt>
      <trkpt lat="46.51164" lon="11.80794"><ele>2366.2</ele></trkpt>
      <trkpt lat="46.51168" lon="11.80812"><ele>2370.6</ele></trkpt>
      <trkpt lat="46.5118" lon="11.80808"><ele>2374</ele></trkpt>
      <trkpt lat="46.51217" lon="11.80844"><ele>2391.9</ele></trkpt>
      <trkpt lat="46.51226" lon="11.80859"><ele>2397.9</ele></trkpt>
      <trkpt lat="46.51216" lon="11.80884"><ele>2402</ele></trkpt>
      <trkpt lat="46.51222" lon="11.80977"><ele>2426.1</ele></trkpt>
      <trkpt lat="46.51238" lon="11.80983"><ele>2433.9</ele></trkpt>
      <trkpt lat="46.51259" lon="11.80981"><ele>2439</ele></trkpt>
      <trkpt lat="46.51282" lon="11.81028"><ele>2455.6</ele></trkpt>
      <trkpt lat="46.51304" lon="11.81041"><ele>2461.5</ele></trkpt>
      <trkpt lat="46.51324" lon="11.81068"><ele>2465.4</ele></trkpt>
      <trkpt lat="46.5139" lon="11.8109"><ele>2466.9</ele></trkpt>
      <trkpt lat="46.51449" lon="11.8109"><ele>2467.1</ele></trkpt>
      <trkpt lat="46.5148" lon="11.81129"><ele>2469</ele></trkpt>
      <trkpt lat="46.51501" lon="11.8114"><ele>2470.3</ele></trkpt>
      <trkpt lat="46.51521" lon="11.81178"><ele>2472.6</ele></trkpt>
      <trkpt lat="46.51541" lon="11.812"><ele>2475.3</ele></trkpt>
      <trkpt lat="46.51591" lon="11.81185"><ele>2489.2</ele></trkpt>
      <trkpt lat="46.51613" lon="11.81157"><ele>2504.7</ele></trkpt>
      <trkpt lat="46.51666" lon="11.8117"><ele>2536.5</ele></trkpt>
      <trkpt lat="46.51682" lon="11.81168"><ele>2543.1</ele></trkpt>
      <trkpt lat="46.51699" lon="11.81153"><ele>2551.9</ele></trkpt>
      <trkpt lat="46.51727" lon="11.81148"><ele>2562.8</ele></trkpt>
      <trkpt lat="46.51756" lon="11.81185"><ele>2561.8</ele></trkpt>
      <trkpt lat="46.51777" lon="11.81191"><ele>2564.3</ele></trkpt>
      <trkpt lat="46.518" lon="11.81187"><ele>2571.6</ele></trkpt>
      <trkpt lat="46.51846" lon="11.81165"><ele>2595.2</ele></trkpt>
      <trkpt lat="46.51891" lon="11.81172"><ele>2617.2</ele></trkpt>
      <trkpt lat="46.51905" lon="11.81146"><ele>2641.2</ele></trkpt>
      <trkpt lat="46.51944" lon="11.81138"><ele>2649.1</ele></trkpt>
      <trkpt lat="46.5196" lon="11.81123"><ele>2655.7</ele></trkpt>
      <trkpt lat="46.51992" lon="11.81127"><ele>2661.7</ele></trkpt>
      <trkpt lat="46.51986" lon="11.81161"><ele>2661.7</ele></trkpt>
      <trkpt lat="46.51992" lon="11.81198"><ele>2662.9</ele></trkpt>
      <trkpt lat="46.51978" lon="11.81283"><ele>2682.4</ele></trkpt>
      <trkpt lat="46.52007" lon="11.81311"><ele>2694.2</ele></trkpt>
      <trkpt lat="46.52006" lon="11.81376"><ele>2712.7</ele></trkpt>
      <trkpt lat="46.51976" lon="11.81369"><ele>2713.5</ele></trkpt>
      <trkpt lat="46.51985" lon="11.81406"><ele>2723</ele></trkpt>
      <trkpt lat="46.51973" lon="11.81423"><ele>2727</ele></trkpt>
      <trkpt lat="46.51992" lon="11.81472"><ele>2740.9</ele></trkpt>
      <trkpt lat="46.52004" lon="11.81487"><ele>2746.5</ele></trkpt>
      <trkpt lat="46.51997" lon="11.81515"><ele>2761.8</ele></trkpt>
      <trkpt lat="46.52009" lon="11.8153"><ele>2766.2</ele></trkpt>
      <trkpt lat="46.51979" lon="11.81573"><ele>2783</ele></trkpt>
      <trkpt lat="46.52032" lon="11.81683"><ele>2805.6</ele></trkpt>
      <trkpt lat="46.52054" lon="11.817"><ele>2810.3</ele></trkpt>
      <trkpt lat="46.52053" lon="11.81738"><ele>2812.6</ele></trkpt>
      <trkpt lat="46.52065" lon="11.81773"><ele>2810.6</ele></trkpt>
      <trkpt lat="46.52063" lon="11.81831"><ele>2808.4</ele></trkpt>
      <trkpt lat="46.52066" lon="11.81895"><ele>2811.1</ele></trkpt>
      <trkpt lat="46.52075" lon="11.81966"><ele>2827.4</ele></trkpt>
      <trkpt lat="46.52107" lon="11.82045"><ele>2834.7</ele></trkpt>
      <trkpt lat="46.52122" lon="11.82097"><ele>2834.8</ele></trkpt>
      <trkpt lat="46.52144" lon="11.82131"><ele>2836.4</ele></trkpt>
      <trkpt lat="46.521396" lon="11.821333"><ele>2836.5</ele></trkpt>
      <trkpt lat="46.521425" lon="11.821441"><ele>2837</ele></trkpt>
      <trkpt lat="46.521473" lon="11.821525"><ele>2836.8</ele></trkpt>
      <trkpt lat="46.52147" lon="11.821619"><ele>2836.5</ele></trkpt>
      <trkpt lat="46.521496" lon="11.821753"><ele>2836.3</ele></trkpt>
      <trkpt lat="46.521493" lon="11.821788"><ele>2836</ele></trkpt>
      <trkpt lat="46.521459" lon="11.821785"><ele>2836</ele></trkpt>
      <trkpt lat="46.521402" lon="11.821822"><ele>2836</ele></trkpt>
      <trkpt lat="46.521332" lon="11.821985"><ele>2835</ele></trkpt>
      <trkpt lat="46.521274" lon="11.822186"><ele>2833.8</ele></trkpt>
      <trkpt lat="46.521169" lon="11.822404"><ele>2832.3</ele></trkpt>
      <trkpt lat="46.521149" lon="11.822468"><ele>2832.5</ele></trkpt>
      <trkpt lat="46.521032" lon="11.822647"><ele>2833.8</ele></trkpt>
      <trkpt lat="46.521035" lon="11.822726"><ele>2834.3</ele></trkpt>
      <trkpt lat="46.521025" lon="11.822803"><ele>2833.8</ele></trkpt>
      <trkpt lat="46.520999" lon="11.822861"><ele>2832.5</ele></trkpt>
      <trkpt lat="46.52095" lon="11.822904"><ele>2832.5</ele></trkpt>
      <trkpt lat="46.520928" lon="11.822967"><ele>2832</ele></trkpt>
      <trkpt lat="46.520925" lon="11.823001"><ele>2831.5</ele></trkpt>
      <trkpt lat="46.520902" lon="11.823022"><ele>2832</ele></trkpt>
      <trkpt lat="46.520853" lon="11.823022"><ele>2834.3</ele></trkpt>
      <trkpt lat="46.520782" lon="11.823037"><ele>2837.5</ele></trkpt>
      <trkpt lat="46.520692" lon="11.823033"><ele>2841.8</ele></trkpt>
      <trkpt lat="46.520649" lon="11.82299"><ele>2843.5</ele></trkpt>
      <trkpt lat="46.520593" lon="11.822948"><ele>2845.3</ele></trkpt>
      <trkpt lat="46.520588" lon="11.822997"><ele>2846.3</ele></trkpt>
      <trkpt lat="46.520551" lon="11.823019"><ele>2848.3</ele></trkpt>
      <trkpt lat="46.520515" lon="11.822975"><ele>2848.8</ele></trkpt>
      <trkpt lat="46.520461" lon="11.82298"><ele>2850.5</ele></trkpt>
      <trkpt lat="46.520459" lon="11.823016"><ele>2851.3</ele></trkpt>
      <trkpt lat="46.5205" lon="11.823081"><ele>2851.3</ele></trkpt>
      <trkpt lat="46.520421" lon="11.823111"><ele>2854.5</ele></trkpt>
      <trkpt lat="46.52029" lon="11.823091"><ele>2858.3</ele></trkpt>
      <trkpt lat="46.520172" lon="11.823106"><ele>2863.5</ele></trkpt>
      <trkpt lat="46.520171" lon="11.823137"><ele>2864.3</ele></trkpt>
      <trkpt lat="46.520198" lon="11.823175"><ele>2864</ele></trkpt>
      <trkpt lat="46.520194" lon="11.823229"><ele>2865.3</ele></trkpt>
      <trkpt lat="46.52016" lon="11.823227"><ele>2866.5</ele></trkpt>
      <trkpt lat="46.52015" lon="11.823276"><ele>2867.8</ele></trkpt>
      <trkpt lat="46.519985" lon="11.823128"><ele>2871.5</ele></trkpt>
      <trkpt lat="46.519956" lon="11.823152"><ele>2873</ele></trkpt>
      <trkpt lat="46.519885" lon="11.82314"><ele>2876</ele></trkpt>
      <trkpt lat="46.519865" lon="11.823103"><ele>2876</ele></trkpt>
      <trkpt lat="46.519822" lon="11.82318"><ele>2879.3</ele></trkpt>
      <trkpt lat="46.519796" lon="11.82317"><ele>2880.3</ele></trkpt>
      <trkpt lat="46.519772" lon="11.823207"><ele>2882</ele></trkpt>
      <trkpt lat="46.519729" lon="11.823212"><ele>2884</ele></trkpt>
      <trkpt lat="46.519734" lon="11.823325"><ele>2886.3</ele></trkpt>
      <trkpt lat="46.519689" lon="11.823343"><ele>2888.8</ele></trkpt>
      <trkpt lat="46.5197" lon="11.823385"><ele>2888.5</ele></trkpt>
      <trkpt lat="46.51966" lon="11.823361"><ele>2890.3</ele></trkpt>
      <trkpt lat="46.519614" lon="11.823279"><ele>2891</ele></trkpt>
      <trkpt lat="46.519527" lon="11.823194"><ele>2892.8</ele></trkpt>
      <trkpt lat="46.519506" lon="11.823199"><ele>2893.8</ele></trkpt>
      <trkpt lat="46.51953" lon="11.823326"><ele>2896.3</ele></trkpt>
      <trkpt lat="46.51956" lon="11.823369"><ele>2895.5</ele></trkpt>
      <trkpt lat="46.519568" lon="11.823401"><ele>2895.5</ele></trkpt>
      <trkpt lat="46.519575" lon="11.823489"><ele>2896.3</ele></trkpt>
      <trkpt lat="46.519548" lon="11.823489"><ele>2897.8</ele></trkpt>
      <trkpt lat="46.519505" lon="11.823422"><ele>2899.3</ele></trkpt>
      <trkpt lat="46.519512" lon="11.823596"><ele>2901.5</ele></trkpt>
      <trkpt lat="46.51951" lon="11.82366"><ele>2899.3</ele></trkpt>
      <trkpt lat="46.519473" lon="11.823674"><ele>2901.3</ele></trkpt>
      <trkpt lat="46.519421" lon="11.823572"><ele>2905</ele></trkpt>
      <trkpt lat="46.519374" lon="11.823548"><ele>2904.5</ele></trkpt>
      <trkpt lat="46.519237" lon="11.823616"><ele>2904.3</ele></trkpt>
      <trkpt lat="46.519158" lon="11.823566"><ele>2903.3</ele></trkpt>
      <trkpt lat="46.519092" lon="11.823618"><ele>2902.3</ele></trkpt>
      <trkpt lat="46.518998" lon="11.823635"><ele>2900.3</ele></trkpt>
      <trkpt lat="46.51891" lon="11.823696"><ele>2898.3</ele></trkpt>
      <trkpt lat="46.518879" lon="11.823743"><ele>2897.5</ele></trkpt>
      <trkpt lat="46.518835" lon="11.823751"><ele>2896.5</ele></trkpt>
      <trkpt lat="46.51881" lon="11.823808"><ele>2895.8</ele></trkpt>
      <trkpt lat="46.518776" lon="11.823825"><ele>2894.8</ele></trkpt>
      <trkpt lat="46.518723" lon="11.823902"><ele>2893</ele></trkpt>
      <trkpt lat="46.518684" lon="11.823921"><ele>2892</ele></trkpt>
      <trkpt lat="46.518624" lon="11.823894"><ele>2890.3</ele></trkpt>
      <trkpt lat="46.518567" lon="11.823852"><ele>2888.5</ele></trkpt>
      <trkpt lat="46.51849" lon="11.823721"><ele>2886</ele></trkpt>
      <trkpt lat="46.51845" lon="11.823836"><ele>2884.3</ele></trkpt>
      <trkpt lat="46.518431" lon="11.824002"><ele>2882.8</ele></trkpt>
      <trkpt lat="46.518399" lon="11.824134"><ele>2881</ele></trkpt>
      <trkpt lat="46.518376" lon="11.824191"><ele>2879.5</ele></trkpt>
      <trkpt lat="46.518358" lon="11.82419"><ele>2878.8</ele></trkpt>
      <trkpt lat="46.518335" lon="11.824226"><ele>2877.8</ele></trkpt>
      <trkpt lat="46.518307" lon="11.824231"><ele>2877</ele></trkpt>
      <trkpt lat="46.51823" lon="11.82414"><ele>2875.5</ele></trkpt>
      <trkpt lat="46.518197" lon="11.824151"><ele>2874.5</ele></trkpt>
      <trkpt lat="46.518169" lon="11.824211"><ele>2873.8</ele></trkpt>
      <trkpt lat="46.518123" lon="11.824245"><ele>2872.5</ele></trkpt>
      <trkpt lat="46.518099" lon="11.824282"><ele>2872</ele></trkpt>
      <trkpt lat="46.518063" lon="11.824292"><ele>2871</ele></trkpt>
      <trkpt lat="46.518029" lon="11.824254"><ele>2870.3</ele></trkpt>
      <trkpt lat="46.517959" lon="11.824278"><ele>2868.5</ele></trkpt>
      <trkpt lat="46.517927" lon="11.824229"><ele>2867.8</ele></trkpt>
      <trkpt lat="46.517893" lon="11.824203"><ele>2866.8</ele></trkpt>
      <trkpt lat="46.517854" lon="11.824201"><ele>2865.8</ele></trkpt>
      <trkpt lat="46.517812" lon="11.824162"><ele>2864.8</ele></trkpt>
      <trkpt lat="46.51777" lon="11.824168"><ele>2863.8</ele></trkpt>
      <trkpt lat="46.517725" lon="11.824219"><ele>2863.3</ele></trkpt>
      <trkpt lat="46.51769" lon="11.824248"><ele>2862.8</ele></trkpt>
      <trkpt lat="46.517638" lon="11.82427"><ele>2862.3</ele></trkpt>
      <trkpt lat="46.51754" lon="11.824364"><ele>2860.8</ele></trkpt>
      <trkpt lat="46.517455" lon="11.824371"><ele>2859.5</ele></trkpt>
      <trkpt lat="46.517361" lon="11.824309"><ele>2858.3</ele></trkpt>
      <trkpt lat="46.517229" lon="11.824276"><ele>2856.3</ele></trkpt>
      <trkpt lat="46.517128" lon="11.824218"><ele>2855</ele></trkpt>
      <trkpt lat="46.516997" lon="11.824199"><ele>2853.8</ele></trkpt>
      <trkpt lat="46.516938" lon="11.824205"><ele>2853.3</ele></trkpt>
      <trkpt lat="46.516837" lon="11.824262"><ele>2853.3</ele></trkpt>
      <trkpt lat="46.516724" lon="11.824288"><ele>2853</ele></trkpt>
      <trkpt lat="46.516634" lon="11.824331"><ele>2853</ele></trkpt>
      <trkpt lat="46.516595" lon="11.824303"><ele>2853.5</ele></trkpt>
      <trkpt lat="46.516504" lon="11.824188"><ele>2854</ele></trkpt>
      <trkpt lat="46.516427" lon="11.824025"><ele>2855.3</ele></trkpt>
      <trkpt lat="46.516418" lon="11.823889"><ele>2856.3</ele></trkpt>
      <trkpt lat="46.516344" lon="11.823629"><ele>2860.3</ele></trkpt>
      <trkpt lat="46.516313" lon="11.823585"><ele>2860.3</ele></trkpt>
      <trkpt lat="46.516286" lon="11.823525"><ele>2858</ele></trkpt>
      <trkpt lat="46.516251" lon="11.823482"><ele>2856.8</ele></trkpt>
      <trkpt lat="46.516177" lon="11.823467"><ele>2858</ele></trkpt>
      <trkpt lat="46.516033" lon="11.823513"><ele>2865.5</ele></trkpt>
      <trkpt lat="46.515938" lon="11.823588"><ele>2869.8</ele></trkpt>
      <trkpt lat="46.515834" lon="11.823697"><ele>2870.5</ele></trkpt>
      <trkpt lat="46.51577" lon="11.823731"><ele>2870.3</ele></trkpt>
      <trkpt lat="46.515735" lon="11.823729"><ele>2870.3</ele></trkpt>
      <trkpt lat="46.515676" lon="11.8237"><ele>2870.3</ele></trkpt>
      <trkpt lat="46.515598" lon="11.823645"><ele>2870.5</ele></trkpt>
      <trkpt lat="46.515538" lon="11.823608"><ele>2870.8</ele></trkpt>
      <trkpt lat="46.515483" lon="11.82359"><ele>2870.5</ele></trkpt>
      <trkpt lat="46.515437" lon="11.823537"><ele>2871.3</ele></trkpt>
      <trkpt lat="46.515367" lon="11.823506"><ele>2870.5</ele></trkpt>
      <trkpt lat="46.515203" lon="11.823322"><ele>2870.5</ele></trkpt>
      <trkpt lat="46.515156" lon="11.823293"><ele>2870.5</ele></trkpt>
      <trkpt lat="46.515" lon="11.823131"><ele>2868.8</ele></trkpt>
      <trkpt lat="46.514964" lon="11.823107"><ele>2868.8</ele></trkpt>
      <trkpt lat="46.514918" lon="11.823107"><ele>2868.8</ele></trkpt>
      <trkpt lat="46.514738" lon="11.823178"><ele>2869.3</ele></trkpt>
      <trkpt lat="46.514696" lon="11.823167"><ele>2869</ele></trkpt>
    </trkseg>
  </trk>
</gpx>
