<?xml version="1.0" encoding="UTF-8"?>
<gpx version="1.1" creator="Dolomites 2026" xmlns="http://www.topografix.com/GPX/1/1" xmlns:xsi="http://www.w3.org/2001/XMLSchema-instance" xsi:schemaLocation="http://www.topografix.com/GPX/1/1 http://www.topografix.com/GPX/1/1/gpx.xsd">
  <metadata><name>День 1 · Santa Cristina → Langkofelhütte</name></metadata>
  <wpt lat="46.558173" lon="11.721047"><ele>1395.5</ele><name>Santa Cristina</name></wpt>
  <wpt lat="46.550514" lon="11.718077"><ele>1637.8</ele><name>Monte Pana</name></wpt>
  <wpt lat="46.519898" lon="11.723838"><ele>2257.5</ele><name>Langkofelhütte</name></wpt>
  <trk>
    <name>День 1 · Santa Cristina → Langkofelhütte</name>
    <trkseg>
      <trkpt lat="46.558173" lon="11.721047"><ele>1395.5</ele></trkpt>
      <trkpt lat="46.558088" lon="11.721246"><ele>1394</ele></trkpt>
      <trkpt lat="46.558036" lon="11.721235"><ele>1393</ele></trkpt>
      <trkpt lat="46.55801" lon="11.721457"><ele>1393.8</ele></trkpt>
      <trkpt lat="46.557996" lon="11.721593"><ele>1394</ele></trkpt>
      <trkpt lat="46.557942" lon="11.72211"><ele>1396.8</ele></trkpt>
      <trkpt lat="46.557926" lon="11.722248"><ele>1397.3</ele></trkpt>
      <trkpt lat="46.557904" lon="11.722256"><ele>1397</ele></trkpt>
      <trkpt lat="46.557885" lon="11.722274"><ele>1397</ele></trkpt>
      <trkpt lat="46.557871" lon="11.7223"><ele>1397</ele></trkpt>
      <trkpt lat="46.557863" lon="11.722363"><ele>1397.5</ele></trkpt>
      <trkpt lat="46.557816" lon="11.72239"><ele>1397.3</ele></trkpt>
      <trkpt lat="46.557494" lon="11.722446"><ele>1395.8</ele></trkpt>
      <trkpt lat="46.557398" lon="11.722469"><ele>1395.3</ele></trkpt>
      <trkpt lat="46.557265" lon="11.722515"><ele>1395</ele></trkpt>
      <trkpt lat="46.557127" lon="11.722606"><ele>1393.5</ele></trkpt>
      <trkpt lat="46.556995" lon="11.722728"><ele>1392.3</ele></trkpt>
      <trkpt lat="46.556802" lon="11.722952"><ele>1390.3</ele></trkpt>
      <trkpt lat="46.556727" lon="11.723029"><ele>1389.8</ele></trkpt>
      <trkpt lat="46.556673" lon="11.723069"><ele>1389</ele></trkpt>
      <trkpt lat="46.556617" lon="11.723088"><ele>1389</ele></trkpt>
      <trkpt lat="46.556566" lon="11.723083"><ele>1389</ele></trkpt>
      <trkpt lat="46.556524" lon="11.723065"><ele>1389.3</ele></trkpt>
      <trkpt lat="46.556471" lon="11.723019"><ele>1389.5</ele></trkpt>
      <trkpt lat="46.556425" lon="11.722952"><ele>1389.8</ele></trkpt>
      <trkpt lat="46.556404" lon="11.722894"><ele>1389.8</ele></trkpt>
      <trkpt lat="46.556398" lon="11.722813"><ele>1390.5</ele></trkpt>
      <trkpt lat="46.556411" lon="11.722678"><ele>1391.8</ele></trkpt>
      <trkpt lat="46.556457" lon="11.722492"><ele>1392.5</ele></trkpt>
      <trkpt lat="46.556505" lon="11.721998"><ele>1397</ele></trkpt>
      <trkpt lat="46.556549" lon="11.721794"><ele>1397.8</ele></trkpt>
      <trkpt lat="46.556604" lon="11.72169"><ele>1397</ele></trkpt>
      <trkpt lat="46.556613" lon="11.721515"><ele>1397</ele></trkpt>
      <trkpt lat="46.556453" lon="11.721105"><ele>1404.5</ele></trkpt>
      <trkpt lat="46.556424" lon="11.720927"><ele>1405.3</ele></trkpt>
      <trkpt lat="46.556376" lon="11.720823"><ele>1407.5</ele></trkpt>
      <trkpt lat="46.556284" lon="11.720788"><ele>1412.5</ele></trkpt>
      <trkpt lat="46.556174" lon="11.720556"><ele>1416.3</ele></trkpt>
      <trkpt lat="46.55607" lon="11.72027"><ele>1421.5</ele></trkpt>
      <trkpt lat="46.556022" lon="11.720252"><ele>1424.8</ele></trkpt>
      <trkpt lat="46.555992" lon="11.720294"><ele>1426.8</ele></trkpt>
      <trkpt lat="46.555982" lon="11.720364"><ele>1427.8</ele></trkpt>
      <trkpt lat="46.55598" lon="11.720671"><ele>1430.3</ele></trkpt>
      <trkpt lat="46.555968" lon="11.720903"><ele>1433.5</ele></trkpt>
      <trkpt lat="46.555944" lon="11.721153"><ele>1438</ele></trkpt>
      <trkpt lat="46.555891" lon="11.721574"><ele>1442.3</ele></trkpt>
      <trkpt lat="46.555864" lon="11.721704"><ele>1444.5</ele></trkpt>
      <trkpt lat="46.555783" lon="11.721911"><ele>1450.3</ele></trkpt>
      <trkpt lat="46.555684" lon="11.722093"><ele>1455.5</ele></trkpt>
      <trkpt lat="46.5556" lon="11.72248"><ele>1461</ele></trkpt>
      <trkpt lat="46.555535" lon="11.722657"><ele>1465.8</ele></trkpt>
      <trkpt lat="46.555434" lon="11.722891"><ele>1470.5</ele></trkpt>
      <trkpt lat="46.555368" lon="11.723005"><ele>1473.3</ele></trkpt>
      <trkpt lat="46.555334" lon="11.723034"><ele>1474.8</ele></trkpt>
      <trkpt lat="46.555295" lon="11.723037"><ele>1477.3</ele></trkpt>
      <trkpt lat="46.555257" lon="11.723008"><ele>1479.8</ele></trkpt>
      <trkpt lat="46.555238" lon="11.722913"><ele>1482.3</ele></trkpt>
      <trkpt lat="46.555242" lon="11.722824"><ele>1483.5</ele></trkpt>
      <trkpt lat="46.555262" lon="11.722756"><ele>1483.8</ele></trkpt>
      <trkpt lat="46.555272" lon="11.722691"><ele>1484.3</ele></trkpt>
      <trkpt lat="46.555256" lon="11.722511"><ele>1487.5</ele></trkpt>
      <trkpt lat="46.555163" lon="11.722303"><ele>1490.5</ele></trkpt>
      <trkpt lat="46.555137" lon="11.72223"><ele>1491.5</ele></trkpt>
      <trkpt lat="46.555103" lon="11.722165"><ele>1494</ele></trkpt>
      <trkpt lat="46.555068" lon="11.722081"><ele>1496.8</ele></trkpt>
      <trkpt lat="46.555064" lon="11.721972"><ele>1498.5</ele></trkpt>
      <trkpt lat="46.555085" lon="11.721805"><ele>1500.5</ele></trkpt>
      <trkpt lat="46.555094" lon="11.721547"><ele>1504</ele></trkpt>
      <trkpt lat="46.555084" lon="11.72136"><ele>1507.3</ele></trkpt>
      <trkpt lat="46.555067" lon="11.721215"><ele>1510.3</ele></trkpt>
      <trkpt lat="46.555066" lon="11.721089"><ele>1511.8</ele></trkpt>
      <trkpt lat="46.555045" lon="11.721004"><ele>1513</ele></trkpt>
      <trkpt lat="46.554973" lon="11.720827"><ele>1516.5</ele></trkpt>
      <trkpt lat="46.554834" lon="11.720766"><ele>1519.3</ele></trkpt>
      <trkpt lat="46.554739" lon="11.720744"><ele>1521.3</ele></trkpt>
      <trkpt lat="46.554587" lon="11.720664"><ele>1525.8</ele></trkpt>
      <trkpt lat="46.554574" lon="11.720608"><ele>1526.3</ele></trkpt>
      <trkpt lat="46.554562" lon="11.720504"><ele>1526.5</ele></trkpt>
      <trkpt lat="46.554534" lon="11.72051"><ele>1527.5</ele></trkpt>
      <trkpt lat="46.554504" lon="11.720474"><ele>1528.5</ele></trkpt>
      <trkpt lat="46.554499" lon="11.720383"><ele>1528.5</ele></trkpt>
      <trkpt lat="46.554478" lon="11.72028"><ele>1528.8</ele></trkpt>
      <trkpt lat="46.554465" lon="11.720279"><ele>1529.3</ele></trkpt>
      <trkpt lat="46.554434" lon="11.720317"><ele>1530.3</ele></trkpt>
      <trkpt lat="46.554412" lon="11.720329"><ele>1531</ele></trkpt>
      <trkpt lat="46.554391" lon="11.720313"><ele>1531.8</ele></trkpt>
      <trkpt lat="46.554321" lon="11.720188"><ele>1533.8</ele></trkpt>
      <trkpt lat="46.554167" lon="11.720078"><ele>1538.3</ele></trkpt>
      <trkpt lat="46.554096" lon="11.720058"><ele>1539.8</ele></trkpt>
      <trkpt lat="46.553995" lon="11.720062"><ele>1542</ele></trkpt>
      <trkpt lat="46.553946" lon="11.720096"><ele>1543.3</ele></trkpt>
      <trkpt lat="46.553914" lon="11.720114"><ele>1544</ele></trkpt>
      <trkpt lat="46.553837" lon="11.720112"><ele>1546</ele></trkpt>
      <trkpt lat="46.553692" lon="11.719979"><ele>1548.8</ele></trkpt>
      <trkpt lat="46.553564" lon="11.719835"><ele>1552.3</ele></trkpt>
      <trkpt lat="46.553441" lon="11.719717"><ele>1556.5</ele></trkpt>
      <trkpt lat="46.55333" lon="11.719573"><ele>1560</ele></trkpt>
      <trkpt lat="46.553248" lon="11.719417"><ele>1562.5</ele></trkpt>
      <trkpt lat="46.553151" lon="11.719249"><ele>1565</ele></trkpt>
      <trkpt lat="46.553029" lon="11.719084"><ele>1569</ele></trkpt>
      <trkpt lat="46.552919" lon="11.718885"><ele>1573.3</ele></trkpt>
      <trkpt lat="46.55286" lon="11.718762"><ele>1575.8</ele></trkpt>
      <trkpt lat="46.552774" lon="11.71862"><ele>1579</ele></trkpt>
      <trkpt lat="46.552672" lon="11.718408"><ele>1583.3</ele></trkpt>
      <trkpt lat="46.552644" lon="11.718305"><ele>1584.3</ele></trkpt>
      <trkpt lat="46.552605" lon="11.718213"><ele>1586.3</ele></trkpt>
      <trkpt lat="46.552538" lon="11.717969"><ele>1590</ele></trkpt>
      <trkpt lat="46.552518" lon="11.717831"><ele>1591.8</ele></trkpt>
      <trkpt lat="46.552486" lon="11.71768"><ele>1593.5</ele></trkpt>
      <trkpt lat="46.55243" lon="11.717566"><ele>1596</ele></trkpt>
      <trkpt lat="46.5523" lon="11.717391"><ele>1601.5</ele></trkpt>
      <trkpt lat="46.552234" lon="11.717264"><ele>1603.5</ele></trkpt>
      <trkpt lat="46.552132" lon="11.716867"><ele>1609.5</ele></trkpt>
      <trkpt lat="46.552096" lon="11.716757"><ele>1611.5</ele></trkpt>
      <trkpt lat="46.552064" lon="11.716685"><ele>1613</ele></trkpt>
      <trkpt lat="46.552049" lon="11.71656"><ele>1614.8</ele></trkpt>
      <trkpt lat="46.552022" lon="11.716451"><ele>1617</ele></trkpt>
      <trkpt lat="46.552007" lon="11.71635"><ele>1618.5</ele></trkpt>
      <trkpt lat="46.551996" lon="11.71621"><ele>1620</ele></trkpt>
      <trkpt lat="46.551887" lon="11.715994"><ele>1623.8</ele></trkpt>
      <trkpt lat="46.551794" lon="11.715938"><ele>1625.3</ele></trkpt>
      <trkpt lat="46.551692" lon="11.71592"><ele>1626.8</ele></trkpt>
      <trkpt lat="46.551518" lon="11.71578"><ele>1627.3</ele></trkpt>
      <trkpt lat="46.551443" lon="11.715726"><ele>1627.3</ele></trkpt>
      <trkpt lat="46.551357" lon="11.715674"><ele>1627.3</ele></trkpt>
      <trkpt lat="46.551258" lon="11.715637"><ele>1626.5</ele></trkpt>
      <trkpt lat="46.55116" lon="11.715625"><ele>1626</ele></trkpt>
      <trkpt lat="46.55111" lon="11.715682"><ele>1626.3</ele></trkpt>
      <trkpt lat="46.551032" lon="11.715719"><ele>1626.3</ele></trkpt>
      <trkpt lat="46.55091" lon="11.715683"><ele>1625.5</ele></trkpt>
      <trkpt lat="46.550854" lon="11.715775"><ele>1625.8</ele></trkpt>
      <trkpt lat="46.550788" lon="11.715814"><ele>1626.3</ele></trkpt>
      <trkpt lat="46.550329" lon="11.717247"><ele>1633.5</ele></trkpt>
      <trkpt lat="46.550514" lon="11.718077"><ele>1637.8</ele></trkpt>
      <trkpt lat="46.550329" lon="11.717247"><ele>1633.5</ele></trkpt>
      <trkpt lat="46.550788" lon="11.715814"><ele>1626.3</ele></trkpt>
      <trkpt lat="46.550854" lon="11.715775"><ele>1625.8</ele></trkpt>
      <trkpt lat="46.55091" lon="11.715683"><ele>1625.5</ele></trkpt>
      <trkpt lat="46.550881" lon="11.71554"><ele>1624.8</ele></trkpt>
      <trkpt lat="46.550924" lon="11.71549"><ele>1624.5</ele></trkpt>
      <trkpt lat="46.550858" lon="11.715501"><ele>1624.8</ele></trkpt>
      <trkpt lat="46.550811" lon="11.71548"><ele>1624.8</ele></trkpt>
      <trkpt lat="46.550555" lon="11.715285"><ele>1626</ele></trkpt>
      <trkpt lat="46.550385" lon="11.715136"><ele>1627.5</ele></trkpt>
      <trkpt lat="46.550278" lon="11.715077"><ele>1628.3</ele></trkpt>
      <trkpt lat="46.550181" lon="11.715017"><ele>1629.3</ele></trkpt>
      <trkpt lat="46.550103" lon="11.715002"><ele>1630.5</ele></trkpt>
      <trkpt lat="46.550043" lon="11.714934"><ele>1631.8</ele></trkpt>
      <trkpt lat="46.549878" lon="11.714497"><ele>1636.5</ele></trkpt>
      <trkpt lat="46.549811" lon="11.714385"><ele>1638.5</ele></trkpt>
      <trkpt lat="46.549753" lon="11.714343"><ele>1640.3</ele></trkpt>
      <trkpt lat="46.549653" lon="11.714319"><ele>1641.3</ele></trkpt>
      <trkpt lat="46.54955" lon="11.714361"><ele>1641.8</ele></trkpt>
      <trkpt lat="46.54931" lon="11.714525"><ele>1643.3</ele></trkpt>
      <trkpt lat="46.549181" lon="11.714577"><ele>1644.3</ele></trkpt>
      <trkpt lat="46.549093" lon="11.714577"><ele>1644.8</ele></trkpt>
      <trkpt lat="46.549027" lon="11.714558"><ele>1645</ele></trkpt>
      <trkpt lat="46.548949" lon="11.71451"><ele>1645</ele></trkpt>
      <trkpt lat="46.548619" lon="11.71423"><ele>1650</ele></trkpt>
      <trkpt lat="46.548459" lon="11.714117"><ele>1653.8</ele></trkpt>
      <trkpt lat="46.548241" lon="11.714054"><ele>1657</ele></trkpt>
      <trkpt lat="46.547982" lon="11.713786"><ele>1660.5</ele></trkpt>
      <trkpt lat="46.547824" lon="11.713579"><ele>1662.8</ele></trkpt>
      <trkpt lat="46.547431" lon="11.713093"><ele>1667</ele></trkpt>
      <trkpt lat="46.547344" lon="11.712774"><ele>1669</ele></trkpt>
      <trkpt lat="46.547271" lon="11.712576"><ele>1670.8</ele></trkpt>
      <trkpt lat="46.547191" lon="11.712441"><ele>1672.5</ele></trkpt>
      <trkpt lat="46.546826" lon="11.711959"><ele>1681.8</ele></trkpt>
      <trkpt lat="46.546429" lon="11.71129"><ele>1685.5</ele></trkpt>
      <trkpt lat="46.546029" lon="11.711137"><ele>1689.8</ele></trkpt>
      <trkpt lat="46.54569" lon="11.710685"><ele>1695.3</ele></trkpt>
      <trkpt lat="46.545323" lon="11.710147"><ele>1703</ele></trkpt>
      <trkpt lat="46.545196" lon="11.709979"><ele>1704.3</ele></trkpt>
      <trkpt lat="46.545143" lon="11.709893"><ele>1704.3</ele></trkpt>
      <trkpt lat="46.545073" lon="11.709744"><ele>1705</ele></trkpt>
      <trkpt lat="46.545046" lon="11.709648"><ele>1706.3</ele></trkpt>
      <trkpt lat="46.544937" lon="11.709129"><ele>1713.3</ele></trkpt>
      <trkpt lat="46.544812" lon="11.708949"><ele>1716.8</ele></trkpt>
      <trkpt lat="46.544647" lon="11.708735"><ele>1720.5</ele></trkpt>
      <trkpt lat="46.544485" lon="11.708573"><ele>1723.8</ele></trkpt>
      <trkpt lat="46.543861" lon="11.708296"><ele>1731.3</ele></trkpt>
      <trkpt lat="46.543697" lon="11.708085"><ele>1733</ele></trkpt>
      <trkpt lat="46.542782" lon="11.706458"><ele>1747.8</ele></trkpt>
      <trkpt lat="46.542601" lon="11.705933"><ele>1751.3</ele></trkpt>
      <trkpt lat="46.54238" lon="11.705436"><ele>1753.3</ele></trkpt>
      <trkpt lat="46.542161" lon="11.705053"><ele>1754.8</ele></trkpt>
      <trkpt lat="46.54195" lon="11.704899"><ele>1755.8</ele></trkpt>
      <trkpt lat="46.541824" lon="11.704808"><ele>1755.8</ele></trkpt>
      <trkpt lat="46.541377" lon="11.704764"><ele>1756.5</ele></trkpt>
      <trkpt lat="46.541164" lon="11.704788"><ele>1756.3</ele></trkpt>
      <trkpt lat="46.540948" lon="11.704827"><ele>1756.5</ele></trkpt>
      <trkpt lat="46.540671" lon="11.704987"><ele>1758.5</ele></trkpt>
      <trkpt lat="46.540548" lon="11.705041"><ele>1759</ele></trkpt>
      <trkpt lat="46.540484" lon="11.705015"><ele>1759.5</ele></trkpt>
      <trkpt lat="46.54046" lon="11.704897"><ele>1760.3</ele></trkpt>
      <trkpt lat="46.540481" lon="11.704702"><ele>1760.3</ele></trkpt>
      <trkpt lat="46.540538" lon="11.704426"><ele>1759.5</ele></trkpt>
      <trkpt lat="46.540541" lon="11.704241"><ele>1760</ele></trkpt>
      <trkpt lat="46.540502" lon="11.704066"><ele>1760.3</ele></trkpt>
      <trkpt lat="46.540391" lon="11.703904"><ele>1761.5</ele></trkpt>
      <trkpt lat="46.540268" lon="11.703759"><ele>1763.5</ele></trkpt>
      <trkpt lat="46.539813" lon="11.70328"><ele>1773</ele></trkpt>
      <trkpt lat="46.539724" lon="11.703116"><ele>1774.8</ele></trkpt>
      <trkpt lat="46.539638" lon="11.702765"><ele>1779.5</ele></trkpt>
      <trkpt lat="46.539554" lon="11.702608"><ele>1781.5</ele></trkpt>
      <trkpt lat="46.539457" lon="11.702518"><ele>1782.8</ele></trkpt>
      <trkpt lat="46.539404" lon="11.702485"><ele>1782.8</ele></trkpt>
      <trkpt lat="46.539337" lon="11.702457"><ele>1782.5</ele></trkpt>
      <trkpt lat="46.539272" lon="11.702462"><ele>1782.5</ele></trkpt>
      <trkpt lat="46.539158" lon="11.702493"><ele>1782.5</ele></trkpt>
      <trkpt lat="46.539075" lon="11.702538"><ele>1781.3</ele></trkpt>
      <trkpt lat="46.539009" lon="11.7026"><ele>1780.8</ele></trkpt>
      <trkpt lat="46.538698" lon="11.703162"><ele>1780.8</ele></trkpt>
      <trkpt lat="46.538573" lon="11.703333"><ele>1781.3</ele></trkpt>
      <trkpt lat="46.538238" lon="11.703697"><ele>1784.8</ele></trkpt>
      <trkpt lat="46.538171" lon="11.703701"><ele>1785</ele></trkpt>
      <trkpt lat="46.538112" lon="11.703654"><ele>1784.8</ele></trkpt>
      <trkpt lat="46.53803" lon="11.703541"><ele>1784.5</ele></trkpt>
      <trkpt lat="46.537952" lon="11.703472"><ele>1784</ele></trkpt>
      <trkpt lat="46.537846" lon="11.703463"><ele>1784</ele></trkpt>
      <trkpt lat="46.537725" lon="11.703475"><ele>1783.8</ele></trkpt>
      <trkpt lat="46.537596" lon="11.703541"><ele>1783.5</ele></trkpt>
      <trkpt lat="46.537224" lon="11.703798"><ele>1782.5</ele></trkpt>
      <trkpt lat="46.536856" lon="11.704071"><ele>1781.5</ele></trkpt>
      <trkpt lat="46.536689" lon="11.704119"><ele>1781.5</ele></trkpt>
      <trkpt lat="46.536565" lon="11.704095"><ele>1781.5</ele></trkpt>
      <trkpt lat="46.536452" lon="11.704066"><ele>1781.5</ele></trkpt>
      <trkpt lat="46.53635" lon="11.704058"><ele>1781.3</ele></trkpt>
      <trkpt lat="46.536259" lon="11.704103"><ele>1781.3</ele></trkpt>
      <trkpt lat="46.536088" lon="11.704258"><ele>1781.8</ele></trkpt>
      <trkpt lat="46.535683" lon="11.704503"><ele>1782.8</ele></trkpt>
      <trkpt lat="46.535303" lon="11.7048"><ele>1782.3</ele></trkpt>
      <trkpt lat="46.535295" lon="11.704913"><ele>1782.8</ele></trkpt>
      <trkpt lat="46.535298" lon="11.705024"><ele>1783.5</ele></trkpt>
      <trkpt lat="46.535353" lon="11.705339"><ele>1787.5</ele></trkpt>
      <trkpt lat="46.535354" lon="11.70543"><ele>1788.5</ele></trkpt>
      <trkpt lat="46.535324" lon="11.705653"><ele>1790.3</ele></trkpt>
      <trkpt lat="46.535307" lon="11.705716"><ele>1790.5</ele></trkpt>
      <trkpt lat="46.535278" lon="11.705753"><ele>1790.3</ele></trkpt>
      <trkpt lat="46.535126" lon="11.705864"><ele>1790.8</ele></trkpt>
      <trkpt lat="46.534944" lon="11.706111"><ele>1791.8</ele></trkpt>
      <trkpt lat="46.53462" lon="11.706201"><ele>1791.5</ele></trkpt>
      <trkpt lat="46.534159" lon="11.706415"><ele>1795.3</ele></trkpt>
      <trkpt lat="46.53382" lon="11.706654"><ele>1794.3</ele></trkpt>
      <trkpt lat="46.533629" lon="11.706706"><ele>1794</ele></trkpt>
      <trkpt lat="46.533448" lon="11.706938"><ele>1800.8</ele></trkpt>
      <trkpt lat="46.533126" lon="11.707005"><ele>1803.3</ele></trkpt>
      <trkpt lat="46.532993" lon="11.707208"><ele>1803</ele></trkpt>
      <trkpt lat="46.532738" lon="11.707238"><ele>1799.8</ele></trkpt>
      <trkpt lat="46.532578" lon="11.707418"><ele>1799.3</ele></trkpt>
      <trkpt lat="46.532352" lon="11.707532"><ele>1798.5</ele></trkpt>
      <trkpt lat="46.532221" lon="11.707685"><ele>1798.5</ele></trkpt>
      <trkpt lat="46.531934" lon="11.707766"><ele>1797.8</ele></trkpt>
      <trkpt lat="46.531728" lon="11.708058"><ele>1799.3</ele></trkpt>
      <trkpt lat="46.531391" lon="11.708319"><ele>1801.8</ele></trkpt>
      <trkpt lat="46.531296" lon="11.708351"><ele>1802.3</ele></trkpt>
      <trkpt lat="46.531186" lon="11.708359"><ele>1802.3</ele></trkpt>
      <trkpt lat="46.531118" lon="11.708393"><ele>1802.5</ele></trkpt>
      <trkpt lat="46.530533" lon="11.70893"><ele>1810.5</ele></trkpt>
      <trkpt lat="46.530335" lon="11.709041"><ele>1813</ele></trkpt>
      <trkpt lat="46.530118" lon="11.709092"><ele>1814.5</ele></trkpt>
      <trkpt lat="46.529941" lon="11.709201"><ele>1814.8</ele></trkpt>
      <trkpt lat="46.529798" lon="11.70927"><ele>1814</ele></trkpt>
      <trkpt lat="46.52965" lon="11.709302"><ele>1813.3</ele></trkpt>
      <trkpt lat="46.528974" lon="11.709083"><ele>1818.5</ele></trkpt>
      <trkpt lat="46.528828" lon="11.709094"><ele>1820.5</ele></trkpt>
      <trkpt lat="46.52865" lon="11.709161"><ele>1822.5</ele></trkpt>
      <trkpt lat="46.528573" lon="11.709284"><ele>1824.3</ele></trkpt>
      <trkpt lat="46.528378" lon="11.709753"><ele>1829.8</ele></trkpt>
      <trkpt lat="46.528316" lon="11.709853"><ele>1831</ele></trkpt>
      <trkpt lat="46.528093" lon="11.710102"><ele>1835.3</ele></trkpt>
      <trkpt lat="46.527935" lon="11.710321"><ele>1838</ele></trkpt>
      <trkpt lat="46.527856" lon="11.710466"><ele>1839.8</ele></trkpt>
      <trkpt lat="46.527639" lon="11.710721"><ele>1843.8</ele></trkpt>
      <trkpt lat="46.527449" lon="11.710987"><ele>1847.5</ele></trkpt>
      <trkpt lat="46.527211" lon="11.71136"><ele>1852</ele></trkpt>
      <trkpt lat="46.527003" lon="11.711829"><ele>1858.5</ele></trkpt>
      <trkpt lat="46.526922" lon="11.712086"><ele>1861.3</ele></trkpt>
      <trkpt lat="46.526793" lon="11.712309"><ele>1864.8</ele></trkpt>
      <trkpt lat="46.526597" lon="11.712552"><ele>1869</ele></trkpt>
      <trkpt lat="46.526341" lon="11.712767"><ele>1875.3</ele></trkpt>
      <trkpt lat="46.526241" lon="11.712887"><ele>1877.3</ele></trkpt>
      <trkpt lat="46.526122" lon="11.713162"><ele>1881.8</ele></trkpt>
      <trkpt lat="46.526052" lon="11.713275"><ele>1884.5</ele></trkpt>
      <trkpt lat="46.525993" lon="11.713313"><ele>1885.8</ele></trkpt>
      <trkpt lat="46.525918" lon="11.713315"><ele>1886.8</ele></trkpt>
      <trkpt lat="46.525856" lon="11.71334"><ele>1887.8</ele></trkpt>
      <trkpt lat="46.525824" lon="11.713426"><ele>1889</ele></trkpt>
      <trkpt lat="46.52579" lon="11.713683"><ele>1892</ele></trkpt>
      <trkpt lat="46.525775" lon="11.713905"><ele>1894.8</ele></trkpt>
      <trkpt lat="46.525825" lon="11.71405"><ele>1896.3</ele></trkpt>
      <trkpt lat="46.525901" lon="11.714203"><ele>1899.8</ele></trkpt>
      <trkpt lat="46.525986" lon="11.714278"><ele>1902</ele></trkpt>
      <trkpt lat="46.526004" lon="11.714317"><ele>1902.5</ele></trkpt>
      <trkpt lat="46.526007" lon="11.71439"><ele>1903</ele></trkpt>
      <trkpt lat="46.525953" lon="11.714548"><ele>1903.5</ele></trkpt>
      <trkpt lat="46.525942" lon="11.714609"><ele>1904</ele></trkpt>
      <trkpt lat="46.525966" lon="11.714671"><ele>1905</ele></trkpt>
      <trkpt lat="46.526046" lon="11.714826"><ele>1906.5</ele></trkpt>
      <trkpt lat="46.526064" lon="11.714897"><ele>1907.3</ele></trkpt>
      <trkpt lat="46.526068" lon="11.714975"><ele>1907.8</ele></trkpt>
      <trkpt lat="46.526009" lon="11.715364"><ele>1912.8</ele></trkpt>
      <trkpt lat="46.525987" lon="11.715432"><ele>1913.3</ele></trkpt>
      <trkpt lat="46.525954" lon="11.715475"><ele>1914</ele></trkpt>
      <trkpt lat="46.525726" lon="11.715689"><ele>1919.5</ele></trkpt>
      <trkpt lat="46.525628" lon="11.71569"><ele>1921.5</ele></trkpt>
      <trkpt lat="46.525432" lon="11.715869"><ele>1927</ele></trkpt>
      <trkpt lat="46.525338" lon="11.716001"><ele>1930.3</ele></trkpt>
      <trkpt lat="46.524455" lon="11.716996"><ele>1964.5</ele></trkpt>
      <trkpt lat="46.524276" lon="11.716988"><ele>1970</ele></trkpt>
      <trkpt lat="46.524089" lon="11.716858"><ele>1973</ele></trkpt>
      <trkpt lat="46.523961" lon="11.716882"><ele>1976.3</ele></trkpt>
      <trkpt lat="46.523985" lon="11.717019"><ele>1979.5</ele></trkpt>
      <trkpt lat="46.524184" lon="11.717699"><ele>1993.3</ele></trkpt>
      <trkpt lat="46.524177" lon="11.717734"><ele>1994.5</ele></trkpt>
      <trkpt lat="46.524154" lon="11.717742"><ele>1995</ele></trkpt>
      <trkpt lat="46.523852" lon="11.717675"><ele>2003.3</ele></trkpt>
      <trkpt lat="46.523657" lon="11.717696"><ele>2008.3</ele></trkpt>
      <trkpt lat="46.52355" lon="11.717653"><ele>2009.3</ele></trkpt>
      <trkpt lat="46.523374" lon="11.717691"><ele>2014.3</ele></trkpt>
      <trkpt lat="46.523241" lon="11.717778"><ele>2016.5</ele></trkpt>
      <trkpt lat="46.523109" lon="11.718016"><ele>2025.8</ele></trkpt>
      <trkpt lat="46.522894" lon="11.718226"><ele>2033.5</ele></trkpt>
      <trkpt lat="46.522701" lon="11.718545"><ele>2044.5</ele></trkpt>
      <trkpt lat="46.522535" lon="11.718647"><ele>2048</ele></trkpt>
      <trkpt lat="46.522461" lon="11.718774"><ele>2052.5</ele></trkpt>
      <trkpt lat="46.52233" lon="11.718897"><ele>2057.3</ele></trkpt>
      <trkpt lat="46.522239" lon="11.718943"><ele>2059.3</ele></trkpt>
      <trkpt lat="46.522208" lon="11.719001"><ele>2061.8</ele></trkpt>
      <trkpt lat="46.522248" lon="11.71907"><ele>2063</ele></trkpt>
      <trkpt lat="46.522456" lon="11.71918"><ele>2066.3</ele></trkpt>
      <trkpt lat="46.52302" lon="11.719354"><ele>2080.3</ele></trkpt>
      <trkpt lat="46.523082" lon="11.719391"><ele>2082.3</ele></trkpt>
      <trkpt lat="46.523062" lon="11.719436"><ele>2084.5</ele></trkpt>
      <trkpt lat="46.522993" lon="11.719464"><ele>2084.5</ele></trkpt>
      <trkpt lat="46.522842" lon="11.71965"><ele>2089.8</ele></trkpt>
      <trkpt lat="46.522635" lon="11.719996"><ele>2101.8</ele></trkpt>
      <trkpt lat="46.522473" lon="11.720071"><ele>2103.5</ele></trkpt>
      <trkpt lat="46.522367" lon="11.720132"><ele>2106</ele></trkpt>
      <trkpt lat="46.522273" lon="11.720229"><ele>2110</ele></trkpt>
      <trkpt lat="46.522083" lon="11.720462"><ele>2115.3</ele></trkpt>
      <trkpt lat="46.521977" lon="11.720755"><ele>2123.8</ele></trkpt>
      <trkpt lat="46.521853" lon="11.720952"><ele>2130.8</ele></trkpt>
      <trkpt lat="46.521372" lon="11.721244"><ele>2143</ele></trkpt>
      <trkpt lat="46.521226" lon="11.721147"><ele>2143.8</ele></trkpt>
      <trkpt lat="46.521094" lon="11.721189"><ele>2147.8</ele></trkpt>
      <trkpt lat="46.520904" lon="11.72149"><ele>2155</ele></trkpt>
      <trkpt lat="46.520852" lon="11.721718"><ele>2160</ele></trkpt>
      <trkpt lat="46.520714" lon="11.721994"><ele>2167</ele></trkpt>
      <trkpt lat="46.520657" lon="11.722143"><ele>2170</ele></trkpt>
      <trkpt lat="46.520649" lon="11.722256"><ele>2172.5</ele></trkpt>
      <trkpt lat="46.520669" lon="11.722332"><ele>2174.3</ele></trkpt>
      <trkpt lat="46.520665" lon="11.722422"><ele>2176.5</ele></trkpt>
      <trkpt lat="46.520589" lon="11.722528"><ele>2179.3</ele></trkpt>
      <trkpt lat="46.520699" lon="11.722659"><ele>2181.3</ele></trkpt>
      <trkpt lat="46.520717" lon="11.722813"><ele>2184.8</ele></trkpt>
      <trkpt lat="46.520698" lon="11.722928"><ele>2190.8</ele></trkpt>
      <trkpt lat="46.520657" lon="11.723025"><ele>2197.8</ele></trkpt>
      <trkpt lat="46.520604" lon="11.723093"><ele>2203.5</ele></trkpt>
      <trkpt lat="46.520584" lon="11.723169"><ele>2207</ele></trkpt>
      <trkpt lat="46.520547" lon="11.723176"><ele>2209</ele></trkpt>
      <trkpt lat="46.520508" lon="11.72313"><ele>2208.3</ele></trkpt>
      <trkpt lat="46.520466" lon="11.723154"><ele>2210.3</ele></trkpt>
      <trkpt lat="46.520493" lon="11.72327"><ele>2214</ele></trkpt>
      <trkpt lat="46.520471" lon="11.723307"><ele>2216.5</ele></trkpt>
      <trkpt lat="46.52049" lon="11.723338"><ele>2217</ele></trkpt>
      <trkpt lat="46.520417" lon="11.723368"><ele>2221.3</ele></trkpt>
      <trkpt lat="46.520448" lon="11.723435"><ele>2222.8</ele></trkpt>
      <trkpt lat="46.520428" lon="11.723532"><ele>2227.3</ele></trkpt>
      <trkpt lat="46.520454" lon="11.723594"><ele>2229</ele></trkpt>
      <trkpt lat="46.520435" lon="11.72364"><ele>2231</ele></trkpt>
      <trkpt lat="46.520462" lon="11.723692"><ele>2231.3</ele></trkpt>
      <trkpt lat="46.520415" lon="11.723753"><ele>2234.3</ele></trkpt>
      <trkpt lat="46.52042" lon="11.723818"><ele>2235.5</ele></trkpt>
      <trkpt lat="46.520262" lon="11.723843"><ele>2242.3</ele></trkpt>
      <trkpt lat="46.520281" lon="11.723945"><ele>2243.8</ele></trkpt>
      <trkpt lat="46.520226" lon="11.72399"><ele>2247</ele></trkpt>
      <trkpt lat="46.520221" lon="11.724103"><ele>2249.3</ele></trkpt>
      <trkpt lat="46.520011" lon="11.723906"><ele>2254.8</ele></trkpt>
      <trkpt lat="46.519898" lon="11.723838"><ele>2257.5</ele></trkpt>
    </trkseg>
  </trk>
</gpx>
