<?xml version="1.0" encoding="UTF-8"?>
<gpx version="1.1" creator="Dolomites 2026" xmlns="http://www.topografix.com/GPX/1/1" xmlns:xsi="http://www.w3.org/2001/XMLSchema-instance" xsi:schemaLocation="http://www.topografix.com/GPX/1/1 http://www.topografix.com/GPX/1/1/gpx.xsd">
  <metadata><name>День 2 · Langkofelhütte → Mesules → Boè</name></metadata>
  <wpt lat="46.519898" lon="11.723838"><ele>2257.5</ele><name>Langkofelhütte</name></wpt>
  <wpt lat="46.528691" lon="11.747903"><ele>2154.5</ele><name>Rifugio Comici</name></wpt>
  <wpt lat="46.508647" lon="11.76692"><ele>2242.8</ele><name>Passo Sella</name></wpt>
  <wpt lat="46.51394" lon="11.79007"><ele>2777.6</ele><name>Ferrata Mesules</name></wpt>
  <wpt lat="46.52878" lon="11.80258"><ele>2965.4</ele><name>Altopiano delle Mesules</name></wpt>
  <wpt lat="46.519473" lon="11.823674"><ele>2901.3</ele><name>l'Antersass</name></wpt>
  <wpt lat="46.514696" lon="11.823167"><ele>2869</ele><name>Rifugio Boè</name></wpt>
  <trk>
    <name>День 2 · Langkofelhütte → Mesules → Boè</name>
    <trkseg>
      <trkpt lat="46.519898" lon="11.723838"><ele>2257.5</ele></trkpt>
      <trkpt lat="46.520011" lon="11.723906"><ele>2254.8</ele></trkpt>
      <trkpt lat="46.520221" lon="11.724103"><ele>2249.3</ele></trkpt>
      <trkpt lat="46.520287" lon="11.724265"><ele>2248.5</ele></trkpt>
      <trkpt lat="46.520379" lon="11.724381"><ele>2245.8</ele></trkpt>
      <trkpt lat="46.520464" lon="11.724464"><ele>2244</ele></trkpt>
      <trkpt lat="46.520563" lon="11.724535"><ele>2242.5</ele></trkpt>
      <trkpt lat="46.520647" lon="11.72453"><ele>2243.8</ele></trkpt>
      <trkpt lat="46.520861" lon="11.72431"><ele>2237.8</ele></trkpt>
      <trkpt lat="46.521015" lon="11.724108"><ele>2234.3</ele></trkpt>
      <trkpt lat="46.521258" lon="11.723711"><ele>2228</ele></trkpt>
      <trkpt lat="46.521403" lon="11.723331"><ele>2221.5</ele></trkpt>
      <trkpt lat="46.521449" lon="11.723231"><ele>2219.5</ele></trkpt>
      <trkpt lat="46.521712" lon="11.722836"><ele>2213</ele></trkpt>
      <trkpt lat="46.521721" lon="11.722666"><ele>2207</ele></trkpt>
      <trkpt lat="46.522311" lon="11.721835"><ele>2181.3</ele></trkpt>
      <trkpt lat="46.522702" lon="11.721363"><ele>2169.5</ele></trkpt>
      <trkpt lat="46.522814" lon="11.721323"><ele>2169.3</ele></trkpt>
      <trkpt lat="46.523067" lon="11.721358"><ele>2167.5</ele></trkpt>
      <trkpt lat="46.523193" lon="11.721288"><ele>2166.5</ele></trkpt>
      <trkpt lat="46.52344" lon="11.720938"><ele>2151.8</ele></trkpt>
      <trkpt lat="46.523717" lon="11.720799"><ele>2146.5</ele></trkpt>
      <trkpt lat="46.523636" lon="11.720729"><ele>2143.3</ele></trkpt>
      <trkpt lat="46.523747" lon="11.720667"><ele>2138.5</ele></trkpt>
      <trkpt lat="46.523612" lon="11.720479"><ele>2131</ele></trkpt>
      <trkpt lat="46.523984" lon="11.720415"><ele>2118.3</ele></trkpt>
      <trkpt lat="46.523843" lon="11.720204"><ele>2113.3</ele></trkpt>
      <trkpt lat="46.524422" lon="11.720202"><ele>2088.3</ele></trkpt>
      <trkpt lat="46.524448" lon="11.720329"><ele>2090</ele></trkpt>
      <trkpt lat="46.524455" lon="11.720449"><ele>2093</ele></trkpt>
      <trkpt lat="46.524472" lon="11.720478"><ele>2092.8</ele></trkpt>
      <trkpt lat="46.524519" lon="11.720509"><ele>2090.8</ele></trkpt>
      <trkpt lat="46.524583" lon="11.720619"><ele>2093.5</ele></trkpt>
      <trkpt lat="46.52468" lon="11.720733"><ele>2091.8</ele></trkpt>
      <trkpt lat="46.524832" lon="11.720843"><ele>2090.5</ele></trkpt>
      <trkpt lat="46.525007" lon="11.720891"><ele>2097.5</ele></trkpt>
      <trkpt lat="46.525161" lon="11.720971"><ele>2108.5</ele></trkpt>
      <trkpt lat="46.525469" lon="11.721034"><ele>2095</ele></trkpt>
      <trkpt lat="46.52553" lon="11.721015"><ele>2089.5</ele></trkpt>
      <trkpt lat="46.525586" lon="11.720977"><ele>2087.3</ele></trkpt>
      <trkpt lat="46.52577" lon="11.720799"><ele>2086</ele></trkpt>
      <trkpt lat="46.525882" lon="11.72072"><ele>2087.5</ele></trkpt>
      <trkpt lat="46.525997" lon="11.720583"><ele>2087</ele></trkpt>
      <trkpt lat="46.526053" lon="11.72049"><ele>2086</ele></trkpt>
      <trkpt lat="46.526116" lon="11.720409"><ele>2085.8</ele></trkpt>
      <trkpt lat="46.526196" lon="11.720331"><ele>2084</ele></trkpt>
      <trkpt lat="46.526284" lon="11.720289"><ele>2083.3</ele></trkpt>
      <trkpt lat="46.526394" lon="11.720293"><ele>2084.8</ele></trkpt>
      <trkpt lat="46.526491" lon="11.720224"><ele>2085</ele></trkpt>
      <trkpt lat="46.526526" lon="11.720157"><ele>2083</ele></trkpt>
      <trkpt lat="46.526569" lon="11.720104"><ele>2081.8</ele></trkpt>
      <trkpt lat="46.526704" lon="11.720034"><ele>2082.5</ele></trkpt>
      <trkpt lat="46.526731" lon="11.719989"><ele>2080.8</ele></trkpt>
      <trkpt lat="46.52688" lon="11.719891"><ele>2079</ele></trkpt>
      <trkpt lat="46.527018" lon="11.719859"><ele>2079.8</ele></trkpt>
      <trkpt lat="46.527174" lon="11.719792"><ele>2078.5</ele></trkpt>
      <trkpt lat="46.527368" lon="11.719797"><ele>2077.3</ele></trkpt>
      <trkpt lat="46.527438" lon="11.719863"><ele>2079</ele></trkpt>
      <trkpt lat="46.527614" lon="11.719856"><ele>2075</ele></trkpt>
      <trkpt lat="46.527732" lon="11.719933"><ele>2075.8</ele></trkpt>
      <trkpt lat="46.527893" lon="11.719876"><ele>2069.3</ele></trkpt>
      <trkpt lat="46.528248" lon="11.720091"><ele>2067.3</ele></trkpt>
      <trkpt lat="46.528395" lon="11.720091"><ele>2063.5</ele></trkpt>
      <trkpt lat="46.528701" lon="11.72019"><ele>2060.5</ele></trkpt>
      <trkpt lat="46.528906" lon="11.720389"><ele>2062</ele></trkpt>
      <trkpt lat="46.52907" lon="11.720455"><ele>2063.8</ele></trkpt>
      <trkpt lat="46.529233" lon="11.720381"><ele>2058.3</ele></trkpt>
      <trkpt lat="46.529474" lon="11.720512"><ele>2060.5</ele></trkpt>
      <trkpt lat="46.529678" lon="11.720636"><ele>2061.3</ele></trkpt>
      <trkpt lat="46.529761" lon="11.720738"><ele>2062.3</ele></trkpt>
      <trkpt lat="46.529828" lon="11.721012"><ele>2067.5</ele></trkpt>
      <trkpt lat="46.529918" lon="11.721236"><ele>2069.5</ele></trkpt>
      <trkpt lat="46.530151" lon="11.721546"><ele>2068.8</ele></trkpt>
      <trkpt lat="46.530245" lon="11.72179"><ele>2076</ele></trkpt>
      <trkpt lat="46.530518" lon="11.722143"><ele>2077.5</ele></trkpt>
      <trkpt lat="46.530536" lon="11.722288"><ele>2083.8</ele></trkpt>
      <trkpt lat="46.530658" lon="11.722358"><ele>2083.8</ele></trkpt>
      <trkpt lat="46.53088" lon="11.722557"><ele>2091.5</ele></trkpt>
      <trkpt lat="46.53108" lon="11.722786"><ele>2100.8</ele></trkpt>
      <trkpt lat="46.530919" lon="11.722801"><ele>2107.8</ele></trkpt>
      <trkpt lat="46.531072" lon="11.722901"><ele>2108.3</ele></trkpt>
      <trkpt lat="46.531105" lon="11.722979"><ele>2112</ele></trkpt>
      <trkpt lat="46.531269" lon="11.723107"><ele>2115.5</ele></trkpt>
      <trkpt lat="46.531351" lon="11.723113"><ele>2114.3</ele></trkpt>
      <trkpt lat="46.531379" lon="11.723137"><ele>2114</ele></trkpt>
      <trkpt lat="46.531405" lon="11.723127"><ele>2113.5</ele></trkpt>
      <trkpt lat="46.53145" lon="11.72323"><ele>2114</ele></trkpt>
      <trkpt lat="46.53142" lon="11.723235"><ele>2114.3</ele></trkpt>
      <trkpt lat="46.531374" lon="11.723195"><ele>2114.8</ele></trkpt>
      <trkpt lat="46.531328" lon="11.723184"><ele>2115.8</ele></trkpt>
      <trkpt lat="46.531281" lon="11.723226"><ele>2117.5</ele></trkpt>
      <trkpt lat="46.531012" lon="11.72349"><ele>2123.3</ele></trkpt>
      <trkpt lat="46.530959" lon="11.723574"><ele>2122.3</ele></trkpt>
      <trkpt lat="46.530635" lon="11.723877"><ele>2122.8</ele></trkpt>
      <trkpt lat="46.530532" lon="11.724162"><ele>2126.3</ele></trkpt>
      <trkpt lat="46.530525" lon="11.724221"><ele>2126.3</ele></trkpt>
      <trkpt lat="46.530489" lon="11.724319"><ele>2128</ele></trkpt>
      <trkpt lat="46.53047" lon="11.724557"><ele>2128.8</ele></trkpt>
      <trkpt lat="46.530418" lon="11.724752"><ele>2131.8</ele></trkpt>
      <trkpt lat="46.530404" lon="11.724909"><ele>2132.3</ele></trkpt>
      <trkpt lat="46.530373" lon="11.725008"><ele>2134</ele></trkpt>
      <trkpt lat="46.5304" lon="11.72529"><ele>2132.5</ele></trkpt>
      <trkpt lat="46.5304" lon="11.725428"><ele>2134.3</ele></trkpt>
      <trkpt lat="46.530493" lon="11.725588"><ele>2131</ele></trkpt>
      <trkpt lat="46.53053" lon="11.725782"><ele>2131</ele></trkpt>
      <trkpt lat="46.530588" lon="11.72589"><ele>2128.5</ele></trkpt>
      <trkpt lat="46.530607" lon="11.726035"><ele>2128.8</ele></trkpt>
      <trkpt lat="46.530648" lon="11.726168"><ele>2128</ele></trkpt>
      <trkpt lat="46.530753" lon="11.726348"><ele>2125.8</ele></trkpt>
      <trkpt lat="46.530868" lon="11.726566"><ele>2126.5</ele></trkpt>
      <trkpt lat="46.531096" lon="11.726822"><ele>2124.5</ele></trkpt>
      <trkpt lat="46.531193" lon="11.727168"><ele>2129.5</ele></trkpt>
      <trkpt lat="46.531342" lon="11.727714"><ele>2127.3</ele></trkpt>
      <trkpt lat="46.531337" lon="11.727877"><ele>2128</ele></trkpt>
      <trkpt lat="46.531318" lon="11.727992"><ele>2129</ele></trkpt>
      <trkpt lat="46.531351" lon="11.728159"><ele>2126</ele></trkpt>
      <trkpt lat="46.531331" lon="11.728278"><ele>2126.8</ele></trkpt>
      <trkpt lat="46.531348" lon="11.728359"><ele>2125.3</ele></trkpt>
      <trkpt lat="46.531306" lon="11.728466"><ele>2126</ele></trkpt>
      <trkpt lat="46.53132" lon="11.728575"><ele>2123.5</ele></trkpt>
      <trkpt lat="46.531299" lon="11.72868"><ele>2122.3</ele></trkpt>
      <trkpt lat="46.53124" lon="11.728784"><ele>2122.8</ele></trkpt>
      <trkpt lat="46.531199" lon="11.728903"><ele>2121.8</ele></trkpt>
      <trkpt lat="46.531157" lon="11.729085"><ele>2120</ele></trkpt>
      <trkpt lat="46.531158" lon="11.729312"><ele>2115</ele></trkpt>
      <trkpt lat="46.531056" lon="11.72959"><ele>2112.5</ele></trkpt>
      <trkpt lat="46.530798" lon="11.730127"><ele>2103.5</ele></trkpt>
      <trkpt lat="46.530749" lon="11.73049"><ele>2094.3</ele></trkpt>
      <trkpt lat="46.530723" lon="11.730795"><ele>2090.3</ele></trkpt>
      <trkpt lat="46.530732" lon="11.731124"><ele>2087.8</ele></trkpt>
      <trkpt lat="46.530783" lon="11.731315"><ele>2088</ele></trkpt>
      <trkpt lat="46.530807" lon="11.731608"><ele>2091.8</ele></trkpt>
      <trkpt lat="46.530871" lon="11.731885"><ele>2092.8</ele></trkpt>
      <trkpt lat="46.531001" lon="11.732249"><ele>2093.8</ele></trkpt>
      <trkpt lat="46.531062" lon="11.7324"><ele>2093.3</ele></trkpt>
      <trkpt lat="46.531077" lon="11.732495"><ele>2093.8</ele></trkpt>
      <trkpt lat="46.531054" lon="11.732608"><ele>2095</ele></trkpt>
      <trkpt lat="46.531079" lon="11.732706"><ele>2093.8</ele></trkpt>
      <trkpt lat="46.531082" lon="11.732822"><ele>2093</ele></trkpt>
      <trkpt lat="46.531069" lon="11.73295"><ele>2091.8</ele></trkpt>
      <trkpt lat="46.530998" lon="11.733144"><ele>2091.5</ele></trkpt>
      <trkpt lat="46.530819" lon="11.733452"><ele>2090</ele></trkpt>
      <trkpt lat="46.530644" lon="11.733727"><ele>2085.8</ele></trkpt>
      <trkpt lat="46.53056" lon="11.733821"><ele>2083.8</ele></trkpt>
      <trkpt lat="46.530556" lon="11.734158"><ele>2073</ele></trkpt>
      <trkpt lat="46.530591" lon="11.734349"><ele>2071.5</ele></trkpt>
      <trkpt lat="46.530575" lon="11.734514"><ele>2071.8</ele></trkpt>
      <trkpt lat="46.530509" lon="11.734862"><ele>2086.3</ele></trkpt>
      <trkpt lat="46.530456" lon="11.735537"><ele>2085.5</ele></trkpt>
      <trkpt lat="46.530374" lon="11.735934"><ele>2080</ele></trkpt>
      <trkpt lat="46.530283" lon="11.736463"><ele>2069.5</ele></trkpt>
      <trkpt lat="46.530213" lon="11.736945"><ele>2073.5</ele></trkpt>
      <trkpt lat="46.530089" lon="11.737371"><ele>2085.5</ele></trkpt>
      <trkpt lat="46.530045" lon="11.737771"><ele>2071.8</ele></trkpt>
      <trkpt lat="46.529981" lon="11.738101"><ele>2071.3</ele></trkpt>
      <trkpt lat="46.529956" lon="11.738371"><ele>2073</ele></trkpt>
      <trkpt lat="46.529993" lon="11.738593"><ele>2061.5</ele></trkpt>
      <trkpt lat="46.529912" lon="11.738959"><ele>2064.3</ele></trkpt>
      <trkpt lat="46.529846" lon="11.73941"><ele>2071.8</ele></trkpt>
      <trkpt lat="46.529803" lon="11.739591"><ele>2068.5</ele></trkpt>
      <trkpt lat="46.52974" lon="11.740081"><ele>2065.5</ele></trkpt>
      <trkpt lat="46.529699" lon="11.741093"><ele>2083.8</ele></trkpt>
      <trkpt lat="46.529737" lon="11.741331"><ele>2082.8</ele></trkpt>
      <trkpt lat="46.529672" lon="11.741528"><ele>2089.3</ele></trkpt>
      <trkpt lat="46.529685" lon="11.741609"><ele>2088.5</ele></trkpt>
      <trkpt lat="46.529715" lon="11.741679"><ele>2087.5</ele></trkpt>
      <trkpt lat="46.529669" lon="11.74175"><ele>2090.8</ele></trkpt>
      <trkpt lat="46.529625" lon="11.741793"><ele>2093.5</ele></trkpt>
      <trkpt lat="46.529633" lon="11.741916"><ele>2094.8</ele></trkpt>
      <trkpt lat="46.529625" lon="11.741954"><ele>2095.5</ele></trkpt>
      <trkpt lat="46.52959" lon="11.74198"><ele>2097</ele></trkpt>
      <trkpt lat="46.529552" lon="11.741973"><ele>2098.3</ele></trkpt>
      <trkpt lat="46.529484" lon="11.741919"><ele>2100.3</ele></trkpt>
      <trkpt lat="46.529438" lon="11.741977"><ele>2102.3</ele></trkpt>
      <trkpt lat="46.529409" lon="11.742201"><ele>2104</ele></trkpt>
      <trkpt lat="46.529329" lon="11.74243"><ele>2105.5</ele></trkpt>
      <trkpt lat="46.529221" lon="11.74288"><ele>2107</ele></trkpt>
      <trkpt lat="46.529226" lon="11.743002"><ele>2106.5</ele></trkpt>
      <trkpt lat="46.529174" lon="11.743261"><ele>2108.5</ele></trkpt>
      <trkpt lat="46.529233" lon="11.743582"><ele>2107.5</ele></trkpt>
      <trkpt lat="46.529203" lon="11.743706"><ele>2109.8</ele></trkpt>
      <trkpt lat="46.52912" lon="11.743924"><ele>2119</ele></trkpt>
      <trkpt lat="46.529135" lon="11.744346"><ele>2124.3</ele></trkpt>
      <trkpt lat="46.529202" lon="11.744809"><ele>2124.3</ele></trkpt>
      <trkpt lat="46.529126" lon="11.745242"><ele>2133.3</ele></trkpt>
      <trkpt lat="46.529084" lon="11.745718"><ele>2137.8</ele></trkpt>
      <trkpt lat="46.528979" lon="11.746079"><ele>2144.3</ele></trkpt>
      <trkpt lat="46.528947" lon="11.746344"><ele>2145.8</ele></trkpt>
      <trkpt lat="46.528951" lon="11.746439"><ele>2145.5</ele></trkpt>
      <trkpt lat="46.528894" lon="11.746571"><ele>2147.8</ele></trkpt>
      <trkpt lat="46.528869" lon="11.746765"><ele>2148</ele></trkpt>
      <trkpt lat="46.528864" lon="11.746904"><ele>2147.3</ele></trkpt>
      <trkpt lat="46.52885" lon="11.747014"><ele>2147.8</ele></trkpt>
      <trkpt lat="46.528815" lon="11.747128"><ele>2149.5</ele></trkpt>
      <trkpt lat="46.528796" lon="11.747263"><ele>2150.8</ele></trkpt>
      <trkpt lat="46.528767" lon="11.747409"><ele>2152.3</ele></trkpt>
      <trkpt lat="46.528786" lon="11.747554"><ele>2152.3</ele></trkpt>
      <trkpt lat="46.528786" lon="11.747827"><ele>2153.5</ele></trkpt>
      <trkpt lat="46.528831" lon="11.748042"><ele>2153.8</ele></trkpt>
      <trkpt lat="46.528878" lon="11.748226"><ele>2153.3</ele></trkpt>
      <trkpt lat="46.528778" lon="11.747998"><ele>2153.8</ele></trkpt>
      <trkpt lat="46.528727" lon="11.747922"><ele>2154</ele></trkpt>
      <trkpt lat="46.528691" lon="11.747903"><ele>2154.5</ele></trkpt>
      <trkpt lat="46.528727" lon="11.747922"><ele>2154</ele></trkpt>
      <trkpt lat="46.528778" lon="11.747998"><ele>2153.8</ele></trkpt>
      <trkpt lat="46.528878" lon="11.748226"><ele>2153.3</ele></trkpt>
      <trkpt lat="46.528884" lon="11.748302"><ele>2153</ele></trkpt>
      <trkpt lat="46.528799" lon="11.748594"><ele>2151.3</ele></trkpt>
      <trkpt lat="46.5284" lon="11.748847"><ele>2146.5</ele></trkpt>
      <trkpt lat="46.528263" lon="11.748912"><ele>2145.3</ele></trkpt>
      <trkpt lat="46.528138" lon="11.748996"><ele>2143.5</ele></trkpt>
      <trkpt lat="46.527894" lon="11.749179"><ele>2140.3</ele></trkpt>
      <trkpt lat="46.527735" lon="11.749237"><ele>2139.3</ele></trkpt>
      <trkpt lat="46.52765" lon="11.749256"><ele>2139.3</ele></trkpt>
      <trkpt lat="46.527606" lon="11.749247"><ele>2139.5</ele></trkpt>
      <trkpt lat="46.527394" lon="11.749139"><ele>2141</ele></trkpt>
      <trkpt lat="46.527296" lon="11.74915"><ele>2140.3</ele></trkpt>
      <trkpt lat="46.527177" lon="11.749084"><ele>2140</ele></trkpt>
      <trkpt lat="46.527091" lon="11.749076"><ele>2138.8</ele></trkpt>
      <trkpt lat="46.527022" lon="11.749098"><ele>2137.3</ele></trkpt>
      <trkpt lat="46.526873" lon="11.74907"><ele>2135.8</ele></trkpt>
      <trkpt lat="46.526744" lon="11.749064"><ele>2134.8</ele></trkpt>
      <trkpt lat="46.526626" lon="11.74897"><ele>2134.8</ele></trkpt>
      <trkpt lat="46.526606" lon="11.748911"><ele>2135.3</ele></trkpt>
      <trkpt lat="46.526559" lon="11.748866"><ele>2135.5</ele></trkpt>
      <trkpt lat="46.526504" lon="11.748865"><ele>2135</ele></trkpt>
      <trkpt lat="46.526464" lon="11.748823"><ele>2135.5</ele></trkpt>
      <trkpt lat="46.526395" lon="11.748855"><ele>2134.5</ele></trkpt>
      <trkpt lat="46.526356" lon="11.748832"><ele>2135.3</ele></trkpt>
      <trkpt lat="46.526308" lon="11.748853"><ele>2135.3</ele></trkpt>
      <trkpt lat="46.526205" lon="11.748746"><ele>2137.8</ele></trkpt>
      <trkpt lat="46.526103" lon="11.748737"><ele>2138.5</ele></trkpt>
      <trkpt lat="46.52601" lon="11.748807"><ele>2137.3</ele></trkpt>
      <trkpt lat="46.525955" lon="11.748718"><ele>2138</ele></trkpt>
      <trkpt lat="46.525811" lon="11.748663"><ele>2138.3</ele></trkpt>
      <trkpt lat="46.525741" lon="11.748671"><ele>2138.5</ele></trkpt>
      <trkpt lat="46.525642" lon="11.748725"><ele>2138.3</ele></trkpt>
      <trkpt lat="46.525557" lon="11.748732"><ele>2138.8</ele></trkpt>
      <trkpt lat="46.525484" lon="11.748674"><ele>2139.3</ele></trkpt>
      <trkpt lat="46.525437" lon="11.748678"><ele>2138.8</ele></trkpt>
      <trkpt lat="46.525382" lon="11.748639"><ele>2139</ele></trkpt>
      <trkpt lat="46.525331" lon="11.748637"><ele>2138.8</ele></trkpt>
      <trkpt lat="46.525197" lon="11.748626"><ele>2139.3</ele></trkpt>
      <trkpt lat="46.525053" lon="11.748667"><ele>2139.5</ele></trkpt>
      <trkpt lat="46.524735" lon="11.748647"><ele>2142.3</ele></trkpt>
      <trkpt lat="46.524388" lon="11.748732"><ele>2143.5</ele></trkpt>
      <trkpt lat="46.524274" lon="11.74871"><ele>2144.8</ele></trkpt>
      <trkpt lat="46.524074" lon="11.748733"><ele>2144.8</ele></trkpt>
      <trkpt lat="46.523895" lon="11.748663"><ele>2145</ele></trkpt>
      <trkpt lat="46.52379" lon="11.748828"><ele>2144</ele></trkpt>
      <trkpt lat="46.523622" lon="11.748919"><ele>2146.3</ele></trkpt>
      <trkpt lat="46.523523" lon="11.748939"><ele>2146</ele></trkpt>
      <trkpt lat="46.523392" lon="11.748918"><ele>2145.8</ele></trkpt>
      <trkpt lat="46.523163" lon="11.749006"><ele>2147.5</ele></trkpt>
      <trkpt lat="46.523056" lon="11.749093"><ele>2148.5</ele></trkpt>
      <trkpt lat="46.522988" lon="11.749116"><ele>2148.3</ele></trkpt>
      <trkpt lat="46.522808" lon="11.749118"><ele>2148.5</ele></trkpt>
      <trkpt lat="46.52264" lon="11.74928"><ele>2148.3</ele></trkpt>
      <trkpt lat="46.522585" lon="11.749393"><ele>2147.8</ele></trkpt>
      <trkpt lat="46.522525" lon="11.74944"><ele>2148.5</ele></trkpt>
      <trkpt lat="46.522482" lon="11.749486"><ele>2148.8</ele></trkpt>
      <trkpt lat="46.522256" lon="11.749498"><ele>2151.8</ele></trkpt>
      <trkpt lat="46.522229" lon="11.749527"><ele>2152</ele></trkpt>
      <trkpt lat="46.52217" lon="11.749697"><ele>2153.3</ele></trkpt>
      <trkpt lat="46.522135" lon="11.749707"><ele>2153.5</ele></trkpt>
      <trkpt lat="46.522084" lon="11.749644"><ele>2154.5</ele></trkpt>
      <trkpt lat="46.52188" lon="11.74956"><ele>2159</ele></trkpt>
      <trkpt lat="46.521634" lon="11.74963"><ele>2160.5</ele></trkpt>
      <trkpt lat="46.521553" lon="11.749684"><ele>2161.3</ele></trkpt>
      <trkpt lat="46.521243" lon="11.749747"><ele>2167</ele></trkpt>
      <trkpt lat="46.521095" lon="11.749798"><ele>2170</ele></trkpt>
      <trkpt lat="46.520733" lon="11.749992"><ele>2178.5</ele></trkpt>
      <trkpt lat="46.520567" lon="11.750062"><ele>2182.3</ele></trkpt>
      <trkpt lat="46.520388" lon="11.750206"><ele>2186</ele></trkpt>
      <trkpt lat="46.520032" lon="11.750381"><ele>2191.3</ele></trkpt>
      <trkpt lat="46.519897" lon="11.750456"><ele>2193</ele></trkpt>
      <trkpt lat="46.519569" lon="11.750575"><ele>2196.8</ele></trkpt>
      <trkpt lat="46.519431" lon="11.750635"><ele>2198</ele></trkpt>
      <trkpt lat="46.519272" lon="11.750704"><ele>2199.8</ele></trkpt>
      <trkpt lat="46.519241" lon="11.750707"><ele>2200.3</ele></trkpt>
      <trkpt lat="46.51913" lon="11.750719"><ele>2202.3</ele></trkpt>
      <trkpt lat="46.519003" lon="11.750773"><ele>2203.8</ele></trkpt>
      <trkpt lat="46.518896" lon="11.750835"><ele>2204.8</ele></trkpt>
      <trkpt lat="46.518779" lon="11.750988"><ele>2209</ele></trkpt>
      <trkpt lat="46.518705" lon="11.751165"><ele>2212.5</ele></trkpt>
      <trkpt lat="46.518649" lon="11.751344"><ele>2215.8</ele></trkpt>
      <trkpt lat="46.518546" lon="11.751636"><ele>2223.8</ele></trkpt>
      <trkpt lat="46.518527" lon="11.751669"><ele>2224.8</ele></trkpt>
      <trkpt lat="46.51846" lon="11.751789"><ele>2227.5</ele></trkpt>
      <trkpt lat="46.518343" lon="11.751899"><ele>2230.3</ele></trkpt>
      <trkpt lat="46.518225" lon="11.75195"><ele>2232.5</ele></trkpt>
      <trkpt lat="46.518029" lon="11.752019"><ele>2235.5</ele></trkpt>
      <trkpt lat="46.517685" lon="11.752193"><ele>2238.8</ele></trkpt>
      <trkpt lat="46.517623" lon="11.752208"><ele>2239.3</ele></trkpt>
      <trkpt lat="46.517563" lon="11.752195"><ele>2240.5</ele></trkpt>
      <trkpt lat="46.517351" lon="11.752098"><ele>2244.8</ele></trkpt>
      <trkpt lat="46.517108" lon="11.752041"><ele>2248.3</ele></trkpt>
      <trkpt lat="46.516959" lon="11.752133"><ele>2246.3</ele></trkpt>
      <trkpt lat="46.516756" lon="11.75231"><ele>2246</ele></trkpt>
      <trkpt lat="46.516329" lon="11.75255"><ele>2243.5</ele></trkpt>
      <trkpt lat="46.51614" lon="11.752716"><ele>2241.5</ele></trkpt>
      <trkpt lat="46.516024" lon="11.752791"><ele>2241</ele></trkpt>
      <trkpt lat="46.515756" lon="11.752905"><ele>2239.8</ele></trkpt>
      <trkpt lat="46.515562" lon="11.753018"><ele>2237</ele></trkpt>
      <trkpt lat="46.515462" lon="11.753039"><ele>2235.5</ele></trkpt>
      <trkpt lat="46.515346" lon="11.753018"><ele>2234.8</ele></trkpt>
      <trkpt lat="46.515019" lon="11.752902"><ele>2231.3</ele></trkpt>
      <trkpt lat="46.514848" lon="11.752821"><ele>2230.5</ele></trkpt>
      <trkpt lat="46.51472" lon="11.752795"><ele>2229.5</ele></trkpt>
      <trkpt lat="46.514213" lon="11.752802"><ele>2229.5</ele></trkpt>
      <trkpt lat="46.514024" lon="11.752751"><ele>2229.8</ele></trkpt>
      <trkpt lat="46.513879" lon="11.752637"><ele>2228.8</ele></trkpt>
      <trkpt lat="46.513777" lon="11.752591"><ele>2226.8</ele></trkpt>
      <trkpt lat="46.513661" lon="11.752584"><ele>2224.5</ele></trkpt>
      <trkpt lat="46.513511" lon="11.752621"><ele>2222.8</ele></trkpt>
      <trkpt lat="46.513345" lon="11.752602"><ele>2223</ele></trkpt>
      <trkpt lat="46.512879" lon="11.752517"><ele>2220.8</ele></trkpt>
      <trkpt lat="46.512782" lon="11.752467"><ele>2220.5</ele></trkpt>
      <trkpt lat="46.512651" lon="11.752312"><ele>2218.5</ele></trkpt>
      <trkpt lat="46.512427" lon="11.751937"><ele>2219</ele></trkpt>
      <trkpt lat="46.512334" lon="11.751816"><ele>2218</ele></trkpt>
      <trkpt lat="46.512301" lon="11.751785"><ele>2217.5</ele></trkpt>
      <trkpt lat="46.512133" lon="11.751623"><ele>2216.5</ele></trkpt>
      <trkpt lat="46.512005" lon="11.751516"><ele>2216.5</ele></trkpt>
      <trkpt lat="46.511987" lon="11.7515"><ele>2216.3</ele></trkpt>
      <trkpt lat="46.511746" lon="11.751297"><ele>2216.5</ele></trkpt>
      <trkpt lat="46.511662" lon="11.751298"><ele>2216.5</ele></trkpt>
      <trkpt lat="46.511557" lon="11.751339"><ele>2216.3</ele></trkpt>
      <trkpt lat="46.511444" lon="11.751435"><ele>2214.5</ele></trkpt>
      <trkpt lat="46.510854" lon="11.752059"><ele>2213</ele></trkpt>
      <trkpt lat="46.510768" lon="11.752205"><ele>2211.3</ele></trkpt>
      <trkpt lat="46.510708" lon="11.752353"><ele>2209.8</ele></trkpt>
      <trkpt lat="46.510658" lon="11.752409"><ele>2209</ele></trkpt>
      <trkpt lat="46.510514" lon="11.752511"><ele>2206.8</ele></trkpt>
      <trkpt lat="46.510442" lon="11.75261"><ele>2205.8</ele></trkpt>
      <trkpt lat="46.51036" lon="11.752744"><ele>2204</ele></trkpt>
      <trkpt lat="46.510099" lon="11.753109"><ele>2201.3</ele></trkpt>
      <trkpt lat="46.510048" lon="11.753204"><ele>2200.8</ele></trkpt>
      <trkpt lat="46.509932" lon="11.753439"><ele>2199</ele></trkpt>
      <trkpt lat="46.509866" lon="11.753511"><ele>2198.3</ele></trkpt>
      <trkpt lat="46.509768" lon="11.753579"><ele>2196.8</ele></trkpt>
      <trkpt lat="46.50966" lon="11.753624"><ele>2196</ele></trkpt>
      <trkpt lat="46.509581" lon="11.753702"><ele>2195.5</ele></trkpt>
      <trkpt lat="46.509517" lon="11.753806"><ele>2194.8</ele></trkpt>
      <trkpt lat="46.509401" lon="11.754091"><ele>2194</ele></trkpt>
      <trkpt lat="46.509249" lon="11.75459"><ele>2188.5</ele></trkpt>
      <trkpt lat="46.509186" lon="11.754606"><ele>2188.3</ele></trkpt>
      <trkpt lat="46.508711" lon="11.754917"><ele>2194.3</ele></trkpt>
      <trkpt lat="46.508573" lon="11.755033"><ele>2197.3</ele></trkpt>
      <trkpt lat="46.508486" lon="11.755162"><ele>2198.3</ele></trkpt>
      <trkpt lat="46.508346" lon="11.755266"><ele>2200.5</ele></trkpt>
      <trkpt lat="46.508291" lon="11.755335"><ele>2201.5</ele></trkpt>
      <trkpt lat="46.508183" lon="11.755476"><ele>2203.5</ele></trkpt>
      <trkpt lat="46.508163" lon="11.755596"><ele>2203.8</ele></trkpt>
      <trkpt lat="46.508112" lon="11.755703"><ele>2204.3</ele></trkpt>
      <trkpt lat="46.507932" lon="11.755906"><ele>2206.5</ele></trkpt>
      <trkpt lat="46.50772" lon="11.756053"><ele>2207.5</ele></trkpt>
      <trkpt lat="46.507585" lon="11.756257"><ele>2206.8</ele></trkpt>
      <trkpt lat="46.507539" lon="11.756296"><ele>2207.3</ele></trkpt>
      <trkpt lat="46.50721" lon="11.756716"><ele>2208.8</ele></trkpt>
      <trkpt lat="46.50691" lon="11.757051"><ele>2212.5</ele></trkpt>
      <trkpt lat="46.506763" lon="11.757046"><ele>2214</ele></trkpt>
      <trkpt lat="46.506613" lon="11.756968"><ele>2215.5</ele></trkpt>
      <trkpt lat="46.5066" lon="11.757073"><ele>2214.8</ele></trkpt>
      <trkpt lat="46.506605" lon="11.757195"><ele>2213.8</ele></trkpt>
      <trkpt lat="46.506627" lon="11.75747"><ele>2216.3</ele></trkpt>
      <trkpt lat="46.506675" lon="11.757886"><ele>2222.3</ele></trkpt>
      <trkpt lat="46.506687" lon="11.758124"><ele>2227</ele></trkpt>
      <trkpt lat="46.506694" lon="11.7587"><ele>2238</ele></trkpt>
      <trkpt lat="46.506664" lon="11.758826"><ele>2242</ele></trkpt>
      <trkpt lat="46.506546" lon="11.759182"><ele>2251</ele></trkpt>
      <trkpt lat="46.506526" lon="11.759348"><ele>2254.3</ele></trkpt>
      <trkpt lat="46.50653" lon="11.759559"><ele>2256.8</ele></trkpt>
      <trkpt lat="46.506555" lon="11.759708"><ele>2257.5</ele></trkpt>
      <trkpt lat="46.506636" lon="11.759964"><ele>2256.3</ele></trkpt>
      <trkpt lat="46.506641" lon="11.760139"><ele>2255.3</ele></trkpt>
      <trkpt lat="46.506651" lon="11.760195"><ele>2254.8</ele></trkpt>
      <trkpt lat="46.506795" lon="11.760496"><ele>2253.8</ele></trkpt>
      <trkpt lat="46.506822" lon="11.760624"><ele>2253.8</ele></trkpt>
      <trkpt lat="46.50682" lon="11.760834"><ele>2254.5</ele></trkpt>
      <trkpt lat="46.5068" lon="11.760919"><ele>2254.3</ele></trkpt>
      <trkpt lat="46.506737" lon="11.76106"><ele>2255</ele></trkpt>
      <trkpt lat="46.506695" lon="11.761338"><ele>2253.5</ele></trkpt>
      <trkpt lat="46.506708" lon="11.761424"><ele>2252.5</ele></trkpt>
      <trkpt lat="46.50671" lon="11.761512"><ele>2252.5</ele></trkpt>
      <trkpt lat="46.506687" lon="11.761581"><ele>2252.8</ele></trkpt>
      <trkpt lat="46.506668" lon="11.761808"><ele>2253.3</ele></trkpt>
      <trkpt lat="46.506671" lon="11.761912"><ele>2253.8</ele></trkpt>
      <trkpt lat="46.506667" lon="11.761953"><ele>2253.8</ele></trkpt>
      <trkpt lat="46.506943" lon="11.762144"><ele>2256.5</ele></trkpt>
      <trkpt lat="46.507028" lon="11.762268"><ele>2259.3</ele></trkpt>
      <trkpt lat="46.507118" lon="11.76237"><ele>2262.3</ele></trkpt>
      <trkpt lat="46.507223" lon="11.762421"><ele>2267.5</ele></trkpt>
      <trkpt lat="46.507276" lon="11.762404"><ele>2267.8</ele></trkpt>
      <trkpt lat="46.507298" lon="11.76242"><ele>2268.3</ele></trkpt>
      <trkpt lat="46.507334" lon="11.762476"><ele>2270</ele></trkpt>
      <trkpt lat="46.507349" lon="11.762561"><ele>2270</ele></trkpt>
      <trkpt lat="46.507351" lon="11.762722"><ele>2268.3</ele></trkpt>
      <trkpt lat="46.507442" lon="11.763095"><ele>2263</ele></trkpt>
      <trkpt lat="46.50779" lon="11.763918"><ele>2249.8</ele></trkpt>
      <trkpt lat="46.507845" lon="11.764154"><ele>2242</ele></trkpt>
      <trkpt lat="46.507883" lon="11.764465"><ele>2232</ele></trkpt>
      <trkpt lat="46.507888" lon="11.764886"><ele>2231</ele></trkpt>
      <trkpt lat="46.507932" lon="11.765069"><ele>2230.3</ele></trkpt>
      <trkpt lat="46.507966" lon="11.765128"><ele>2229.8</ele></trkpt>
      <trkpt lat="46.508016" lon="11.765256"><ele>2230</ele></trkpt>
      <trkpt lat="46.5081" lon="11.7653"><ele>2229.8</ele></trkpt>
      <trkpt lat="46.508189" lon="11.765314"><ele>2229.5</ele></trkpt>
      <trkpt lat="46.508233" lon="11.76533"><ele>2229.5</ele></trkpt>
      <trkpt lat="46.508374" lon="11.765548"><ele>2230.5</ele></trkpt>
      <trkpt lat="46.508478" lon="11.76573"><ele>2229.8</ele></trkpt>
      <trkpt lat="46.508523" lon="11.765851"><ele>2231.8</ele></trkpt>
      <trkpt lat="46.508556" lon="11.766018"><ele>2235</ele></trkpt>
      <trkpt lat="46.50856" lon="11.766109"><ele>2236</ele></trkpt>
      <trkpt lat="46.508537" lon="11.766506"><ele>2237.8</ele></trkpt>
      <trkpt lat="46.50854" lon="11.766633"><ele>2239.5</ele></trkpt>
      <trkpt lat="46.50859" lon="11.766707"><ele>2241.8</ele></trkpt>
      <trkpt lat="46.508647" lon="11.76692"><ele>2242.8</ele></trkpt>
      <trkpt lat="46.508796" lon="11.767011"><ele>2242.3</ele></trkpt>
      <trkpt lat="46.508946" lon="11.767225"><ele>2245.3</ele></trkpt>
      <trkpt lat="46.509086" lon="11.767364"><ele>2245.5</ele></trkpt>
      <trkpt lat="46.509129" lon="11.767449"><ele>2247.8</ele></trkpt>
      <trkpt lat="46.50957" lon="11.76783"><ele>2253.5</ele></trkpt>
      <trkpt lat="46.50955" lon="11.76848"><ele>2258</ele></trkpt>
      <trkpt lat="46.50958" lon="11.76906"><ele>2262.5</ele></trkpt>
      <trkpt lat="46.50978" lon="11.76957"><ele>2267.2</ele></trkpt>
      <trkpt lat="46.50992" lon="11.77014"><ele>2268.8</ele></trkpt>
      <trkpt lat="46.51031" lon="11.77117"><ele>2272.6</ele></trkpt>
      <trkpt lat="46.51054" lon="11.77173"><ele>2264.4</ele></trkpt>
      <trkpt lat="46.51083" lon="11.77225"><ele>2258.2</ele></trkpt>
      <trkpt lat="46.51076" lon="11.77261"><ele>2258</ele></trkpt>
      <trkpt lat="46.51084" lon="11.77333"><ele>2261.7</ele></trkpt>
      <trkpt lat="46.51118" lon="11.77426"><ele>2266.3</ele></trkpt>
      <trkpt lat="46.51146" lon="11.77459"><ele>2265.2</ele></trkpt>
      <trkpt lat="46.51168" lon="11.77477"><ele>2263.5</ele></trkpt>
      <trkpt lat="46.5123" lon="11.77584"><ele>2266.2</ele></trkpt>
      <trkpt lat="46.51263" lon="11.77616"><ele>2272.3</ele></trkpt>
      <trkpt lat="46.51307" lon="11.77619"><ele>2271.6</ele></trkpt>
      <trkpt lat="46.51343" lon="11.77642"><ele>2273.3</ele></trkpt>
      <trkpt lat="46.51405" lon="11.77734"><ele>2271</ele></trkpt>
      <trkpt lat="46.51493" lon="11.77882"><ele>2273</ele></trkpt>
      <trkpt lat="46.51532" lon="11.77908"><ele>2261.6</ele></trkpt>
      <trkpt lat="46.51555" lon="11.77938"><ele>2268.3</ele></trkpt>
      <trkpt lat="46.51555" lon="11.77992"><ele>2292.4</ele></trkpt>
      <trkpt lat="46.51545" lon="11.78041"><ele>2428.4</ele></trkpt>
      <trkpt lat="46.51526" lon="11.78101"><ele>2499.3</ele></trkpt>
      <trkpt lat="46.51498" lon="11.78138"><ele>2519.9</ele></trkpt>
      <trkpt lat="46.51465" lon="11.78153"><ele>2546.4</ele></trkpt>
      <trkpt lat="46.51415" lon="11.78157"><ele>2601.1</ele></trkpt>
      <trkpt lat="46.51386" lon="11.78168"><ele>2620.4</ele></trkpt>
      <trkpt lat="46.51369" lon="11.78181"><ele>2631.8</ele></trkpt>
      <trkpt lat="46.51341" lon="11.78112"><ele>2665.6</ele></trkpt>
      <trkpt lat="46.51325" lon="11.78189"><ele>2661.2</ele></trkpt>
      <trkpt lat="46.51321" lon="11.78254"><ele>2669.1</ele></trkpt>
      <trkpt lat="46.51335" lon="11.78337"><ele>2677.1</ele></trkpt>
      <trkpt lat="46.51362" lon="11.78421"><ele>2680.3</ele></trkpt>
      <trkpt lat="46.51396" lon="11.78558"><ele>2690</ele></trkpt>
      <trkpt lat="46.51436" lon="11.78696"><ele>2707</ele></trkpt>
      <trkpt lat="46.51433" lon="11.78794"><ele>2739.1</ele></trkpt>
      <trkpt lat="46.51393" lon="11.78917"><ele>2728.9</ele></trkpt>
      <trkpt lat="46.51394" lon="11.79007"><ele>2777.6</ele></trkpt>
      <trkpt lat="46.51424" lon="11.79118"><ele>2919.3</ele></trkpt>
      <trkpt lat="46.51515" lon="11.79118"><ele>2934.8</ele></trkpt>
      <trkpt lat="46.51626" lon="11.79151"><ele>2915.6</ele></trkpt>
      <trkpt lat="46.51663" lon="11.7919"><ele>2908</ele></trkpt>
      <trkpt lat="46.51761" lon="11.79253"><ele>2899.4</ele></trkpt>
      <trkpt lat="46.51808" lon="11.79274"><ele>2897.9</ele></trkpt>
      <trkpt lat="46.51855" lon="11.79309"><ele>2898.6</ele></trkpt>
      <trkpt lat="46.51937" lon="11.79391"><ele>2898.3</ele></trkpt>
      <trkpt lat="46.52025" lon="11.79339"><ele>2936.1</ele></trkpt>
      <trkpt lat="46.52119" lon="11.79327"><ele>2952.4</ele></trkpt>
      <trkpt lat="46.52119" lon="11.79322"><ele>2951.6</ele></trkpt>
      <trkpt lat="46.52119" lon="11.79396"><ele>2946.6</ele></trkpt>
      <trkpt lat="46.5214" lon="11.79441"><ele>2945</ele></trkpt>
      <trkpt lat="46.52164" lon="11.79465"><ele>2941.6</ele></trkpt>
      <trkpt lat="46.52181" lon="11.79461"><ele>2942.5</ele></trkpt>
      <trkpt lat="46.52211" lon="11.79486"><ele>2934.1</ele></trkpt>
      <trkpt lat="46.52277" lon="11.79561"><ele>2939</ele></trkpt>
      <trkpt lat="46.52307" lon="11.79604"><ele>2940</ele></trkpt>
      <trkpt lat="46.52323" lon="11.79652"><ele>2930.4</ele></trkpt>
      <trkpt lat="46.52406" lon="11.79739"><ele>2935.6</ele></trkpt>
      <trkpt lat="46.52444" lon="11.7982"><ele>2931.5</ele></trkpt>
      <trkpt lat="46.52494" lon="11.79867"><ele>2944.8</ele></trkpt>
      <trkpt lat="46.525" lon="11.79957"><ele>2938.6</ele></trkpt>
      <trkpt lat="46.52592" lon="11.80013"><ele>2951.6</ele></trkpt>
      <trkpt lat="46.52683" lon="11.80039"><ele>2959.5</ele></trkpt>
      <trkpt lat="46.52752" lon="11.80097"><ele>2953.1</ele></trkpt>
      <trkpt lat="46.5279" lon="11.80151"><ele>2961.4</ele></trkpt>
      <trkpt lat="46.52878" lon="11.80258"><ele>2965.4</ele></trkpt>
      <trkpt lat="46.52928" lon="11.80305"><ele>2955.6</ele></trkpt>
      <trkpt lat="46.52965" lon="11.80369"><ele>2961.3</ele></trkpt>
      <trkpt lat="46.52939" lon="11.80443"><ele>2953</ele></trkpt>
      <trkpt lat="46.52906" lon="11.80517"><ele>2941.7</ele></trkpt>
      <trkpt lat="46.52896" lon="11.80618"><ele>2922.1</ele></trkpt>
      <trkpt lat="46.52821" lon="11.80721"><ele>2908</ele></trkpt>
      <trkpt lat="46.52765" lon="11.80755"><ele>2908.4</ele></trkpt>
      <trkpt lat="46.52759" lon="11.80787"><ele>2916.9</ele></trkpt>
      <trkpt lat="46.52824" lon="11.81027"><ele>2904.9</ele></trkpt>
      <trkpt lat="46.52818" lon="11.81105"><ele>2896.7</ele></trkpt>
      <trkpt lat="46.52804" lon="11.81144"><ele>2901.9</ele></trkpt>
      <trkpt lat="46.52804" lon="11.81218"><ele>2905.7</ele></trkpt>
      <trkpt lat="46.528" lon="11.81228"><ele>2905.2</ele></trkpt>
      <trkpt lat="46.52803" lon="11.81239"><ele>2906.2</ele></trkpt>
      <trkpt lat="46.52808" lon="11.81259"><ele>2906.4</ele></trkpt>
      <trkpt lat="46.52798" lon="11.81324"><ele>2903.8</ele></trkpt>
      <trkpt lat="46.52765" lon="11.81393"><ele>2904.6</ele></trkpt>
      <trkpt lat="46.52686" lon="11.81487"><ele>2903.7</ele></trkpt>
      <trkpt lat="46.52655" lon="11.81566"><ele>2897.8</ele></trkpt>
      <trkpt lat="46.52636" lon="11.816"><ele>2894.4</ele></trkpt>
      <trkpt lat="46.52624" lon="11.81648"><ele>2903.7</ele></trkpt>
      <trkpt lat="46.52565" lon="11.81756"><ele>2904.7</ele></trkpt>
      <trkpt lat="46.52524" lon="11.81781"><ele>2903.4</ele></trkpt>
      <trkpt lat="46.52474" lon="11.81871"><ele>2910.5</ele></trkpt>
      <trkpt lat="46.52447" lon="11.81904"><ele>2901.3</ele></trkpt>
      <trkpt lat="46.52422" lon="11.81919"><ele>2889.7</ele></trkpt>
      <trkpt lat="46.52397" lon="11.81925"><ele>2877.1</ele></trkpt>
      <trkpt lat="46.52397" lon="11.81953"><ele>2870.6</ele></trkpt>
      <trkpt lat="46.5239" lon="11.81983"><ele>2865.5</ele></trkpt>
      <trkpt lat="46.52372" lon="11.82011"><ele>2862.1</ele></trkpt>
      <trkpt lat="46.52344" lon="11.82034"><ele>2859.3</ele></trkpt>
      <trkpt lat="46.5232" lon="11.82062"><ele>2859.6</ele></trkpt>
      <trkpt lat="46.5231" lon="11.82067"><ele>2857.9</ele></trkpt>
      <trkpt lat="46.52279" lon="11.8206"><ele>2844.2</ele></trkpt>
      <trkpt lat="46.52236" lon="11.8211"><ele>2835.2</ele></trkpt>
      <trkpt lat="46.52201" lon="11.82122"><ele>2838.5</ele></trkpt>
      <trkpt lat="46.52177" lon="11.82133"><ele>2839.1</ele></trkpt>
      <trkpt lat="46.5214" lon="11.82129"><ele>2835.9</ele></trkpt>
      <trkpt lat="46.52144" lon="11.82131"><ele>2836.4</ele></trkpt>
      <trkpt lat="46.521396" lon="11.821333"><ele>2836.5</ele></trkpt>
      <trkpt lat="46.521425" lon="11.821441"><ele>2837</ele></trkpt>
      <trkpt lat="46.521473" lon="11.821525"><ele>2836.8</ele></trkpt>
      <trkpt lat="46.52147" lon="11.821619"><ele>2836.5</ele></trkpt>
      <trkpt lat="46.521496" lon="11.821753"><ele>2836.3</ele></trkpt>
      <trkpt lat="46.521493" lon="11.821788"><ele>2836</ele></trkpt>
      <trkpt lat="46.521459" lon="11.821785"><ele>2836</ele></trkpt>
      <trkpt lat="46.521402" lon="11.821822"><ele>2836</ele></trkpt>
      <trkpt lat="46.521332" lon="11.821985"><ele>2835</ele></trkpt>
      <trkpt lat="46.521274" lon="11.822186"><ele>2833.8</ele></trkpt>
      <trkpt lat="46.521169" lon="11.822404"><ele>2832.3</ele></trkpt>
      <trkpt lat="46.521149" lon="11.822468"><ele>2832.5</ele></trkpt>
      <trkpt lat="46.521032" lon="11.822647"><ele>2833.8</ele></trkpt>
      <trkpt lat="46.521035" lon="11.822726"><ele>2834.3</ele></trkpt>
      <trkpt lat="46.521025" lon="11.822803"><ele>2833.8</ele></trkpt>
      <trkpt lat="46.520999" lon="11.822861"><ele>2832.5</ele></trkpt>
      <trkpt lat="46.52095" lon="11.822904"><ele>2832.5</ele></trkpt>
      <trkpt lat="46.520928" lon="11.822967"><ele>2832</ele></trkpt>
      <trkpt lat="46.520925" lon="11.823001"><ele>2831.5</ele></trkpt>
      <trkpt lat="46.520902" lon="11.823022"><ele>2832</ele></trkpt>
      <trkpt lat="46.520853" lon="11.823022"><ele>2834.3</ele></trkpt>
      <trkpt lat="46.520782" lon="11.823037"><ele>2837.5</ele></trkpt>
      <trkpt lat="46.520692" lon="11.823033"><ele>2841.8</ele></trkpt>
      <trkpt lat="46.520649" lon="11.82299"><ele>2843.5</ele></trkpt>
      <trkpt lat="46.520593" lon="11.822948"><ele>2845.3</ele></trkpt>
      <trkpt lat="46.520588" lon="11.822997"><ele>2846.3</ele></trkpt>
      <trkpt lat="46.520551" lon="11.823019"><ele>2848.3</ele></trkpt>
      <trkpt lat="46.520515" lon="11.822975"><ele>2848.8</ele></trkpt>
      <trkpt lat="46.520461" lon="11.82298"><ele>2850.5</ele></trkpt>
      <trkpt lat="46.520459" lon="11.823016"><ele>2851.3</ele></trkpt>
      <trkpt lat="46.5205" lon="11.823081"><ele>2851.3</ele></trkpt>
      <trkpt lat="46.520421" lon="11.823111"><ele>2854.5</ele></trkpt>
      <trkpt lat="46.52029" lon="11.823091"><ele>2858.3</ele></trkpt>
      <trkpt lat="46.520172" lon="11.823106"><ele>2863.5</ele></trkpt>
      <trkpt lat="46.520171" lon="11.823137"><ele>2864.3</ele></trkpt>
      <trkpt lat="46.520198" lon="11.823175"><ele>2864</ele></trkpt>
      <trkpt lat="46.520194" lon="11.823229"><ele>2865.3</ele></trkpt>
      <trkpt lat="46.52016" lon="11.823227"><ele>2866.5</ele></trkpt>
      <trkpt lat="46.52015" lon="11.823276"><ele>2867.8</ele></trkpt>
      <trkpt lat="46.519985" lon="11.823128"><ele>2871.5</ele></trkpt>
      <trkpt lat="46.519956" lon="11.823152"><ele>2873</ele></trkpt>
      <trkpt lat="46.519885" lon="11.82314"><ele>2876</ele></trkpt>
      <trkpt lat="46.519865" lon="11.823103"><ele>2876</ele></trkpt>
      <trkpt lat="46.519822" lon="11.82318"><ele>2879.3</ele></trkpt>
      <trkpt lat="46.519796" lon="11.82317"><ele>2880.3</ele></trkpt>
      <trkpt lat="46.519772" lon="11.823207"><ele>2882</ele></trkpt>
      <trkpt lat="46.519729" lon="11.823212"><ele>2884</ele></trkpt>
      <trkpt lat="46.519734" lon="11.823325"><ele>2886.3</ele></trkpt>
      <trkpt lat="46.519689" lon="11.823343"><ele>2888.8</ele></trkpt>
      <trkpt lat="46.5197" lon="11.823385"><ele>2888.5</ele></trkpt>
      <trkpt lat="46.51966" lon="11.823361"><ele>2890.3</ele></trkpt>
      <trkpt lat="46.519614" lon="11.823279"><ele>2891</ele></trkpt>
      <trkpt lat="46.519527" lon="11.823194"><ele>2892.8</ele></trkpt>
      <trkpt lat="46.519506" lon="11.823199"><ele>2893.8</ele></trkpt>
      <trkpt lat="46.51953" lon="11.823326"><ele>2896.3</ele></trkpt>
      <trkpt lat="46.51956" lon="11.823369"><ele>2895.5</ele></trkpt>
      <trkpt lat="46.519568" lon="11.823401"><ele>2895.5</ele></trkpt>
      <trkpt lat="46.519575" lon="11.823489"><ele>2896.3</ele></trkpt>
      <trkpt lat="46.519548" lon="11.823489"><ele>2897.8</ele></trkpt>
      <trkpt lat="46.519505" lon="11.823422"><ele>2899.3</ele></trkpt>
      <trkpt lat="46.519512" lon="11.823596"><ele>2901.5</ele></trkpt>
      <trkpt lat="46.51951" lon="11.82366"><ele>2899.3</ele></trkpt>
      <trkpt lat="46.519473" lon="11.823674"><ele>2901.3</ele></trkpt>
      <trkpt lat="46.519421" lon="11.823572"><ele>2905</ele></trkpt>
      <trkpt lat="46.519374" lon="11.823548"><ele>2904.5</ele></trkpt>
      <trkpt lat="46.519237" lon="11.823616"><ele>2904.3</ele></trkpt>
      <trkpt lat="46.519158" lon="11.823566"><ele>2903.3</ele></trkpt>
      <trkpt lat="46.519092" lon="11.823618"><ele>2902.3</ele></trkpt>
      <trkpt lat="46.518998" lon="11.823635"><ele>2900.3</ele></trkpt>
      <trkpt lat="46.51891" lon="11.823696"><ele>2898.3</ele></trkpt>
      <trkpt lat="46.518879" lon="11.823743"><ele>2897.5</ele></trkpt>
      <trkpt lat="46.518835" lon="11.823751"><ele>2896.5</ele></trkpt>
      <trkpt lat="46.51881" lon="11.823808"><ele>2895.8</ele></trkpt>
      <trkpt lat="46.518776" lon="11.823825"><ele>2894.8</ele></trkpt>
      <trkpt lat="46.518723" lon="11.823902"><ele>2893</ele></trkpt>
      <trkpt lat="46.518684" lon="11.823921"><ele>2892</ele></trkpt>
      <trkpt lat="46.518624" lon="11.823894"><ele>2890.3</ele></trkpt>
      <trkpt lat="46.518567" lon="11.823852"><ele>2888.5</ele></trkpt>
      <trkpt lat="46.51849" lon="11.823721"><ele>2886</ele></trkpt>
      <trkpt lat="46.51845" lon="11.823836"><ele>2884.3</ele></trkpt>
      <trkpt lat="46.518431" lon="11.824002"><ele>2882.8</ele></trkpt>
      <trkpt lat="46.518399" lon="11.824134"><ele>2881</ele></trkpt>
      <trkpt lat="46.518376" lon="11.824191"><ele>2879.5</ele></trkpt>
      <trkpt lat="46.518358" lon="11.82419"><ele>2878.8</ele></trkpt>
      <trkpt lat="46.518335" lon="11.824226"><ele>2877.8</ele></trkpt>
      <trkpt lat="46.518307" lon="11.824231"><ele>2877</ele></trkpt>
      <trkpt lat="46.51823" lon="11.82414"><ele>2875.5</ele></trkpt>
      <trkpt lat="46.518197" lon="11.824151"><ele>2874.5</ele></trkpt>
      <trkpt lat="46.518169" lon="11.824211"><ele>2873.8</ele></trkpt>
      <trkpt lat="46.518123" lon="11.824245"><ele>2872.5</ele></trkpt>
      <trkpt lat="46.518099" lon="11.824282"><ele>2872</ele></trkpt>
      <trkpt lat="46.518063" lon="11.824292"><ele>2871</ele></trkpt>
      <trkpt lat="46.518029" lon="11.824254"><ele>2870.3</ele></trkpt>
      <trkpt lat="46.517959" lon="11.824278"><ele>2868.5</ele></trkpt>
      <trkpt lat="46.517927" lon="11.824229"><ele>2867.8</ele></trkpt>
      <trkpt lat="46.517893" lon="11.824203"><ele>2866.8</ele></trkpt>
      <trkpt lat="46.517854" lon="11.824201"><ele>2865.8</ele></trkpt>
      <trkpt lat="46.517812" lon="11.824162"><ele>2864.8</ele></trkpt>
      <trkpt lat="46.51777" lon="11.824168"><ele>2863.8</ele></trkpt>
      <trkpt lat="46.517725" lon="11.824219"><ele>2863.3</ele></trkpt>
      <trkpt lat="46.51769" lon="11.824248"><ele>2862.8</ele></trkpt>
      <trkpt lat="46.517638" lon="11.82427"><ele>2862.3</ele></trkpt>
      <trkpt lat="46.51754" lon="11.824364"><ele>2860.8</ele></trkpt>
      <trkpt lat="46.517455" lon="11.824371"><ele>2859.5</ele></trkpt>
      <trkpt lat="46.517361" lon="11.824309"><ele>2858.3</ele></trkpt>
      <trkpt lat="46.517229" lon="11.824276"><ele>2856.3</ele></trkpt>
      <trkpt lat="46.517128" lon="11.824218"><ele>2855</ele></trkpt>
      <trkpt lat="46.516997" lon="11.824199"><ele>2853.8</ele></trkpt>
      <trkpt lat="46.516938" lon="11.824205"><ele>2853.3</ele></trkpt>
      <trkpt lat="46.516837" lon="11.824262"><ele>2853.3</ele></trkpt>
      <trkpt lat="46.516724" lon="11.824288"><ele>2853</ele></trkpt>
      <trkpt lat="46.516634" lon="11.824331"><ele>2853</ele></trkpt>
      <trkpt lat="46.516595" lon="11.824303"><ele>2853.5</ele></trkpt>
      <trkpt lat="46.516504" lon="11.824188"><ele>2854</ele></trkpt>
      <trkpt lat="46.516427" lon="11.824025"><ele>2855.3</ele></trkpt>
      <trkpt lat="46.516418" lon="11.823889"><ele>2856.3</ele></trkpt>
      <trkpt lat="46.516344" lon="11.823629"><ele>2860.3</ele></trkpt>
      <trkpt lat="46.516313" lon="11.823585"><ele>2860.3</ele></trkpt>
      <trkpt lat="46.516286" lon="11.823525"><ele>2858</ele></trkpt>
      <trkpt lat="46.516251" lon="11.823482"><ele>2856.8</ele></trkpt>
      <trkpt lat="46.516177" lon="11.823467"><ele>2858</ele></trkpt>
      <trkpt lat="46.516033" lon="11.823513"><ele>2865.5</ele></trkpt>
      <trkpt lat="46.515938" lon="11.823588"><ele>2869.8</ele></trkpt>
      <trkpt lat="46.515834" lon="11.823697"><ele>2870.5</ele></trkpt>
      <trkpt lat="46.51577" lon="11.823731"><ele>2870.3</ele></trkpt>
      <trkpt lat="46.515735" lon="11.823729"><ele>2870.3</ele></trkpt>
      <trkpt lat="46.515676" lon="11.8237"><ele>2870.3</ele></trkpt>
      <trkpt lat="46.515598" lon="11.823645"><ele>2870.5</ele></trkpt>
      <trkpt lat="46.515538" lon="11.823608"><ele>2870.8</ele></trkpt>
      <trkpt lat="46.515483" lon="11.82359"><ele>2870.5</ele></trkpt>
      <trkpt lat="46.515437" lon="11.823537"><ele>2871.3</ele></trkpt>
      <trkpt lat="46.515367" lon="11.823506"><ele>2870.5</ele></trkpt>
      <trkpt lat="46.515203" lon="11.823322"><ele>2870.5</ele></trkpt>
      <trkpt lat="46.515156" lon="11.823293"><ele>2870.5</ele></trkpt>
      <trkpt lat="46.515" lon="11.823131"><ele>2868.8</ele></trkpt>
      <trkpt lat="46.514964" lon="11.823107"><ele>2868.8</ele></trkpt>
      <trkpt lat="46.514918" lon="11.823107"><ele>2868.8</ele></trkpt>
      <trkpt lat="46.514738" lon="11.823178"><ele>2869.3</ele></trkpt>
      <trkpt lat="46.514696" lon="11.823167"><ele>2869</ele></trkpt>
    </trkseg>
  </trk>
</gpx>
