{
  "type": "FeatureCollection",
  "features": [
    {
      "type": "Feature",
      "properties": {
        "kind": "route",
        "name": "День 2 · Velo → Porton → Pradidali → Rosetta",
        "distance_km": 7.907,
        "ascent_m": 969,
        "source": "BRouter / OpenStreetMap"
      },
      "geometry": {
        "type": "LineString",
        "coordinates": [
          [
            11.842782,
            46.231335,
            2329
          ],
          [
            11.84279,
            46.23139,
            2329.75
          ],
          [
            11.84289,
            46.231459,
            2327.25
          ],
          [
            11.842923,
            46.23157,
            2324.25
          ],
          [
            11.842993,
            46.231626,
            2323.25
          ],
          [
            11.843016,
            46.231658,
            2322.75
          ],
          [
            11.842957,
            46.23171,
            2321
          ],
          [
            11.842919,
            46.23176,
            2319
          ],
          [
            11.842907,
            46.23181,
            2317.25
          ],
          [
            11.842987,
            46.231888,
            2316.25
          ],
          [
            11.843006,
            46.231954,
            2314.75
          ],
          [
            11.843027,
            46.23198,
            2314.25
          ],
          [
            11.843038,
            46.23202,
            2313.25
          ],
          [
            11.842998,
            46.232051,
            2311.25
          ],
          [
            11.842971,
            46.232129,
            2307.5
          ],
          [
            11.843028,
            46.232235,
            2306.25
          ],
          [
            11.843034,
            46.232334,
            2304
          ],
          [
            11.842995,
            46.232407,
            2300
          ],
          [
            11.842996,
            46.232438,
            2299.25
          ],
          [
            11.84298,
            46.2325,
            2296.5
          ],
          [
            11.843011,
            46.232533,
            2300.5
          ],
          [
            11.842979,
            46.232605,
            2302
          ],
          [
            11.842971,
            46.232673,
            2304.5
          ],
          [
            11.842943,
            46.232703,
            2302.5
          ],
          [
            11.842906,
            46.232708,
            2297.75
          ],
          [
            11.842905,
            46.232733,
            2298.5
          ],
          [
            11.842862,
            46.232762,
            2292.75
          ],
          [
            11.842878,
            46.232814,
            2294.25
          ],
          [
            11.842917,
            46.232844,
            2298.5
          ],
          [
            11.842935,
            46.232904,
            2298.25
          ],
          [
            11.842943,
            46.233001,
            2294.25
          ],
          [
            11.842923,
            46.233048,
            2290.25
          ],
          [
            11.842953,
            46.233154,
            2290.75
          ],
          [
            11.842947,
            46.233175,
            2290
          ],
          [
            11.842996,
            46.233227,
            2292
          ],
          [
            11.843031,
            46.233246,
            2293.5
          ],
          [
            11.843054,
            46.233311,
            2292.5
          ],
          [
            11.843212,
            46.233434,
            2293
          ],
          [
            11.843311,
            46.233463,
            2295.5
          ],
          [
            11.843446,
            46.233572,
            2301.25
          ],
          [
            11.843508,
            46.233675,
            2301
          ],
          [
            11.84348,
            46.233776,
            2296.25
          ],
          [
            11.843528,
            46.233878,
            2297.75
          ],
          [
            11.843558,
            46.233893,
            2298.25
          ],
          [
            11.843573,
            46.233868,
            2301.75
          ],
          [
            11.843568,
            46.233846,
            2301.75
          ],
          [
            11.843553,
            46.233827,
            2301
          ],
          [
            11.843572,
            46.233796,
            2303
          ],
          [
            11.843619,
            46.233836,
            2305.5
          ],
          [
            11.843657,
            46.233849,
            2303.5
          ],
          [
            11.84368,
            46.233845,
            2303
          ],
          [
            11.843702,
            46.233825,
            2303.75
          ],
          [
            11.843718,
            46.233831,
            2303
          ],
          [
            11.84373,
            46.233803,
            2305.5
          ],
          [
            11.843754,
            46.233799,
            2306
          ],
          [
            11.843773,
            46.233759,
            2311.75
          ],
          [
            11.843828,
            46.233782,
            2309.25
          ],
          [
            11.843861,
            46.233769,
            2312.25
          ],
          [
            11.843865,
            46.233739,
            2318.75
          ],
          [
            11.843839,
            46.233724,
            2320.5
          ],
          [
            11.843836,
            46.233701,
            2324.75
          ],
          [
            11.843867,
            46.233692,
            2329
          ],
          [
            11.843896,
            46.233664,
            2337.5
          ],
          [
            11.843943,
            46.233633,
            2344.5
          ],
          [
            11.843979,
            46.233619,
            2346.75
          ],
          [
            11.844049,
            46.233639,
            2343
          ],
          [
            11.844168,
            46.233654,
            2341.75
          ],
          [
            11.844285,
            46.23373,
            2338.75
          ],
          [
            11.844314,
            46.233773,
            2336.25
          ],
          [
            11.844338,
            46.233778,
            2336.5
          ],
          [
            11.84436,
            46.233888,
            2328.75
          ],
          [
            11.844382,
            46.233911,
            2325.25
          ],
          [
            11.844421,
            46.233918,
            2324.75
          ],
          [
            11.84453,
            46.233905,
            2327
          ],
          [
            11.844544,
            46.233897,
            2328.5
          ],
          [
            11.844525,
            46.233882,
            2331
          ],
          [
            11.844588,
            46.233879,
            2331
          ],
          [
            11.844678,
            46.233877,
            2330.75
          ],
          [
            11.844772,
            46.233891,
            2331.75
          ],
          [
            11.84483,
            46.23389,
            2335.75
          ],
          [
            11.844905,
            46.233932,
            2337.75
          ],
          [
            11.844957,
            46.233938,
            2342.5
          ],
          [
            11.844992,
            46.233959,
            2345.75
          ],
          [
            11.844969,
            46.233966,
            2343
          ],
          [
            11.844957,
            46.233979,
            2341.25
          ],
          [
            11.844976,
            46.233995,
            2343.25
          ],
          [
            11.845011,
            46.233998,
            2348
          ],
          [
            11.845051,
            46.234021,
            2353
          ],
          [
            11.845091,
            46.234017,
            2358.25
          ],
          [
            11.845188,
            46.234034,
            2371
          ],
          [
            11.845302,
            46.234025,
            2384.25
          ],
          [
            11.845369,
            46.234007,
            2388
          ],
          [
            11.845418,
            46.234012,
            2390.5
          ],
          [
            11.845438,
            46.233993,
            2392
          ],
          [
            11.845444,
            46.23397,
            2393
          ],
          [
            11.845472,
            46.233961,
            2394.75
          ],
          [
            11.845505,
            46.233965,
            2396.75
          ],
          [
            11.845568,
            46.234036,
            2397.75
          ],
          [
            11.845551,
            46.2341,
            2394.25
          ],
          [
            11.84556,
            46.23412,
            2394
          ],
          [
            11.84558,
            46.234136,
            2394.25
          ],
          [
            11.84557,
            46.234154,
            2393
          ],
          [
            11.84557,
            46.234178,
            2391.5
          ],
          [
            11.845596,
            46.234203,
            2390.75
          ],
          [
            11.845678,
            46.234232,
            2392
          ],
          [
            11.845742,
            46.234238,
            2394.5
          ],
          [
            11.84578,
            46.23425,
            2395.25
          ],
          [
            11.84592,
            46.234315,
            2395.25
          ],
          [
            11.846006,
            46.234379,
            2393.5
          ],
          [
            11.846115,
            46.234537,
            2389.75
          ],
          [
            11.846104,
            46.23458,
            2387.5
          ],
          [
            11.846124,
            46.234615,
            2387.25
          ],
          [
            11.846164,
            46.234632,
            2388.5
          ],
          [
            11.846208,
            46.234632,
            2390.25
          ],
          [
            11.846235,
            46.234646,
            2390.75
          ],
          [
            11.846251,
            46.234679,
            2390
          ],
          [
            11.846296,
            46.234699,
            2390.75
          ],
          [
            11.846318,
            46.234725,
            2390.25
          ],
          [
            11.84636,
            46.234735,
            2391.25
          ],
          [
            11.846412,
            46.234783,
            2391
          ],
          [
            11.846439,
            46.234823,
            2390.25
          ],
          [
            11.846473,
            46.234838,
            2391
          ],
          [
            11.846524,
            46.234894,
            2390.25
          ],
          [
            11.846509,
            46.23493,
            2388.25
          ],
          [
            11.846525,
            46.234959,
            2387.5
          ],
          [
            11.84655,
            46.234976,
            2387.75
          ],
          [
            11.846547,
            46.234992,
            2387
          ],
          [
            11.846589,
            46.235018,
            2387
          ],
          [
            11.846658,
            46.235032,
            2388.5
          ],
          [
            11.846726,
            46.235056,
            2388.25
          ],
          [
            11.846772,
            46.23509,
            2386.75
          ],
          [
            11.846826,
            46.235114,
            2386.25
          ],
          [
            11.84687,
            46.235144,
            2385.25
          ],
          [
            11.846918,
            46.235149,
            2385.75
          ],
          [
            11.84695,
            46.235159,
            2385.75
          ],
          [
            11.846999,
            46.23526,
            2381.25
          ],
          [
            11.847028,
            46.235292,
            2380.5
          ],
          [
            11.847027,
            46.23534,
            2379.25
          ],
          [
            11.846971,
            46.235444,
            2375.25
          ],
          [
            11.846979,
            46.235486,
            2374.25
          ],
          [
            11.846974,
            46.235516,
            2373.5
          ],
          [
            11.846883,
            46.235639,
            2374
          ],
          [
            11.846846,
            46.235669,
            2374.25
          ],
          [
            11.846782,
            46.235684,
            2373
          ],
          [
            11.846659,
            46.235756,
            2372
          ],
          [
            11.846657,
            46.235997,
            2380.25
          ],
          [
            11.846629,
            46.23602,
            2379.75
          ],
          [
            11.846605,
            46.236077,
            2380.5
          ],
          [
            11.84653,
            46.236215,
            2377.75
          ],
          [
            11.846494,
            46.236317,
            2376.25
          ],
          [
            11.846499,
            46.236374,
            2376.5
          ],
          [
            11.846628,
            46.236533,
            2375
          ],
          [
            11.846672,
            46.236563,
            2375.75
          ],
          [
            11.846696,
            46.236591,
            2375.25
          ],
          [
            11.846681,
            46.236655,
            2372.75
          ],
          [
            11.846686,
            46.23668,
            2371.5
          ],
          [
            11.84672,
            46.236711,
            2370.5
          ],
          [
            11.846751,
            46.236719,
            2370.75
          ],
          [
            11.846789,
            46.236741,
            2370.5
          ],
          [
            11.846828,
            46.236794,
            2368.25
          ],
          [
            11.84682,
            46.236816,
            2366.75
          ],
          [
            11.846885,
            46.236846,
            2367
          ],
          [
            11.846979,
            46.236937,
            2363.75
          ],
          [
            11.847022,
            46.236963,
            2362.5
          ],
          [
            11.847212,
            46.23702,
            2361.25
          ],
          [
            11.847262,
            46.237043,
            2361
          ],
          [
            11.847286,
            46.237075,
            2359.25
          ],
          [
            11.847314,
            46.237083,
            2359.5
          ],
          [
            11.847332,
            46.237059,
            2361.75
          ],
          [
            11.847362,
            46.237055,
            2363
          ],
          [
            11.847446,
            46.237066,
            2364.5
          ],
          [
            11.847477,
            46.23711,
            2362.25
          ],
          [
            11.847531,
            46.237155,
            2360.75
          ],
          [
            11.84759,
            46.237221,
            2358.25
          ],
          [
            11.847717,
            46.237283,
            2359.5
          ],
          [
            11.847725,
            46.237316,
            2358
          ],
          [
            11.847751,
            46.237348,
            2357.25
          ],
          [
            11.84782,
            46.237369,
            2359.25
          ],
          [
            11.847875,
            46.237432,
            2358.75
          ],
          [
            11.84793,
            46.237562,
            2357.25
          ],
          [
            11.84795,
            46.237741,
            2356
          ],
          [
            11.847942,
            46.237798,
            2355.25
          ],
          [
            11.847937,
            46.237917,
            2357
          ],
          [
            11.847895,
            46.237966,
            2355.5
          ],
          [
            11.847877,
            46.238039,
            2356
          ],
          [
            11.847875,
            46.238212,
            2357.25
          ],
          [
            11.847897,
            46.238342,
            2359.25
          ],
          [
            11.847904,
            46.23845,
            2357.25
          ],
          [
            11.847938,
            46.238588,
            2355.75
          ],
          [
            11.847868,
            46.238752,
            2356.25
          ],
          [
            11.84785,
            46.238763,
            2355.25
          ],
          [
            11.847825,
            46.238766,
            2353.5
          ],
          [
            11.8478,
            46.238778,
            2351.75
          ],
          [
            11.847683,
            46.238869,
            2349.5
          ],
          [
            11.847615,
            46.23898,
            2356.25
          ],
          [
            11.847363,
            46.239142,
            2364.75
          ],
          [
            11.847244,
            46.239233,
            2371
          ],
          [
            11.847184,
            46.239319,
            2377
          ],
          [
            11.847161,
            46.23937,
            2380.75
          ],
          [
            11.847192,
            46.239455,
            2387.5
          ],
          [
            11.847178,
            46.23949,
            2390.5
          ],
          [
            11.847148,
            46.239531,
            2394
          ],
          [
            11.847108,
            46.239543,
            2395
          ],
          [
            11.847069,
            46.239547,
            2395.5
          ],
          [
            11.846959,
            46.239527,
            2393.5
          ],
          [
            11.846947,
            46.239558,
            2397
          ],
          [
            11.846814,
            46.23954,
            2393
          ],
          [
            11.846692,
            46.239546,
            2392
          ],
          [
            11.846672,
            46.239565,
            2393.5
          ],
          [
            11.846686,
            46.239602,
            2396.75
          ],
          [
            11.846732,
            46.239614,
            2399
          ],
          [
            11.846791,
            46.239651,
            2403.75
          ],
          [
            11.846777,
            46.239673,
            2405.75
          ],
          [
            11.846726,
            46.239696,
            2406.25
          ],
          [
            11.846676,
            46.239752,
            2408.5
          ],
          [
            11.846607,
            46.239821,
            2417
          ],
          [
            11.846663,
            46.239837,
            2416
          ],
          [
            11.846704,
            46.239849,
            2416
          ],
          [
            11.846609,
            46.239859,
            2420
          ],
          [
            11.846653,
            46.239891,
            2415.25
          ],
          [
            11.846718,
            46.23993,
            2423.5
          ],
          [
            11.846715,
            46.239986,
            2426.75
          ],
          [
            11.846699,
            46.240009,
            2423.5
          ],
          [
            11.846663,
            46.24001,
            2417.5
          ],
          [
            11.846646,
            46.240027,
            2421
          ],
          [
            11.84664,
            46.240064,
            2420.5
          ],
          [
            11.846704,
            46.240075,
            2419
          ],
          [
            11.846739,
            46.240111,
            2419.5
          ],
          [
            11.846881,
            46.240145,
            2423
          ],
          [
            11.846994,
            46.240127,
            2429.5
          ],
          [
            11.847084,
            46.2401,
            2431.75
          ],
          [
            11.847154,
            46.240097,
            2427
          ],
          [
            11.847198,
            46.240112,
            2419
          ],
          [
            11.847171,
            46.240147,
            2410
          ],
          [
            11.847201,
            46.240155,
            2405.5
          ],
          [
            11.847245,
            46.24024,
            2377.25
          ],
          [
            11.84723,
            46.240298,
            2368
          ],
          [
            11.84728,
            46.240281,
            2364.25
          ],
          [
            11.847343,
            46.240274,
            2362
          ],
          [
            11.847399,
            46.240278,
            2358
          ],
          [
            11.847434,
            46.2403,
            2356.5
          ],
          [
            11.847496,
            46.240301,
            2353
          ],
          [
            11.8476,
            46.240342,
            2346.75
          ],
          [
            11.847716,
            46.240336,
            2340.25
          ],
          [
            11.847922,
            46.240415,
            2325.75
          ],
          [
            11.847956,
            46.240461,
            2321.75
          ],
          [
            11.847946,
            46.240494,
            2321
          ],
          [
            11.847973,
            46.240522,
            2318.25
          ],
          [
            11.847968,
            46.240547,
            2317.5
          ],
          [
            11.848129,
            46.240617,
            2347.5
          ],
          [
            11.848178,
            46.240624,
            2346.25
          ],
          [
            11.84826,
            46.24065,
            2350.5
          ],
          [
            11.848398,
            46.240734,
            2367.5
          ],
          [
            11.84855,
            46.240766,
            2350.5
          ],
          [
            11.848747,
            46.240786,
            2333.25
          ],
          [
            11.848841,
            46.240772,
            2323.5
          ],
          [
            11.848963,
            46.240742,
            2329
          ],
          [
            11.849058,
            46.240732,
            2341.75
          ],
          [
            11.849289,
            46.24074,
            2346.5
          ],
          [
            11.849407,
            46.240789,
            2353.25
          ],
          [
            11.849517,
            46.240798,
            2342.75
          ],
          [
            11.84964,
            46.24078,
            2321.75
          ],
          [
            11.849711,
            46.24075,
            2302.25
          ],
          [
            11.849792,
            46.240739,
            2286
          ],
          [
            11.849851,
            46.240751,
            2281
          ],
          [
            11.849859,
            46.240813,
            2302
          ],
          [
            11.849885,
            46.240853,
            2305.75
          ],
          [
            11.849946,
            46.240862,
            2295
          ],
          [
            11.849969,
            46.240899,
            2292.5
          ],
          [
            11.850024,
            46.240916,
            2284.75
          ],
          [
            11.850072,
            46.241004,
            2282.5
          ],
          [
            11.850097,
            46.241053,
            2281
          ],
          [
            11.85008,
            46.241156,
            2285.5
          ],
          [
            11.850115,
            46.241241,
            2281.75
          ],
          [
            11.850191,
            46.241364,
            2271.5
          ],
          [
            11.850236,
            46.241468,
            2262.5
          ],
          [
            11.850202,
            46.241512,
            2266.75
          ],
          [
            11.850227,
            46.24156,
            2261.75
          ],
          [
            11.850213,
            46.241585,
            2263.25
          ],
          [
            11.850174,
            46.241591,
            2268.75
          ],
          [
            11.850175,
            46.241624,
            2267.75
          ],
          [
            11.850208,
            46.241699,
            2258.5
          ],
          [
            11.850177,
            46.24174,
            2258.5
          ],
          [
            11.850172,
            46.241768,
            2256.25
          ],
          [
            11.850133,
            46.241793,
            2259.25
          ],
          [
            11.850104,
            46.24186,
            2256.75
          ],
          [
            11.850101,
            46.241897,
            2253.25
          ],
          [
            11.850013,
            46.241953,
            2260.75
          ],
          [
            11.849963,
            46.24199,
            2269.25
          ],
          [
            11.849939,
            46.242024,
            2272.75
          ],
          [
            11.849953,
            46.242078,
            2262.5
          ],
          [
            11.849943,
            46.24214,
            2259
          ],
          [
            11.849914,
            46.242226,
            2261
          ],
          [
            11.849931,
            46.242406,
            2247.75
          ],
          [
            11.849919,
            46.242428,
            2251.5
          ],
          [
            11.849916,
            46.242471,
            2251
          ],
          [
            11.849895,
            46.242516,
            2257.5
          ],
          [
            11.849896,
            46.242541,
            2256.5
          ],
          [
            11.849911,
            46.24256,
            2251.25
          ],
          [
            11.849914,
            46.242604,
            2249.75
          ],
          [
            11.850024,
            46.242629,
            2225.5
          ],
          [
            11.850077,
            46.242624,
            2221.25
          ],
          [
            11.85015,
            46.242647,
            2217.25
          ],
          [
            11.850179,
            46.242673,
            2216.75
          ],
          [
            11.850203,
            46.242708,
            2217
          ],
          [
            11.850213,
            46.242754,
            2218.75
          ],
          [
            11.850253,
            46.242776,
            2216.75
          ],
          [
            11.850323,
            46.242793,
            2215
          ],
          [
            11.850487,
            46.242799,
            2212
          ],
          [
            11.85046,
            46.242821,
            2214.5
          ],
          [
            11.850514,
            46.242849,
            2215.75
          ],
          [
            11.850536,
            46.242882,
            2218.25
          ],
          [
            11.850511,
            46.242938,
            2223.25
          ],
          [
            11.850575,
            46.242977,
            2227.5
          ],
          [
            11.850611,
            46.242978,
            2230.25
          ],
          [
            11.850558,
            46.243022,
            2230.25
          ],
          [
            11.850608,
            46.243068,
            2238
          ],
          [
            11.85102,
            46.243121,
            2272.75
          ],
          [
            11.850983,
            46.243158,
            2271
          ],
          [
            11.851061,
            46.243169,
            2277.5
          ],
          [
            11.851138,
            46.243145,
            2281.75
          ],
          [
            11.851217,
            46.24315,
            2285
          ],
          [
            11.851241,
            46.24318,
            2286.75
          ],
          [
            11.851279,
            46.243211,
            2289.25
          ],
          [
            11.851317,
            46.243219,
            2291
          ],
          [
            11.851358,
            46.243188,
            2291.5
          ],
          [
            11.851387,
            46.243183,
            2292.5
          ],
          [
            11.85137,
            46.243211,
            2292.75
          ],
          [
            11.851372,
            46.24323,
            2293.5
          ],
          [
            11.851392,
            46.243256,
            2295
          ],
          [
            11.851441,
            46.243271,
            2296.25
          ],
          [
            11.851565,
            46.243291,
            2298.25
          ],
          [
            11.851795,
            46.243299,
            2301.5
          ],
          [
            11.852001,
            46.243344,
            2304.75
          ],
          [
            11.85209,
            46.243389,
            2304
          ],
          [
            11.852136,
            46.24342,
            2303
          ],
          [
            11.852142,
            46.243476,
            2302.75
          ],
          [
            11.852192,
            46.243629,
            2299.5
          ],
          [
            11.852289,
            46.243609,
            2296
          ],
          [
            11.852394,
            46.243576,
            2293.25
          ],
          [
            11.852529,
            46.243708,
            2290
          ],
          [
            11.85263,
            46.243843,
            2288.5
          ],
          [
            11.852761,
            46.243864,
            2285.25
          ],
          [
            11.852792,
            46.243903,
            2285
          ],
          [
            11.852815,
            46.243912,
            2284.75
          ],
          [
            11.85288,
            46.243906,
            2283.25
          ],
          [
            11.852962,
            46.243971,
            2282.25
          ],
          [
            11.853034,
            46.24401,
            2280.5
          ],
          [
            11.853176,
            46.244053,
            2276.75
          ],
          [
            11.853307,
            46.24405,
            2273.25
          ],
          [
            11.853373,
            46.244123,
            2273
          ],
          [
            11.853406,
            46.244205,
            2274
          ],
          [
            11.853554,
            46.244375,
            2275.25
          ],
          [
            11.853677,
            46.244433,
            2275.5
          ],
          [
            11.853755,
            46.244507,
            2276.5
          ],
          [
            11.853843,
            46.244527,
            2277
          ],
          [
            11.853944,
            46.244448,
            2278.75
          ],
          [
            11.85402,
            46.244346,
            2279
          ],
          [
            11.85405,
            46.24433,
            2279
          ],
          [
            11.854142,
            46.244299,
            2279
          ],
          [
            11.854188,
            46.244253,
            2277.5
          ],
          [
            11.85422,
            46.244223,
            2277.5
          ],
          [
            11.854266,
            46.244193,
            2277
          ],
          [
            11.854304,
            46.244182,
            2276.75
          ],
          [
            11.854375,
            46.244198,
            2277.5
          ],
          [
            11.854433,
            46.244219,
            2278.25
          ],
          [
            11.854465,
            46.24427,
            2279
          ],
          [
            11.854507,
            46.244289,
            2277.5
          ],
          [
            11.854699,
            46.244446,
            2272
          ],
          [
            11.854768,
            46.244473,
            2270
          ],
          [
            11.854886,
            46.244535,
            2267.75
          ],
          [
            11.854964,
            46.244553,
            2266
          ],
          [
            11.855,
            46.244696,
            2265.75
          ],
          [
            11.855037,
            46.244733,
            2266
          ],
          [
            11.855099,
            46.244875,
            2264.75
          ],
          [
            11.855156,
            46.244939,
            2264.25
          ],
          [
            11.855234,
            46.245072,
            2263.5
          ],
          [
            11.855289,
            46.24514,
            2263.5
          ],
          [
            11.855325,
            46.245224,
            2263.5
          ],
          [
            11.855387,
            46.245314,
            2264
          ],
          [
            11.855387,
            46.245349,
            2264.25
          ],
          [
            11.855371,
            46.245376,
            2264.5
          ],
          [
            11.855392,
            46.245411,
            2264.75
          ],
          [
            11.855468,
            46.245484,
            2264.5
          ],
          [
            11.855566,
            46.245533,
            2263
          ],
          [
            11.855715,
            46.245625,
            2261.25
          ],
          [
            11.85578,
            46.245658,
            2260.5
          ],
          [
            11.855841,
            46.245701,
            2259.75
          ],
          [
            11.855877,
            46.245781,
            2259.5
          ],
          [
            11.855916,
            46.24582,
            2259.25
          ],
          [
            11.855967,
            46.245906,
            2259.5
          ],
          [
            11.855971,
            46.245989,
            2260
          ],
          [
            11.856025,
            46.246121,
            2259.75
          ],
          [
            11.856014,
            46.246186,
            2260.5
          ],
          [
            11.856059,
            46.24623,
            2259.75
          ],
          [
            11.85604,
            46.246374,
            2261
          ],
          [
            11.855978,
            46.246417,
            2262.75
          ],
          [
            11.856035,
            46.246558,
            2259
          ],
          [
            11.856017,
            46.246705,
            2257.5
          ],
          [
            11.856023,
            46.246774,
            2255.75
          ],
          [
            11.856065,
            46.246826,
            2253.5
          ],
          [
            11.855986,
            46.246875,
            2255
          ],
          [
            11.855906,
            46.246966,
            2256
          ],
          [
            11.855876,
            46.247058,
            2257.25
          ],
          [
            11.855852,
            46.247077,
            2258
          ],
          [
            11.85591,
            46.247148,
            2257
          ],
          [
            11.855916,
            46.247207,
            2257.25
          ],
          [
            11.855992,
            46.24733,
            2259.5
          ],
          [
            11.855984,
            46.247487,
            2264.75
          ],
          [
            11.855973,
            46.247552,
            2266.75
          ],
          [
            11.855998,
            46.247593,
            2267.25
          ],
          [
            11.855957,
            46.247697,
            2271.5
          ],
          [
            11.856006,
            46.247712,
            2270.5
          ],
          [
            11.856015,
            46.247784,
            2272
          ],
          [
            11.855985,
            46.247828,
            2274
          ],
          [
            11.855999,
            46.247905,
            2275
          ],
          [
            11.855933,
            46.247998,
            2279
          ],
          [
            11.8559,
            46.248024,
            2280.25
          ],
          [
            11.855937,
            46.248089,
            2280
          ],
          [
            11.85591,
            46.248159,
            2281.25
          ],
          [
            11.855931,
            46.248304,
            2281.5
          ],
          [
            11.85591,
            46.248361,
            2282.5
          ],
          [
            11.855921,
            46.248422,
            2282.5
          ],
          [
            11.855884,
            46.248519,
            2284
          ],
          [
            11.855976,
            46.248582,
            2281.5
          ],
          [
            11.856081,
            46.248701,
            2282
          ],
          [
            11.856192,
            46.248793,
            2285.75
          ],
          [
            11.856243,
            46.248852,
            2289
          ],
          [
            11.85626,
            46.248916,
            2292
          ],
          [
            11.856204,
            46.248961,
            2293
          ],
          [
            11.856125,
            46.248997,
            2293.75
          ],
          [
            11.856126,
            46.249023,
            2294.75
          ],
          [
            11.856095,
            46.249036,
            2295.25
          ],
          [
            11.856091,
            46.249092,
            2297.5
          ],
          [
            11.856098,
            46.249119,
            2298.75
          ],
          [
            11.85615,
            46.249115,
            2298.75
          ],
          [
            11.856174,
            46.249126,
            2299.25
          ],
          [
            11.856192,
            46.249113,
            2298.75
          ],
          [
            11.856214,
            46.249113,
            2298.75
          ],
          [
            11.856238,
            46.249197,
            2301
          ],
          [
            11.856302,
            46.249221,
            2301
          ],
          [
            11.856357,
            46.249234,
            2300.75
          ],
          [
            11.856394,
            46.249268,
            2300.5
          ],
          [
            11.856445,
            46.249438,
            2300
          ],
          [
            11.856499,
            46.249524,
            2300.25
          ],
          [
            11.856546,
            46.249548,
            2300.5
          ],
          [
            11.856572,
            46.249612,
            2300.75
          ],
          [
            11.856689,
            46.249648,
            2300.5
          ],
          [
            11.856734,
            46.249807,
            2300.25
          ],
          [
            11.8568,
            46.249869,
            2299.75
          ],
          [
            11.85688,
            46.249921,
            2299
          ],
          [
            11.856962,
            46.249954,
            2298.75
          ],
          [
            11.857068,
            46.250057,
            2299.75
          ],
          [
            11.857147,
            46.250023,
            2299.75
          ],
          [
            11.857261,
            46.250082,
            2301
          ],
          [
            11.857309,
            46.250032,
            2301.75
          ],
          [
            11.857412,
            46.250007,
            2304
          ],
          [
            11.857525,
            46.250113,
            2306.25
          ],
          [
            11.857579,
            46.250122,
            2308.5
          ],
          [
            11.85764,
            46.25017,
            2310.75
          ],
          [
            11.857707,
            46.250239,
            2313
          ],
          [
            11.857761,
            46.250196,
            2315.75
          ],
          [
            11.857814,
            46.250253,
            2317.5
          ],
          [
            11.857851,
            46.250256,
            2319.25
          ],
          [
            11.857845,
            46.250292,
            2318.75
          ],
          [
            11.857832,
            46.250921,
            2322.75
          ],
          [
            11.857284,
            46.251225,
            2313.75
          ],
          [
            11.857102,
            46.251752,
            2335
          ],
          [
            11.857381,
            46.251856,
            2348.75
          ],
          [
            11.857359,
            46.252494,
            2418.5
          ],
          [
            11.857553,
            46.253265,
            2433.5
          ],
          [
            11.857424,
            46.253933,
            2463.25
          ],
          [
            11.857531,
            46.254497,
            2489.5
          ],
          [
            11.857617,
            46.255261,
            2547
          ],
          [
            11.85752,
            46.255684,
            2578.25
          ],
          [
            11.857735,
            46.256893,
            2644.25
          ],
          [
            11.857767,
            46.257264,
            2662.5
          ],
          [
            11.857778,
            46.257857,
            2677
          ],
          [
            11.857907,
            46.258065,
            2676.5
          ],
          [
            11.858314,
            46.258228,
            2677.25
          ],
          [
            11.858432,
            46.258451,
            2699
          ],
          [
            11.858314,
            46.258606,
            2716
          ],
          [
            11.857724,
            46.25871,
            2712
          ],
          [
            11.857177,
            46.258903,
            2709
          ],
          [
            11.857177,
            46.259222,
            2702
          ],
          [
            11.857542,
            46.259771,
            2681.75
          ],
          [
            11.858072,
            46.260279,
            2659
          ],
          [
            11.858409,
            46.260279,
            2659.75
          ],
          [
            11.858698,
            46.260287,
            2662
          ],
          [
            11.85899,
            46.260269,
            2671.25
          ],
          [
            11.859097,
            46.260376,
            2672.75
          ],
          [
            11.860028,
            46.260415,
            2670.75
          ],
          [
            11.860465,
            46.260366,
            2663.25
          ],
          [
            11.860957,
            46.260244,
            2656.75
          ],
          [
            11.861173,
            46.260095,
            2654.25
          ],
          [
            11.862262,
            46.259749,
            2657.5
          ],
          [
            11.862501,
            46.25961,
            2659.75
          ],
          [
            11.862909,
            46.259436,
            2658.75
          ],
          [
            11.863068,
            46.258956,
            2669.5
          ],
          [
            11.862969,
            46.258888,
            2676.5
          ],
          [
            11.863032,
            46.258793,
            2674
          ],
          [
            11.862945,
            46.258594,
            2678
          ],
          [
            11.862977,
            46.258523,
            2677.25
          ],
          [
            11.862933,
            46.258459,
            2678.25
          ],
          [
            11.863076,
            46.258344,
            2676.25
          ],
          [
            11.863151,
            46.258209,
            2675.5
          ],
          [
            11.863771,
            46.257995,
            2666.75
          ],
          [
            11.86403,
            46.25798,
            2662.5
          ],
          [
            11.864257,
            46.258071,
            2658.5
          ],
          [
            11.864455,
            46.258082,
            2656.25
          ],
          [
            11.864257,
            46.258071,
            2658.5
          ],
          [
            11.86403,
            46.25798,
            2662.5
          ],
          [
            11.863771,
            46.257995,
            2666.75
          ],
          [
            11.863151,
            46.258209,
            2675.5
          ],
          [
            11.863076,
            46.258344,
            2676.25
          ],
          [
            11.862933,
            46.258459,
            2678.25
          ],
          [
            11.862977,
            46.258523,
            2677.25
          ],
          [
            11.862945,
            46.258594,
            2678
          ],
          [
            11.863032,
            46.258793,
            2674
          ],
          [
            11.862969,
            46.258888,
            2676.5
          ],
          [
            11.863068,
            46.258956,
            2669.5
          ],
          [
            11.862909,
            46.259436,
            2658.75
          ],
          [
            11.862501,
            46.25961,
            2659.75
          ],
          [
            11.862262,
            46.259749,
            2657.5
          ],
          [
            11.861173,
            46.260095,
            2654.25
          ],
          [
            11.860957,
            46.260244,
            2656.75
          ],
          [
            11.860465,
            46.260366,
            2663.25
          ],
          [
            11.860028,
            46.260415,
            2670.75
          ],
          [
            11.859097,
            46.260376,
            2672.75
          ],
          [
            11.85899,
            46.260269,
            2671.25
          ],
          [
            11.858698,
            46.260287,
            2662
          ],
          [
            11.858409,
            46.260279,
            2659.75
          ],
          [
            11.858072,
            46.260279,
            2659
          ],
          [
            11.857982,
            46.260527,
            2656.5
          ],
          [
            11.857803,
            46.260731,
            2657.25
          ],
          [
            11.857595,
            46.260929,
            2657.75
          ],
          [
            11.857272,
            46.261063,
            2663.25
          ],
          [
            11.857028,
            46.261123,
            2665.75
          ],
          [
            11.856835,
            46.261272,
            2662.75
          ],
          [
            11.856497,
            46.261361,
            2662
          ],
          [
            11.856259,
            46.26154,
            2656.5
          ],
          [
            11.856015,
            46.26157,
            2656.25
          ],
          [
            11.855864,
            46.261738,
            2651
          ],
          [
            11.855565,
            46.261859,
            2648
          ],
          [
            11.855502,
            46.262068,
            2648
          ],
          [
            11.855533,
            46.262256,
            2649.5
          ],
          [
            11.855657,
            46.262256,
            2649
          ],
          [
            11.855635,
            46.262408,
            2648.5
          ],
          [
            11.855654,
            46.26264,
            2645.5
          ],
          [
            11.855575,
            46.262755,
            2642.5
          ],
          [
            11.855606,
            46.262901,
            2638.75
          ],
          [
            11.855556,
            46.263149,
            2632.75
          ],
          [
            11.855595,
            46.26366,
            2630.25
          ],
          [
            11.855452,
            46.263843,
            2627.5
          ],
          [
            11.855498,
            46.263945,
            2625.5
          ],
          [
            11.855465,
            46.264036,
            2622.25
          ],
          [
            11.85533,
            46.264084,
            2619.25
          ],
          [
            11.855432,
            46.264143,
            2618.25
          ],
          [
            11.855351,
            46.264298,
            2613
          ],
          [
            11.85515,
            46.264445,
            2608.75
          ],
          [
            11.854939,
            46.264507,
            2608.25
          ],
          [
            11.854794,
            46.264636,
            2611.5
          ],
          [
            11.854697,
            46.264621,
            2613
          ],
          [
            11.854603,
            46.264646,
            2612
          ],
          [
            11.854475,
            46.264806,
            2613.25
          ],
          [
            11.854044,
            46.264983,
            2616
          ],
          [
            11.853771,
            46.265042,
            2617.5
          ],
          [
            11.853604,
            46.265176,
            2615.5
          ],
          [
            11.853497,
            46.265242,
            2614.25
          ],
          [
            11.853329,
            46.265292,
            2614.25
          ],
          [
            11.853286,
            46.265356,
            2611.75
          ],
          [
            11.853023,
            46.265376,
            2609.25
          ],
          [
            11.852879,
            46.265451,
            2605.25
          ],
          [
            11.852373,
            46.265467,
            2600.25
          ],
          [
            11.852191,
            46.265484,
            2600.75
          ],
          [
            11.85206,
            46.265585,
            2605.25
          ],
          [
            11.851995,
            46.265585,
            2606.25
          ],
          [
            11.851772,
            46.265699,
            2607.75
          ],
          [
            11.851633,
            46.265689,
            2608
          ],
          [
            11.85134,
            46.265754,
            2608
          ],
          [
            11.851002,
            46.265818,
            2609.75
          ],
          [
            11.850674,
            46.265987,
            2607.5
          ],
          [
            11.85056,
            46.265992,
            2607.75
          ],
          [
            11.850505,
            46.266171,
            2603.5
          ],
          [
            11.850347,
            46.266225,
            2602.5
          ],
          [
            11.850067,
            46.266232,
            2599.5
          ],
          [
            11.850009,
            46.266262,
            2598.25
          ],
          [
            11.849692,
            46.266274,
            2595.75
          ],
          [
            11.849412,
            46.266219,
            2593.75
          ],
          [
            11.849127,
            46.266194,
            2589.5
          ],
          [
            11.848964,
            46.266116,
            2588.75
          ],
          [
            11.848662,
            46.266119,
            2583.5
          ],
          [
            11.848225,
            46.266018,
            2578.25
          ],
          [
            11.847976,
            46.265974,
            2573.5
          ],
          [
            11.847633,
            46.265948,
            2564.75
          ],
          [
            11.847135,
            46.265974,
            2553.5
          ],
          [
            11.847029,
            46.265964,
            2551.25
          ],
          [
            11.846732,
            46.26598,
            2545.5
          ],
          [
            11.846448,
            46.265931,
            2543
          ],
          [
            11.84611,
            46.265976,
            2543.25
          ],
          [
            11.845775,
            46.266051,
            2543.5
          ],
          [
            11.845515,
            46.266051,
            2544.75
          ],
          [
            11.844658,
            46.266143,
            2548.5
          ],
          [
            11.844415,
            46.266145,
            2550.5
          ],
          [
            11.843982,
            46.266044,
            2552
          ],
          [
            11.843472,
            46.26618,
            2558.25
          ],
          [
            11.842652,
            46.266348,
            2562.75
          ],
          [
            11.842403,
            46.266439,
            2563.25
          ],
          [
            11.842165,
            46.266441,
            2566.75
          ],
          [
            11.84184,
            46.266463,
            2569
          ],
          [
            11.84144,
            46.266482,
            2570
          ],
          [
            11.841457,
            46.26654,
            2568
          ],
          [
            11.841216,
            46.266629,
            2566.5
          ],
          [
            11.841088,
            46.266654,
            2567.25
          ],
          [
            11.840944,
            46.266711,
            2568
          ],
          [
            11.840863,
            46.266753,
            2568
          ],
          [
            11.840832,
            46.266795,
            2567.5
          ],
          [
            11.840822,
            46.26683,
            2567
          ],
          [
            11.840852,
            46.266902,
            2565.5
          ],
          [
            11.840648,
            46.266995,
            2565.75
          ],
          [
            11.840113,
            46.267169,
            2570.25
          ],
          [
            11.839756,
            46.267258,
            2573.25
          ],
          [
            11.839443,
            46.267316,
            2573.5
          ],
          [
            11.839348,
            46.26735,
            2574.25
          ],
          [
            11.839282,
            46.267339,
            2574.25
          ],
          [
            11.839215,
            46.267341,
            2574.25
          ],
          [
            11.839024,
            46.267335,
            2576
          ]
        ]
      }
    },
    {
      "type": "Feature",
      "properties": {
        "kind": "waypoint",
        "name": "Velo della Madonna",
        "show_label": true
      },
      "geometry": {
        "type": "Point",
        "coordinates": [
          11.8427465,
          46.2313393
        ]
      }
    },
    {
      "type": "Feature",
      "properties": {
        "kind": "waypoint",
        "name": "Ferrata del Velo",
        "show_label": false
      },
      "geometry": {
        "type": "Point",
        "coordinates": [
          11.84455,
          46.23396
        ]
      }
    },
    {
      "type": "Feature",
      "properties": {
        "kind": "waypoint",
        "name": "Forcella Porton",
        "show_label": true
      },
      "geometry": {
        "type": "Point",
        "coordinates": [
          11.8466656,
          46.2398353
        ]
      }
    },
    {
      "type": "Feature",
      "properties": {
        "kind": "waypoint",
        "name": "Ferrata del Porton",
        "show_label": false
      },
      "geometry": {
        "type": "Point",
        "coordinates": [
          11.8491,
          46.2414
        ]
      }
    },
    {
      "type": "Feature",
      "properties": {
        "kind": "waypoint",
        "name": "Rifugio Pradidali",
        "show_label": true
      },
      "geometry": {
        "type": "Point",
        "coordinates": [
          11.8543039,
          46.2443107
        ]
      }
    },
    {
      "type": "Feature",
      "properties": {
        "kind": "waypoint",
        "name": "Passo Pradidali Basso",
        "show_label": true
      },
      "geometry": {
        "type": "Point",
        "coordinates": [
          11.8644549,
          46.2580818
        ]
      }
    },
    {
      "type": "Feature",
      "properties": {
        "kind": "waypoint",
        "name": "Rifugio Rosetta",
        "show_label": true
      },
      "geometry": {
        "type": "Point",
        "coordinates": [
          11.8390203,
          46.2674223
        ]
      }
    }
  ]
}
