<?xml version="1.0" encoding="UTF-8"?>
<!-- track-length = 6577 filtered ascend = 911 plain-ascend = 247 cost=75762 energy=.2kwh time=1h 37m 55s -->
<gpx 
 xmlns="http://www.topografix.com/GPX/1/1" 
 xmlns:xsi="http://www.w3.org/2001/XMLSchema-instance" 
 xsi:schemaLocation="http://www.topografix.com/GPX/1/1 http://www.topografix.com/GPX/1/1/gpx.xsd" 
 creator="BRouter-1.7.10" version="1.1">
 <trk>
  <name>brouter_trekking_0</name>
  <trkseg>
   <trkpt lon="11.842782" lat="46.231335"><ele>2329.0</ele></trkpt>
   <trkpt lon="11.842790" lat="46.231390"><ele>2329.75</ele></trkpt>
   <trkpt lon="11.842890" lat="46.231459"><ele>2327.25</ele></trkpt>
   <trkpt lon="11.842923" lat="46.231570"><ele>2324.25</ele></trkpt>
   <trkpt lon="11.842993" lat="46.231626"><ele>2323.25</ele></trkpt>
   <trkpt lon="11.843016" lat="46.231658"><ele>2322.75</ele></trkpt>
   <trkpt lon="11.842957" lat="46.231710"><ele>2321.0</ele></trkpt>
   <trkpt lon="11.842919" lat="46.231760"><ele>2319.0</ele></trkpt>
   <trkpt lon="11.842907" lat="46.231810"><ele>2317.25</ele></trkpt>
   <trkpt lon="11.842987" lat="46.231888"><ele>2316.25</ele></trkpt>
   <trkpt lon="11.843006" lat="46.231954"><ele>2314.75</ele></trkpt>
   <trkpt lon="11.843027" lat="46.231980"><ele>2314.25</ele></trkpt>
   <trkpt lon="11.843038" lat="46.232020"><ele>2313.25</ele></trkpt>
   <trkpt lon="11.842998" lat="46.232051"><ele>2311.25</ele></trkpt>
   <trkpt lon="11.842971" lat="46.232129"><ele>2307.5</ele></trkpt>
   <trkpt lon="11.843028" lat="46.232235"><ele>2306.25</ele></trkpt>
   <trkpt lon="11.843034" lat="46.232334"><ele>2304.0</ele></trkpt>
   <trkpt lon="11.842995" lat="46.232407"><ele>2300.0</ele></trkpt>
   <trkpt lon="11.842996" lat="46.232438"><ele>2299.25</ele></trkpt>
   <trkpt lon="11.842980" lat="46.232500"><ele>2296.5</ele></trkpt>
   <trkpt lon="11.843011" lat="46.232533"><ele>2300.5</ele></trkpt>
   <trkpt lon="11.842979" lat="46.232605"><ele>2302.0</ele></trkpt>
   <trkpt lon="11.842971" lat="46.232673"><ele>2304.5</ele></trkpt>
   <trkpt lon="11.842943" lat="46.232703"><ele>2302.5</ele></trkpt>
   <trkpt lon="11.842906" lat="46.232708"><ele>2297.75</ele></trkpt>
   <trkpt lon="11.842905" lat="46.232733"><ele>2298.5</ele></trkpt>
   <trkpt lon="11.842862" lat="46.232762"><ele>2292.75</ele></trkpt>
   <trkpt lon="11.842878" lat="46.232814"><ele>2294.25</ele></trkpt>
   <trkpt lon="11.842917" lat="46.232844"><ele>2298.5</ele></trkpt>
   <trkpt lon="11.842935" lat="46.232904"><ele>2298.25</ele></trkpt>
   <trkpt lon="11.842943" lat="46.233001"><ele>2294.25</ele></trkpt>
   <trkpt lon="11.842923" lat="46.233048"><ele>2290.25</ele></trkpt>
   <trkpt lon="11.842953" lat="46.233154"><ele>2290.75</ele></trkpt>
   <trkpt lon="11.842947" lat="46.233175"><ele>2290.0</ele></trkpt>
   <trkpt lon="11.842996" lat="46.233227"><ele>2292.0</ele></trkpt>
   <trkpt lon="11.843031" lat="46.233246"><ele>2293.5</ele></trkpt>
   <trkpt lon="11.843054" lat="46.233311"><ele>2292.5</ele></trkpt>
   <trkpt lon="11.843212" lat="46.233434"><ele>2293.0</ele></trkpt>
   <trkpt lon="11.843311" lat="46.233463"><ele>2295.5</ele></trkpt>
   <trkpt lon="11.843446" lat="46.233572"><ele>2301.25</ele></trkpt>
   <trkpt lon="11.843508" lat="46.233675"><ele>2301.0</ele></trkpt>
   <trkpt lon="11.843480" lat="46.233776"><ele>2296.25</ele></trkpt>
   <trkpt lon="11.843528" lat="46.233878"><ele>2297.75</ele></trkpt>
   <trkpt lon="11.843558" lat="46.233893"><ele>2298.25</ele></trkpt>
   <trkpt lon="11.843573" lat="46.233868"><ele>2301.75</ele></trkpt>
   <trkpt lon="11.843568" lat="46.233846"><ele>2301.75</ele></trkpt>
   <trkpt lon="11.843553" lat="46.233827"><ele>2301.0</ele></trkpt>
   <trkpt lon="11.843572" lat="46.233796"><ele>2303.0</ele></trkpt>
   <trkpt lon="11.843619" lat="46.233836"><ele>2305.5</ele></trkpt>
   <trkpt lon="11.843657" lat="46.233849"><ele>2303.5</ele></trkpt>
   <trkpt lon="11.843680" lat="46.233845"><ele>2303.0</ele></trkpt>
   <trkpt lon="11.843702" lat="46.233825"><ele>2303.75</ele></trkpt>
   <trkpt lon="11.843718" lat="46.233831"><ele>2303.0</ele></trkpt>
   <trkpt lon="11.843730" lat="46.233803"><ele>2305.5</ele></trkpt>
   <trkpt lon="11.843754" lat="46.233799"><ele>2306.0</ele></trkpt>
   <trkpt lon="11.843773" lat="46.233759"><ele>2311.75</ele></trkpt>
   <trkpt lon="11.843828" lat="46.233782"><ele>2309.25</ele></trkpt>
   <trkpt lon="11.843861" lat="46.233769"><ele>2312.25</ele></trkpt>
   <trkpt lon="11.843865" lat="46.233739"><ele>2318.75</ele></trkpt>
   <trkpt lon="11.843839" lat="46.233724"><ele>2320.5</ele></trkpt>
   <trkpt lon="11.843836" lat="46.233701"><ele>2324.75</ele></trkpt>
   <trkpt lon="11.843867" lat="46.233692"><ele>2329.0</ele></trkpt>
   <trkpt lon="11.843896" lat="46.233664"><ele>2337.5</ele></trkpt>
   <trkpt lon="11.843943" lat="46.233633"><ele>2344.5</ele></trkpt>
   <trkpt lon="11.843979" lat="46.233619"><ele>2346.75</ele></trkpt>
   <trkpt lon="11.844049" lat="46.233639"><ele>2343.0</ele></trkpt>
   <trkpt lon="11.844168" lat="46.233654"><ele>2341.75</ele></trkpt>
   <trkpt lon="11.844285" lat="46.233730"><ele>2338.75</ele></trkpt>
   <trkpt lon="11.844314" lat="46.233773"><ele>2336.25</ele></trkpt>
   <trkpt lon="11.844338" lat="46.233778"><ele>2336.5</ele></trkpt>
   <trkpt lon="11.844360" lat="46.233888"><ele>2328.75</ele></trkpt>
   <trkpt lon="11.844382" lat="46.233911"><ele>2325.25</ele></trkpt>
   <trkpt lon="11.844421" lat="46.233918"><ele>2324.75</ele></trkpt>
   <trkpt lon="11.844530" lat="46.233905"><ele>2327.0</ele></trkpt>
   <trkpt lon="11.844544" lat="46.233897"><ele>2328.5</ele></trkpt>
   <trkpt lon="11.844525" lat="46.233882"><ele>2331.0</ele></trkpt>
   <trkpt lon="11.844588" lat="46.233879"><ele>2331.0</ele></trkpt>
   <trkpt lon="11.844678" lat="46.233877"><ele>2330.75</ele></trkpt>
   <trkpt lon="11.844772" lat="46.233891"><ele>2331.75</ele></trkpt>
   <trkpt lon="11.844830" lat="46.233890"><ele>2335.75</ele></trkpt>
   <trkpt lon="11.844905" lat="46.233932"><ele>2337.75</ele></trkpt>
   <trkpt lon="11.844957" lat="46.233938"><ele>2342.5</ele></trkpt>
   <trkpt lon="11.844992" lat="46.233959"><ele>2345.75</ele></trkpt>
   <trkpt lon="11.844969" lat="46.233966"><ele>2343.0</ele></trkpt>
   <trkpt lon="11.844957" lat="46.233979"><ele>2341.25</ele></trkpt>
   <trkpt lon="11.844976" lat="46.233995"><ele>2343.25</ele></trkpt>
   <trkpt lon="11.845011" lat="46.233998"><ele>2348.0</ele></trkpt>
   <trkpt lon="11.845051" lat="46.234021"><ele>2353.0</ele></trkpt>
   <trkpt lon="11.845091" lat="46.234017"><ele>2358.25</ele></trkpt>
   <trkpt lon="11.845188" lat="46.234034"><ele>2371.0</ele></trkpt>
   <trkpt lon="11.845302" lat="46.234025"><ele>2384.25</ele></trkpt>
   <trkpt lon="11.845369" lat="46.234007"><ele>2388.0</ele></trkpt>
   <trkpt lon="11.845418" lat="46.234012"><ele>2390.5</ele></trkpt>
   <trkpt lon="11.845438" lat="46.233993"><ele>2392.0</ele></trkpt>
   <trkpt lon="11.845444" lat="46.233970"><ele>2393.0</ele></trkpt>
   <trkpt lon="11.845472" lat="46.233961"><ele>2394.75</ele></trkpt>
   <trkpt lon="11.845505" lat="46.233965"><ele>2396.75</ele></trkpt>
   <trkpt lon="11.845568" lat="46.234036"><ele>2397.75</ele></trkpt>
   <trkpt lon="11.845551" lat="46.234100"><ele>2394.25</ele></trkpt>
   <trkpt lon="11.845560" lat="46.234120"><ele>2394.0</ele></trkpt>
   <trkpt lon="11.845580" lat="46.234136"><ele>2394.25</ele></trkpt>
   <trkpt lon="11.845570" lat="46.234154"><ele>2393.0</ele></trkpt>
   <trkpt lon="11.845570" lat="46.234178"><ele>2391.5</ele></trkpt>
   <trkpt lon="11.845596" lat="46.234203"><ele>2390.75</ele></trkpt>
   <trkpt lon="11.845678" lat="46.234232"><ele>2392.0</ele></trkpt>
   <trkpt lon="11.845742" lat="46.234238"><ele>2394.5</ele></trkpt>
   <trkpt lon="11.845780" lat="46.234250"><ele>2395.25</ele></trkpt>
   <trkpt lon="11.845920" lat="46.234315"><ele>2395.25</ele></trkpt>
   <trkpt lon="11.846006" lat="46.234379"><ele>2393.5</ele></trkpt>
   <trkpt lon="11.846115" lat="46.234537"><ele>2389.75</ele></trkpt>
   <trkpt lon="11.846104" lat="46.234580"><ele>2387.5</ele></trkpt>
   <trkpt lon="11.846124" lat="46.234615"><ele>2387.25</ele></trkpt>
   <trkpt lon="11.846164" lat="46.234632"><ele>2388.5</ele></trkpt>
   <trkpt lon="11.846208" lat="46.234632"><ele>2390.25</ele></trkpt>
   <trkpt lon="11.846235" lat="46.234646"><ele>2390.75</ele></trkpt>
   <trkpt lon="11.846251" lat="46.234679"><ele>2390.0</ele></trkpt>
   <trkpt lon="11.846296" lat="46.234699"><ele>2390.75</ele></trkpt>
   <trkpt lon="11.846318" lat="46.234725"><ele>2390.25</ele></trkpt>
   <trkpt lon="11.846360" lat="46.234735"><ele>2391.25</ele></trkpt>
   <trkpt lon="11.846412" lat="46.234783"><ele>2391.0</ele></trkpt>
   <trkpt lon="11.846439" lat="46.234823"><ele>2390.25</ele></trkpt>
   <trkpt lon="11.846473" lat="46.234838"><ele>2391.0</ele></trkpt>
   <trkpt lon="11.846524" lat="46.234894"><ele>2390.25</ele></trkpt>
   <trkpt lon="11.846509" lat="46.234930"><ele>2388.25</ele></trkpt>
   <trkpt lon="11.846525" lat="46.234959"><ele>2387.5</ele></trkpt>
   <trkpt lon="11.846550" lat="46.234976"><ele>2387.75</ele></trkpt>
   <trkpt lon="11.846547" lat="46.234992"><ele>2387.0</ele></trkpt>
   <trkpt lon="11.846589" lat="46.235018"><ele>2387.0</ele></trkpt>
   <trkpt lon="11.846658" lat="46.235032"><ele>2388.5</ele></trkpt>
   <trkpt lon="11.846726" lat="46.235056"><ele>2388.25</ele></trkpt>
   <trkpt lon="11.846772" lat="46.235090"><ele>2386.75</ele></trkpt>
   <trkpt lon="11.846826" lat="46.235114"><ele>2386.25</ele></trkpt>
   <trkpt lon="11.846870" lat="46.235144"><ele>2385.25</ele></trkpt>
   <trkpt lon="11.846918" lat="46.235149"><ele>2385.75</ele></trkpt>
   <trkpt lon="11.846950" lat="46.235159"><ele>2385.75</ele></trkpt>
   <trkpt lon="11.846999" lat="46.235260"><ele>2381.25</ele></trkpt>
   <trkpt lon="11.847028" lat="46.235292"><ele>2380.5</ele></trkpt>
   <trkpt lon="11.847027" lat="46.235340"><ele>2379.25</ele></trkpt>
   <trkpt lon="11.846971" lat="46.235444"><ele>2375.25</ele></trkpt>
   <trkpt lon="11.846979" lat="46.235486"><ele>2374.25</ele></trkpt>
   <trkpt lon="11.846974" lat="46.235516"><ele>2373.5</ele></trkpt>
   <trkpt lon="11.846883" lat="46.235639"><ele>2374.0</ele></trkpt>
   <trkpt lon="11.846846" lat="46.235669"><ele>2374.25</ele></trkpt>
   <trkpt lon="11.846782" lat="46.235684"><ele>2373.0</ele></trkpt>
   <trkpt lon="11.846659" lat="46.235756"><ele>2372.0</ele></trkpt>
   <trkpt lon="11.846657" lat="46.235997"><ele>2380.25</ele></trkpt>
   <trkpt lon="11.846629" lat="46.236020"><ele>2379.75</ele></trkpt>
   <trkpt lon="11.846605" lat="46.236077"><ele>2380.5</ele></trkpt>
   <trkpt lon="11.846530" lat="46.236215"><ele>2377.75</ele></trkpt>
   <trkpt lon="11.846494" lat="46.236317"><ele>2376.25</ele></trkpt>
   <trkpt lon="11.846499" lat="46.236374"><ele>2376.5</ele></trkpt>
   <trkpt lon="11.846628" lat="46.236533"><ele>2375.0</ele></trkpt>
   <trkpt lon="11.846672" lat="46.236563"><ele>2375.75</ele></trkpt>
   <trkpt lon="11.846696" lat="46.236591"><ele>2375.25</ele></trkpt>
   <trkpt lon="11.846681" lat="46.236655"><ele>2372.75</ele></trkpt>
   <trkpt lon="11.846686" lat="46.236680"><ele>2371.5</ele></trkpt>
   <trkpt lon="11.846720" lat="46.236711"><ele>2370.5</ele></trkpt>
   <trkpt lon="11.846751" lat="46.236719"><ele>2370.75</ele></trkpt>
   <trkpt lon="11.846789" lat="46.236741"><ele>2370.5</ele></trkpt>
   <trkpt lon="11.846828" lat="46.236794"><ele>2368.25</ele></trkpt>
   <trkpt lon="11.846820" lat="46.236816"><ele>2366.75</ele></trkpt>
   <trkpt lon="11.846885" lat="46.236846"><ele>2367.0</ele></trkpt>
   <trkpt lon="11.846979" lat="46.236937"><ele>2363.75</ele></trkpt>
   <trkpt lon="11.847022" lat="46.236963"><ele>2362.5</ele></trkpt>
   <trkpt lon="11.847212" lat="46.237020"><ele>2361.25</ele></trkpt>
   <trkpt lon="11.847262" lat="46.237043"><ele>2361.0</ele></trkpt>
   <trkpt lon="11.847286" lat="46.237075"><ele>2359.25</ele></trkpt>
   <trkpt lon="11.847314" lat="46.237083"><ele>2359.5</ele></trkpt>
   <trkpt lon="11.847332" lat="46.237059"><ele>2361.75</ele></trkpt>
   <trkpt lon="11.847362" lat="46.237055"><ele>2363.0</ele></trkpt>
   <trkpt lon="11.847446" lat="46.237066"><ele>2364.5</ele></trkpt>
   <trkpt lon="11.847477" lat="46.237110"><ele>2362.25</ele></trkpt>
   <trkpt lon="11.847531" lat="46.237155"><ele>2360.75</ele></trkpt>
   <trkpt lon="11.847590" lat="46.237221"><ele>2358.25</ele></trkpt>
   <trkpt lon="11.847717" lat="46.237283"><ele>2359.5</ele></trkpt>
   <trkpt lon="11.847725" lat="46.237316"><ele>2358.0</ele></trkpt>
   <trkpt lon="11.847751" lat="46.237348"><ele>2357.25</ele></trkpt>
   <trkpt lon="11.847820" lat="46.237369"><ele>2359.25</ele></trkpt>
   <trkpt lon="11.847875" lat="46.237432"><ele>2358.75</ele></trkpt>
   <trkpt lon="11.847930" lat="46.237562"><ele>2357.25</ele></trkpt>
   <trkpt lon="11.847950" lat="46.237741"><ele>2356.0</ele></trkpt>
   <trkpt lon="11.847942" lat="46.237798"><ele>2355.25</ele></trkpt>
   <trkpt lon="11.847937" lat="46.237917"><ele>2357.0</ele></trkpt>
   <trkpt lon="11.847895" lat="46.237966"><ele>2355.5</ele></trkpt>
   <trkpt lon="11.847877" lat="46.238039"><ele>2356.0</ele></trkpt>
   <trkpt lon="11.847875" lat="46.238212"><ele>2357.25</ele></trkpt>
   <trkpt lon="11.847897" lat="46.238342"><ele>2359.25</ele></trkpt>
   <trkpt lon="11.847904" lat="46.238450"><ele>2357.25</ele></trkpt>
   <trkpt lon="11.847938" lat="46.238588"><ele>2355.75</ele></trkpt>
   <trkpt lon="11.847868" lat="46.238752"><ele>2356.25</ele></trkpt>
   <trkpt lon="11.847850" lat="46.238763"><ele>2355.25</ele></trkpt>
   <trkpt lon="11.847825" lat="46.238766"><ele>2353.5</ele></trkpt>
   <trkpt lon="11.847800" lat="46.238778"><ele>2351.75</ele></trkpt>
   <trkpt lon="11.847683" lat="46.238869"><ele>2349.5</ele></trkpt>
   <trkpt lon="11.847615" lat="46.238980"><ele>2356.25</ele></trkpt>
   <trkpt lon="11.847363" lat="46.239142"><ele>2364.75</ele></trkpt>
   <trkpt lon="11.847244" lat="46.239233"><ele>2371.0</ele></trkpt>
   <trkpt lon="11.847184" lat="46.239319"><ele>2377.0</ele></trkpt>
   <trkpt lon="11.847161" lat="46.239370"><ele>2380.75</ele></trkpt>
   <trkpt lon="11.847192" lat="46.239455"><ele>2387.5</ele></trkpt>
   <trkpt lon="11.847178" lat="46.239490"><ele>2390.5</ele></trkpt>
   <trkpt lon="11.847148" lat="46.239531"><ele>2394.0</ele></trkpt>
   <trkpt lon="11.847108" lat="46.239543"><ele>2395.0</ele></trkpt>
   <trkpt lon="11.847069" lat="46.239547"><ele>2395.5</ele></trkpt>
   <trkpt lon="11.846959" lat="46.239527"><ele>2393.5</ele></trkpt>
   <trkpt lon="11.846947" lat="46.239558"><ele>2397.0</ele></trkpt>
   <trkpt lon="11.846814" lat="46.239540"><ele>2393.0</ele></trkpt>
   <trkpt lon="11.846692" lat="46.239546"><ele>2392.0</ele></trkpt>
   <trkpt lon="11.846672" lat="46.239565"><ele>2393.5</ele></trkpt>
   <trkpt lon="11.846686" lat="46.239602"><ele>2396.75</ele></trkpt>
   <trkpt lon="11.846732" lat="46.239614"><ele>2399.0</ele></trkpt>
   <trkpt lon="11.846791" lat="46.239651"><ele>2403.75</ele></trkpt>
   <trkpt lon="11.846777" lat="46.239673"><ele>2405.75</ele></trkpt>
   <trkpt lon="11.846726" lat="46.239696"><ele>2406.25</ele></trkpt>
   <trkpt lon="11.846676" lat="46.239752"><ele>2408.5</ele></trkpt>
   <trkpt lon="11.846607" lat="46.239821"><ele>2417.0</ele></trkpt>
   <trkpt lon="11.846663" lat="46.239837"><ele>2416.0</ele></trkpt>
   <trkpt lon="11.846704" lat="46.239849"><ele>2416.0</ele></trkpt>
   <trkpt lon="11.846609" lat="46.239859"><ele>2420.0</ele></trkpt>
   <trkpt lon="11.846653" lat="46.239891"><ele>2415.25</ele></trkpt>
   <trkpt lon="11.846718" lat="46.239930"><ele>2423.5</ele></trkpt>
   <trkpt lon="11.846715" lat="46.239986"><ele>2426.75</ele></trkpt>
   <trkpt lon="11.846699" lat="46.240009"><ele>2423.5</ele></trkpt>
   <trkpt lon="11.846663" lat="46.240010"><ele>2417.5</ele></trkpt>
   <trkpt lon="11.846646" lat="46.240027"><ele>2421.0</ele></trkpt>
   <trkpt lon="11.846640" lat="46.240064"><ele>2420.5</ele></trkpt>
   <trkpt lon="11.846704" lat="46.240075"><ele>2419.0</ele></trkpt>
   <trkpt lon="11.846739" lat="46.240111"><ele>2419.5</ele></trkpt>
   <trkpt lon="11.846881" lat="46.240145"><ele>2423.0</ele></trkpt>
   <trkpt lon="11.846994" lat="46.240127"><ele>2429.5</ele></trkpt>
   <trkpt lon="11.847084" lat="46.240100"><ele>2431.75</ele></trkpt>
   <trkpt lon="11.847154" lat="46.240097"><ele>2427.0</ele></trkpt>
   <trkpt lon="11.847198" lat="46.240112"><ele>2419.0</ele></trkpt>
   <trkpt lon="11.847171" lat="46.240147"><ele>2410.0</ele></trkpt>
   <trkpt lon="11.847201" lat="46.240155"><ele>2405.5</ele></trkpt>
   <trkpt lon="11.847245" lat="46.240240"><ele>2377.25</ele></trkpt>
   <trkpt lon="11.847230" lat="46.240298"><ele>2368.0</ele></trkpt>
   <trkpt lon="11.847280" lat="46.240281"><ele>2364.25</ele></trkpt>
   <trkpt lon="11.847343" lat="46.240274"><ele>2362.0</ele></trkpt>
   <trkpt lon="11.847399" lat="46.240278"><ele>2358.0</ele></trkpt>
   <trkpt lon="11.847434" lat="46.240300"><ele>2356.5</ele></trkpt>
   <trkpt lon="11.847496" lat="46.240301"><ele>2353.0</ele></trkpt>
   <trkpt lon="11.847600" lat="46.240342"><ele>2346.75</ele></trkpt>
   <trkpt lon="11.847716" lat="46.240336"><ele>2340.25</ele></trkpt>
   <trkpt lon="11.847922" lat="46.240415"><ele>2325.75</ele></trkpt>
   <trkpt lon="11.847956" lat="46.240461"><ele>2321.75</ele></trkpt>
   <trkpt lon="11.847946" lat="46.240494"><ele>2321.0</ele></trkpt>
   <trkpt lon="11.847973" lat="46.240522"><ele>2318.25</ele></trkpt>
   <trkpt lon="11.847968" lat="46.240547"><ele>2317.5</ele></trkpt>
   <trkpt lon="11.848129" lat="46.240617"><ele>2347.5</ele></trkpt>
   <trkpt lon="11.848178" lat="46.240624"><ele>2346.25</ele></trkpt>
   <trkpt lon="11.848260" lat="46.240650"><ele>2350.5</ele></trkpt>
   <trkpt lon="11.848398" lat="46.240734"><ele>2367.5</ele></trkpt>
   <trkpt lon="11.848550" lat="46.240766"><ele>2350.5</ele></trkpt>
   <trkpt lon="11.848747" lat="46.240786"><ele>2333.25</ele></trkpt>
   <trkpt lon="11.848841" lat="46.240772"><ele>2323.5</ele></trkpt>
   <trkpt lon="11.848963" lat="46.240742"><ele>2329.0</ele></trkpt>
   <trkpt lon="11.849058" lat="46.240732"><ele>2341.75</ele></trkpt>
   <trkpt lon="11.849289" lat="46.240740"><ele>2346.5</ele></trkpt>
   <trkpt lon="11.849407" lat="46.240789"><ele>2353.25</ele></trkpt>
   <trkpt lon="11.849517" lat="46.240798"><ele>2342.75</ele></trkpt>
   <trkpt lon="11.849640" lat="46.240780"><ele>2321.75</ele></trkpt>
   <trkpt lon="11.849711" lat="46.240750"><ele>2302.25</ele></trkpt>
   <trkpt lon="11.849792" lat="46.240739"><ele>2286.0</ele></trkpt>
   <trkpt lon="11.849851" lat="46.240751"><ele>2281.0</ele></trkpt>
   <trkpt lon="11.849859" lat="46.240813"><ele>2302.0</ele></trkpt>
   <trkpt lon="11.849885" lat="46.240853"><ele>2305.75</ele></trkpt>
   <trkpt lon="11.849946" lat="46.240862"><ele>2295.0</ele></trkpt>
   <trkpt lon="11.849969" lat="46.240899"><ele>2292.5</ele></trkpt>
   <trkpt lon="11.850024" lat="46.240916"><ele>2284.75</ele></trkpt>
   <trkpt lon="11.850072" lat="46.241004"><ele>2282.5</ele></trkpt>
   <trkpt lon="11.850097" lat="46.241053"><ele>2281.0</ele></trkpt>
   <trkpt lon="11.850080" lat="46.241156"><ele>2285.5</ele></trkpt>
   <trkpt lon="11.850115" lat="46.241241"><ele>2281.75</ele></trkpt>
   <trkpt lon="11.850191" lat="46.241364"><ele>2271.5</ele></trkpt>
   <trkpt lon="11.850236" lat="46.241468"><ele>2262.5</ele></trkpt>
   <trkpt lon="11.850202" lat="46.241512"><ele>2266.75</ele></trkpt>
   <trkpt lon="11.850227" lat="46.241560"><ele>2261.75</ele></trkpt>
   <trkpt lon="11.850213" lat="46.241585"><ele>2263.25</ele></trkpt>
   <trkpt lon="11.850174" lat="46.241591"><ele>2268.75</ele></trkpt>
   <trkpt lon="11.850175" lat="46.241624"><ele>2267.75</ele></trkpt>
   <trkpt lon="11.850208" lat="46.241699"><ele>2258.5</ele></trkpt>
   <trkpt lon="11.850177" lat="46.241740"><ele>2258.5</ele></trkpt>
   <trkpt lon="11.850172" lat="46.241768"><ele>2256.25</ele></trkpt>
   <trkpt lon="11.850133" lat="46.241793"><ele>2259.25</ele></trkpt>
   <trkpt lon="11.850104" lat="46.241860"><ele>2256.75</ele></trkpt>
   <trkpt lon="11.850101" lat="46.241897"><ele>2253.25</ele></trkpt>
   <trkpt lon="11.850013" lat="46.241953"><ele>2260.75</ele></trkpt>
   <trkpt lon="11.849963" lat="46.241990"><ele>2269.25</ele></trkpt>
   <trkpt lon="11.849939" lat="46.242024"><ele>2272.75</ele></trkpt>
   <trkpt lon="11.849953" lat="46.242078"><ele>2262.5</ele></trkpt>
   <trkpt lon="11.849943" lat="46.242140"><ele>2259.0</ele></trkpt>
   <trkpt lon="11.849914" lat="46.242226"><ele>2261.0</ele></trkpt>
   <trkpt lon="11.849931" lat="46.242406"><ele>2247.75</ele></trkpt>
   <trkpt lon="11.849919" lat="46.242428"><ele>2251.5</ele></trkpt>
   <trkpt lon="11.849916" lat="46.242471"><ele>2251.0</ele></trkpt>
   <trkpt lon="11.849895" lat="46.242516"><ele>2257.5</ele></trkpt>
   <trkpt lon="11.849896" lat="46.242541"><ele>2256.5</ele></trkpt>
   <trkpt lon="11.849911" lat="46.242560"><ele>2251.25</ele></trkpt>
   <trkpt lon="11.849914" lat="46.242604"><ele>2249.75</ele></trkpt>
   <trkpt lon="11.850024" lat="46.242629"><ele>2225.5</ele></trkpt>
   <trkpt lon="11.850077" lat="46.242624"><ele>2221.25</ele></trkpt>
   <trkpt lon="11.850150" lat="46.242647"><ele>2217.25</ele></trkpt>
   <trkpt lon="11.850179" lat="46.242673"><ele>2216.75</ele></trkpt>
   <trkpt lon="11.850203" lat="46.242708"><ele>2217.0</ele></trkpt>
   <trkpt lon="11.850213" lat="46.242754"><ele>2218.75</ele></trkpt>
   <trkpt lon="11.850253" lat="46.242776"><ele>2216.75</ele></trkpt>
   <trkpt lon="11.850323" lat="46.242793"><ele>2215.0</ele></trkpt>
   <trkpt lon="11.850487" lat="46.242799"><ele>2212.0</ele></trkpt>
   <trkpt lon="11.850460" lat="46.242821"><ele>2214.5</ele></trkpt>
   <trkpt lon="11.850514" lat="46.242849"><ele>2215.75</ele></trkpt>
   <trkpt lon="11.850536" lat="46.242882"><ele>2218.25</ele></trkpt>
   <trkpt lon="11.850511" lat="46.242938"><ele>2223.25</ele></trkpt>
   <trkpt lon="11.850575" lat="46.242977"><ele>2227.5</ele></trkpt>
   <trkpt lon="11.850611" lat="46.242978"><ele>2230.25</ele></trkpt>
   <trkpt lon="11.850558" lat="46.243022"><ele>2230.25</ele></trkpt>
   <trkpt lon="11.850608" lat="46.243068"><ele>2238.0</ele></trkpt>
   <trkpt lon="11.851020" lat="46.243121"><ele>2272.75</ele></trkpt>
   <trkpt lon="11.850983" lat="46.243158"><ele>2271.0</ele></trkpt>
   <trkpt lon="11.851061" lat="46.243169"><ele>2277.5</ele></trkpt>
   <trkpt lon="11.851138" lat="46.243145"><ele>2281.75</ele></trkpt>
   <trkpt lon="11.851217" lat="46.243150"><ele>2285.0</ele></trkpt>
   <trkpt lon="11.851241" lat="46.243180"><ele>2286.75</ele></trkpt>
   <trkpt lon="11.851279" lat="46.243211"><ele>2289.25</ele></trkpt>
   <trkpt lon="11.851317" lat="46.243219"><ele>2291.0</ele></trkpt>
   <trkpt lon="11.851358" lat="46.243188"><ele>2291.5</ele></trkpt>
   <trkpt lon="11.851387" lat="46.243183"><ele>2292.5</ele></trkpt>
   <trkpt lon="11.851370" lat="46.243211"><ele>2292.75</ele></trkpt>
   <trkpt lon="11.851372" lat="46.243230"><ele>2293.5</ele></trkpt>
   <trkpt lon="11.851392" lat="46.243256"><ele>2295.0</ele></trkpt>
   <trkpt lon="11.851441" lat="46.243271"><ele>2296.25</ele></trkpt>
   <trkpt lon="11.851565" lat="46.243291"><ele>2298.25</ele></trkpt>
   <trkpt lon="11.851795" lat="46.243299"><ele>2301.5</ele></trkpt>
   <trkpt lon="11.852001" lat="46.243344"><ele>2304.75</ele></trkpt>
   <trkpt lon="11.852090" lat="46.243389"><ele>2304.0</ele></trkpt>
   <trkpt lon="11.852136" lat="46.243420"><ele>2303.0</ele></trkpt>
   <trkpt lon="11.852142" lat="46.243476"><ele>2302.75</ele></trkpt>
   <trkpt lon="11.852192" lat="46.243629"><ele>2299.5</ele></trkpt>
   <trkpt lon="11.852289" lat="46.243609"><ele>2296.0</ele></trkpt>
   <trkpt lon="11.852394" lat="46.243576"><ele>2293.25</ele></trkpt>
   <trkpt lon="11.852529" lat="46.243708"><ele>2290.0</ele></trkpt>
   <trkpt lon="11.852630" lat="46.243843"><ele>2288.5</ele></trkpt>
   <trkpt lon="11.852761" lat="46.243864"><ele>2285.25</ele></trkpt>
   <trkpt lon="11.852792" lat="46.243903"><ele>2285.0</ele></trkpt>
   <trkpt lon="11.852815" lat="46.243912"><ele>2284.75</ele></trkpt>
   <trkpt lon="11.852880" lat="46.243906"><ele>2283.25</ele></trkpt>
   <trkpt lon="11.852962" lat="46.243971"><ele>2282.25</ele></trkpt>
   <trkpt lon="11.853034" lat="46.244010"><ele>2280.5</ele></trkpt>
   <trkpt lon="11.853176" lat="46.244053"><ele>2276.75</ele></trkpt>
   <trkpt lon="11.853307" lat="46.244050"><ele>2273.25</ele></trkpt>
   <trkpt lon="11.853373" lat="46.244123"><ele>2273.0</ele></trkpt>
   <trkpt lon="11.853406" lat="46.244205"><ele>2274.0</ele></trkpt>
   <trkpt lon="11.853554" lat="46.244375"><ele>2275.25</ele></trkpt>
   <trkpt lon="11.853677" lat="46.244433"><ele>2275.5</ele></trkpt>
   <trkpt lon="11.853755" lat="46.244507"><ele>2276.5</ele></trkpt>
   <trkpt lon="11.853843" lat="46.244527"><ele>2277.0</ele></trkpt>
   <trkpt lon="11.853944" lat="46.244448"><ele>2278.75</ele></trkpt>
   <trkpt lon="11.854020" lat="46.244346"><ele>2279.0</ele></trkpt>
   <trkpt lon="11.854050" lat="46.244330"><ele>2279.0</ele></trkpt>
   <trkpt lon="11.854142" lat="46.244299"><ele>2279.0</ele></trkpt>
   <trkpt lon="11.854188" lat="46.244253"><ele>2277.5</ele></trkpt>
   <trkpt lon="11.854220" lat="46.244223"><ele>2277.5</ele></trkpt>
   <trkpt lon="11.854266" lat="46.244193"><ele>2277.0</ele></trkpt>
   <trkpt lon="11.854304" lat="46.244182"><ele>2276.75</ele></trkpt>
   <trkpt lon="11.854375" lat="46.244198"><ele>2277.5</ele></trkpt>
   <trkpt lon="11.854433" lat="46.244219"><ele>2278.25</ele></trkpt>
   <trkpt lon="11.854465" lat="46.244270"><ele>2279.0</ele></trkpt>
   <trkpt lon="11.854507" lat="46.244289"><ele>2277.5</ele></trkpt>
   <trkpt lon="11.854699" lat="46.244446"><ele>2272.0</ele></trkpt>
   <trkpt lon="11.854768" lat="46.244473"><ele>2270.0</ele></trkpt>
   <trkpt lon="11.854886" lat="46.244535"><ele>2267.75</ele></trkpt>
   <trkpt lon="11.854964" lat="46.244553"><ele>2266.0</ele></trkpt>
   <trkpt lon="11.855000" lat="46.244696"><ele>2265.75</ele></trkpt>
   <trkpt lon="11.855037" lat="46.244733"><ele>2266.0</ele></trkpt>
   <trkpt lon="11.855099" lat="46.244875"><ele>2264.75</ele></trkpt>
   <trkpt lon="11.855156" lat="46.244939"><ele>2264.25</ele></trkpt>
   <trkpt lon="11.855234" lat="46.245072"><ele>2263.5</ele></trkpt>
   <trkpt lon="11.855289" lat="46.245140"><ele>2263.5</ele></trkpt>
   <trkpt lon="11.855325" lat="46.245224"><ele>2263.5</ele></trkpt>
   <trkpt lon="11.855387" lat="46.245314"><ele>2264.0</ele></trkpt>
   <trkpt lon="11.855387" lat="46.245349"><ele>2264.25</ele></trkpt>
   <trkpt lon="11.855371" lat="46.245376"><ele>2264.5</ele></trkpt>
   <trkpt lon="11.855392" lat="46.245411"><ele>2264.75</ele></trkpt>
   <trkpt lon="11.855468" lat="46.245484"><ele>2264.5</ele></trkpt>
   <trkpt lon="11.855566" lat="46.245533"><ele>2263.0</ele></trkpt>
   <trkpt lon="11.855715" lat="46.245625"><ele>2261.25</ele></trkpt>
   <trkpt lon="11.855780" lat="46.245658"><ele>2260.5</ele></trkpt>
   <trkpt lon="11.855841" lat="46.245701"><ele>2259.75</ele></trkpt>
   <trkpt lon="11.855877" lat="46.245781"><ele>2259.5</ele></trkpt>
   <trkpt lon="11.855916" lat="46.245820"><ele>2259.25</ele></trkpt>
   <trkpt lon="11.855967" lat="46.245906"><ele>2259.5</ele></trkpt>
   <trkpt lon="11.855971" lat="46.245989"><ele>2260.0</ele></trkpt>
   <trkpt lon="11.856025" lat="46.246121"><ele>2259.75</ele></trkpt>
   <trkpt lon="11.856014" lat="46.246186"><ele>2260.5</ele></trkpt>
   <trkpt lon="11.856059" lat="46.246230"><ele>2259.75</ele></trkpt>
   <trkpt lon="11.856040" lat="46.246374"><ele>2261.0</ele></trkpt>
   <trkpt lon="11.855978" lat="46.246417"><ele>2262.75</ele></trkpt>
   <trkpt lon="11.856035" lat="46.246558"><ele>2259.0</ele></trkpt>
   <trkpt lon="11.856017" lat="46.246705"><ele>2257.5</ele></trkpt>
   <trkpt lon="11.856023" lat="46.246774"><ele>2255.75</ele></trkpt>
   <trkpt lon="11.856065" lat="46.246826"><ele>2253.5</ele></trkpt>
   <trkpt lon="11.855986" lat="46.246875"><ele>2255.0</ele></trkpt>
   <trkpt lon="11.855906" lat="46.246966"><ele>2256.0</ele></trkpt>
   <trkpt lon="11.855876" lat="46.247058"><ele>2257.25</ele></trkpt>
   <trkpt lon="11.855852" lat="46.247077"><ele>2258.0</ele></trkpt>
   <trkpt lon="11.855910" lat="46.247148"><ele>2257.0</ele></trkpt>
   <trkpt lon="11.855916" lat="46.247207"><ele>2257.25</ele></trkpt>
   <trkpt lon="11.855992" lat="46.247330"><ele>2259.5</ele></trkpt>
   <trkpt lon="11.855984" lat="46.247487"><ele>2264.75</ele></trkpt>
   <trkpt lon="11.855973" lat="46.247552"><ele>2266.75</ele></trkpt>
   <trkpt lon="11.855998" lat="46.247593"><ele>2267.25</ele></trkpt>
   <trkpt lon="11.855957" lat="46.247697"><ele>2271.5</ele></trkpt>
   <trkpt lon="11.856006" lat="46.247712"><ele>2270.5</ele></trkpt>
   <trkpt lon="11.856015" lat="46.247784"><ele>2272.0</ele></trkpt>
   <trkpt lon="11.855985" lat="46.247828"><ele>2274.0</ele></trkpt>
   <trkpt lon="11.855999" lat="46.247905"><ele>2275.0</ele></trkpt>
   <trkpt lon="11.855933" lat="46.247998"><ele>2279.0</ele></trkpt>
   <trkpt lon="11.855900" lat="46.248024"><ele>2280.25</ele></trkpt>
   <trkpt lon="11.855937" lat="46.248089"><ele>2280.0</ele></trkpt>
   <trkpt lon="11.855910" lat="46.248159"><ele>2281.25</ele></trkpt>
   <trkpt lon="11.855931" lat="46.248304"><ele>2281.5</ele></trkpt>
   <trkpt lon="11.855910" lat="46.248361"><ele>2282.5</ele></trkpt>
   <trkpt lon="11.855921" lat="46.248422"><ele>2282.5</ele></trkpt>
   <trkpt lon="11.855884" lat="46.248519"><ele>2284.0</ele></trkpt>
   <trkpt lon="11.855976" lat="46.248582"><ele>2281.5</ele></trkpt>
   <trkpt lon="11.856081" lat="46.248701"><ele>2282.0</ele></trkpt>
   <trkpt lon="11.856192" lat="46.248793"><ele>2285.75</ele></trkpt>
   <trkpt lon="11.856243" lat="46.248852"><ele>2289.0</ele></trkpt>
   <trkpt lon="11.856260" lat="46.248916"><ele>2292.0</ele></trkpt>
   <trkpt lon="11.856204" lat="46.248961"><ele>2293.0</ele></trkpt>
   <trkpt lon="11.856125" lat="46.248997"><ele>2293.75</ele></trkpt>
   <trkpt lon="11.856126" lat="46.249023"><ele>2294.75</ele></trkpt>
   <trkpt lon="11.856095" lat="46.249036"><ele>2295.25</ele></trkpt>
   <trkpt lon="11.856091" lat="46.249092"><ele>2297.5</ele></trkpt>
   <trkpt lon="11.856098" lat="46.249119"><ele>2298.75</ele></trkpt>
   <trkpt lon="11.856150" lat="46.249115"><ele>2298.75</ele></trkpt>
   <trkpt lon="11.856174" lat="46.249126"><ele>2299.25</ele></trkpt>
   <trkpt lon="11.856192" lat="46.249113"><ele>2298.75</ele></trkpt>
   <trkpt lon="11.856214" lat="46.249113"><ele>2298.75</ele></trkpt>
   <trkpt lon="11.856238" lat="46.249197"><ele>2301.0</ele></trkpt>
   <trkpt lon="11.856302" lat="46.249221"><ele>2301.0</ele></trkpt>
   <trkpt lon="11.856357" lat="46.249234"><ele>2300.75</ele></trkpt>
   <trkpt lon="11.856394" lat="46.249268"><ele>2300.5</ele></trkpt>
   <trkpt lon="11.856445" lat="46.249438"><ele>2300.0</ele></trkpt>
   <trkpt lon="11.856499" lat="46.249524"><ele>2300.25</ele></trkpt>
   <trkpt lon="11.856546" lat="46.249548"><ele>2300.5</ele></trkpt>
   <trkpt lon="11.856572" lat="46.249612"><ele>2300.75</ele></trkpt>
   <trkpt lon="11.856689" lat="46.249648"><ele>2300.5</ele></trkpt>
   <trkpt lon="11.856734" lat="46.249807"><ele>2300.25</ele></trkpt>
   <trkpt lon="11.856800" lat="46.249869"><ele>2299.75</ele></trkpt>
   <trkpt lon="11.856880" lat="46.249921"><ele>2299.0</ele></trkpt>
   <trkpt lon="11.856962" lat="46.249954"><ele>2298.75</ele></trkpt>
   <trkpt lon="11.857068" lat="46.250057"><ele>2299.75</ele></trkpt>
   <trkpt lon="11.857147" lat="46.250023"><ele>2299.75</ele></trkpt>
   <trkpt lon="11.857261" lat="46.250082"><ele>2301.0</ele></trkpt>
   <trkpt lon="11.857309" lat="46.250032"><ele>2301.75</ele></trkpt>
   <trkpt lon="11.857412" lat="46.250007"><ele>2304.0</ele></trkpt>
   <trkpt lon="11.857525" lat="46.250113"><ele>2306.25</ele></trkpt>
   <trkpt lon="11.857579" lat="46.250122"><ele>2308.5</ele></trkpt>
   <trkpt lon="11.857640" lat="46.250170"><ele>2310.75</ele></trkpt>
   <trkpt lon="11.857707" lat="46.250239"><ele>2313.0</ele></trkpt>
   <trkpt lon="11.857761" lat="46.250196"><ele>2315.75</ele></trkpt>
   <trkpt lon="11.857814" lat="46.250253"><ele>2317.5</ele></trkpt>
   <trkpt lon="11.857851" lat="46.250256"><ele>2319.25</ele></trkpt>
   <trkpt lon="11.857845" lat="46.250292"><ele>2318.75</ele></trkpt>
   <trkpt lon="11.857832" lat="46.250921"><ele>2322.75</ele></trkpt>
   <trkpt lon="11.857284" lat="46.251225"><ele>2313.75</ele></trkpt>
   <trkpt lon="11.857102" lat="46.251752"><ele>2335.0</ele></trkpt>
   <trkpt lon="11.857381" lat="46.251856"><ele>2348.75</ele></trkpt>
   <trkpt lon="11.857359" lat="46.252494"><ele>2418.5</ele></trkpt>
   <trkpt lon="11.857553" lat="46.253265"><ele>2433.5</ele></trkpt>
   <trkpt lon="11.857424" lat="46.253933"><ele>2463.25</ele></trkpt>
   <trkpt lon="11.857531" lat="46.254497"><ele>2489.5</ele></trkpt>
   <trkpt lon="11.857617" lat="46.255261"><ele>2547.0</ele></trkpt>
   <trkpt lon="11.857520" lat="46.255684"><ele>2578.25</ele></trkpt>
   <trkpt lon="11.857735" lat="46.256893"><ele>2644.25</ele></trkpt>
   <trkpt lon="11.857767" lat="46.257264"><ele>2662.5</ele></trkpt>
   <trkpt lon="11.857778" lat="46.257857"><ele>2677.0</ele></trkpt>
   <trkpt lon="11.857907" lat="46.258065"><ele>2676.5</ele></trkpt>
   <trkpt lon="11.858314" lat="46.258228"><ele>2677.25</ele></trkpt>
   <trkpt lon="11.858432" lat="46.258451"><ele>2699.0</ele></trkpt>
   <trkpt lon="11.858314" lat="46.258606"><ele>2716.0</ele></trkpt>
   <trkpt lon="11.857724" lat="46.258710"><ele>2712.0</ele></trkpt>
   <trkpt lon="11.857177" lat="46.258903"><ele>2709.0</ele></trkpt>
   <trkpt lon="11.857177" lat="46.259222"><ele>2702.0</ele></trkpt>
   <trkpt lon="11.857542" lat="46.259771"><ele>2681.75</ele></trkpt>
   <trkpt lon="11.858072" lat="46.260279"><ele>2659.0</ele></trkpt>
   <trkpt lon="11.857982" lat="46.260527"><ele>2656.5</ele></trkpt>
   <trkpt lon="11.857803" lat="46.260731"><ele>2657.25</ele></trkpt>
   <trkpt lon="11.857595" lat="46.260929"><ele>2657.75</ele></trkpt>
   <trkpt lon="11.857272" lat="46.261063"><ele>2663.25</ele></trkpt>
   <trkpt lon="11.857028" lat="46.261123"><ele>2665.75</ele></trkpt>
   <trkpt lon="11.856835" lat="46.261272"><ele>2662.75</ele></trkpt>
   <trkpt lon="11.856497" lat="46.261361"><ele>2662.0</ele></trkpt>
   <trkpt lon="11.856259" lat="46.261540"><ele>2656.5</ele></trkpt>
   <trkpt lon="11.856015" lat="46.261570"><ele>2656.25</ele></trkpt>
   <trkpt lon="11.855864" lat="46.261738"><ele>2651.0</ele></trkpt>
   <trkpt lon="11.855565" lat="46.261859"><ele>2648.0</ele></trkpt>
   <trkpt lon="11.855502" lat="46.262068"><ele>2648.0</ele></trkpt>
   <trkpt lon="11.855533" lat="46.262256"><ele>2649.5</ele></trkpt>
   <trkpt lon="11.855657" lat="46.262256"><ele>2649.0</ele></trkpt>
   <trkpt lon="11.855635" lat="46.262408"><ele>2648.5</ele></trkpt>
   <trkpt lon="11.855654" lat="46.262640"><ele>2645.5</ele></trkpt>
   <trkpt lon="11.855575" lat="46.262755"><ele>2642.5</ele></trkpt>
   <trkpt lon="11.855606" lat="46.262901"><ele>2638.75</ele></trkpt>
   <trkpt lon="11.855556" lat="46.263149"><ele>2632.75</ele></trkpt>
   <trkpt lon="11.855595" lat="46.263660"><ele>2630.25</ele></trkpt>
   <trkpt lon="11.855452" lat="46.263843"><ele>2627.5</ele></trkpt>
   <trkpt lon="11.855498" lat="46.263945"><ele>2625.5</ele></trkpt>
   <trkpt lon="11.855465" lat="46.264036"><ele>2622.25</ele></trkpt>
   <trkpt lon="11.855330" lat="46.264084"><ele>2619.25</ele></trkpt>
   <trkpt lon="11.855432" lat="46.264143"><ele>2618.25</ele></trkpt>
   <trkpt lon="11.855351" lat="46.264298"><ele>2613.0</ele></trkpt>
   <trkpt lon="11.855150" lat="46.264445"><ele>2608.75</ele></trkpt>
   <trkpt lon="11.854939" lat="46.264507"><ele>2608.25</ele></trkpt>
   <trkpt lon="11.854794" lat="46.264636"><ele>2611.5</ele></trkpt>
   <trkpt lon="11.854697" lat="46.264621"><ele>2613.0</ele></trkpt>
   <trkpt lon="11.854603" lat="46.264646"><ele>2612.0</ele></trkpt>
   <trkpt lon="11.854475" lat="46.264806"><ele>2613.25</ele></trkpt>
   <trkpt lon="11.854044" lat="46.264983"><ele>2616.0</ele></trkpt>
   <trkpt lon="11.853771" lat="46.265042"><ele>2617.5</ele></trkpt>
   <trkpt lon="11.853604" lat="46.265176"><ele>2615.5</ele></trkpt>
   <trkpt lon="11.853497" lat="46.265242"><ele>2614.25</ele></trkpt>
   <trkpt lon="11.853329" lat="46.265292"><ele>2614.25</ele></trkpt>
   <trkpt lon="11.853286" lat="46.265356"><ele>2611.75</ele></trkpt>
   <trkpt lon="11.853023" lat="46.265376"><ele>2609.25</ele></trkpt>
   <trkpt lon="11.852879" lat="46.265451"><ele>2605.25</ele></trkpt>
   <trkpt lon="11.852373" lat="46.265467"><ele>2600.25</ele></trkpt>
   <trkpt lon="11.852191" lat="46.265484"><ele>2600.75</ele></trkpt>
   <trkpt lon="11.852060" lat="46.265585"><ele>2605.25</ele></trkpt>
   <trkpt lon="11.851995" lat="46.265585"><ele>2606.25</ele></trkpt>
   <trkpt lon="11.851772" lat="46.265699"><ele>2607.75</ele></trkpt>
   <trkpt lon="11.851633" lat="46.265689"><ele>2608.0</ele></trkpt>
   <trkpt lon="11.851340" lat="46.265754"><ele>2608.0</ele></trkpt>
   <trkpt lon="11.851002" lat="46.265818"><ele>2609.75</ele></trkpt>
   <trkpt lon="11.850674" lat="46.265987"><ele>2607.5</ele></trkpt>
   <trkpt lon="11.850560" lat="46.265992"><ele>2607.75</ele></trkpt>
   <trkpt lon="11.850505" lat="46.266171"><ele>2603.5</ele></trkpt>
   <trkpt lon="11.850347" lat="46.266225"><ele>2602.5</ele></trkpt>
   <trkpt lon="11.850067" lat="46.266232"><ele>2599.5</ele></trkpt>
   <trkpt lon="11.850009" lat="46.266262"><ele>2598.25</ele></trkpt>
   <trkpt lon="11.849692" lat="46.266274"><ele>2595.75</ele></trkpt>
   <trkpt lon="11.849412" lat="46.266219"><ele>2593.75</ele></trkpt>
   <trkpt lon="11.849127" lat="46.266194"><ele>2589.5</ele></trkpt>
   <trkpt lon="11.848964" lat="46.266116"><ele>2588.75</ele></trkpt>
   <trkpt lon="11.848662" lat="46.266119"><ele>2583.5</ele></trkpt>
   <trkpt lon="11.848225" lat="46.266018"><ele>2578.25</ele></trkpt>
   <trkpt lon="11.847976" lat="46.265974"><ele>2573.5</ele></trkpt>
   <trkpt lon="11.847633" lat="46.265948"><ele>2564.75</ele></trkpt>
   <trkpt lon="11.847135" lat="46.265974"><ele>2553.5</ele></trkpt>
   <trkpt lon="11.847029" lat="46.265964"><ele>2551.25</ele></trkpt>
   <trkpt lon="11.846732" lat="46.265980"><ele>2545.5</ele></trkpt>
   <trkpt lon="11.846448" lat="46.265931"><ele>2543.0</ele></trkpt>
   <trkpt lon="11.846110" lat="46.265976"><ele>2543.25</ele></trkpt>
   <trkpt lon="11.845775" lat="46.266051"><ele>2543.5</ele></trkpt>
   <trkpt lon="11.845515" lat="46.266051"><ele>2544.75</ele></trkpt>
   <trkpt lon="11.844658" lat="46.266143"><ele>2548.5</ele></trkpt>
   <trkpt lon="11.844415" lat="46.266145"><ele>2550.5</ele></trkpt>
   <trkpt lon="11.843982" lat="46.266044"><ele>2552.0</ele></trkpt>
   <trkpt lon="11.843472" lat="46.266180"><ele>2558.25</ele></trkpt>
   <trkpt lon="11.842652" lat="46.266348"><ele>2562.75</ele></trkpt>
   <trkpt lon="11.842403" lat="46.266439"><ele>2563.25</ele></trkpt>
   <trkpt lon="11.842165" lat="46.266441"><ele>2566.75</ele></trkpt>
   <trkpt lon="11.841840" lat="46.266463"><ele>2569.0</ele></trkpt>
   <trkpt lon="11.841440" lat="46.266482"><ele>2570.0</ele></trkpt>
   <trkpt lon="11.841457" lat="46.266540"><ele>2568.0</ele></trkpt>
   <trkpt lon="11.841216" lat="46.266629"><ele>2566.5</ele></trkpt>
   <trkpt lon="11.841088" lat="46.266654"><ele>2567.25</ele></trkpt>
   <trkpt lon="11.840944" lat="46.266711"><ele>2568.0</ele></trkpt>
   <trkpt lon="11.840863" lat="46.266753"><ele>2568.0</ele></trkpt>
   <trkpt lon="11.840832" lat="46.266795"><ele>2567.5</ele></trkpt>
   <trkpt lon="11.840822" lat="46.266830"><ele>2567.0</ele></trkpt>
   <trkpt lon="11.840852" lat="46.266902"><ele>2565.5</ele></trkpt>
   <trkpt lon="11.840648" lat="46.266995"><ele>2565.75</ele></trkpt>
   <trkpt lon="11.840113" lat="46.267169"><ele>2570.25</ele></trkpt>
   <trkpt lon="11.839756" lat="46.267258"><ele>2573.25</ele></trkpt>
   <trkpt lon="11.839443" lat="46.267316"><ele>2573.5</ele></trkpt>
   <trkpt lon="11.839348" lat="46.267350"><ele>2574.25</ele></trkpt>
   <trkpt lon="11.839282" lat="46.267339"><ele>2574.25</ele></trkpt>
   <trkpt lon="11.839215" lat="46.267341"><ele>2574.25</ele></trkpt>
   <trkpt lon="11.839024" lat="46.267335"><ele>2576.0</ele></trkpt>
  </trkseg>
 </trk>
</gpx>
