<?xml version="1.0" encoding="UTF-8"?>
<!-- track-length = 7329 filtered ascend = 937 plain-ascend = 861 cost=38444 energy=.2kwh time=2h 16m 49s -->
<gpx 
 xmlns="http://www.topografix.com/GPX/1/1" 
 xmlns:xsi="http://www.w3.org/2001/XMLSchema-instance" 
 xsi:schemaLocation="http://www.topografix.com/GPX/1/1 http://www.topografix.com/GPX/1/1/gpx.xsd" 
 creator="BRouter-1.7.10" version="1.1">
 <trk>
  <name>brouter_trekking_0</name>
  <trkseg>
   <trkpt lon="11.802701" lat="46.262429"><ele>1469.0</ele></trkpt>
   <trkpt lon="11.802785" lat="46.262485"><ele>1469.75</ele></trkpt>
   <trkpt lon="11.802902" lat="46.262562"><ele>1470.25</ele></trkpt>
   <trkpt lon="11.803037" lat="46.262636"><ele>1470.75</ele></trkpt>
   <trkpt lon="11.803515" lat="46.262792"><ele>1474.5</ele></trkpt>
   <trkpt lon="11.803542" lat="46.262812"><ele>1474.75</ele></trkpt>
   <trkpt lon="11.803633" lat="46.262971"><ele>1477.25</ele></trkpt>
   <trkpt lon="11.803680" lat="46.263127"><ele>1479.5</ele></trkpt>
   <trkpt lon="11.803690" lat="46.263163"><ele>1480.25</ele></trkpt>
   <trkpt lon="11.803670" lat="46.263292"><ele>1481.75</ele></trkpt>
   <trkpt lon="11.803642" lat="46.263335"><ele>1482.0</ele></trkpt>
   <trkpt lon="11.803575" lat="46.263438"><ele>1483.5</ele></trkpt>
   <trkpt lon="11.803375" lat="46.263702"><ele>1485.0</ele></trkpt>
   <trkpt lon="11.803306" lat="46.263821"><ele>1486.5</ele></trkpt>
   <trkpt lon="11.803292" lat="46.263988"><ele>1489.0</ele></trkpt>
   <trkpt lon="11.803213" lat="46.264610"><ele>1496.75</ele></trkpt>
   <trkpt lon="11.803236" lat="46.264696"><ele>1497.5</ele></trkpt>
   <trkpt lon="11.803223" lat="46.264831"><ele>1499.25</ele></trkpt>
   <trkpt lon="11.803218" lat="46.264884"><ele>1499.75</ele></trkpt>
   <trkpt lon="11.803325" lat="46.264970"><ele>1500.5</ele></trkpt>
   <trkpt lon="11.803417" lat="46.265009"><ele>1501.5</ele></trkpt>
   <trkpt lon="11.803525" lat="46.265009"><ele>1502.0</ele></trkpt>
   <trkpt lon="11.803636" lat="46.264949"><ele>1502.0</ele></trkpt>
   <trkpt lon="11.804380" lat="46.264587"><ele>1505.25</ele></trkpt>
   <trkpt lon="11.804475" lat="46.264554"><ele>1505.5</ele></trkpt>
   <trkpt lon="11.804542" lat="46.264569"><ele>1506.25</ele></trkpt>
   <trkpt lon="11.804570" lat="46.264616"><ele>1507.0</ele></trkpt>
   <trkpt lon="11.804572" lat="46.264670"><ele>1508.0</ele></trkpt>
   <trkpt lon="11.804528" lat="46.264777"><ele>1509.25</ele></trkpt>
   <trkpt lon="11.804425" lat="46.264874"><ele>1510.0</ele></trkpt>
   <trkpt lon="11.804279" lat="46.264950"><ele>1510.25</ele></trkpt>
   <trkpt lon="11.804477" lat="46.265008"><ele>1512.5</ele></trkpt>
   <trkpt lon="11.804657" lat="46.265084"><ele>1516.0</ele></trkpt>
   <trkpt lon="11.804753" lat="46.265115"><ele>1517.5</ele></trkpt>
   <trkpt lon="11.804864" lat="46.265128"><ele>1518.5</ele></trkpt>
   <trkpt lon="11.805048" lat="46.265133"><ele>1519.5</ele></trkpt>
   <trkpt lon="11.805313" lat="46.265135"><ele>1521.5</ele></trkpt>
   <trkpt lon="11.805704" lat="46.265128"><ele>1524.75</ele></trkpt>
   <trkpt lon="11.805818" lat="46.265120"><ele>1525.25</ele></trkpt>
   <trkpt lon="11.805899" lat="46.265089"><ele>1525.5</ele></trkpt>
   <trkpt lon="11.805969" lat="46.265046"><ele>1526.0</ele></trkpt>
   <trkpt lon="11.806323" lat="46.264768"><ele>1527.5</ele></trkpt>
   <trkpt lon="11.806971" lat="46.264300"><ele>1529.5</ele></trkpt>
   <trkpt lon="11.807097" lat="46.264221"><ele>1529.75</ele></trkpt>
   <trkpt lon="11.807223" lat="46.264202"><ele>1530.5</ele></trkpt>
   <trkpt lon="11.807297" lat="46.264160"><ele>1530.5</ele></trkpt>
   <trkpt lon="11.807473" lat="46.264088"><ele>1530.75</ele></trkpt>
   <trkpt lon="11.807532" lat="46.264050"><ele>1530.25</ele></trkpt>
   <trkpt lon="11.807580" lat="46.264004"><ele>1529.75</ele></trkpt>
   <trkpt lon="11.807661" lat="46.263920"><ele>1529.25</ele></trkpt>
   <trkpt lon="11.807713" lat="46.263888"><ele>1529.75</ele></trkpt>
   <trkpt lon="11.807834" lat="46.263830"><ele>1530.25</ele></trkpt>
   <trkpt lon="11.807944" lat="46.263787"><ele>1530.0</ele></trkpt>
   <trkpt lon="11.808120" lat="46.263685"><ele>1530.5</ele></trkpt>
   <trkpt lon="11.808211" lat="46.263611"><ele>1532.5</ele></trkpt>
   <trkpt lon="11.808309" lat="46.263517"><ele>1531.0</ele></trkpt>
   <trkpt lon="11.808358" lat="46.263433"><ele>1528.25</ele></trkpt>
   <trkpt lon="11.808500" lat="46.263231"><ele>1525.0</ele></trkpt>
   <trkpt lon="11.808585" lat="46.263148"><ele>1524.5</ele></trkpt>
   <trkpt lon="11.808629" lat="46.263127"><ele>1524.5</ele></trkpt>
   <trkpt lon="11.808812" lat="46.263062"><ele>1524.25</ele></trkpt>
   <trkpt lon="11.808961" lat="46.262979"><ele>1524.25</ele></trkpt>
   <trkpt lon="11.809037" lat="46.262879"><ele>1523.0</ele></trkpt>
   <trkpt lon="11.809105" lat="46.262745"><ele>1521.25</ele></trkpt>
   <trkpt lon="11.809162" lat="46.262695"><ele>1521.0</ele></trkpt>
   <trkpt lon="11.809328" lat="46.262609"><ele>1520.75</ele></trkpt>
   <trkpt lon="11.809656" lat="46.262398"><ele>1519.75</ele></trkpt>
   <trkpt lon="11.809945" lat="46.262151"><ele>1517.0</ele></trkpt>
   <trkpt lon="11.809998" lat="46.262114"><ele>1516.5</ele></trkpt>
   <trkpt lon="11.810223" lat="46.262025"><ele>1515.5</ele></trkpt>
   <trkpt lon="11.810299" lat="46.262011"><ele>1514.75</ele></trkpt>
   <trkpt lon="11.810383" lat="46.262004"><ele>1512.0</ele></trkpt>
   <trkpt lon="11.810476" lat="46.262025"><ele>1510.5</ele></trkpt>
   <trkpt lon="11.810566" lat="46.262074"><ele>1511.0</ele></trkpt>
   <trkpt lon="11.810797" lat="46.262217"><ele>1512.75</ele></trkpt>
   <trkpt lon="11.810863" lat="46.262246"><ele>1512.0</ele></trkpt>
   <trkpt lon="11.810949" lat="46.262269"><ele>1511.5</ele></trkpt>
   <trkpt lon="11.811106" lat="46.262276"><ele>1510.0</ele></trkpt>
   <trkpt lon="11.811175" lat="46.262262"><ele>1513.25</ele></trkpt>
   <trkpt lon="11.811205" lat="46.262249"><ele>1514.5</ele></trkpt>
   <trkpt lon="11.811235" lat="46.262216"><ele>1515.25</ele></trkpt>
   <trkpt lon="11.811274" lat="46.262130"><ele>1515.75</ele></trkpt>
   <trkpt lon="11.811280" lat="46.262043"><ele>1515.0</ele></trkpt>
   <trkpt lon="11.811271" lat="46.261984"><ele>1514.0</ele></trkpt>
   <trkpt lon="11.811203" lat="46.261747"><ele>1512.75</ele></trkpt>
   <trkpt lon="11.811524" lat="46.260827"><ele>1518.75</ele></trkpt>
   <trkpt lon="11.811631" lat="46.260288"><ele>1520.75</ele></trkpt>
   <trkpt lon="11.811667" lat="46.260059"><ele>1522.0</ele></trkpt>
   <trkpt lon="11.811702" lat="46.259920"><ele>1521.5</ele></trkpt>
   <trkpt lon="11.811788" lat="46.259801"><ele>1522.0</ele></trkpt>
   <trkpt lon="11.811904" lat="46.259699"><ele>1523.0</ele></trkpt>
   <trkpt lon="11.812162" lat="46.259616"><ele>1526.75</ele></trkpt>
   <trkpt lon="11.812261" lat="46.259564"><ele>1528.0</ele></trkpt>
   <trkpt lon="11.812341" lat="46.259490"><ele>1528.75</ele></trkpt>
   <trkpt lon="11.812433" lat="46.259374"><ele>1528.5</ele></trkpt>
   <trkpt lon="11.812537" lat="46.259292"><ele>1529.0</ele></trkpt>
   <trkpt lon="11.812875" lat="46.259193"><ele>1533.0</ele></trkpt>
   <trkpt lon="11.812985" lat="46.259104"><ele>1533.75</ele></trkpt>
   <trkpt lon="11.813032" lat="46.258958"><ele>1535.0</ele></trkpt>
   <trkpt lon="11.813271" lat="46.258602"><ele>1538.75</ele></trkpt>
   <trkpt lon="11.813332" lat="46.258341"><ele>1540.75</ele></trkpt>
   <trkpt lon="11.813403" lat="46.258254"><ele>1543.25</ele></trkpt>
   <trkpt lon="11.813410" lat="46.258157"><ele>1544.25</ele></trkpt>
   <trkpt lon="11.813372" lat="46.257941"><ele>1543.5</ele></trkpt>
   <trkpt lon="11.813474" lat="46.257721"><ele>1549.75</ele></trkpt>
   <trkpt lon="11.813472" lat="46.257475"><ele>1550.25</ele></trkpt>
   <trkpt lon="11.813523" lat="46.257365"><ele>1551.5</ele></trkpt>
   <trkpt lon="11.813630" lat="46.257199"><ele>1554.0</ele></trkpt>
   <trkpt lon="11.813858" lat="46.256957"><ele>1556.0</ele></trkpt>
   <trkpt lon="11.814001" lat="46.256783"><ele>1557.0</ele></trkpt>
   <trkpt lon="11.814129" lat="46.256673"><ele>1558.75</ele></trkpt>
   <trkpt lon="11.814239" lat="46.256559"><ele>1561.25</ele></trkpt>
   <trkpt lon="11.814278" lat="46.256489"><ele>1561.75</ele></trkpt>
   <trkpt lon="11.814312" lat="46.256402"><ele>1561.5</ele></trkpt>
   <trkpt lon="11.814411" lat="46.256197"><ele>1563.5</ele></trkpt>
   <trkpt lon="11.814524" lat="46.256001"><ele>1564.5</ele></trkpt>
   <trkpt lon="11.814627" lat="46.255891"><ele>1566.25</ele></trkpt>
   <trkpt lon="11.814706" lat="46.255810"><ele>1567.25</ele></trkpt>
   <trkpt lon="11.814844" lat="46.255718"><ele>1569.0</ele></trkpt>
   <trkpt lon="11.814945" lat="46.255665"><ele>1570.75</ele></trkpt>
   <trkpt lon="11.815076" lat="46.255541"><ele>1571.5</ele></trkpt>
   <trkpt lon="11.815306" lat="46.255302"><ele>1572.75</ele></trkpt>
   <trkpt lon="11.815491" lat="46.255097"><ele>1574.5</ele></trkpt>
   <trkpt lon="11.815675" lat="46.254953"><ele>1577.25</ele></trkpt>
   <trkpt lon="11.815888" lat="46.254656"><ele>1579.5</ele></trkpt>
   <trkpt lon="11.815952" lat="46.254593"><ele>1579.75</ele></trkpt>
   <trkpt lon="11.816043" lat="46.254482"><ele>1580.25</ele></trkpt>
   <trkpt lon="11.816095" lat="46.254379"><ele>1580.75</ele></trkpt>
   <trkpt lon="11.816132" lat="46.254257"><ele>1581.5</ele></trkpt>
   <trkpt lon="11.816157" lat="46.254150"><ele>1582.5</ele></trkpt>
   <trkpt lon="11.816141" lat="46.254040"><ele>1582.75</ele></trkpt>
   <trkpt lon="11.816102" lat="46.253894"><ele>1582.25</ele></trkpt>
   <trkpt lon="11.816106" lat="46.253860"><ele>1582.0</ele></trkpt>
   <trkpt lon="11.816135" lat="46.253803"><ele>1582.5</ele></trkpt>
   <trkpt lon="11.816245" lat="46.253697"><ele>1585.25</ele></trkpt>
   <trkpt lon="11.816393" lat="46.253588"><ele>1587.0</ele></trkpt>
   <trkpt lon="11.816633" lat="46.253444"><ele>1586.5</ele></trkpt>
   <trkpt lon="11.816744" lat="46.253319"><ele>1585.5</ele></trkpt>
   <trkpt lon="11.816860" lat="46.253167"><ele>1586.0</ele></trkpt>
   <trkpt lon="11.817036" lat="46.252891"><ele>1588.25</ele></trkpt>
   <trkpt lon="11.817210" lat="46.252545"><ele>1588.25</ele></trkpt>
   <trkpt lon="11.817252" lat="46.252486"><ele>1588.0</ele></trkpt>
   <trkpt lon="11.817364" lat="46.252413"><ele>1588.25</ele></trkpt>
   <trkpt lon="11.817466" lat="46.252371"><ele>1588.75</ele></trkpt>
   <trkpt lon="11.817818" lat="46.252250"><ele>1588.5</ele></trkpt>
   <trkpt lon="11.818067" lat="46.252137"><ele>1588.5</ele></trkpt>
   <trkpt lon="11.818286" lat="46.252021"><ele>1586.75</ele></trkpt>
   <trkpt lon="11.818365" lat="46.251992"><ele>1586.5</ele></trkpt>
   <trkpt lon="11.818555" lat="46.251951"><ele>1588.0</ele></trkpt>
   <trkpt lon="11.818715" lat="46.251933"><ele>1588.75</ele></trkpt>
   <trkpt lon="11.819017" lat="46.251918"><ele>1589.25</ele></trkpt>
   <trkpt lon="11.819359" lat="46.251915"><ele>1590.0</ele></trkpt>
   <trkpt lon="11.819764" lat="46.251847"><ele>1589.75</ele></trkpt>
   <trkpt lon="11.819866" lat="46.251845"><ele>1589.25</ele></trkpt>
   <trkpt lon="11.819973" lat="46.251860"><ele>1590.0</ele></trkpt>
   <trkpt lon="11.820153" lat="46.251918"><ele>1592.25</ele></trkpt>
   <trkpt lon="11.820296" lat="46.251935"><ele>1592.0</ele></trkpt>
   <trkpt lon="11.820382" lat="46.251932"><ele>1592.0</ele></trkpt>
   <trkpt lon="11.820601" lat="46.251905"><ele>1590.0</ele></trkpt>
   <trkpt lon="11.820805" lat="46.251893"><ele>1589.25</ele></trkpt>
   <trkpt lon="11.820878" lat="46.251908"><ele>1589.0</ele></trkpt>
   <trkpt lon="11.820952" lat="46.251942"><ele>1589.0</ele></trkpt>
   <trkpt lon="11.821207" lat="46.252115"><ele>1587.75</ele></trkpt>
   <trkpt lon="11.821357" lat="46.252233"><ele>1585.5</ele></trkpt>
   <trkpt lon="11.821488" lat="46.252428"><ele>1584.75</ele></trkpt>
   <trkpt lon="11.821537" lat="46.252455"><ele>1584.25</ele></trkpt>
   <trkpt lon="11.821598" lat="46.252478"><ele>1583.5</ele></trkpt>
   <trkpt lon="11.821685" lat="46.252494"><ele>1582.5</ele></trkpt>
   <trkpt lon="11.821876" lat="46.252506"><ele>1583.25</ele></trkpt>
   <trkpt lon="11.821962" lat="46.252531"><ele>1584.0</ele></trkpt>
   <trkpt lon="11.822227" lat="46.252711"><ele>1584.25</ele></trkpt>
   <trkpt lon="11.822288" lat="46.252735"><ele>1584.75</ele></trkpt>
   <trkpt lon="11.822371" lat="46.252756"><ele>1584.75</ele></trkpt>
   <trkpt lon="11.822477" lat="46.252766"><ele>1583.75</ele></trkpt>
   <trkpt lon="11.822588" lat="46.252757"><ele>1583.5</ele></trkpt>
   <trkpt lon="11.822742" lat="46.252717"><ele>1582.75</ele></trkpt>
   <trkpt lon="11.823446" lat="46.252584"><ele>1583.75</ele></trkpt>
   <trkpt lon="11.824160" lat="46.252511"><ele>1584.25</ele></trkpt>
   <trkpt lon="11.824532" lat="46.252491"><ele>1583.5</ele></trkpt>
   <trkpt lon="11.824645" lat="46.252499"><ele>1583.75</ele></trkpt>
   <trkpt lon="11.824921" lat="46.252505"><ele>1584.0</ele></trkpt>
   <trkpt lon="11.825107" lat="46.252529"><ele>1584.75</ele></trkpt>
   <trkpt lon="11.825526" lat="46.252560"><ele>1584.25</ele></trkpt>
   <trkpt lon="11.825652" lat="46.252562"><ele>1584.0</ele></trkpt>
   <trkpt lon="11.825929" lat="46.252603"><ele>1585.75</ele></trkpt>
   <trkpt lon="11.826204" lat="46.252586"><ele>1586.25</ele></trkpt>
   <trkpt lon="11.826456" lat="46.252623"><ele>1586.75</ele></trkpt>
   <trkpt lon="11.826600" lat="46.252688"><ele>1588.25</ele></trkpt>
   <trkpt lon="11.826740" lat="46.252741"><ele>1590.75</ele></trkpt>
   <trkpt lon="11.826855" lat="46.252773"><ele>1592.5</ele></trkpt>
   <trkpt lon="11.827014" lat="46.252799"><ele>1594.0</ele></trkpt>
   <trkpt lon="11.827164" lat="46.252851"><ele>1596.5</ele></trkpt>
   <trkpt lon="11.827476" lat="46.252942"><ele>1599.0</ele></trkpt>
   <trkpt lon="11.827608" lat="46.252967"><ele>1599.25</ele></trkpt>
   <trkpt lon="11.827907" lat="46.253002"><ele>1600.0</ele></trkpt>
   <trkpt lon="11.828207" lat="46.252892"><ele>1599.25</ele></trkpt>
   <trkpt lon="11.828290" lat="46.252841"><ele>1598.25</ele></trkpt>
   <trkpt lon="11.828598" lat="46.252753"><ele>1599.25</ele></trkpt>
   <trkpt lon="11.828628" lat="46.252695"><ele>1598.25</ele></trkpt>
   <trkpt lon="11.828776" lat="46.252612"><ele>1599.5</ele></trkpt>
   <trkpt lon="11.828785" lat="46.252526"><ele>1598.0</ele></trkpt>
   <trkpt lon="11.828699" lat="46.252366"><ele>1600.0</ele></trkpt>
   <trkpt lon="11.829019" lat="46.252321"><ele>1607.5</ele></trkpt>
   <trkpt lon="11.829089" lat="46.252191"><ele>1612.5</ele></trkpt>
   <trkpt lon="11.829186" lat="46.252134"><ele>1615.25</ele></trkpt>
   <trkpt lon="11.829371" lat="46.252060"><ele>1618.25</ele></trkpt>
   <trkpt lon="11.829534" lat="46.251934"><ele>1622.75</ele></trkpt>
   <trkpt lon="11.829751" lat="46.251659"><ele>1634.25</ele></trkpt>
   <trkpt lon="11.829888" lat="46.251492"><ele>1640.5</ele></trkpt>
   <trkpt lon="11.830060" lat="46.251373"><ele>1645.75</ele></trkpt>
   <trkpt lon="11.830173" lat="46.251264"><ele>1650.0</ele></trkpt>
   <trkpt lon="11.830261" lat="46.251149"><ele>1655.25</ele></trkpt>
   <trkpt lon="11.830360" lat="46.251049"><ele>1658.75</ele></trkpt>
   <trkpt lon="11.830505" lat="46.250977"><ele>1662.25</ele></trkpt>
   <trkpt lon="11.830548" lat="46.250849"><ele>1668.0</ele></trkpt>
   <trkpt lon="11.830822" lat="46.250696"><ele>1676.25</ele></trkpt>
   <trkpt lon="11.830886" lat="46.250580"><ele>1681.25</ele></trkpt>
   <trkpt lon="11.830910" lat="46.250385"><ele>1689.5</ele></trkpt>
   <trkpt lon="11.831209" lat="46.250171"><ele>1701.75</ele></trkpt>
   <trkpt lon="11.831347" lat="46.250123"><ele>1704.5</ele></trkpt>
   <trkpt lon="11.831417" lat="46.250034"><ele>1709.75</ele></trkpt>
   <trkpt lon="11.831503" lat="46.249982"><ele>1713.75</ele></trkpt>
   <trkpt lon="11.831566" lat="46.249918"><ele>1717.75</ele></trkpt>
   <trkpt lon="11.831828" lat="46.249925"><ele>1723.0</ele></trkpt>
   <trkpt lon="11.831860" lat="46.249841"><ele>1726.5</ele></trkpt>
   <trkpt lon="11.831790" lat="46.249741"><ele>1728.5</ele></trkpt>
   <trkpt lon="11.831863" lat="46.249762"><ele>1729.25</ele></trkpt>
   <trkpt lon="11.831826" lat="46.249690"><ele>1731.5</ele></trkpt>
   <trkpt lon="11.831941" lat="46.249690"><ele>1733.25</ele></trkpt>
   <trkpt lon="11.831916" lat="46.249633"><ele>1735.5</ele></trkpt>
   <trkpt lon="11.832005" lat="46.249638"><ele>1737.5</ele></trkpt>
   <trkpt lon="11.831971" lat="46.249547"><ele>1740.25</ele></trkpt>
   <trkpt lon="11.832080" lat="46.249546"><ele>1743.25</ele></trkpt>
   <trkpt lon="11.832131" lat="46.249534"><ele>1745.0</ele></trkpt>
   <trkpt lon="11.832129" lat="46.249460"><ele>1747.5</ele></trkpt>
   <trkpt lon="11.832185" lat="46.249464"><ele>1748.5</ele></trkpt>
   <trkpt lon="11.832263" lat="46.249494"><ele>1750.0</ele></trkpt>
   <trkpt lon="11.832284" lat="46.249453"><ele>1751.75</ele></trkpt>
   <trkpt lon="11.832292" lat="46.249399"><ele>1754.25</ele></trkpt>
   <trkpt lon="11.832330" lat="46.249405"><ele>1755.0</ele></trkpt>
   <trkpt lon="11.832391" lat="46.249451"><ele>1755.25</ele></trkpt>
   <trkpt lon="11.832453" lat="46.249470"><ele>1756.5</ele></trkpt>
   <trkpt lon="11.832458" lat="46.249399"><ele>1759.25</ele></trkpt>
   <trkpt lon="11.832486" lat="46.249328"><ele>1762.75</ele></trkpt>
   <trkpt lon="11.832553" lat="46.249280"><ele>1766.5</ele></trkpt>
   <trkpt lon="11.832570" lat="46.249244"><ele>1768.0</ele></trkpt>
   <trkpt lon="11.832648" lat="46.249215"><ele>1771.0</ele></trkpt>
   <trkpt lon="11.832651" lat="46.249191"><ele>1771.5</ele></trkpt>
   <trkpt lon="11.832589" lat="46.249111"><ele>1774.5</ele></trkpt>
   <trkpt lon="11.832486" lat="46.249048"><ele>1775.5</ele></trkpt>
   <trkpt lon="11.832386" lat="46.249006"><ele>1775.75</ele></trkpt>
   <trkpt lon="11.832295" lat="46.248951"><ele>1776.75</ele></trkpt>
   <trkpt lon="11.832204" lat="46.248910"><ele>1777.5</ele></trkpt>
   <trkpt lon="11.832075" lat="46.248893"><ele>1778.0</ele></trkpt>
   <trkpt lon="11.832018" lat="46.248876"><ele>1778.75</ele></trkpt>
   <trkpt lon="11.831937" lat="46.248825"><ele>1780.5</ele></trkpt>
   <trkpt lon="11.831846" lat="46.248718"><ele>1783.75</ele></trkpt>
   <trkpt lon="11.831767" lat="46.248550"><ele>1791.5</ele></trkpt>
   <trkpt lon="11.831705" lat="46.248513"><ele>1793.0</ele></trkpt>
   <trkpt lon="11.831727" lat="46.248448"><ele>1797.0</ele></trkpt>
   <trkpt lon="11.831802" lat="46.248432"><ele>1799.0</ele></trkpt>
   <trkpt lon="11.831885" lat="46.248424"><ele>1800.5</ele></trkpt>
   <trkpt lon="11.831826" lat="46.248395"><ele>1801.5</ele></trkpt>
   <trkpt lon="11.831703" lat="46.248352"><ele>1802.25</ele></trkpt>
   <trkpt lon="11.831512" lat="46.248117"><ele>1810.75</ele></trkpt>
   <trkpt lon="11.831437" lat="46.248059"><ele>1812.0</ele></trkpt>
   <trkpt lon="11.831298" lat="46.247915"><ele>1813.75</ele></trkpt>
   <trkpt lon="11.831196" lat="46.247841"><ele>1813.0</ele></trkpt>
   <trkpt lon="11.831148" lat="46.247761"><ele>1815.5</ele></trkpt>
   <trkpt lon="11.831075" lat="46.247705"><ele>1816.25</ele></trkpt>
   <trkpt lon="11.831033" lat="46.247635"><ele>1818.5</ele></trkpt>
   <trkpt lon="11.830953" lat="46.247567"><ele>1818.0</ele></trkpt>
   <trkpt lon="11.830942" lat="46.247469"><ele>1823.0</ele></trkpt>
   <trkpt lon="11.830840" lat="46.247358"><ele>1825.5</ele></trkpt>
   <trkpt lon="11.830752" lat="46.247287"><ele>1828.25</ele></trkpt>
   <trkpt lon="11.830651" lat="46.247241"><ele>1828.5</ele></trkpt>
   <trkpt lon="11.830501" lat="46.247219"><ele>1825.25</ele></trkpt>
   <trkpt lon="11.830390" lat="46.247166"><ele>1825.0</ele></trkpt>
   <trkpt lon="11.830261" lat="46.247022"><ele>1828.5</ele></trkpt>
   <trkpt lon="11.830240" lat="46.246963"><ele>1830.75</ele></trkpt>
   <trkpt lon="11.830097" lat="46.246859"><ele>1831.5</ele></trkpt>
   <trkpt lon="11.830006" lat="46.246701"><ele>1838.5</ele></trkpt>
   <trkpt lon="11.829768" lat="46.246516"><ele>1841.0</ele></trkpt>
   <trkpt lon="11.829835" lat="46.246415"><ele>1847.5</ele></trkpt>
   <trkpt lon="11.829792" lat="46.246197"><ele>1857.5</ele></trkpt>
   <trkpt lon="11.829746" lat="46.246089"><ele>1863.0</ele></trkpt>
   <trkpt lon="11.829612" lat="46.246004"><ele>1870.5</ele></trkpt>
   <trkpt lon="11.829545" lat="46.245846"><ele>1869.5</ele></trkpt>
   <trkpt lon="11.829593" lat="46.245740"><ele>1880.25</ele></trkpt>
   <trkpt lon="11.829191" lat="46.245521"><ele>1881.75</ele></trkpt>
   <trkpt lon="11.829017" lat="46.245301"><ele>1894.75</ele></trkpt>
   <trkpt lon="11.829175" lat="46.245149"><ele>1894.5</ele></trkpt>
   <trkpt lon="11.829253" lat="46.245011"><ele>1894.0</ele></trkpt>
   <trkpt lon="11.829395" lat="46.244887"><ele>1899.0</ele></trkpt>
   <trkpt lon="11.829454" lat="46.244716"><ele>1901.5</ele></trkpt>
   <trkpt lon="11.829853" lat="46.244325"><ele>1919.75</ele></trkpt>
   <trkpt lon="11.830266" lat="46.243941"><ele>1928.0</ele></trkpt>
   <trkpt lon="11.830580" lat="46.243755"><ele>1936.0</ele></trkpt>
   <trkpt lon="11.830663" lat="46.243718"><ele>1937.25</ele></trkpt>
   <trkpt lon="11.830824" lat="46.243694"><ele>1941.0</ele></trkpt>
   <trkpt lon="11.830985" lat="46.243704"><ele>1945.75</ele></trkpt>
   <trkpt lon="11.831149" lat="46.243687"><ele>1948.75</ele></trkpt>
   <trkpt lon="11.831246" lat="46.243694"><ele>1952.0</ele></trkpt>
   <trkpt lon="11.831310" lat="46.243690"><ele>1953.5</ele></trkpt>
   <trkpt lon="11.831347" lat="46.243639"><ele>1951.5</ele></trkpt>
   <trkpt lon="11.831551" lat="46.243592"><ele>1954.75</ele></trkpt>
   <trkpt lon="11.831632" lat="46.243562"><ele>1955.25</ele></trkpt>
   <trkpt lon="11.831718" lat="46.243583"><ele>1959.5</ele></trkpt>
   <trkpt lon="11.831783" lat="46.243513"><ele>1957.0</ele></trkpt>
   <trkpt lon="11.831848" lat="46.243494"><ele>1958.5</ele></trkpt>
   <trkpt lon="11.832030" lat="46.243282"><ele>1960.75</ele></trkpt>
   <trkpt lon="11.832087" lat="46.243115"><ele>1960.0</ele></trkpt>
   <trkpt lon="11.832094" lat="46.243055"><ele>1958.25</ele></trkpt>
   <trkpt lon="11.832194" lat="46.243041"><ele>1962.0</ele></trkpt>
   <trkpt lon="11.832248" lat="46.243002"><ele>1963.5</ele></trkpt>
   <trkpt lon="11.832294" lat="46.242925"><ele>1963.25</ele></trkpt>
   <trkpt lon="11.832341" lat="46.242884"><ele>1964.5</ele></trkpt>
   <trkpt lon="11.832352" lat="46.242772"><ele>1961.0</ele></trkpt>
   <trkpt lon="11.832417" lat="46.242661"><ele>1960.25</ele></trkpt>
   <trkpt lon="11.832593" lat="46.242562"><ele>1967.0</ele></trkpt>
   <trkpt lon="11.832564" lat="46.242463"><ele>1962.5</ele></trkpt>
   <trkpt lon="11.832552" lat="46.242319"><ele>1961.0</ele></trkpt>
   <trkpt lon="11.832616" lat="46.242282"><ele>1964.75</ele></trkpt>
   <trkpt lon="11.832683" lat="46.242191"><ele>1967.75</ele></trkpt>
   <trkpt lon="11.832764" lat="46.242135"><ele>1971.25</ele></trkpt>
   <trkpt lon="11.832884" lat="46.241940"><ele>1969.5</ele></trkpt>
   <trkpt lon="11.833067" lat="46.241857"><ele>1970.5</ele></trkpt>
   <trkpt lon="11.833249" lat="46.241833"><ele>1973.75</ele></trkpt>
   <trkpt lon="11.833420" lat="46.241837"><ele>1978.0</ele></trkpt>
   <trkpt lon="11.833584" lat="46.241774"><ele>1975.75</ele></trkpt>
   <trkpt lon="11.833680" lat="46.241750"><ele>1975.5</ele></trkpt>
   <trkpt lon="11.833777" lat="46.241759"><ele>1977.75</ele></trkpt>
   <trkpt lon="11.833846" lat="46.241752"><ele>1978.25</ele></trkpt>
   <trkpt lon="11.833911" lat="46.241737"><ele>1977.25</ele></trkpt>
   <trkpt lon="11.834114" lat="46.241759"><ele>1980.25</ele></trkpt>
   <trkpt lon="11.834171" lat="46.241753"><ele>1979.5</ele></trkpt>
   <trkpt lon="11.834310" lat="46.241755"><ele>1980.25</ele></trkpt>
   <trkpt lon="11.834425" lat="46.241729"><ele>1976.0</ele></trkpt>
   <trkpt lon="11.834650" lat="46.241735"><ele>1972.5</ele></trkpt>
   <trkpt lon="11.834835" lat="46.241729"><ele>1973.0</ele></trkpt>
   <trkpt lon="11.834953" lat="46.241718"><ele>1975.25</ele></trkpt>
   <trkpt lon="11.834993" lat="46.241695"><ele>1974.25</ele></trkpt>
   <trkpt lon="11.835014" lat="46.241658"><ele>1973.0</ele></trkpt>
   <trkpt lon="11.835011" lat="46.241617"><ele>1974.75</ele></trkpt>
   <trkpt lon="11.834956" lat="46.241520"><ele>1975.25</ele></trkpt>
   <trkpt lon="11.834923" lat="46.241395"><ele>1976.0</ele></trkpt>
   <trkpt lon="11.834956" lat="46.241344"><ele>1979.25</ele></trkpt>
   <trkpt lon="11.835036" lat="46.241289"><ele>1984.25</ele></trkpt>
   <trkpt lon="11.835100" lat="46.241235"><ele>1986.25</ele></trkpt>
   <trkpt lon="11.835124" lat="46.241198"><ele>1986.75</ele></trkpt>
   <trkpt lon="11.835144" lat="46.241078"><ele>1985.25</ele></trkpt>
   <trkpt lon="11.835187" lat="46.240925"><ele>1983.75</ele></trkpt>
   <trkpt lon="11.835224" lat="46.240853"><ele>1983.75</ele></trkpt>
   <trkpt lon="11.835294" lat="46.240807"><ele>1985.5</ele></trkpt>
   <trkpt lon="11.835331" lat="46.240758"><ele>1985.0</ele></trkpt>
   <trkpt lon="11.835458" lat="46.240663"><ele>1985.25</ele></trkpt>
   <trkpt lon="11.835549" lat="46.240635"><ele>1987.0</ele></trkpt>
   <trkpt lon="11.835609" lat="46.240607"><ele>1988.0</ele></trkpt>
   <trkpt lon="11.835703" lat="46.240529"><ele>1987.75</ele></trkpt>
   <trkpt lon="11.835703" lat="46.240471"><ele>1986.75</ele></trkpt>
   <trkpt lon="11.835726" lat="46.240420"><ele>1987.0</ele></trkpt>
   <trkpt lon="11.835834" lat="46.240288"><ele>1991.25</ele></trkpt>
   <trkpt lon="11.835871" lat="46.240204"><ele>1995.75</ele></trkpt>
   <trkpt lon="11.835924" lat="46.240049"><ele>1999.0</ele></trkpt>
   <trkpt lon="11.835949" lat="46.240000"><ele>1999.5</ele></trkpt>
   <trkpt lon="11.835982" lat="46.239965"><ele>2001.0</ele></trkpt>
   <trkpt lon="11.836004" lat="46.239887"><ele>2001.0</ele></trkpt>
   <trkpt lon="11.836037" lat="46.239826"><ele>2001.5</ele></trkpt>
   <trkpt lon="11.836068" lat="46.239800"><ele>2002.25</ele></trkpt>
   <trkpt lon="11.836131" lat="46.239790"><ele>2003.75</ele></trkpt>
   <trkpt lon="11.836292" lat="46.239819"><ele>2006.75</ele></trkpt>
   <trkpt lon="11.836464" lat="46.239819"><ele>2008.75</ele></trkpt>
   <trkpt lon="11.836846" lat="46.239841"><ele>2016.0</ele></trkpt>
   <trkpt lon="11.836968" lat="46.239845"><ele>2018.5</ele></trkpt>
   <trkpt lon="11.836987" lat="46.239831"><ele>2017.75</ele></trkpt>
   <trkpt lon="11.837045" lat="46.239828"><ele>2018.75</ele></trkpt>
   <trkpt lon="11.837171" lat="46.239809"><ele>2020.5</ele></trkpt>
   <trkpt lon="11.837267" lat="46.239813"><ele>2022.5</ele></trkpt>
   <trkpt lon="11.837332" lat="46.239807"><ele>2022.75</ele></trkpt>
   <trkpt lon="11.837441" lat="46.239833"><ele>2025.75</ele></trkpt>
   <trkpt lon="11.837476" lat="46.239828"><ele>2025.75</ele></trkpt>
   <trkpt lon="11.837567" lat="46.239786"><ele>2026.0</ele></trkpt>
   <trkpt lon="11.837688" lat="46.239755"><ele>2029.0</ele></trkpt>
   <trkpt lon="11.837757" lat="46.239713"><ele>2029.5</ele></trkpt>
   <trkpt lon="11.837893" lat="46.239673"><ele>2031.25</ele></trkpt>
   <trkpt lon="11.837975" lat="46.239639"><ele>2031.5</ele></trkpt>
   <trkpt lon="11.838121" lat="46.239617"><ele>2033.75</ele></trkpt>
   <trkpt lon="11.838172" lat="46.239597"><ele>2033.25</ele></trkpt>
   <trkpt lon="11.838258" lat="46.239577"><ele>2033.75</ele></trkpt>
   <trkpt lon="11.838373" lat="46.239510"><ele>2032.0</ele></trkpt>
   <trkpt lon="11.838407" lat="46.239469"><ele>2030.5</ele></trkpt>
   <trkpt lon="11.838628" lat="46.239352"><ele>2031.25</ele></trkpt>
   <trkpt lon="11.838750" lat="46.239298"><ele>2029.5</ele></trkpt>
   <trkpt lon="11.838822" lat="46.239280"><ele>2029.5</ele></trkpt>
   <trkpt lon="11.838901" lat="46.239248"><ele>2028.25</ele></trkpt>
   <trkpt lon="11.838997" lat="46.239228"><ele>2027.75</ele></trkpt>
   <trkpt lon="11.839066" lat="46.239219"><ele>2027.75</ele></trkpt>
   <trkpt lon="11.839153" lat="46.239199"><ele>2027.25</ele></trkpt>
   <trkpt lon="11.839330" lat="46.239174"><ele>2028.25</ele></trkpt>
   <trkpt lon="11.839434" lat="46.239166"><ele>2029.75</ele></trkpt>
   <trkpt lon="11.839472" lat="46.239101"><ele>2028.0</ele></trkpt>
   <trkpt lon="11.839479" lat="46.239035"><ele>2025.5</ele></trkpt>
   <trkpt lon="11.839538" lat="46.238986"><ele>2025.5</ele></trkpt>
   <trkpt lon="11.839680" lat="46.238900"><ele>2026.75</ele></trkpt>
   <trkpt lon="11.839814" lat="46.238833"><ele>2028.25</ele></trkpt>
   <trkpt lon="11.839898" lat="46.238776"><ele>2028.5</ele></trkpt>
   <trkpt lon="11.840007" lat="46.238725"><ele>2030.5</ele></trkpt>
   <trkpt lon="11.840040" lat="46.238693"><ele>2029.75</ele></trkpt>
   <trkpt lon="11.840107" lat="46.238671"><ele>2030.5</ele></trkpt>
   <trkpt lon="11.840172" lat="46.238639"><ele>2030.25</ele></trkpt>
   <trkpt lon="11.840465" lat="46.238547"><ele>2033.25</ele></trkpt>
   <trkpt lon="11.840704" lat="46.238432"><ele>2036.75</ele></trkpt>
   <trkpt lon="11.840742" lat="46.238396"><ele>2036.5</ele></trkpt>
   <trkpt lon="11.840819" lat="46.238302"><ele>2034.75</ele></trkpt>
   <trkpt lon="11.840875" lat="46.238264"><ele>2035.0</ele></trkpt>
   <trkpt lon="11.840892" lat="46.238231"><ele>2034.0</ele></trkpt>
   <trkpt lon="11.840963" lat="46.238163"><ele>2032.75</ele></trkpt>
   <trkpt lon="11.840982" lat="46.238128"><ele>2031.5</ele></trkpt>
   <trkpt lon="11.840987" lat="46.238101"><ele>2030.25</ele></trkpt>
   <trkpt lon="11.840946" lat="46.238057"><ele>2026.75</ele></trkpt>
   <trkpt lon="11.840970" lat="46.238031"><ele>2025.5</ele></trkpt>
   <trkpt lon="11.841054" lat="46.238018"><ele>2026.5</ele></trkpt>
   <trkpt lon="11.841284" lat="46.237953"><ele>2025.75</ele></trkpt>
   <trkpt lon="11.841416" lat="46.237895"><ele>2025.0</ele></trkpt>
   <trkpt lon="11.841476" lat="46.237885"><ele>2026.0</ele></trkpt>
   <trkpt lon="11.841555" lat="46.237892"><ele>2029.0</ele></trkpt>
   <trkpt lon="11.841632" lat="46.237865"><ele>2028.0</ele></trkpt>
   <trkpt lon="11.841783" lat="46.237821"><ele>2029.25</ele></trkpt>
   <trkpt lon="11.842005" lat="46.237622"><ele>2031.25</ele></trkpt>
   <trkpt lon="11.842113" lat="46.237437"><ele>2031.25</ele></trkpt>
   <trkpt lon="11.842185" lat="46.237361"><ele>2032.0</ele></trkpt>
   <trkpt lon="11.842274" lat="46.237243"><ele>2032.5</ele></trkpt>
   <trkpt lon="11.842281" lat="46.237192"><ele>2030.25</ele></trkpt>
   <trkpt lon="11.842324" lat="46.237157"><ele>2031.0</ele></trkpt>
   <trkpt lon="11.842392" lat="46.237069"><ele>2029.5</ele></trkpt>
   <trkpt lon="11.842468" lat="46.236992"><ele>2028.0</ele></trkpt>
   <trkpt lon="11.842693" lat="46.236552"><ele>2042.75</ele></trkpt>
   <trkpt lon="11.842690" lat="46.236383"><ele>2044.25</ele></trkpt>
   <trkpt lon="11.842717" lat="46.236240"><ele>2046.75</ele></trkpt>
   <trkpt lon="11.842725" lat="46.236190"><ele>2047.5</ele></trkpt>
   <trkpt lon="11.842696" lat="46.236016"><ele>2047.75</ele></trkpt>
   <trkpt lon="11.842699" lat="46.235777"><ele>2050.25</ele></trkpt>
   <trkpt lon="11.842712" lat="46.235658"><ele>2050.0</ele></trkpt>
   <trkpt lon="11.842766" lat="46.235509"><ele>2053.25</ele></trkpt>
   <trkpt lon="11.842688" lat="46.235420"><ele>2053.75</ele></trkpt>
   <trkpt lon="11.842269" lat="46.235053"><ele>2055.25</ele></trkpt>
   <trkpt lon="11.842232" lat="46.234944"><ele>2059.25</ele></trkpt>
   <trkpt lon="11.842044" lat="46.234641"><ele>2061.5</ele></trkpt>
   <trkpt lon="11.841977" lat="46.234500"><ele>2062.5</ele></trkpt>
   <trkpt lon="11.841582" lat="46.234323"><ele>2060.75</ele></trkpt>
   <trkpt lon="11.841577" lat="46.234287"><ele>2062.75</ele></trkpt>
   <trkpt lon="11.841498" lat="46.234191"><ele>2066.5</ele></trkpt>
   <trkpt lon="11.841365" lat="46.234069"><ele>2069.5</ele></trkpt>
   <trkpt lon="11.841206" lat="46.233952"><ele>2069.25</ele></trkpt>
   <trkpt lon="11.841146" lat="46.233694"><ele>2079.25</ele></trkpt>
   <trkpt lon="11.841148" lat="46.233470"><ele>2088.0</ele></trkpt>
   <trkpt lon="11.841375" lat="46.233514"><ele>2096.5</ele></trkpt>
   <trkpt lon="11.841358" lat="46.233451"><ele>2098.5</ele></trkpt>
   <trkpt lon="11.841410" lat="46.233401"><ele>2102.75</ele></trkpt>
   <trkpt lon="11.841770" lat="46.233476"><ele>2114.75</ele></trkpt>
   <trkpt lon="11.841678" lat="46.233289"><ele>2118.5</ele></trkpt>
   <trkpt lon="11.841680" lat="46.233128"><ele>2123.75</ele></trkpt>
   <trkpt lon="11.841762" lat="46.233070"><ele>2139.0</ele></trkpt>
   <trkpt lon="11.841731" lat="46.232963"><ele>2146.0</ele></trkpt>
   <trkpt lon="11.841646" lat="46.232901"><ele>2137.25</ele></trkpt>
   <trkpt lon="11.841468" lat="46.232699"><ele>2158.25</ele></trkpt>
   <trkpt lon="11.841370" lat="46.232617"><ele>2169.0</ele></trkpt>
   <trkpt lon="11.841421" lat="46.232609"><ele>2176.0</ele></trkpt>
   <trkpt lon="11.841362" lat="46.232584"><ele>2175.5</ele></trkpt>
   <trkpt lon="11.841246" lat="46.232557"><ele>2166.75</ele></trkpt>
   <trkpt lon="11.841288" lat="46.232528"><ele>2177.75</ele></trkpt>
   <trkpt lon="11.841236" lat="46.232506"><ele>2174.25</ele></trkpt>
   <trkpt lon="11.841116" lat="46.232473"><ele>2165.25</ele></trkpt>
   <trkpt lon="11.841184" lat="46.232443"><ele>2182.5</ele></trkpt>
   <trkpt lon="11.841031" lat="46.232311"><ele>2193.25</ele></trkpt>
   <trkpt lon="11.840955" lat="46.232194"><ele>2192.25</ele></trkpt>
   <trkpt lon="11.840931" lat="46.232132"><ele>2188.75</ele></trkpt>
   <trkpt lon="11.840892" lat="46.232090"><ele>2180.25</ele></trkpt>
   <trkpt lon="11.840934" lat="46.232065"><ele>2193.25</ele></trkpt>
   <trkpt lon="11.840883" lat="46.232043"><ele>2180.75</ele></trkpt>
   <trkpt lon="11.840870" lat="46.231957"><ele>2182.5</ele></trkpt>
   <trkpt lon="11.840962" lat="46.231969"><ele>2206.0</ele></trkpt>
   <trkpt lon="11.841020" lat="46.231926"><ele>2221.0</ele></trkpt>
   <trkpt lon="11.841052" lat="46.231855"><ele>2222.75</ele></trkpt>
   <trkpt lon="11.841073" lat="46.231746"><ele>2215.75</ele></trkpt>
   <trkpt lon="11.841049" lat="46.231711"><ele>2210.0</ele></trkpt>
   <trkpt lon="11.841064" lat="46.231635"><ele>2207.75</ele></trkpt>
   <trkpt lon="11.841147" lat="46.231565"><ele>2213.25</ele></trkpt>
   <trkpt lon="11.841258" lat="46.231590"><ele>2221.75</ele></trkpt>
   <trkpt lon="11.841327" lat="46.231591"><ele>2227.25</ele></trkpt>
   <trkpt lon="11.841401" lat="46.231538"><ele>2230.75</ele></trkpt>
   <trkpt lon="11.841438" lat="46.231380"><ele>2226.5</ele></trkpt>
   <trkpt lon="11.841499" lat="46.231232"><ele>2232.25</ele></trkpt>
   <trkpt lon="11.841573" lat="46.231072"><ele>2236.25</ele></trkpt>
   <trkpt lon="11.841689" lat="46.230884"><ele>2244.0</ele></trkpt>
   <trkpt lon="11.841687" lat="46.230845"><ele>2244.5</ele></trkpt>
   <trkpt lon="11.841610" lat="46.230808"><ele>2245.0</ele></trkpt>
   <trkpt lon="11.841568" lat="46.230722"><ele>2250.75</ele></trkpt>
   <trkpt lon="11.841444" lat="46.230681"><ele>2253.5</ele></trkpt>
   <trkpt lon="11.841707" lat="46.230611"><ele>2258.75</ele></trkpt>
   <trkpt lon="11.841880" lat="46.230594"><ele>2262.0</ele></trkpt>
   <trkpt lon="11.841647" lat="46.230493"><ele>2270.75</ele></trkpt>
   <trkpt lon="11.842006" lat="46.230440"><ele>2276.5</ele></trkpt>
   <trkpt lon="11.842149" lat="46.230404"><ele>2282.0</ele></trkpt>
   <trkpt lon="11.842291" lat="46.230418"><ele>2284.0</ele></trkpt>
   <trkpt lon="11.842432" lat="46.230446"><ele>2287.0</ele></trkpt>
   <trkpt lon="11.842354" lat="46.230357"><ele>2290.0</ele></trkpt>
   <trkpt lon="11.842459" lat="46.230364"><ele>2292.5</ele></trkpt>
   <trkpt lon="11.842593" lat="46.230404"><ele>2294.0</ele></trkpt>
   <trkpt lon="11.842773" lat="46.230443"><ele>2298.25</ele></trkpt>
   <trkpt lon="11.842816" lat="46.230503"><ele>2299.0</ele></trkpt>
   <trkpt lon="11.842845" lat="46.230586"><ele>2300.75</ele></trkpt>
   <trkpt lon="11.842798" lat="46.230676"><ele>2301.75</ele></trkpt>
   <trkpt lon="11.842767" lat="46.230787"><ele>2304.0</ele></trkpt>
   <trkpt lon="11.842719" lat="46.230862"><ele>2305.75</ele></trkpt>
   <trkpt lon="11.842589" lat="46.230994"><ele>2311.5</ele></trkpt>
   <trkpt lon="11.842502" lat="46.231061"><ele>2314.0</ele></trkpt>
   <trkpt lon="11.842569" lat="46.231059"><ele>2315.75</ele></trkpt>
   <trkpt lon="11.842485" lat="46.231143"><ele>2318.5</ele></trkpt>
   <trkpt lon="11.842580" lat="46.231155"><ele>2321.5</ele></trkpt>
   <trkpt lon="11.842636" lat="46.231223"><ele>2324.75</ele></trkpt>
   <trkpt lon="11.842753" lat="46.231250"><ele>2327.5</ele></trkpt>
   <trkpt lon="11.842780" lat="46.231317"><ele>2328.75</ele></trkpt>
   <trkpt lon="11.842782" lat="46.231335"><ele>2329.75</ele></trkpt>
  </trkseg>
 </trk>
</gpx>
