<?xml version="1.0" encoding="UTF-8"?>
<!-- track-length = 8977 filtered ascend = 1230 plain-ascend = 361 cost=98606 energy=.3kwh time=2h 55m 3s -->
<gpx 
 xmlns="http://www.topografix.com/GPX/1/1" 
 xmlns:xsi="http://www.w3.org/2001/XMLSchema-instance" 
 xsi:schemaLocation="http://www.topografix.com/GPX/1/1 http://www.topografix.com/GPX/1/1/gpx.xsd" 
 creator="BRouter-1.7.10" version="1.1">
 <trk>
  <name>brouter_trekking_0</name>
  <trkseg>
   <trkpt lon="11.854188" lat="46.244253"><ele>2278.0</ele></trkpt>
   <trkpt lon="11.854220" lat="46.244223"><ele>2277.5</ele></trkpt>
   <trkpt lon="11.854266" lat="46.244193"><ele>2277.0</ele></trkpt>
   <trkpt lon="11.854304" lat="46.244182"><ele>2276.75</ele></trkpt>
   <trkpt lon="11.854375" lat="46.244198"><ele>2277.5</ele></trkpt>
   <trkpt lon="11.854433" lat="46.244219"><ele>2278.25</ele></trkpt>
   <trkpt lon="11.854465" lat="46.244270"><ele>2279.0</ele></trkpt>
   <trkpt lon="11.854507" lat="46.244289"><ele>2277.5</ele></trkpt>
   <trkpt lon="11.854699" lat="46.244446"><ele>2272.0</ele></trkpt>
   <trkpt lon="11.854768" lat="46.244473"><ele>2270.0</ele></trkpt>
   <trkpt lon="11.854886" lat="46.244535"><ele>2267.75</ele></trkpt>
   <trkpt lon="11.854964" lat="46.244553"><ele>2266.0</ele></trkpt>
   <trkpt lon="11.855000" lat="46.244696"><ele>2265.75</ele></trkpt>
   <trkpt lon="11.855037" lat="46.244733"><ele>2266.0</ele></trkpt>
   <trkpt lon="11.855099" lat="46.244875"><ele>2264.75</ele></trkpt>
   <trkpt lon="11.855156" lat="46.244939"><ele>2264.25</ele></trkpt>
   <trkpt lon="11.855234" lat="46.245072"><ele>2263.5</ele></trkpt>
   <trkpt lon="11.855289" lat="46.245140"><ele>2263.5</ele></trkpt>
   <trkpt lon="11.855325" lat="46.245224"><ele>2263.5</ele></trkpt>
   <trkpt lon="11.855387" lat="46.245314"><ele>2264.0</ele></trkpt>
   <trkpt lon="11.855387" lat="46.245349"><ele>2264.25</ele></trkpt>
   <trkpt lon="11.855371" lat="46.245376"><ele>2264.5</ele></trkpt>
   <trkpt lon="11.855392" lat="46.245411"><ele>2264.75</ele></trkpt>
   <trkpt lon="11.855468" lat="46.245484"><ele>2264.5</ele></trkpt>
   <trkpt lon="11.855566" lat="46.245533"><ele>2263.0</ele></trkpt>
   <trkpt lon="11.855715" lat="46.245625"><ele>2261.25</ele></trkpt>
   <trkpt lon="11.855780" lat="46.245658"><ele>2260.5</ele></trkpt>
   <trkpt lon="11.855841" lat="46.245701"><ele>2259.75</ele></trkpt>
   <trkpt lon="11.855877" lat="46.245781"><ele>2259.5</ele></trkpt>
   <trkpt lon="11.855916" lat="46.245820"><ele>2259.25</ele></trkpt>
   <trkpt lon="11.855967" lat="46.245906"><ele>2259.5</ele></trkpt>
   <trkpt lon="11.855971" lat="46.245989"><ele>2260.0</ele></trkpt>
   <trkpt lon="11.856025" lat="46.246121"><ele>2259.75</ele></trkpt>
   <trkpt lon="11.856014" lat="46.246186"><ele>2260.5</ele></trkpt>
   <trkpt lon="11.856059" lat="46.246230"><ele>2259.75</ele></trkpt>
   <trkpt lon="11.856040" lat="46.246374"><ele>2261.0</ele></trkpt>
   <trkpt lon="11.855978" lat="46.246417"><ele>2262.75</ele></trkpt>
   <trkpt lon="11.856035" lat="46.246558"><ele>2259.0</ele></trkpt>
   <trkpt lon="11.856017" lat="46.246705"><ele>2257.5</ele></trkpt>
   <trkpt lon="11.856023" lat="46.246774"><ele>2255.75</ele></trkpt>
   <trkpt lon="11.856065" lat="46.246826"><ele>2253.5</ele></trkpt>
   <trkpt lon="11.855986" lat="46.246875"><ele>2255.0</ele></trkpt>
   <trkpt lon="11.855906" lat="46.246966"><ele>2256.0</ele></trkpt>
   <trkpt lon="11.855876" lat="46.247058"><ele>2257.25</ele></trkpt>
   <trkpt lon="11.855852" lat="46.247077"><ele>2258.0</ele></trkpt>
   <trkpt lon="11.855910" lat="46.247148"><ele>2257.0</ele></trkpt>
   <trkpt lon="11.855916" lat="46.247207"><ele>2257.25</ele></trkpt>
   <trkpt lon="11.855992" lat="46.247330"><ele>2259.5</ele></trkpt>
   <trkpt lon="11.855984" lat="46.247487"><ele>2264.75</ele></trkpt>
   <trkpt lon="11.855973" lat="46.247552"><ele>2266.75</ele></trkpt>
   <trkpt lon="11.855998" lat="46.247593"><ele>2267.25</ele></trkpt>
   <trkpt lon="11.855957" lat="46.247697"><ele>2271.5</ele></trkpt>
   <trkpt lon="11.856006" lat="46.247712"><ele>2270.5</ele></trkpt>
   <trkpt lon="11.856015" lat="46.247784"><ele>2272.0</ele></trkpt>
   <trkpt lon="11.855985" lat="46.247828"><ele>2274.0</ele></trkpt>
   <trkpt lon="11.855999" lat="46.247905"><ele>2275.0</ele></trkpt>
   <trkpt lon="11.855933" lat="46.247998"><ele>2279.0</ele></trkpt>
   <trkpt lon="11.855900" lat="46.248024"><ele>2280.25</ele></trkpt>
   <trkpt lon="11.855937" lat="46.248089"><ele>2280.0</ele></trkpt>
   <trkpt lon="11.855910" lat="46.248159"><ele>2281.25</ele></trkpt>
   <trkpt lon="11.855931" lat="46.248304"><ele>2281.5</ele></trkpt>
   <trkpt lon="11.855910" lat="46.248361"><ele>2282.5</ele></trkpt>
   <trkpt lon="11.855921" lat="46.248422"><ele>2282.5</ele></trkpt>
   <trkpt lon="11.855884" lat="46.248519"><ele>2284.0</ele></trkpt>
   <trkpt lon="11.855976" lat="46.248582"><ele>2281.5</ele></trkpt>
   <trkpt lon="11.856081" lat="46.248701"><ele>2282.0</ele></trkpt>
   <trkpt lon="11.856192" lat="46.248793"><ele>2285.75</ele></trkpt>
   <trkpt lon="11.856243" lat="46.248852"><ele>2289.0</ele></trkpt>
   <trkpt lon="11.856260" lat="46.248916"><ele>2292.0</ele></trkpt>
   <trkpt lon="11.856204" lat="46.248961"><ele>2293.0</ele></trkpt>
   <trkpt lon="11.856125" lat="46.248997"><ele>2293.75</ele></trkpt>
   <trkpt lon="11.856126" lat="46.249023"><ele>2294.75</ele></trkpt>
   <trkpt lon="11.856095" lat="46.249036"><ele>2295.25</ele></trkpt>
   <trkpt lon="11.856091" lat="46.249092"><ele>2297.5</ele></trkpt>
   <trkpt lon="11.856098" lat="46.249119"><ele>2298.75</ele></trkpt>
   <trkpt lon="11.856150" lat="46.249115"><ele>2298.75</ele></trkpt>
   <trkpt lon="11.856174" lat="46.249126"><ele>2299.25</ele></trkpt>
   <trkpt lon="11.856192" lat="46.249113"><ele>2298.75</ele></trkpt>
   <trkpt lon="11.856214" lat="46.249113"><ele>2298.75</ele></trkpt>
   <trkpt lon="11.856238" lat="46.249197"><ele>2301.0</ele></trkpt>
   <trkpt lon="11.856302" lat="46.249221"><ele>2301.0</ele></trkpt>
   <trkpt lon="11.856357" lat="46.249234"><ele>2300.75</ele></trkpt>
   <trkpt lon="11.856394" lat="46.249268"><ele>2300.5</ele></trkpt>
   <trkpt lon="11.856445" lat="46.249438"><ele>2300.0</ele></trkpt>
   <trkpt lon="11.856499" lat="46.249524"><ele>2300.25</ele></trkpt>
   <trkpt lon="11.856546" lat="46.249548"><ele>2300.5</ele></trkpt>
   <trkpt lon="11.856572" lat="46.249612"><ele>2300.75</ele></trkpt>
   <trkpt lon="11.856689" lat="46.249648"><ele>2300.5</ele></trkpt>
   <trkpt lon="11.856734" lat="46.249807"><ele>2300.25</ele></trkpt>
   <trkpt lon="11.856800" lat="46.249869"><ele>2299.75</ele></trkpt>
   <trkpt lon="11.856880" lat="46.249921"><ele>2299.0</ele></trkpt>
   <trkpt lon="11.856962" lat="46.249954"><ele>2298.75</ele></trkpt>
   <trkpt lon="11.857068" lat="46.250057"><ele>2299.75</ele></trkpt>
   <trkpt lon="11.857147" lat="46.250023"><ele>2299.75</ele></trkpt>
   <trkpt lon="11.857261" lat="46.250082"><ele>2301.0</ele></trkpt>
   <trkpt lon="11.857309" lat="46.250032"><ele>2301.75</ele></trkpt>
   <trkpt lon="11.857412" lat="46.250007"><ele>2304.0</ele></trkpt>
   <trkpt lon="11.857525" lat="46.250113"><ele>2306.25</ele></trkpt>
   <trkpt lon="11.857579" lat="46.250122"><ele>2308.5</ele></trkpt>
   <trkpt lon="11.857640" lat="46.250170"><ele>2310.75</ele></trkpt>
   <trkpt lon="11.857707" lat="46.250239"><ele>2313.0</ele></trkpt>
   <trkpt lon="11.857761" lat="46.250196"><ele>2315.75</ele></trkpt>
   <trkpt lon="11.857814" lat="46.250253"><ele>2317.5</ele></trkpt>
   <trkpt lon="11.857851" lat="46.250256"><ele>2319.25</ele></trkpt>
   <trkpt lon="11.857845" lat="46.250292"><ele>2318.75</ele></trkpt>
   <trkpt lon="11.857832" lat="46.250921"><ele>2322.75</ele></trkpt>
   <trkpt lon="11.857284" lat="46.251225"><ele>2313.75</ele></trkpt>
   <trkpt lon="11.857102" lat="46.251752"><ele>2335.0</ele></trkpt>
   <trkpt lon="11.857381" lat="46.251856"><ele>2348.75</ele></trkpt>
   <trkpt lon="11.857359" lat="46.252494"><ele>2418.5</ele></trkpt>
   <trkpt lon="11.857553" lat="46.253265"><ele>2433.5</ele></trkpt>
   <trkpt lon="11.857424" lat="46.253933"><ele>2463.25</ele></trkpt>
   <trkpt lon="11.857531" lat="46.254497"><ele>2489.5</ele></trkpt>
   <trkpt lon="11.857617" lat="46.255261"><ele>2547.0</ele></trkpt>
   <trkpt lon="11.857520" lat="46.255684"><ele>2578.25</ele></trkpt>
   <trkpt lon="11.857735" lat="46.256893"><ele>2644.25</ele></trkpt>
   <trkpt lon="11.857767" lat="46.257264"><ele>2662.5</ele></trkpt>
   <trkpt lon="11.857778" lat="46.257857"><ele>2677.0</ele></trkpt>
   <trkpt lon="11.857907" lat="46.258065"><ele>2676.5</ele></trkpt>
   <trkpt lon="11.858314" lat="46.258228"><ele>2677.25</ele></trkpt>
   <trkpt lon="11.858432" lat="46.258451"><ele>2699.0</ele></trkpt>
   <trkpt lon="11.858314" lat="46.258606"><ele>2716.0</ele></trkpt>
   <trkpt lon="11.857724" lat="46.258710"><ele>2712.0</ele></trkpt>
   <trkpt lon="11.857177" lat="46.258903"><ele>2709.0</ele></trkpt>
   <trkpt lon="11.857177" lat="46.259222"><ele>2702.0</ele></trkpt>
   <trkpt lon="11.857542" lat="46.259771"><ele>2681.75</ele></trkpt>
   <trkpt lon="11.858072" lat="46.260279"><ele>2659.0</ele></trkpt>
   <trkpt lon="11.858409" lat="46.260279"><ele>2659.75</ele></trkpt>
   <trkpt lon="11.858698" lat="46.260287"><ele>2662.0</ele></trkpt>
   <trkpt lon="11.858990" lat="46.260269"><ele>2671.25</ele></trkpt>
   <trkpt lon="11.859097" lat="46.260376"><ele>2672.75</ele></trkpt>
   <trkpt lon="11.860028" lat="46.260415"><ele>2670.75</ele></trkpt>
   <trkpt lon="11.860465" lat="46.260366"><ele>2663.25</ele></trkpt>
   <trkpt lon="11.860957" lat="46.260244"><ele>2656.75</ele></trkpt>
   <trkpt lon="11.861173" lat="46.260095"><ele>2654.25</ele></trkpt>
   <trkpt lon="11.862262" lat="46.259749"><ele>2657.5</ele></trkpt>
   <trkpt lon="11.862501" lat="46.259610"><ele>2659.75</ele></trkpt>
   <trkpt lon="11.862909" lat="46.259436"><ele>2658.75</ele></trkpt>
   <trkpt lon="11.863068" lat="46.258956"><ele>2669.5</ele></trkpt>
   <trkpt lon="11.862969" lat="46.258888"><ele>2676.5</ele></trkpt>
   <trkpt lon="11.863032" lat="46.258793"><ele>2674.0</ele></trkpt>
   <trkpt lon="11.862945" lat="46.258594"><ele>2678.0</ele></trkpt>
   <trkpt lon="11.862977" lat="46.258523"><ele>2677.25</ele></trkpt>
   <trkpt lon="11.862933" lat="46.258459"><ele>2678.25</ele></trkpt>
   <trkpt lon="11.863076" lat="46.258344"><ele>2676.25</ele></trkpt>
   <trkpt lon="11.863151" lat="46.258209"><ele>2675.5</ele></trkpt>
   <trkpt lon="11.863771" lat="46.257995"><ele>2666.75</ele></trkpt>
   <trkpt lon="11.864030" lat="46.257980"><ele>2662.5</ele></trkpt>
   <trkpt lon="11.864257" lat="46.258071"><ele>2658.5</ele></trkpt>
   <trkpt lon="11.864455" lat="46.258082"><ele>2656.25</ele></trkpt>
   <trkpt lon="11.864575" lat="46.258143"><ele>2655.75</ele></trkpt>
   <trkpt lon="11.864800" lat="46.258169"><ele>2657.5</ele></trkpt>
   <trkpt lon="11.865605" lat="46.258182"><ele>2667.25</ele></trkpt>
   <trkpt lon="11.865941" lat="46.258135"><ele>2673.0</ele></trkpt>
   <trkpt lon="11.866219" lat="46.258228"><ele>2681.75</ele></trkpt>
   <trkpt lon="11.866374" lat="46.258323"><ele>2690.75</ele></trkpt>
   <trkpt lon="11.866538" lat="46.258373"><ele>2694.0</ele></trkpt>
   <trkpt lon="11.867289" lat="46.258480"><ele>2696.0</ele></trkpt>
   <trkpt lon="11.867705" lat="46.258482"><ele>2693.5</ele></trkpt>
   <trkpt lon="11.867909" lat="46.258512"><ele>2689.5</ele></trkpt>
   <trkpt lon="11.868110" lat="46.258924"><ele>2676.0</ele></trkpt>
   <trkpt lon="11.868265" lat="46.259153"><ele>2671.75</ele></trkpt>
   <trkpt lon="11.868807" lat="46.259345"><ele>2672.5</ele></trkpt>
   <trkpt lon="11.869097" lat="46.259396"><ele>2671.0</ele></trkpt>
   <trkpt lon="11.869271" lat="46.259320"><ele>2669.0</ele></trkpt>
   <trkpt lon="11.869529" lat="46.259267"><ele>2671.25</ele></trkpt>
   <trkpt lon="11.869767" lat="46.259246"><ele>2672.5</ele></trkpt>
   <trkpt lon="11.869893" lat="46.259157"><ele>2673.0</ele></trkpt>
   <trkpt lon="11.870462" lat="46.258851"><ele>2667.0</ele></trkpt>
   <trkpt lon="11.870661" lat="46.258807"><ele>2663.75</ele></trkpt>
   <trkpt lon="11.870722" lat="46.258718"><ele>2663.25</ele></trkpt>
   <trkpt lon="11.870767" lat="46.258415"><ele>2666.25</ele></trkpt>
   <trkpt lon="11.871092" lat="46.258125"><ele>2668.75</ele></trkpt>
   <trkpt lon="11.871319" lat="46.258067"><ele>2671.75</ele></trkpt>
   <trkpt lon="11.871594" lat="46.257948"><ele>2677.0</ele></trkpt>
   <trkpt lon="11.871849" lat="46.258121"><ele>2672.0</ele></trkpt>
   <trkpt lon="11.872272" lat="46.258535"><ele>2668.75</ele></trkpt>
   <trkpt lon="11.872549" lat="46.258567"><ele>2665.5</ele></trkpt>
   <trkpt lon="11.872661" lat="46.258638"><ele>2662.75</ele></trkpt>
   <trkpt lon="11.873010" lat="46.258636"><ele>2660.25</ele></trkpt>
   <trkpt lon="11.873139" lat="46.258683"><ele>2658.75</ele></trkpt>
   <trkpt lon="11.873277" lat="46.258790"><ele>2657.75</ele></trkpt>
   <trkpt lon="11.873313" lat="46.258942"><ele>2658.75</ele></trkpt>
   <trkpt lon="11.873399" lat="46.259074"><ele>2661.25</ele></trkpt>
   <trkpt lon="11.873606" lat="46.259081"><ele>2662.25</ele></trkpt>
   <trkpt lon="11.873781" lat="46.259153"><ele>2663.0</ele></trkpt>
   <trkpt lon="11.874416" lat="46.259263"><ele>2664.5</ele></trkpt>
   <trkpt lon="11.874595" lat="46.259267"><ele>2665.5</ele></trkpt>
   <trkpt lon="11.875282" lat="46.259150"><ele>2672.5</ele></trkpt>
   <trkpt lon="11.875491" lat="46.259137"><ele>2672.5</ele></trkpt>
   <trkpt lon="11.875692" lat="46.259168"><ele>2673.5</ele></trkpt>
   <trkpt lon="11.875877" lat="46.259131"><ele>2674.25</ele></trkpt>
   <trkpt lon="11.876264" lat="46.258894"><ele>2678.0</ele></trkpt>
   <trkpt lon="11.876315" lat="46.258781"><ele>2680.0</ele></trkpt>
   <trkpt lon="11.876527" lat="46.258608"><ele>2687.75</ele></trkpt>
   <trkpt lon="11.876586" lat="46.258478"><ele>2689.5</ele></trkpt>
   <trkpt lon="11.876730" lat="46.258375"><ele>2694.0</ele></trkpt>
   <trkpt lon="11.876803" lat="46.258274"><ele>2693.75</ele></trkpt>
   <trkpt lon="11.877135" lat="46.258182"><ele>2699.0</ele></trkpt>
   <trkpt lon="11.877468" lat="46.258056"><ele>2701.75</ele></trkpt>
   <trkpt lon="11.877632" lat="46.257865"><ele>2700.0</ele></trkpt>
   <trkpt lon="11.877861" lat="46.257789"><ele>2703.5</ele></trkpt>
   <trkpt lon="11.878071" lat="46.257750"><ele>2707.5</ele></trkpt>
   <trkpt lon="11.878227" lat="46.257764"><ele>2706.5</ele></trkpt>
   <trkpt lon="11.878476" lat="46.257876"><ele>2703.25</ele></trkpt>
   <trkpt lon="11.878597" lat="46.257874"><ele>2702.5</ele></trkpt>
   <trkpt lon="11.878726" lat="46.257790"><ele>2704.0</ele></trkpt>
   <trkpt lon="11.878916" lat="46.257685"><ele>2706.25</ele></trkpt>
   <trkpt lon="11.879343" lat="46.257588"><ele>2711.75</ele></trkpt>
   <trkpt lon="11.879705" lat="46.257592"><ele>2715.5</ele></trkpt>
   <trkpt lon="11.880009" lat="46.257659"><ele>2719.5</ele></trkpt>
   <trkpt lon="11.880300" lat="46.257624"><ele>2730.75</ele></trkpt>
   <trkpt lon="11.880416" lat="46.257559"><ele>2734.0</ele></trkpt>
   <trkpt lon="11.880485" lat="46.257444"><ele>2735.75</ele></trkpt>
   <trkpt lon="11.880569" lat="46.257477"><ele>2735.75</ele></trkpt>
   <trkpt lon="11.880660" lat="46.257549"><ele>2735.0</ele></trkpt>
   <trkpt lon="11.880748" lat="46.257681"><ele>2735.75</ele></trkpt>
   <trkpt lon="11.880864" lat="46.257742"><ele>2736.5</ele></trkpt>
   <trkpt lon="11.880920" lat="46.257837"><ele>2735.0</ele></trkpt>
   <trkpt lon="11.880976" lat="46.258106"><ele>2730.25</ele></trkpt>
   <trkpt lon="11.881092" lat="46.258187"><ele>2729.5</ele></trkpt>
   <trkpt lon="11.881127" lat="46.258369"><ele>2728.5</ele></trkpt>
   <trkpt lon="11.881177" lat="46.258451"><ele>2727.25</ele></trkpt>
   <trkpt lon="11.881247" lat="46.258857"><ele>2721.75</ele></trkpt>
   <trkpt lon="11.881440" lat="46.258962"><ele>2720.0</ele></trkpt>
   <trkpt lon="11.881628" lat="46.258968"><ele>2718.25</ele></trkpt>
   <trkpt lon="11.881829" lat="46.258914"><ele>2718.0</ele></trkpt>
   <trkpt lon="11.882130" lat="46.258901"><ele>2718.0</ele></trkpt>
   <trkpt lon="11.882540" lat="46.258762"><ele>2715.75</ele></trkpt>
   <trkpt lon="11.882792" lat="46.258738"><ele>2715.0</ele></trkpt>
   <trkpt lon="11.883385" lat="46.258467"><ele>2717.0</ele></trkpt>
   <trkpt lon="11.883927" lat="46.258289"><ele>2710.5</ele></trkpt>
   <trkpt lon="11.884273" lat="46.258232"><ele>2706.0</ele></trkpt>
   <trkpt lon="11.884597" lat="46.258033"><ele>2702.25</ele></trkpt>
   <trkpt lon="11.884941" lat="46.257905"><ele>2695.5</ele></trkpt>
   <trkpt lon="11.885169" lat="46.257744"><ele>2684.5</ele></trkpt>
   <trkpt lon="11.885236" lat="46.257657"><ele>2680.75</ele></trkpt>
   <trkpt lon="11.885343" lat="46.257598"><ele>2675.25</ele></trkpt>
   <trkpt lon="11.885622" lat="46.257599"><ele>2665.25</ele></trkpt>
   <trkpt lon="11.885732" lat="46.257535"><ele>2660.25</ele></trkpt>
   <trkpt lon="11.885831" lat="46.257522"><ele>2657.0</ele></trkpt>
   <trkpt lon="11.885807" lat="46.257605"><ele>2658.0</ele></trkpt>
   <trkpt lon="11.885976" lat="46.257672"><ele>2651.75</ele></trkpt>
   <trkpt lon="11.886081" lat="46.257648"><ele>2648.0</ele></trkpt>
   <trkpt lon="11.886150" lat="46.257642"><ele>2644.75</ele></trkpt>
   <trkpt lon="11.886199" lat="46.257705"><ele>2642.25</ele></trkpt>
   <trkpt lon="11.886459" lat="46.257761"><ele>2630.75</ele></trkpt>
   <trkpt lon="11.886781" lat="46.257848"><ele>2625.25</ele></trkpt>
   <trkpt lon="11.887025" lat="46.257868"><ele>2620.5</ele></trkpt>
   <trkpt lon="11.887156" lat="46.257807"><ele>2614.25</ele></trkpt>
   <trkpt lon="11.887462" lat="46.257828"><ele>2609.25</ele></trkpt>
   <trkpt lon="11.887719" lat="46.257896"><ele>2604.5</ele></trkpt>
   <trkpt lon="11.888098" lat="46.257846"><ele>2587.75</ele></trkpt>
   <trkpt lon="11.888476" lat="46.257819"><ele>2577.75</ele></trkpt>
   <trkpt lon="11.888895" lat="46.257859"><ele>2574.5</ele></trkpt>
   <trkpt lon="11.889344" lat="46.257868"><ele>2569.0</ele></trkpt>
   <trkpt lon="11.889682" lat="46.257831"><ele>2560.0</ele></trkpt>
   <trkpt lon="11.889979" lat="46.257849"><ele>2556.0</ele></trkpt>
   <trkpt lon="11.890265" lat="46.257921"><ele>2557.0</ele></trkpt>
   <trkpt lon="11.890476" lat="46.257908"><ele>2551.0</ele></trkpt>
   <trkpt lon="11.890777" lat="46.257820"><ele>2535.25</ele></trkpt>
   <trkpt lon="11.891002" lat="46.257830"><ele>2527.0</ele></trkpt>
   <trkpt lon="11.891266" lat="46.257927"><ele>2525.75</ele></trkpt>
   <trkpt lon="11.891367" lat="46.258033"><ele>2532.5</ele></trkpt>
   <trkpt lon="11.891612" lat="46.258027"><ele>2524.5</ele></trkpt>
   <trkpt lon="11.892102" lat="46.258163"><ele>2520.75</ele></trkpt>
   <trkpt lon="11.892192" lat="46.258161"><ele>2517.0</ele></trkpt>
   <trkpt lon="11.892352" lat="46.258134"><ele>2508.75</ele></trkpt>
   <trkpt lon="11.892593" lat="46.257958"><ele>2491.0</ele></trkpt>
   <trkpt lon="11.892946" lat="46.257969"><ele>2488.75</ele></trkpt>
   <trkpt lon="11.893143" lat="46.258037"><ele>2490.0</ele></trkpt>
   <trkpt lon="11.893332" lat="46.258045"><ele>2489.5</ele></trkpt>
   <trkpt lon="11.893593" lat="46.258097"><ele>2491.5</ele></trkpt>
   <trkpt lon="11.893726" lat="46.258084"><ele>2492.5</ele></trkpt>
   <trkpt lon="11.894097" lat="46.257875"><ele>2493.75</ele></trkpt>
   <trkpt lon="11.894303" lat="46.257658"><ele>2494.5</ele></trkpt>
   <trkpt lon="11.894441" lat="46.257535"><ele>2496.25</ele></trkpt>
   <trkpt lon="11.894468" lat="46.257372"><ele>2497.0</ele></trkpt>
   <trkpt lon="11.894486" lat="46.257198"><ele>2498.0</ele></trkpt>
   <trkpt lon="11.894621" lat="46.257005"><ele>2504.0</ele></trkpt>
   <trkpt lon="11.894708" lat="46.256860"><ele>2508.0</ele></trkpt>
   <trkpt lon="11.894902" lat="46.256695"><ele>2513.25</ele></trkpt>
   <trkpt lon="11.895035" lat="46.256673"><ele>2515.0</ele></trkpt>
   <trkpt lon="11.895472" lat="46.256700"><ele>2515.0</ele></trkpt>
   <trkpt lon="11.895749" lat="46.256616"><ele>2512.0</ele></trkpt>
   <trkpt lon="11.895965" lat="46.256581"><ele>2510.5</ele></trkpt>
   <trkpt lon="11.896176" lat="46.256475"><ele>2506.5</ele></trkpt>
   <trkpt lon="11.896549" lat="46.256550"><ele>2500.0</ele></trkpt>
   <trkpt lon="11.896789" lat="46.256480"><ele>2487.75</ele></trkpt>
   <trkpt lon="11.896855" lat="46.256394"><ele>2481.0</ele></trkpt>
   <trkpt lon="11.897047" lat="46.256293"><ele>2469.0</ele></trkpt>
   <trkpt lon="11.897118" lat="46.256117"><ele>2459.25</ele></trkpt>
   <trkpt lon="11.897344" lat="46.256015"><ele>2453.5</ele></trkpt>
   <trkpt lon="11.897762" lat="46.255941"><ele>2443.0</ele></trkpt>
   <trkpt lon="11.898173" lat="46.255791"><ele>2435.5</ele></trkpt>
   <trkpt lon="11.898471" lat="46.255733"><ele>2440.75</ele></trkpt>
   <trkpt lon="11.898879" lat="46.255699"><ele>2447.0</ele></trkpt>
   <trkpt lon="11.899119" lat="46.255704"><ele>2444.25</ele></trkpt>
   <trkpt lon="11.899400" lat="46.255636"><ele>2442.75</ele></trkpt>
   <trkpt lon="11.899696" lat="46.255640"><ele>2441.5</ele></trkpt>
   <trkpt lon="11.899936" lat="46.255585"><ele>2443.75</ele></trkpt>
   <trkpt lon="11.900015" lat="46.255544"><ele>2445.25</ele></trkpt>
   <trkpt lon="11.900079" lat="46.255561"><ele>2446.0</ele></trkpt>
   <trkpt lon="11.900151" lat="46.255567"><ele>2446.75</ele></trkpt>
   <trkpt lon="11.900181" lat="46.255558"><ele>2447.5</ele></trkpt>
   <trkpt lon="11.900256" lat="46.255582"><ele>2448.0</ele></trkpt>
   <trkpt lon="11.900320" lat="46.255594"><ele>2449.75</ele></trkpt>
   <trkpt lon="11.900392" lat="46.255590"><ele>2452.5</ele></trkpt>
   <trkpt lon="11.900496" lat="46.255574"><ele>2457.0</ele></trkpt>
   <trkpt lon="11.900649" lat="46.255539"><ele>2460.25</ele></trkpt>
   <trkpt lon="11.900735" lat="46.255547"><ele>2460.0</ele></trkpt>
   <trkpt lon="11.901499" lat="46.255351"><ele>2471.25</ele></trkpt>
   <trkpt lon="11.901604" lat="46.255323"><ele>2471.5</ele></trkpt>
   <trkpt lon="11.901703" lat="46.255305"><ele>2470.75</ele></trkpt>
   <trkpt lon="11.901899" lat="46.255230"><ele>2467.0</ele></trkpt>
   <trkpt lon="11.902424" lat="46.254936"><ele>2443.0</ele></trkpt>
   <trkpt lon="11.902872" lat="46.254742"><ele>2432.75</ele></trkpt>
   <trkpt lon="11.903169" lat="46.254574"><ele>2425.0</ele></trkpt>
   <trkpt lon="11.903492" lat="46.254483"><ele>2416.25</ele></trkpt>
   <trkpt lon="11.903675" lat="46.254503"><ele>2415.0</ele></trkpt>
   <trkpt lon="11.903840" lat="46.254642"><ele>2412.0</ele></trkpt>
   <trkpt lon="11.903990" lat="46.254965"><ele>2400.25</ele></trkpt>
   <trkpt lon="11.904081" lat="46.255090"><ele>2399.0</ele></trkpt>
   <trkpt lon="11.904325" lat="46.255107"><ele>2393.5</ele></trkpt>
   <trkpt lon="11.904650" lat="46.255024"><ele>2387.25</ele></trkpt>
   <trkpt lon="11.904863" lat="46.254882"><ele>2381.75</ele></trkpt>
   <trkpt lon="11.905076" lat="46.254754"><ele>2377.0</ele></trkpt>
   <trkpt lon="11.905218" lat="46.254631"><ele>2372.75</ele></trkpt>
   <trkpt lon="11.905403" lat="46.254612"><ele>2373.0</ele></trkpt>
   <trkpt lon="11.905516" lat="46.254636"><ele>2375.25</ele></trkpt>
   <trkpt lon="11.905403" lat="46.254548"><ele>2370.25</ele></trkpt>
   <trkpt lon="11.905431" lat="46.254484"><ele>2367.25</ele></trkpt>
   <trkpt lon="11.905481" lat="46.254425"><ele>2365.0</ele></trkpt>
   <trkpt lon="11.905552" lat="46.254396"><ele>2364.25</ele></trkpt>
   <trkpt lon="11.905559" lat="46.254342"><ele>2362.5</ele></trkpt>
   <trkpt lon="11.905502" lat="46.254283"><ele>2360.75</ele></trkpt>
   <trkpt lon="11.905488" lat="46.254209"><ele>2358.5</ele></trkpt>
   <trkpt lon="11.905552" lat="46.254145"><ele>2356.0</ele></trkpt>
   <trkpt lon="11.905687" lat="46.254096"><ele>2351.75</ele></trkpt>
   <trkpt lon="11.905807" lat="46.254067"><ele>2348.75</ele></trkpt>
   <trkpt lon="11.905985" lat="46.254101"><ele>2345.25</ele></trkpt>
   <trkpt lon="11.906156" lat="46.254116"><ele>2341.25</ele></trkpt>
   <trkpt lon="11.906227" lat="46.254086"><ele>2338.75</ele></trkpt>
   <trkpt lon="11.906361" lat="46.254062"><ele>2334.75</ele></trkpt>
   <trkpt lon="11.906518" lat="46.254081"><ele>2332.75</ele></trkpt>
   <trkpt lon="11.906262" lat="46.253826"><ele>2326.5</ele></trkpt>
   <trkpt lon="11.906468" lat="46.253787"><ele>2319.0</ele></trkpt>
   <trkpt lon="11.906653" lat="46.253772"><ele>2314.0</ele></trkpt>
   <trkpt lon="11.906738" lat="46.253757"><ele>2311.75</ele></trkpt>
   <trkpt lon="11.906738" lat="46.253693"><ele>2309.5</ele></trkpt>
   <trkpt lon="11.906695" lat="46.253644"><ele>2308.5</ele></trkpt>
   <trkpt lon="11.906979" lat="46.253698"><ele>2305.0</ele></trkpt>
   <trkpt lon="11.907271" lat="46.253733"><ele>2299.5</ele></trkpt>
   <trkpt lon="11.907550" lat="46.253804"><ele>2295.75</ele></trkpt>
   <trkpt lon="11.907734" lat="46.253786"><ele>2292.75</ele></trkpt>
   <trkpt lon="11.907778" lat="46.253710"><ele>2288.5</ele></trkpt>
   <trkpt lon="11.907735" lat="46.253660"><ele>2287.0</ele></trkpt>
   <trkpt lon="11.907769" lat="46.253605"><ele>2283.75</ele></trkpt>
   <trkpt lon="11.907655" lat="46.253526"><ele>2282.75</ele></trkpt>
   <trkpt lon="11.907655" lat="46.253503"><ele>2281.75</ele></trkpt>
   <trkpt lon="11.907771" lat="46.253459"><ele>2278.0</ele></trkpt>
   <trkpt lon="11.907862" lat="46.253403"><ele>2274.75</ele></trkpt>
   <trkpt lon="11.907848" lat="46.253378"><ele>2274.0</ele></trkpt>
   <trkpt lon="11.907754" lat="46.253350"><ele>2274.0</ele></trkpt>
   <trkpt lon="11.907727" lat="46.253320"><ele>2273.25</ele></trkpt>
   <trkpt lon="11.907694" lat="46.253260"><ele>2271.25</ele></trkpt>
   <trkpt lon="11.907720" lat="46.253214"><ele>2268.75</ele></trkpt>
   <trkpt lon="11.907724" lat="46.253183"><ele>2267.25</ele></trkpt>
   <trkpt lon="11.907824" lat="46.253131"><ele>2263.0</ele></trkpt>
   <trkpt lon="11.907927" lat="46.253053"><ele>2256.5</ele></trkpt>
   <trkpt lon="11.908147" lat="46.253093"><ele>2253.0</ele></trkpt>
   <trkpt lon="11.908305" lat="46.253108"><ele>2250.25</ele></trkpt>
   <trkpt lon="11.908418" lat="46.253050"><ele>2246.5</ele></trkpt>
   <trkpt lon="11.908795" lat="46.252743"><ele>2236.5</ele></trkpt>
   <trkpt lon="11.908809" lat="46.252677"><ele>2234.75</ele></trkpt>
   <trkpt lon="11.908855" lat="46.252582"><ele>2232.75</ele></trkpt>
   <trkpt lon="11.908977" lat="46.252410"><ele>2230.25</ele></trkpt>
   <trkpt lon="11.909018" lat="46.252315"><ele>2228.0</ele></trkpt>
   <trkpt lon="11.909123" lat="46.252171"><ele>2224.75</ele></trkpt>
   <trkpt lon="11.909127" lat="46.252117"><ele>2223.25</ele></trkpt>
   <trkpt lon="11.909173" lat="46.251995"><ele>2219.5</ele></trkpt>
   <trkpt lon="11.909223" lat="46.251985"><ele>2218.75</ele></trkpt>
   <trkpt lon="11.909314" lat="46.251998"><ele>2218.5</ele></trkpt>
   <trkpt lon="11.909395" lat="46.251985"><ele>2217.25</ele></trkpt>
   <trkpt lon="11.909564" lat="46.251841"><ele>2211.25</ele></trkpt>
   <trkpt lon="11.909632" lat="46.251772"><ele>2208.25</ele></trkpt>
   <trkpt lon="11.909677" lat="46.251702"><ele>2204.25</ele></trkpt>
   <trkpt lon="11.909850" lat="46.251548"><ele>2198.75</ele></trkpt>
   <trkpt lon="11.909973" lat="46.251379"><ele>2193.0</ele></trkpt>
   <trkpt lon="11.910050" lat="46.251102"><ele>2186.5</ele></trkpt>
   <trkpt lon="11.910082" lat="46.251027"><ele>2183.5</ele></trkpt>
   <trkpt lon="11.910086" lat="46.250973"><ele>2181.0</ele></trkpt>
   <trkpt lon="11.910205" lat="46.250923"><ele>2181.75</ele></trkpt>
   <trkpt lon="11.910291" lat="46.250876"><ele>2182.25</ele></trkpt>
   <trkpt lon="11.910300" lat="46.250778"><ele>2178.0</ele></trkpt>
   <trkpt lon="11.910364" lat="46.250684"><ele>2175.25</ele></trkpt>
   <trkpt lon="11.910391" lat="46.250627"><ele>2173.0</ele></trkpt>
   <trkpt lon="11.910545" lat="46.250499"><ele>2170.25</ele></trkpt>
   <trkpt lon="11.910614" lat="46.250395"><ele>2166.25</ele></trkpt>
   <trkpt lon="11.910755" lat="46.250291"><ele>2163.75</ele></trkpt>
   <trkpt lon="11.910964" lat="46.250055"><ele>2154.25</ele></trkpt>
   <trkpt lon="11.911018" lat="46.249980"><ele>2150.75</ele></trkpt>
   <trkpt lon="11.911109" lat="46.249939"><ele>2150.5</ele></trkpt>
   <trkpt lon="11.911200" lat="46.249879"><ele>2148.25</ele></trkpt>
   <trkpt lon="11.911177" lat="46.249801"><ele>2143.75</ele></trkpt>
   <trkpt lon="11.911109" lat="46.249719"><ele>2138.5</ele></trkpt>
   <trkpt lon="11.911041" lat="46.249653"><ele>2133.0</ele></trkpt>
   <trkpt lon="11.911018" lat="46.249581"><ele>2128.0</ele></trkpt>
   <trkpt lon="11.911064" lat="46.249543"><ele>2126.25</ele></trkpt>
   <trkpt lon="11.911132" lat="46.249546"><ele>2127.25</ele></trkpt>
   <trkpt lon="11.911256" lat="46.249430"><ele>2124.5</ele></trkpt>
   <trkpt lon="11.911256" lat="46.249393"><ele>2122.75</ele></trkpt>
   <trkpt lon="11.911274" lat="46.249327"><ele>2120.0</ele></trkpt>
   <trkpt lon="11.911297" lat="46.249283"><ele>2118.5</ele></trkpt>
   <trkpt lon="11.911251" lat="46.249264"><ele>2116.5</ele></trkpt>
   <trkpt lon="11.911360" lat="46.249185"><ele>2115.25</ele></trkpt>
   <trkpt lon="11.911374" lat="46.249138"><ele>2113.5</ele></trkpt>
   <trkpt lon="11.911410" lat="46.249085"><ele>2113.0</ele></trkpt>
   <trkpt lon="11.911410" lat="46.249028"><ele>2110.75</ele></trkpt>
   <trkpt lon="11.911438" lat="46.248975"><ele>2110.0</ele></trkpt>
   <trkpt lon="11.911456" lat="46.248890"><ele>2107.0</ele></trkpt>
   <trkpt lon="11.911438" lat="46.248821"><ele>2103.25</ele></trkpt>
   <trkpt lon="11.911542" lat="46.248685"><ele>2101.0</ele></trkpt>
   <trkpt lon="11.911615" lat="46.248525"><ele>2094.5</ele></trkpt>
   <trkpt lon="11.911674" lat="46.248478"><ele>2093.25</ele></trkpt>
   <trkpt lon="11.911729" lat="46.248418"><ele>2090.75</ele></trkpt>
   <trkpt lon="11.911770" lat="46.248358"><ele>2087.5</ele></trkpt>
   <trkpt lon="11.911851" lat="46.248311"><ele>2085.5</ele></trkpt>
   <trkpt lon="11.911942" lat="46.248299"><ele>2086.0</ele></trkpt>
   <trkpt lon="11.911992" lat="46.248260"><ele>2085.75</ele></trkpt>
   <trkpt lon="11.912038" lat="46.248223"><ele>2085.75</ele></trkpt>
   <trkpt lon="11.912074" lat="46.248157"><ele>2084.0</ele></trkpt>
   <trkpt lon="11.912097" lat="46.248057"><ele>2080.0</ele></trkpt>
   <trkpt lon="11.912211" lat="46.247859"><ele>2077.5</ele></trkpt>
   <trkpt lon="11.912156" lat="46.247808"><ele>2072.75</ele></trkpt>
   <trkpt lon="11.912133" lat="46.247736"><ele>2068.75</ele></trkpt>
   <trkpt lon="11.912133" lat="46.247698"><ele>2067.5</ele></trkpt>
   <trkpt lon="11.912357" lat="46.247670"><ele>2074.0</ele></trkpt>
   <trkpt lon="11.912467" lat="46.247635"><ele>2075.75</ele></trkpt>
   <trkpt lon="11.912525" lat="46.247606"><ele>2076.25</ele></trkpt>
   <trkpt lon="11.912703" lat="46.247615"><ele>2082.5</ele></trkpt>
   <trkpt lon="11.912753" lat="46.247645"><ele>2086.0</ele></trkpt>
   <trkpt lon="11.912888" lat="46.247658"><ele>2091.25</ele></trkpt>
   <trkpt lon="11.913073" lat="46.247619"><ele>2095.5</ele></trkpt>
   <trkpt lon="11.913226" lat="46.247535"><ele>2097.25</ele></trkpt>
   <trkpt lon="11.913281" lat="46.247518"><ele>2098.75</ele></trkpt>
   <trkpt lon="11.913319" lat="46.247534"><ele>2101.25</ele></trkpt>
   <trkpt lon="11.913444" lat="46.247492"><ele>2105.0</ele></trkpt>
   <trkpt lon="11.913486" lat="46.247499"><ele>2107.0</ele></trkpt>
   <trkpt lon="11.913590" lat="46.247395"><ele>2109.75</ele></trkpt>
   <trkpt lon="11.913723" lat="46.247391"><ele>2115.25</ele></trkpt>
   <trkpt lon="11.913879" lat="46.247426"><ele>2123.0</ele></trkpt>
   <trkpt lon="11.914027" lat="46.247433"><ele>2129.25</ele></trkpt>
   <trkpt lon="11.914109" lat="46.247448"><ele>2133.0</ele></trkpt>
   <trkpt lon="11.914061" lat="46.247380"><ele>2128.25</ele></trkpt>
   <trkpt lon="11.914130" lat="46.247389"><ele>2131.25</ele></trkpt>
   <trkpt lon="11.914195" lat="46.247376"><ele>2134.25</ele></trkpt>
   <trkpt lon="11.914407" lat="46.247394"><ele>2151.75</ele></trkpt>
   <trkpt lon="11.914555" lat="46.247434"><ele>2164.5</ele></trkpt>
   <trkpt lon="11.914778" lat="46.247451"><ele>2174.25</ele></trkpt>
   <trkpt lon="11.914935" lat="46.247489"><ele>2174.75</ele></trkpt>
   <trkpt lon="11.914995" lat="46.247510"><ele>2175.5</ele></trkpt>
   <trkpt lon="11.915616" lat="46.247576"><ele>2188.0</ele></trkpt>
   <trkpt lon="11.916334" lat="46.247644"><ele>2217.25</ele></trkpt>
   <trkpt lon="11.916738" lat="46.247713"><ele>2236.75</ele></trkpt>
   <trkpt lon="11.917125" lat="46.247717"><ele>2254.25</ele></trkpt>
   <trkpt lon="11.917836" lat="46.247670"><ele>2288.5</ele></trkpt>
   <trkpt lon="11.918404" lat="46.247715"><ele>2376.0</ele></trkpt>
   <trkpt lon="11.918773" lat="46.247781"><ele>2404.25</ele></trkpt>
   <trkpt lon="11.919160" lat="46.247838"><ele>2407.5</ele></trkpt>
   <trkpt lon="11.919441" lat="46.247987"><ele>2415.75</ele></trkpt>
   <trkpt lon="11.919416" lat="46.248060"><ele>2415.25</ele></trkpt>
   <trkpt lon="11.919452" lat="46.248122"><ele>2415.0</ele></trkpt>
   <trkpt lon="11.919513" lat="46.248175"><ele>2419.5</ele></trkpt>
   <trkpt lon="11.919522" lat="46.248326"><ele>2419.75</ele></trkpt>
   <trkpt lon="11.919618" lat="46.248531"><ele>2438.25</ele></trkpt>
   <trkpt lon="11.919676" lat="46.248599"><ele>2445.0</ele></trkpt>
   <trkpt lon="11.919802" lat="46.248710"><ele>2472.25</ele></trkpt>
   <trkpt lon="11.919994" lat="46.248720"><ele>2507.5</ele></trkpt>
   <trkpt lon="11.920138" lat="46.248661"><ele>2524.0</ele></trkpt>
   <trkpt lon="11.920288" lat="46.248566"><ele>2541.25</ele></trkpt>
   <trkpt lon="11.920350" lat="46.248512"><ele>2550.0</ele></trkpt>
   <trkpt lon="11.920640" lat="46.248512"><ele>2570.5</ele></trkpt>
   <trkpt lon="11.920759" lat="46.248498"><ele>2587.0</ele></trkpt>
   <trkpt lon="11.921256" lat="46.248483"><ele>2608.75</ele></trkpt>
   <trkpt lon="11.921487" lat="46.248375"><ele>2622.75</ele></trkpt>
   <trkpt lon="11.921625" lat="46.248340"><ele>2627.75</ele></trkpt>
   <trkpt lon="11.921825" lat="46.248328"><ele>2630.5</ele></trkpt>
   <trkpt lon="11.922241" lat="46.248323"><ele>2630.75</ele></trkpt>
   <trkpt lon="11.922344" lat="46.248203"><ele>2631.5</ele></trkpt>
   <trkpt lon="11.922463" lat="46.248137"><ele>2631.0</ele></trkpt>
   <trkpt lon="11.922446" lat="46.248075"><ele>2633.25</ele></trkpt>
   <trkpt lon="11.922539" lat="46.247938"><ele>2634.25</ele></trkpt>
   <trkpt lon="11.922768" lat="46.247810"><ele>2633.5</ele></trkpt>
   <trkpt lon="11.922935" lat="46.247746"><ele>2636.75</ele></trkpt>
   <trkpt lon="11.923151" lat="46.247705"><ele>2639.5</ele></trkpt>
   <trkpt lon="11.923200" lat="46.247727"><ele>2639.75</ele></trkpt>
   <trkpt lon="11.923217" lat="46.247672"><ele>2639.75</ele></trkpt>
   <trkpt lon="11.923267" lat="46.247635"><ele>2640.0</ele></trkpt>
   <trkpt lon="11.923285" lat="46.247495"><ele>2639.75</ele></trkpt>
   <trkpt lon="11.923322" lat="46.247431"><ele>2639.5</ele></trkpt>
   <trkpt lon="11.923383" lat="46.247390"><ele>2639.25</ele></trkpt>
   <trkpt lon="11.923437" lat="46.247338"><ele>2639.0</ele></trkpt>
   <trkpt lon="11.923444" lat="46.247299"><ele>2639.0</ele></trkpt>
  </trkseg>
 </trk>
</gpx>
