{
  "type": "FeatureCollection",
  "features": [
    {
      "type": "Feature",
      "properties": {
        "kind": "route",
        "name": "День 4 · Fiamme Gialle → Val dei Cantoni → Rosetta → Pradidali",
        "distance_km": 8.366,
        "ascent_m": 358,
        "source": "BRouter / OpenStreetMap"
      },
      "geometry": {
        "type": "LineString",
        "coordinates": [
          [
            11.827361,
            46.283918,
            2989.75
          ],
          [
            11.827348,
            46.283961,
            2991.5
          ],
          [
            11.827438,
            46.283968,
            2989.25
          ],
          [
            11.827498,
            46.283935,
            2988.25
          ],
          [
            11.827628,
            46.283917,
            2986.75
          ],
          [
            11.827733,
            46.283999,
            2982.75
          ],
          [
            11.827707,
            46.284103,
            2980
          ],
          [
            11.827628,
            46.284216,
            2978.25
          ],
          [
            11.827565,
            46.284299,
            2977
          ],
          [
            11.827486,
            46.28433,
            2979.75
          ],
          [
            11.82752,
            46.284413,
            2974.75
          ],
          [
            11.827625,
            46.284408,
            2968.5
          ],
          [
            11.827752,
            46.284353,
            2964.5
          ],
          [
            11.827771,
            46.284415,
            2959.25
          ],
          [
            11.827782,
            46.284503,
            2953.75
          ],
          [
            11.827707,
            46.284586,
            2954.25
          ],
          [
            11.827647,
            46.284635,
            2955.75
          ],
          [
            11.827651,
            46.284708,
            2951.75
          ],
          [
            11.827606,
            46.284767,
            2952.5
          ],
          [
            11.827711,
            46.285046,
            2937.75
          ],
          [
            11.827677,
            46.285199,
            2939.5
          ],
          [
            11.827722,
            46.285431,
            2939.25
          ],
          [
            11.827887,
            46.28547,
            2930.75
          ],
          [
            11.827913,
            46.285574,
            2930.5
          ],
          [
            11.827966,
            46.285668,
            2926.25
          ],
          [
            11.828014,
            46.285728,
            2923.5
          ],
          [
            11.828092,
            46.285745,
            2922.5
          ],
          [
            11.828127,
            46.285785,
            2923.75
          ],
          [
            11.828169,
            46.285811,
            2925.5
          ],
          [
            11.828127,
            46.285785,
            2923.75
          ],
          [
            11.828092,
            46.285745,
            2922.5
          ],
          [
            11.828014,
            46.285728,
            2923.5
          ],
          [
            11.827966,
            46.285668,
            2926.25
          ],
          [
            11.828135,
            46.285561,
            2922
          ],
          [
            11.828118,
            46.285513,
            2921.25
          ],
          [
            11.828142,
            46.285427,
            2918.75
          ],
          [
            11.828202,
            46.285388,
            2915.5
          ],
          [
            11.828317,
            46.285356,
            2910.25
          ],
          [
            11.828374,
            46.285362,
            2909
          ],
          [
            11.828434,
            46.285308,
            2905
          ],
          [
            11.828532,
            46.285289,
            2901
          ],
          [
            11.828583,
            46.285289,
            2899.5
          ],
          [
            11.828595,
            46.285227,
            2896.5
          ],
          [
            11.82873,
            46.285238,
            2894.75
          ],
          [
            11.828742,
            46.285212,
            2893.5
          ],
          [
            11.828791,
            46.285199,
            2892
          ],
          [
            11.828843,
            46.285142,
            2888
          ],
          [
            11.828859,
            46.285058,
            2883
          ],
          [
            11.828908,
            46.285078,
            2883.25
          ],
          [
            11.828961,
            46.285046,
            2880.5
          ],
          [
            11.828995,
            46.28494,
            2874.25
          ],
          [
            11.829048,
            46.284946,
            2873.5
          ],
          [
            11.829077,
            46.28494,
            2872.75
          ],
          [
            11.829122,
            46.284879,
            2868.75
          ],
          [
            11.829283,
            46.284829,
            2864.75
          ],
          [
            11.829181,
            46.284727,
            2860
          ],
          [
            11.829296,
            46.284668,
            2856
          ],
          [
            11.829329,
            46.28456,
            2850.25
          ],
          [
            11.829374,
            46.284532,
            2848
          ],
          [
            11.829431,
            46.28448,
            2844
          ],
          [
            11.829593,
            46.284394,
            2838.75
          ],
          [
            11.829809,
            46.284353,
            2835.75
          ],
          [
            11.829823,
            46.284257,
            2831
          ],
          [
            11.829842,
            46.284235,
            2829.75
          ],
          [
            11.8299,
            46.284193,
            2827.5
          ],
          [
            11.829908,
            46.28417,
            2826.5
          ],
          [
            11.83009,
            46.284169,
            2825.25
          ],
          [
            11.830144,
            46.284103,
            2821.5
          ],
          [
            11.830211,
            46.284059,
            2818.25
          ],
          [
            11.830305,
            46.283968,
            2812.5
          ],
          [
            11.830344,
            46.283886,
            2807.5
          ],
          [
            11.830386,
            46.283827,
            2804.25
          ],
          [
            11.830406,
            46.283783,
            2801.5
          ],
          [
            11.830406,
            46.283715,
            2797.75
          ],
          [
            11.830483,
            46.283602,
            2790
          ],
          [
            11.830436,
            46.283557,
            2790
          ],
          [
            11.830455,
            46.283535,
            2788.75
          ],
          [
            11.830453,
            46.283504,
            2787.75
          ],
          [
            11.83048,
            46.283484,
            2786
          ],
          [
            11.830512,
            46.2834,
            2781
          ],
          [
            11.830505,
            46.283353,
            2779.5
          ],
          [
            11.830535,
            46.283327,
            2776.5
          ],
          [
            11.830541,
            46.283308,
            2776.25
          ],
          [
            11.830574,
            46.283299,
            2774.5
          ],
          [
            11.830652,
            46.283261,
            2771.5
          ],
          [
            11.830749,
            46.283116,
            2763.5
          ],
          [
            11.830766,
            46.283076,
            2761
          ],
          [
            11.830836,
            46.282974,
            2753
          ],
          [
            11.830876,
            46.282953,
            2750.5
          ],
          [
            11.830869,
            46.282885,
            2749.25
          ],
          [
            11.830895,
            46.282696,
            2743
          ],
          [
            11.831042,
            46.282793,
            2736
          ],
          [
            11.831099,
            46.282596,
            2722.25
          ],
          [
            11.831107,
            46.282473,
            2715.5
          ],
          [
            11.831032,
            46.28249,
            2723.75
          ],
          [
            11.831081,
            46.282425,
            2717
          ],
          [
            11.831069,
            46.282423,
            2718.25
          ],
          [
            11.831062,
            46.282414,
            2718.75
          ],
          [
            11.83108,
            46.282393,
            2716.5
          ],
          [
            11.831083,
            46.282374,
            2715.5
          ],
          [
            11.831065,
            46.282356,
            2717
          ],
          [
            11.831191,
            46.2822,
            2701.75
          ],
          [
            11.831249,
            46.282159,
            2696.75
          ],
          [
            11.831293,
            46.282069,
            2692.75
          ],
          [
            11.831352,
            46.281992,
            2687.75
          ],
          [
            11.831411,
            46.281994,
            2684
          ],
          [
            11.831598,
            46.281868,
            2677.75
          ],
          [
            11.831643,
            46.281848,
            2676.25
          ],
          [
            11.831759,
            46.281776,
            2673
          ],
          [
            11.831894,
            46.281685,
            2668.25
          ],
          [
            11.831935,
            46.281637,
            2666.75
          ],
          [
            11.83209,
            46.281531,
            2662.5
          ],
          [
            11.832329,
            46.281452,
            2656
          ],
          [
            11.832392,
            46.281395,
            2655
          ],
          [
            11.832435,
            46.28147,
            2653
          ],
          [
            11.832531,
            46.281494,
            2650
          ],
          [
            11.832596,
            46.281462,
            2647.75
          ],
          [
            11.83264,
            46.281465,
            2646.25
          ],
          [
            11.832749,
            46.281414,
            2642
          ],
          [
            11.833047,
            46.281254,
            2630.75
          ],
          [
            11.833242,
            46.281217,
            2622.75
          ],
          [
            11.833398,
            46.281141,
            2617
          ],
          [
            11.833607,
            46.28105,
            2610
          ],
          [
            11.833732,
            46.281019,
            2606.25
          ],
          [
            11.833923,
            46.280934,
            2599.25
          ],
          [
            11.834086,
            46.280951,
            2594.5
          ],
          [
            11.834136,
            46.280922,
            2592
          ],
          [
            11.834253,
            46.280834,
            2586.75
          ],
          [
            11.834415,
            46.28077,
            2585.5
          ],
          [
            11.834652,
            46.280643,
            2575.5
          ],
          [
            11.834688,
            46.280598,
            2572.5
          ],
          [
            11.834769,
            46.280586,
            2568.25
          ],
          [
            11.834948,
            46.280613,
            2564.5
          ],
          [
            11.835046,
            46.280577,
            2562
          ],
          [
            11.835136,
            46.280521,
            2562.25
          ],
          [
            11.835178,
            46.280445,
            2564
          ],
          [
            11.835187,
            46.280333,
            2567
          ],
          [
            11.835303,
            46.28028,
            2562.5
          ],
          [
            11.835313,
            46.280268,
            2563
          ],
          [
            11.835414,
            46.280255,
            2561.5
          ],
          [
            11.835489,
            46.280176,
            2562
          ],
          [
            11.835561,
            46.280035,
            2560.25
          ],
          [
            11.835638,
            46.279976,
            2559
          ],
          [
            11.835633,
            46.279912,
            2561.25
          ],
          [
            11.835729,
            46.27992,
            2556.5
          ],
          [
            11.835759,
            46.279877,
            2555.5
          ],
          [
            11.835845,
            46.279803,
            2551
          ],
          [
            11.835942,
            46.279749,
            2548.75
          ],
          [
            11.836035,
            46.279683,
            2547.75
          ],
          [
            11.836092,
            46.279667,
            2546.75
          ],
          [
            11.836228,
            46.279595,
            2546.25
          ],
          [
            11.836294,
            46.279546,
            2546
          ],
          [
            11.836457,
            46.279453,
            2543.25
          ],
          [
            11.836596,
            46.279391,
            2545.5
          ],
          [
            11.836829,
            46.279321,
            2544.75
          ],
          [
            11.836783,
            46.279231,
            2552.25
          ],
          [
            11.836791,
            46.279215,
            2553
          ],
          [
            11.836785,
            46.279164,
            2556.75
          ],
          [
            11.836813,
            46.279115,
            2558
          ],
          [
            11.836806,
            46.279043,
            2562.75
          ],
          [
            11.836858,
            46.278862,
            2570.75
          ],
          [
            11.836942,
            46.278654,
            2572
          ],
          [
            11.837011,
            46.278539,
            2573.75
          ],
          [
            11.83734,
            46.278183,
            2582.75
          ],
          [
            11.837369,
            46.278142,
            2584.75
          ],
          [
            11.837395,
            46.278125,
            2585.25
          ],
          [
            11.837531,
            46.278105,
            2583.75
          ],
          [
            11.837657,
            46.278096,
            2581.75
          ],
          [
            11.837732,
            46.278072,
            2582.25
          ],
          [
            11.838019,
            46.277895,
            2586.5
          ],
          [
            11.838119,
            46.277788,
            2588.75
          ],
          [
            11.838182,
            46.277661,
            2586
          ],
          [
            11.838026,
            46.277497,
            2596.5
          ],
          [
            11.837952,
            46.277446,
            2599
          ],
          [
            11.83791,
            46.277382,
            2599.25
          ],
          [
            11.837887,
            46.277294,
            2598
          ],
          [
            11.83779,
            46.277196,
            2601
          ],
          [
            11.837669,
            46.27697,
            2604.5
          ],
          [
            11.837585,
            46.276893,
            2605.25
          ],
          [
            11.837387,
            46.276741,
            2606
          ],
          [
            11.837111,
            46.276669,
            2610.75
          ],
          [
            11.836908,
            46.276588,
            2613.25
          ],
          [
            11.836777,
            46.276498,
            2613.75
          ],
          [
            11.836572,
            46.2764,
            2615.25
          ],
          [
            11.836398,
            46.276263,
            2617
          ],
          [
            11.836005,
            46.276083,
            2624.75
          ],
          [
            11.835774,
            46.275798,
            2630
          ],
          [
            11.835564,
            46.27565,
            2636.5
          ],
          [
            11.835456,
            46.27546,
            2642.25
          ],
          [
            11.835439,
            46.275402,
            2644
          ],
          [
            11.835343,
            46.275303,
            2647
          ],
          [
            11.835206,
            46.275237,
            2650.75
          ],
          [
            11.835145,
            46.275163,
            2654.25
          ],
          [
            11.835061,
            46.275095,
            2657.25
          ],
          [
            11.834978,
            46.274982,
            2660.25
          ],
          [
            11.834968,
            46.27486,
            2662.75
          ],
          [
            11.834916,
            46.274808,
            2661.75
          ],
          [
            11.834903,
            46.274804,
            2661.25
          ],
          [
            11.834844,
            46.274829,
            2658.75
          ],
          [
            11.834794,
            46.274834,
            2657
          ],
          [
            11.834745,
            46.274834,
            2655.25
          ],
          [
            11.834701,
            46.274824,
            2653
          ],
          [
            11.834614,
            46.274837,
            2649.5
          ],
          [
            11.834569,
            46.274833,
            2647.5
          ],
          [
            11.83448,
            46.27474,
            2640.25
          ],
          [
            11.834424,
            46.274692,
            2637.5
          ],
          [
            11.834395,
            46.274656,
            2636.5
          ],
          [
            11.834357,
            46.274629,
            2635.25
          ],
          [
            11.834325,
            46.274586,
            2634.25
          ],
          [
            11.834231,
            46.274498,
            2630.5
          ],
          [
            11.834191,
            46.274429,
            2629
          ],
          [
            11.834157,
            46.274395,
            2627
          ],
          [
            11.834144,
            46.274371,
            2626.5
          ],
          [
            11.834066,
            46.274322,
            2622.75
          ],
          [
            11.834035,
            46.274268,
            2621.25
          ],
          [
            11.834005,
            46.274191,
            2619.5
          ],
          [
            11.833874,
            46.274103,
            2614.5
          ],
          [
            11.833871,
            46.274017,
            2614.5
          ],
          [
            11.833839,
            46.273949,
            2613.75
          ],
          [
            11.83377,
            46.273926,
            2612.25
          ],
          [
            11.83367,
            46.273903,
            2610.25
          ],
          [
            11.833515,
            46.27384,
            2607.25
          ],
          [
            11.833399,
            46.273779,
            2605
          ],
          [
            11.833253,
            46.273681,
            2602.5
          ],
          [
            11.833224,
            46.273589,
            2601.25
          ],
          [
            11.833193,
            46.273553,
            2600.25
          ],
          [
            11.833173,
            46.273485,
            2598.75
          ],
          [
            11.833109,
            46.273377,
            2595
          ],
          [
            11.833051,
            46.273326,
            2591.5
          ],
          [
            11.833034,
            46.273273,
            2589.75
          ],
          [
            11.832921,
            46.273052,
            2579.5
          ],
          [
            11.832891,
            46.27295,
            2575.75
          ],
          [
            11.832919,
            46.272871,
            2575.25
          ],
          [
            11.83279,
            46.272832,
            2568.75
          ],
          [
            11.83279,
            46.272725,
            2566.75
          ],
          [
            11.832833,
            46.272582,
            2566.25
          ],
          [
            11.832959,
            46.272544,
            2570.75
          ],
          [
            11.833048,
            46.272446,
            2572
          ],
          [
            11.833112,
            46.272404,
            2573.75
          ],
          [
            11.833143,
            46.272352,
            2573.25
          ],
          [
            11.833322,
            46.272259,
            2575.5
          ],
          [
            11.833512,
            46.272182,
            2584.5
          ],
          [
            11.833525,
            46.27215,
            2582
          ],
          [
            11.833581,
            46.272111,
            2581
          ],
          [
            11.833632,
            46.272063,
            2578.25
          ],
          [
            11.833737,
            46.272007,
            2576.5
          ],
          [
            11.833886,
            46.271985,
            2579.5
          ],
          [
            11.833924,
            46.27196,
            2577.25
          ],
          [
            11.834119,
            46.271892,
            2585.75
          ],
          [
            11.834183,
            46.271892,
            2590.75
          ],
          [
            11.834273,
            46.271863,
            2595.5
          ],
          [
            11.834334,
            46.271855,
            2599.25
          ],
          [
            11.834379,
            46.271837,
            2601
          ],
          [
            11.834404,
            46.27179,
            2597.75
          ],
          [
            11.834419,
            46.271733,
            2592.75
          ],
          [
            11.834475,
            46.271722,
            2594.5
          ],
          [
            11.834523,
            46.271683,
            2591.75
          ],
          [
            11.834575,
            46.271627,
            2590.5
          ],
          [
            11.834711,
            46.271565,
            2595.25
          ],
          [
            11.8349,
            46.271422,
            2602.25
          ],
          [
            11.835009,
            46.271361,
            2605.5
          ],
          [
            11.835217,
            46.271303,
            2610
          ],
          [
            11.8355,
            46.271121,
            2612
          ],
          [
            11.835578,
            46.271077,
            2613
          ],
          [
            11.835653,
            46.271048,
            2614.25
          ],
          [
            11.835669,
            46.270981,
            2611.5
          ],
          [
            11.835715,
            46.270922,
            2610
          ],
          [
            11.835802,
            46.270859,
            2609.25
          ],
          [
            11.835895,
            46.270847,
            2612.5
          ],
          [
            11.835934,
            46.270812,
            2612.25
          ],
          [
            11.835968,
            46.270706,
            2607.5
          ],
          [
            11.835965,
            46.270679,
            2605.75
          ],
          [
            11.836035,
            46.270662,
            2607.25
          ],
          [
            11.836112,
            46.27062,
            2607.25
          ],
          [
            11.83623,
            46.270591,
            2608.25
          ],
          [
            11.836373,
            46.270572,
            2610
          ],
          [
            11.836711,
            46.270479,
            2616.75
          ],
          [
            11.836858,
            46.270429,
            2620.75
          ],
          [
            11.836948,
            46.270357,
            2619.75
          ],
          [
            11.837006,
            46.270296,
            2617.75
          ],
          [
            11.837011,
            46.270255,
            2616.5
          ],
          [
            11.836989,
            46.270123,
            2616.5
          ],
          [
            11.836946,
            46.270065,
            2616
          ],
          [
            11.836732,
            46.269925,
            2612.25
          ],
          [
            11.836714,
            46.269828,
            2612
          ],
          [
            11.836796,
            46.269748,
            2614
          ],
          [
            11.836897,
            46.269694,
            2615.75
          ],
          [
            11.837068,
            46.269581,
            2613
          ],
          [
            11.837162,
            46.269568,
            2612.75
          ],
          [
            11.837161,
            46.269509,
            2609.25
          ],
          [
            11.837173,
            46.269499,
            2608.5
          ],
          [
            11.837392,
            46.269456,
            2603.75
          ],
          [
            11.837595,
            46.269407,
            2598.75
          ],
          [
            11.837547,
            46.269299,
            2595.25
          ],
          [
            11.837826,
            46.26921,
            2591.25
          ],
          [
            11.83791,
            46.269116,
            2589.25
          ],
          [
            11.837923,
            46.269068,
            2588.5
          ],
          [
            11.837982,
            46.269022,
            2587.75
          ],
          [
            11.837989,
            46.269004,
            2587.5
          ],
          [
            11.838072,
            46.268912,
            2587
          ],
          [
            11.838139,
            46.268861,
            2586.5
          ],
          [
            11.838205,
            46.268779,
            2585.75
          ],
          [
            11.838308,
            46.268613,
            2584.75
          ],
          [
            11.838269,
            46.26841,
            2586.75
          ],
          [
            11.838261,
            46.268394,
            2586.75
          ],
          [
            11.8382,
            46.268333,
            2586.5
          ],
          [
            11.838183,
            46.268264,
            2585.25
          ],
          [
            11.838275,
            46.268229,
            2585.25
          ],
          [
            11.838318,
            46.268181,
            2584
          ],
          [
            11.838404,
            46.268178,
            2584
          ],
          [
            11.838566,
            46.268142,
            2582.5
          ],
          [
            11.838746,
            46.268063,
            2580
          ],
          [
            11.838797,
            46.268001,
            2580.75
          ],
          [
            11.838794,
            46.267972,
            2581
          ],
          [
            11.838696,
            46.267825,
            2581
          ],
          [
            11.838727,
            46.267712,
            2581
          ],
          [
            11.838853,
            46.267599,
            2581
          ],
          [
            11.838909,
            46.267545,
            2580.5
          ],
          [
            11.839199,
            46.267528,
            2578.75
          ],
          [
            11.839223,
            46.267397,
            2575.75
          ],
          [
            11.839282,
            46.267339,
            2574.25
          ],
          [
            11.839215,
            46.267341,
            2574.25
          ],
          [
            11.839024,
            46.267335,
            2576
          ],
          [
            11.839215,
            46.267341,
            2574.25
          ],
          [
            11.839282,
            46.267339,
            2574.25
          ],
          [
            11.839348,
            46.26735,
            2574.25
          ],
          [
            11.839443,
            46.267316,
            2573.5
          ],
          [
            11.839756,
            46.267258,
            2573.25
          ],
          [
            11.840113,
            46.267169,
            2570.25
          ],
          [
            11.840648,
            46.266995,
            2565.75
          ],
          [
            11.840852,
            46.266902,
            2565.5
          ],
          [
            11.840822,
            46.26683,
            2567
          ],
          [
            11.840832,
            46.266795,
            2567.5
          ],
          [
            11.840863,
            46.266753,
            2568
          ],
          [
            11.840944,
            46.266711,
            2568
          ],
          [
            11.841088,
            46.266654,
            2567.25
          ],
          [
            11.841216,
            46.266629,
            2566.5
          ],
          [
            11.841457,
            46.26654,
            2568
          ],
          [
            11.84144,
            46.266482,
            2570
          ],
          [
            11.84184,
            46.266463,
            2569
          ],
          [
            11.842165,
            46.266441,
            2566.75
          ],
          [
            11.842403,
            46.266439,
            2563.25
          ],
          [
            11.842652,
            46.266348,
            2562.75
          ],
          [
            11.843472,
            46.26618,
            2558.25
          ],
          [
            11.843982,
            46.266044,
            2552
          ],
          [
            11.844415,
            46.266145,
            2550.5
          ],
          [
            11.844658,
            46.266143,
            2548.5
          ],
          [
            11.845515,
            46.266051,
            2544.75
          ],
          [
            11.845775,
            46.266051,
            2543.5
          ],
          [
            11.84611,
            46.265976,
            2543.25
          ],
          [
            11.846448,
            46.265931,
            2543
          ],
          [
            11.846732,
            46.26598,
            2545.5
          ],
          [
            11.847029,
            46.265964,
            2551.25
          ],
          [
            11.847135,
            46.265974,
            2553.5
          ],
          [
            11.847633,
            46.265948,
            2564.75
          ],
          [
            11.847976,
            46.265974,
            2573.5
          ],
          [
            11.848225,
            46.266018,
            2578.25
          ],
          [
            11.848662,
            46.266119,
            2583.5
          ],
          [
            11.848964,
            46.266116,
            2588.75
          ],
          [
            11.849127,
            46.266194,
            2589.5
          ],
          [
            11.849412,
            46.266219,
            2593.75
          ],
          [
            11.849692,
            46.266274,
            2595.75
          ],
          [
            11.850009,
            46.266262,
            2598.25
          ],
          [
            11.850067,
            46.266232,
            2599.5
          ],
          [
            11.850347,
            46.266225,
            2602.5
          ],
          [
            11.850505,
            46.266171,
            2603.5
          ],
          [
            11.85056,
            46.265992,
            2607.75
          ],
          [
            11.850674,
            46.265987,
            2607.5
          ],
          [
            11.851002,
            46.265818,
            2609.75
          ],
          [
            11.85134,
            46.265754,
            2608
          ],
          [
            11.851633,
            46.265689,
            2608
          ],
          [
            11.851772,
            46.265699,
            2607.75
          ],
          [
            11.851995,
            46.265585,
            2606.25
          ],
          [
            11.85206,
            46.265585,
            2605.25
          ],
          [
            11.852191,
            46.265484,
            2600.75
          ],
          [
            11.852373,
            46.265467,
            2600.25
          ],
          [
            11.852879,
            46.265451,
            2605.25
          ],
          [
            11.853023,
            46.265376,
            2609.25
          ],
          [
            11.853286,
            46.265356,
            2611.75
          ],
          [
            11.853329,
            46.265292,
            2614.25
          ],
          [
            11.853497,
            46.265242,
            2614.25
          ],
          [
            11.853604,
            46.265176,
            2615.5
          ],
          [
            11.853771,
            46.265042,
            2617.5
          ],
          [
            11.854044,
            46.264983,
            2616
          ],
          [
            11.854475,
            46.264806,
            2613.25
          ],
          [
            11.854603,
            46.264646,
            2612
          ],
          [
            11.854697,
            46.264621,
            2613
          ],
          [
            11.854794,
            46.264636,
            2611.5
          ],
          [
            11.854939,
            46.264507,
            2608.25
          ],
          [
            11.85515,
            46.264445,
            2608.75
          ],
          [
            11.855351,
            46.264298,
            2613
          ],
          [
            11.855432,
            46.264143,
            2618.25
          ],
          [
            11.85533,
            46.264084,
            2619.25
          ],
          [
            11.855465,
            46.264036,
            2622.25
          ],
          [
            11.855498,
            46.263945,
            2625.5
          ],
          [
            11.855452,
            46.263843,
            2627.5
          ],
          [
            11.855595,
            46.26366,
            2630.25
          ],
          [
            11.855556,
            46.263149,
            2632.75
          ],
          [
            11.855606,
            46.262901,
            2638.75
          ],
          [
            11.855575,
            46.262755,
            2642.5
          ],
          [
            11.855654,
            46.26264,
            2645.5
          ],
          [
            11.855635,
            46.262408,
            2648.5
          ],
          [
            11.855657,
            46.262256,
            2649
          ],
          [
            11.855533,
            46.262256,
            2649.5
          ],
          [
            11.855502,
            46.262068,
            2648
          ],
          [
            11.855565,
            46.261859,
            2648
          ],
          [
            11.855864,
            46.261738,
            2651
          ],
          [
            11.856015,
            46.26157,
            2656.25
          ],
          [
            11.856259,
            46.26154,
            2656.5
          ],
          [
            11.856497,
            46.261361,
            2662
          ],
          [
            11.856835,
            46.261272,
            2662.75
          ],
          [
            11.857028,
            46.261123,
            2665.75
          ],
          [
            11.857272,
            46.261063,
            2663.25
          ],
          [
            11.857595,
            46.260929,
            2657.75
          ],
          [
            11.857803,
            46.260731,
            2657.25
          ],
          [
            11.857982,
            46.260527,
            2656.5
          ],
          [
            11.858072,
            46.260279,
            2659
          ],
          [
            11.858409,
            46.260279,
            2659.75
          ],
          [
            11.858698,
            46.260287,
            2662
          ],
          [
            11.85899,
            46.260269,
            2671.25
          ],
          [
            11.859097,
            46.260376,
            2672.75
          ],
          [
            11.860028,
            46.260415,
            2670.75
          ],
          [
            11.860465,
            46.260366,
            2663.25
          ],
          [
            11.860957,
            46.260244,
            2656.75
          ],
          [
            11.861173,
            46.260095,
            2654.25
          ],
          [
            11.862262,
            46.259749,
            2657.5
          ],
          [
            11.862501,
            46.25961,
            2659.75
          ],
          [
            11.862909,
            46.259436,
            2658.75
          ],
          [
            11.863068,
            46.258956,
            2669.5
          ],
          [
            11.862969,
            46.258888,
            2676.5
          ],
          [
            11.863032,
            46.258793,
            2674
          ],
          [
            11.862945,
            46.258594,
            2678
          ],
          [
            11.862977,
            46.258523,
            2677.25
          ],
          [
            11.862933,
            46.258459,
            2678.25
          ],
          [
            11.863076,
            46.258344,
            2676.25
          ],
          [
            11.863151,
            46.258209,
            2675.5
          ],
          [
            11.863771,
            46.257995,
            2666.75
          ],
          [
            11.86403,
            46.25798,
            2662.5
          ],
          [
            11.864257,
            46.258071,
            2658.5
          ],
          [
            11.864455,
            46.258082,
            2656.25
          ],
          [
            11.864464,
            46.257984,
            2655.25
          ],
          [
            11.864427,
            46.257893,
            2653.75
          ],
          [
            11.864377,
            46.257818,
            2653.5
          ],
          [
            11.864329,
            46.257783,
            2654.25
          ],
          [
            11.86432,
            46.257707,
            2650.25
          ],
          [
            11.86436,
            46.257708,
            2649.25
          ],
          [
            11.864434,
            46.257727,
            2648.5
          ],
          [
            11.864473,
            46.257675,
            2645
          ],
          [
            11.86446,
            46.257631,
            2642.75
          ],
          [
            11.864412,
            46.257611,
            2642.5
          ],
          [
            11.864369,
            46.257556,
            2640.25
          ],
          [
            11.864315,
            46.257503,
            2638
          ],
          [
            11.864368,
            46.257515,
            2637.75
          ],
          [
            11.864396,
            46.257498,
            2636.5
          ],
          [
            11.864441,
            46.257483,
            2634.75
          ],
          [
            11.864469,
            46.257462,
            2633
          ],
          [
            11.864485,
            46.257431,
            2630.75
          ],
          [
            11.864629,
            46.25749,
            2632
          ],
          [
            11.86462,
            46.257417,
            2628.25
          ],
          [
            11.864571,
            46.25739,
            2627.25
          ],
          [
            11.864567,
            46.257358,
            2625.5
          ],
          [
            11.864612,
            46.257354,
            2625
          ],
          [
            11.864599,
            46.257338,
            2624.25
          ],
          [
            11.864605,
            46.257293,
            2621.75
          ],
          [
            11.864558,
            46.257315,
            2623.25
          ],
          [
            11.864551,
            46.257286,
            2621.5
          ],
          [
            11.864529,
            46.257256,
            2620
          ],
          [
            11.864622,
            46.257176,
            2615.75
          ],
          [
            11.864726,
            46.257129,
            2612
          ],
          [
            11.864727,
            46.257098,
            2610
          ],
          [
            11.864755,
            46.257098,
            2609
          ],
          [
            11.864803,
            46.25707,
            2605.75
          ],
          [
            11.864803,
            46.25702,
            2603
          ],
          [
            11.864827,
            46.256978,
            2600
          ],
          [
            11.864853,
            46.256978,
            2599.25
          ],
          [
            11.864891,
            46.256952,
            2597
          ],
          [
            11.864902,
            46.256919,
            2596.5
          ],
          [
            11.864957,
            46.256939,
            2595
          ],
          [
            11.86497,
            46.256929,
            2594.75
          ],
          [
            11.865,
            46.256853,
            2594.25
          ],
          [
            11.865139,
            46.256852,
            2591
          ],
          [
            11.865212,
            46.256899,
            2589
          ],
          [
            11.865415,
            46.256826,
            2584.25
          ],
          [
            11.865592,
            46.256802,
            2579
          ],
          [
            11.865694,
            46.256666,
            2573.75
          ],
          [
            11.865735,
            46.256631,
            2571.25
          ],
          [
            11.865777,
            46.256618,
            2569.5
          ],
          [
            11.865783,
            46.256578,
            2567.75
          ],
          [
            11.865888,
            46.256472,
            2561.25
          ],
          [
            11.86593,
            46.256415,
            2559.5
          ],
          [
            11.865891,
            46.256374,
            2558
          ],
          [
            11.865781,
            46.256316,
            2557.5
          ],
          [
            11.865677,
            46.256234,
            2555.25
          ],
          [
            11.865399,
            46.256153,
            2553
          ],
          [
            11.86535,
            46.256104,
            2549.75
          ],
          [
            11.865328,
            46.256069,
            2548.25
          ],
          [
            11.865263,
            46.25604,
            2547.75
          ],
          [
            11.86522,
            46.255999,
            2546.5
          ],
          [
            11.86521,
            46.255938,
            2542.25
          ],
          [
            11.865143,
            46.255864,
            2537.5
          ],
          [
            11.865133,
            46.255832,
            2535
          ],
          [
            11.865079,
            46.255802,
            2534.5
          ],
          [
            11.865017,
            46.255811,
            2534.75
          ],
          [
            11.865022,
            46.255787,
            2534
          ],
          [
            11.864959,
            46.255744,
            2532
          ],
          [
            11.864844,
            46.255686,
            2528.25
          ],
          [
            11.864846,
            46.25565,
            2526.25
          ],
          [
            11.864854,
            46.255643,
            2526
          ],
          [
            11.864836,
            46.25561,
            2524
          ],
          [
            11.864787,
            46.255575,
            2521.25
          ],
          [
            11.864715,
            46.255603,
            2521.75
          ],
          [
            11.864619,
            46.255584,
            2519.25
          ],
          [
            11.864629,
            46.255533,
            2517
          ],
          [
            11.864656,
            46.255505,
            2516.75
          ],
          [
            11.864672,
            46.255452,
            2515.75
          ],
          [
            11.864586,
            46.255425,
            2514
          ],
          [
            11.864545,
            46.255369,
            2512.5
          ],
          [
            11.864406,
            46.255271,
            2509.25
          ],
          [
            11.864383,
            46.255222,
            2508
          ],
          [
            11.864249,
            46.255124,
            2504.75
          ],
          [
            11.864236,
            46.255101,
            2504.25
          ],
          [
            11.86413,
            46.255075,
            2502.75
          ],
          [
            11.863983,
            46.254992,
            2500.5
          ],
          [
            11.863967,
            46.254902,
            2499.5
          ],
          [
            11.863923,
            46.254816,
            2498.25
          ],
          [
            11.863857,
            46.254794,
            2497.5
          ],
          [
            11.863833,
            46.254714,
            2496.75
          ],
          [
            11.863858,
            46.254604,
            2496.75
          ],
          [
            11.863793,
            46.254515,
            2496
          ],
          [
            11.863734,
            46.254394,
            2495.25
          ],
          [
            11.863623,
            46.2543,
            2493
          ],
          [
            11.863566,
            46.254272,
            2492.5
          ],
          [
            11.863473,
            46.254176,
            2492
          ],
          [
            11.863357,
            46.254104,
            2491.75
          ],
          [
            11.863253,
            46.254017,
            2491
          ],
          [
            11.863177,
            46.253944,
            2490
          ],
          [
            11.863136,
            46.253877,
            2489.5
          ],
          [
            11.863049,
            46.253825,
            2488.75
          ],
          [
            11.862855,
            46.25375,
            2487
          ],
          [
            11.862892,
            46.253678,
            2486.75
          ],
          [
            11.862925,
            46.253578,
            2486.75
          ],
          [
            11.862885,
            46.25355,
            2485.75
          ],
          [
            11.862815,
            46.253448,
            2483.5
          ],
          [
            11.862822,
            46.253431,
            2483.5
          ],
          [
            11.862794,
            46.253325,
            2481.75
          ],
          [
            11.862774,
            46.253322,
            2481
          ],
          [
            11.862804,
            46.253247,
            2484.5
          ],
          [
            11.862757,
            46.253216,
            2483.5
          ],
          [
            11.862666,
            46.253134,
            2483.25
          ],
          [
            11.862611,
            46.25313,
            2481.75
          ],
          [
            11.862523,
            46.253142,
            2478.5
          ],
          [
            11.862502,
            46.253078,
            2481
          ],
          [
            11.86239,
            46.25305,
            2474.75
          ],
          [
            11.862395,
            46.252952,
            2475.5
          ],
          [
            11.86235,
            46.252891,
            2474.25
          ],
          [
            11.862332,
            46.252794,
            2475.25
          ],
          [
            11.862367,
            46.252738,
            2475.25
          ],
          [
            11.862373,
            46.252701,
            2474.5
          ],
          [
            11.862333,
            46.252691,
            2473.5
          ],
          [
            11.862306,
            46.252672,
            2472.5
          ],
          [
            11.862272,
            46.252661,
            2471.5
          ],
          [
            11.862232,
            46.252637,
            2470
          ],
          [
            11.86214,
            46.252626,
            2466
          ],
          [
            11.862156,
            46.2525,
            2464
          ],
          [
            11.862154,
            46.252469,
            2464
          ],
          [
            11.862128,
            46.252432,
            2463.25
          ],
          [
            11.86215,
            46.252382,
            2463.75
          ],
          [
            11.861992,
            46.252317,
            2459.25
          ],
          [
            11.861899,
            46.252319,
            2457
          ],
          [
            11.861748,
            46.252239,
            2454.25
          ],
          [
            11.86172,
            46.252197,
            2454.25
          ],
          [
            11.86162,
            46.252165,
            2452.75
          ],
          [
            11.861512,
            46.252107,
            2451
          ],
          [
            11.861422,
            46.252068,
            2449.25
          ],
          [
            11.861323,
            46.252042,
            2448
          ],
          [
            11.861278,
            46.251978,
            2447.5
          ],
          [
            11.861228,
            46.251944,
            2447.25
          ],
          [
            11.861126,
            46.251922,
            2446.5
          ],
          [
            11.861073,
            46.251882,
            2446
          ],
          [
            11.861057,
            46.25185,
            2446
          ],
          [
            11.860985,
            46.251797,
            2444
          ],
          [
            11.860912,
            46.25177,
            2441
          ],
          [
            11.86094,
            46.25168,
            2442.25
          ],
          [
            11.86089,
            46.251599,
            2440
          ],
          [
            11.860826,
            46.251548,
            2437.5
          ],
          [
            11.860758,
            46.251562,
            2434.5
          ],
          [
            11.860742,
            46.251585,
            2433.5
          ],
          [
            11.860714,
            46.25158,
            2432.25
          ],
          [
            11.860688,
            46.251556,
            2431.75
          ],
          [
            11.860663,
            46.251547,
            2431
          ],
          [
            11.86064,
            46.251546,
            2430
          ],
          [
            11.860612,
            46.251534,
            2429.25
          ],
          [
            11.860581,
            46.251534,
            2428
          ],
          [
            11.860581,
            46.251542,
            2427.75
          ],
          [
            11.860549,
            46.251563,
            2425.75
          ],
          [
            11.860552,
            46.251594,
            2424.75
          ],
          [
            11.860538,
            46.251617,
            2423.5
          ],
          [
            11.860506,
            46.251626,
            2422.25
          ],
          [
            11.860447,
            46.251562,
            2422.5
          ],
          [
            11.860395,
            46.251542,
            2421.25
          ],
          [
            11.860355,
            46.251569,
            2419.5
          ],
          [
            11.860309,
            46.25157,
            2418.25
          ],
          [
            11.860294,
            46.251503,
            2418
          ],
          [
            11.860256,
            46.251506,
            2416.75
          ],
          [
            11.86024,
            46.251477,
            2416.25
          ],
          [
            11.860132,
            46.251361,
            2412
          ],
          [
            11.860085,
            46.251281,
            2411.5
          ],
          [
            11.860039,
            46.251224,
            2410.5
          ],
          [
            11.860009,
            46.251225,
            2409.25
          ],
          [
            11.859964,
            46.251239,
            2407
          ],
          [
            11.859927,
            46.25121,
            2406
          ],
          [
            11.859888,
            46.251194,
            2404.75
          ],
          [
            11.859853,
            46.25125,
            2402.25
          ],
          [
            11.859776,
            46.251237,
            2399.25
          ],
          [
            11.859684,
            46.251249,
            2395.75
          ],
          [
            11.859652,
            46.251224,
            2395
          ],
          [
            11.859641,
            46.251185,
            2394.75
          ],
          [
            11.859608,
            46.251192,
            2393.5
          ],
          [
            11.859574,
            46.251172,
            2392.5
          ],
          [
            11.859472,
            46.251144,
            2388.25
          ],
          [
            11.859467,
            46.251136,
            2388
          ],
          [
            11.859436,
            46.251158,
            2387
          ],
          [
            11.859415,
            46.251162,
            2386.25
          ],
          [
            11.859404,
            46.251122,
            2385.5
          ],
          [
            11.859421,
            46.251102,
            2386
          ],
          [
            11.859356,
            46.251099,
            2383.25
          ],
          [
            11.85935,
            46.251076,
            2383
          ],
          [
            11.859234,
            46.251032,
            2378
          ],
          [
            11.859215,
            46.251048,
            2377.5
          ],
          [
            11.859213,
            46.25103,
            2377.25
          ],
          [
            11.859201,
            46.251019,
            2376.75
          ],
          [
            11.859172,
            46.251036,
            2375.5
          ],
          [
            11.859113,
            46.25105,
            2373.25
          ],
          [
            11.859085,
            46.251081,
            2372.25
          ],
          [
            11.859053,
            46.251078,
            2371
          ],
          [
            11.859032,
            46.251059,
            2370
          ],
          [
            11.859025,
            46.251,
            2369
          ],
          [
            11.859003,
            46.25097,
            2367.75
          ],
          [
            11.858997,
            46.250895,
            2366.75
          ],
          [
            11.858972,
            46.250833,
            2364.75
          ],
          [
            11.858986,
            46.250818,
            2365.5
          ],
          [
            11.85899,
            46.250792,
            2365.5
          ],
          [
            11.858963,
            46.25073,
            2364.25
          ],
          [
            11.858906,
            46.25067,
            2361.75
          ],
          [
            11.858887,
            46.250611,
            2360.75
          ],
          [
            11.858843,
            46.250604,
            2358.75
          ],
          [
            11.858806,
            46.250588,
            2357
          ],
          [
            11.858822,
            46.250499,
            2358
          ],
          [
            11.858798,
            46.250474,
            2357
          ],
          [
            11.858754,
            46.250456,
            2355
          ],
          [
            11.858711,
            46.250405,
            2353.25
          ],
          [
            11.858676,
            46.250382,
            2351.75
          ],
          [
            11.858649,
            46.250384,
            2350.25
          ],
          [
            11.858602,
            46.250375,
            2348.25
          ],
          [
            11.858536,
            46.25039,
            2345.5
          ],
          [
            11.858504,
            46.250385,
            2344.25
          ],
          [
            11.858481,
            46.250395,
            2343.25
          ],
          [
            11.858383,
            46.250401,
            2339.5
          ],
          [
            11.858384,
            46.250385,
            2339.5
          ],
          [
            11.858292,
            46.250369,
            2336
          ],
          [
            11.858265,
            46.250346,
            2335
          ],
          [
            11.858219,
            46.250369,
            2333.25
          ],
          [
            11.85818,
            46.250359,
            2332
          ],
          [
            11.85814,
            46.250377,
            2330.25
          ],
          [
            11.858087,
            46.250361,
            2328.5
          ],
          [
            11.858056,
            46.25032,
            2327.5
          ],
          [
            11.858002,
            46.250296,
            2325.5
          ],
          [
            11.857958,
            46.250302,
            2323.5
          ],
          [
            11.857939,
            46.250316,
            2322.75
          ],
          [
            11.857845,
            46.250292,
            2318.75
          ],
          [
            11.857851,
            46.250256,
            2319.25
          ],
          [
            11.857814,
            46.250253,
            2317.5
          ],
          [
            11.857761,
            46.250196,
            2315.75
          ],
          [
            11.857707,
            46.250239,
            2313
          ],
          [
            11.85764,
            46.25017,
            2310.75
          ],
          [
            11.857579,
            46.250122,
            2308.5
          ],
          [
            11.857525,
            46.250113,
            2306.25
          ],
          [
            11.857412,
            46.250007,
            2304
          ],
          [
            11.857309,
            46.250032,
            2301.75
          ],
          [
            11.857261,
            46.250082,
            2301
          ],
          [
            11.857147,
            46.250023,
            2299.75
          ],
          [
            11.857068,
            46.250057,
            2299.75
          ],
          [
            11.856962,
            46.249954,
            2298.75
          ],
          [
            11.85688,
            46.249921,
            2299
          ],
          [
            11.8568,
            46.249869,
            2299.75
          ],
          [
            11.856734,
            46.249807,
            2300.25
          ],
          [
            11.856689,
            46.249648,
            2300.5
          ],
          [
            11.856572,
            46.249612,
            2300.75
          ],
          [
            11.856546,
            46.249548,
            2300.5
          ],
          [
            11.856499,
            46.249524,
            2300.25
          ],
          [
            11.856445,
            46.249438,
            2300
          ],
          [
            11.856394,
            46.249268,
            2300.5
          ],
          [
            11.856357,
            46.249234,
            2300.75
          ],
          [
            11.856302,
            46.249221,
            2301
          ],
          [
            11.856238,
            46.249197,
            2301
          ],
          [
            11.856214,
            46.249113,
            2298.75
          ],
          [
            11.856192,
            46.249113,
            2298.75
          ],
          [
            11.856174,
            46.249126,
            2299.25
          ],
          [
            11.85615,
            46.249115,
            2298.75
          ],
          [
            11.856098,
            46.249119,
            2298.75
          ],
          [
            11.856091,
            46.249092,
            2297.5
          ],
          [
            11.856095,
            46.249036,
            2295.25
          ],
          [
            11.856126,
            46.249023,
            2294.75
          ],
          [
            11.856125,
            46.248997,
            2293.75
          ],
          [
            11.856204,
            46.248961,
            2293
          ],
          [
            11.85626,
            46.248916,
            2292
          ],
          [
            11.856243,
            46.248852,
            2289
          ],
          [
            11.856192,
            46.248793,
            2285.75
          ],
          [
            11.856081,
            46.248701,
            2282
          ],
          [
            11.855976,
            46.248582,
            2281.5
          ],
          [
            11.855884,
            46.248519,
            2284
          ],
          [
            11.855921,
            46.248422,
            2282.5
          ],
          [
            11.85591,
            46.248361,
            2282.5
          ],
          [
            11.855931,
            46.248304,
            2281.5
          ],
          [
            11.85591,
            46.248159,
            2281.25
          ],
          [
            11.855937,
            46.248089,
            2280
          ],
          [
            11.8559,
            46.248024,
            2280.25
          ],
          [
            11.855933,
            46.247998,
            2279
          ],
          [
            11.855999,
            46.247905,
            2275
          ],
          [
            11.855985,
            46.247828,
            2274
          ],
          [
            11.856015,
            46.247784,
            2272
          ],
          [
            11.856006,
            46.247712,
            2270.5
          ],
          [
            11.855957,
            46.247697,
            2271.5
          ],
          [
            11.855998,
            46.247593,
            2267.25
          ],
          [
            11.855973,
            46.247552,
            2266.75
          ],
          [
            11.855984,
            46.247487,
            2264.75
          ],
          [
            11.855992,
            46.24733,
            2259.5
          ],
          [
            11.855916,
            46.247207,
            2257.25
          ],
          [
            11.85591,
            46.247148,
            2257
          ],
          [
            11.855852,
            46.247077,
            2258
          ],
          [
            11.855876,
            46.247058,
            2257.25
          ],
          [
            11.855906,
            46.246966,
            2256
          ],
          [
            11.855986,
            46.246875,
            2255
          ],
          [
            11.856065,
            46.246826,
            2253.5
          ],
          [
            11.856023,
            46.246774,
            2255.75
          ],
          [
            11.856017,
            46.246705,
            2257.5
          ],
          [
            11.856035,
            46.246558,
            2259
          ],
          [
            11.855978,
            46.246417,
            2262.75
          ],
          [
            11.85604,
            46.246374,
            2261
          ],
          [
            11.856059,
            46.24623,
            2259.75
          ],
          [
            11.856014,
            46.246186,
            2260.5
          ],
          [
            11.856025,
            46.246121,
            2259.75
          ],
          [
            11.855971,
            46.245989,
            2260
          ],
          [
            11.855967,
            46.245906,
            2259.5
          ],
          [
            11.855916,
            46.24582,
            2259.25
          ],
          [
            11.855877,
            46.245781,
            2259.5
          ],
          [
            11.855841,
            46.245701,
            2259.75
          ],
          [
            11.85578,
            46.245658,
            2260.5
          ],
          [
            11.855715,
            46.245625,
            2261.25
          ],
          [
            11.855566,
            46.245533,
            2263
          ],
          [
            11.855468,
            46.245484,
            2264.5
          ],
          [
            11.855392,
            46.245411,
            2264.75
          ],
          [
            11.855371,
            46.245376,
            2264.5
          ],
          [
            11.855387,
            46.245349,
            2264.25
          ],
          [
            11.855387,
            46.245314,
            2264
          ],
          [
            11.855325,
            46.245224,
            2263.5
          ],
          [
            11.855289,
            46.24514,
            2263.5
          ],
          [
            11.855234,
            46.245072,
            2263.5
          ],
          [
            11.855156,
            46.244939,
            2264.25
          ],
          [
            11.855099,
            46.244875,
            2264.75
          ],
          [
            11.855037,
            46.244733,
            2266
          ],
          [
            11.855,
            46.244696,
            2265.75
          ],
          [
            11.854964,
            46.244553,
            2266
          ],
          [
            11.854886,
            46.244535,
            2267.75
          ],
          [
            11.854768,
            46.244473,
            2270
          ],
          [
            11.854699,
            46.244446,
            2272
          ],
          [
            11.854507,
            46.244289,
            2277.5
          ],
          [
            11.854465,
            46.24427,
            2279
          ],
          [
            11.854433,
            46.244219,
            2278.25
          ],
          [
            11.854375,
            46.244198,
            2277.5
          ],
          [
            11.854304,
            46.244182,
            2276.75
          ],
          [
            11.854266,
            46.244193,
            2277
          ],
          [
            11.85422,
            46.244223,
            2277.5
          ],
          [
            11.854188,
            46.244253,
            2279
          ]
        ]
      }
    },
    {
      "type": "Feature",
      "properties": {
        "kind": "waypoint",
        "name": "Bivacco Fiamme Gialle",
        "show_label": true
      },
      "geometry": {
        "type": "Point",
        "coordinates": [
          11.827366,
          46.2839186
        ]
      }
    },
    {
      "type": "Feature",
      "properties": {
        "kind": "waypoint",
        "name": "Passo del Travignolo",
        "show_label": false
      },
      "geometry": {
        "type": "Point",
        "coordinates": [
          11.828169,
          46.285811
        ]
      }
    },
    {
      "type": "Feature",
      "properties": {
        "kind": "waypoint",
        "name": "Passo Bettega",
        "show_label": true
      },
      "geometry": {
        "type": "Point",
        "coordinates": [
          11.834701,
          46.274824
        ]
      }
    },
    {
      "type": "Feature",
      "properties": {
        "kind": "waypoint",
        "name": "Rifugio Rosetta",
        "show_label": true
      },
      "geometry": {
        "type": "Point",
        "coordinates": [
          11.8390203,
          46.2674223
        ]
      }
    },
    {
      "type": "Feature",
      "properties": {
        "kind": "waypoint",
        "name": "Passo Pradidali Basso",
        "show_label": true
      },
      "geometry": {
        "type": "Point",
        "coordinates": [
          11.8644549,
          46.2580818
        ]
      }
    },
    {
      "type": "Feature",
      "properties": {
        "kind": "waypoint",
        "name": "Rifugio Pradidali",
        "show_label": true
      },
      "geometry": {
        "type": "Point",
        "coordinates": [
          11.8543039,
          46.2443107
        ]
      }
    }
  ]
}
