{
  "type": "FeatureCollection",
  "features": [
    {
      "type": "Feature",
      "properties": {
        "kind": "route",
        "name": "День 1 · San Martino di Castrozza → Velo della Madonna",
        "distance_km": 7.329,
        "ascent_m": 937,
        "source": "BRouter / OpenStreetMap"
      },
      "geometry": {
        "type": "LineString",
        "coordinates": [
          [
            11.802701,
            46.262429,
            1469
          ],
          [
            11.802785,
            46.262485,
            1469.75
          ],
          [
            11.802902,
            46.262562,
            1470.25
          ],
          [
            11.803037,
            46.262636,
            1470.75
          ],
          [
            11.803515,
            46.262792,
            1474.5
          ],
          [
            11.803542,
            46.262812,
            1474.75
          ],
          [
            11.803633,
            46.262971,
            1477.25
          ],
          [
            11.80368,
            46.263127,
            1479.5
          ],
          [
            11.80369,
            46.263163,
            1480.25
          ],
          [
            11.80367,
            46.263292,
            1481.75
          ],
          [
            11.803642,
            46.263335,
            1482
          ],
          [
            11.803575,
            46.263438,
            1483.5
          ],
          [
            11.803375,
            46.263702,
            1485
          ],
          [
            11.803306,
            46.263821,
            1486.5
          ],
          [
            11.803292,
            46.263988,
            1489
          ],
          [
            11.803213,
            46.26461,
            1496.75
          ],
          [
            11.803236,
            46.264696,
            1497.5
          ],
          [
            11.803223,
            46.264831,
            1499.25
          ],
          [
            11.803218,
            46.264884,
            1499.75
          ],
          [
            11.803325,
            46.26497,
            1500.5
          ],
          [
            11.803417,
            46.265009,
            1501.5
          ],
          [
            11.803525,
            46.265009,
            1502
          ],
          [
            11.803636,
            46.264949,
            1502
          ],
          [
            11.80438,
            46.264587,
            1505.25
          ],
          [
            11.804475,
            46.264554,
            1505.5
          ],
          [
            11.804542,
            46.264569,
            1506.25
          ],
          [
            11.80457,
            46.264616,
            1507
          ],
          [
            11.804572,
            46.26467,
            1508
          ],
          [
            11.804528,
            46.264777,
            1509.25
          ],
          [
            11.804425,
            46.264874,
            1510
          ],
          [
            11.804279,
            46.26495,
            1510.25
          ],
          [
            11.804477,
            46.265008,
            1512.5
          ],
          [
            11.804657,
            46.265084,
            1516
          ],
          [
            11.804753,
            46.265115,
            1517.5
          ],
          [
            11.804864,
            46.265128,
            1518.5
          ],
          [
            11.805048,
            46.265133,
            1519.5
          ],
          [
            11.805313,
            46.265135,
            1521.5
          ],
          [
            11.805704,
            46.265128,
            1524.75
          ],
          [
            11.805818,
            46.26512,
            1525.25
          ],
          [
            11.805899,
            46.265089,
            1525.5
          ],
          [
            11.805969,
            46.265046,
            1526
          ],
          [
            11.806323,
            46.264768,
            1527.5
          ],
          [
            11.806971,
            46.2643,
            1529.5
          ],
          [
            11.807097,
            46.264221,
            1529.75
          ],
          [
            11.807223,
            46.264202,
            1530.5
          ],
          [
            11.807297,
            46.26416,
            1530.5
          ],
          [
            11.807473,
            46.264088,
            1530.75
          ],
          [
            11.807532,
            46.26405,
            1530.25
          ],
          [
            11.80758,
            46.264004,
            1529.75
          ],
          [
            11.807661,
            46.26392,
            1529.25
          ],
          [
            11.807713,
            46.263888,
            1529.75
          ],
          [
            11.807834,
            46.26383,
            1530.25
          ],
          [
            11.807944,
            46.263787,
            1530
          ],
          [
            11.80812,
            46.263685,
            1530.5
          ],
          [
            11.808211,
            46.263611,
            1532.5
          ],
          [
            11.808309,
            46.263517,
            1531
          ],
          [
            11.808358,
            46.263433,
            1528.25
          ],
          [
            11.8085,
            46.263231,
            1525
          ],
          [
            11.808585,
            46.263148,
            1524.5
          ],
          [
            11.808629,
            46.263127,
            1524.5
          ],
          [
            11.808812,
            46.263062,
            1524.25
          ],
          [
            11.808961,
            46.262979,
            1524.25
          ],
          [
            11.809037,
            46.262879,
            1523
          ],
          [
            11.809105,
            46.262745,
            1521.25
          ],
          [
            11.809162,
            46.262695,
            1521
          ],
          [
            11.809328,
            46.262609,
            1520.75
          ],
          [
            11.809656,
            46.262398,
            1519.75
          ],
          [
            11.809945,
            46.262151,
            1517
          ],
          [
            11.809998,
            46.262114,
            1516.5
          ],
          [
            11.810223,
            46.262025,
            1515.5
          ],
          [
            11.810299,
            46.262011,
            1514.75
          ],
          [
            11.810383,
            46.262004,
            1512
          ],
          [
            11.810476,
            46.262025,
            1510.5
          ],
          [
            11.810566,
            46.262074,
            1511
          ],
          [
            11.810797,
            46.262217,
            1512.75
          ],
          [
            11.810863,
            46.262246,
            1512
          ],
          [
            11.810949,
            46.262269,
            1511.5
          ],
          [
            11.811106,
            46.262276,
            1510
          ],
          [
            11.811175,
            46.262262,
            1513.25
          ],
          [
            11.811205,
            46.262249,
            1514.5
          ],
          [
            11.811235,
            46.262216,
            1515.25
          ],
          [
            11.811274,
            46.26213,
            1515.75
          ],
          [
            11.81128,
            46.262043,
            1515
          ],
          [
            11.811271,
            46.261984,
            1514
          ],
          [
            11.811203,
            46.261747,
            1512.75
          ],
          [
            11.811524,
            46.260827,
            1518.75
          ],
          [
            11.811631,
            46.260288,
            1520.75
          ],
          [
            11.811667,
            46.260059,
            1522
          ],
          [
            11.811702,
            46.25992,
            1521.5
          ],
          [
            11.811788,
            46.259801,
            1522
          ],
          [
            11.811904,
            46.259699,
            1523
          ],
          [
            11.812162,
            46.259616,
            1526.75
          ],
          [
            11.812261,
            46.259564,
            1528
          ],
          [
            11.812341,
            46.25949,
            1528.75
          ],
          [
            11.812433,
            46.259374,
            1528.5
          ],
          [
            11.812537,
            46.259292,
            1529
          ],
          [
            11.812875,
            46.259193,
            1533
          ],
          [
            11.812985,
            46.259104,
            1533.75
          ],
          [
            11.813032,
            46.258958,
            1535
          ],
          [
            11.813271,
            46.258602,
            1538.75
          ],
          [
            11.813332,
            46.258341,
            1540.75
          ],
          [
            11.813403,
            46.258254,
            1543.25
          ],
          [
            11.81341,
            46.258157,
            1544.25
          ],
          [
            11.813372,
            46.257941,
            1543.5
          ],
          [
            11.813474,
            46.257721,
            1549.75
          ],
          [
            11.813472,
            46.257475,
            1550.25
          ],
          [
            11.813523,
            46.257365,
            1551.5
          ],
          [
            11.81363,
            46.257199,
            1554
          ],
          [
            11.813858,
            46.256957,
            1556
          ],
          [
            11.814001,
            46.256783,
            1557
          ],
          [
            11.814129,
            46.256673,
            1558.75
          ],
          [
            11.814239,
            46.256559,
            1561.25
          ],
          [
            11.814278,
            46.256489,
            1561.75
          ],
          [
            11.814312,
            46.256402,
            1561.5
          ],
          [
            11.814411,
            46.256197,
            1563.5
          ],
          [
            11.814524,
            46.256001,
            1564.5
          ],
          [
            11.814627,
            46.255891,
            1566.25
          ],
          [
            11.814706,
            46.25581,
            1567.25
          ],
          [
            11.814844,
            46.255718,
            1569
          ],
          [
            11.814945,
            46.255665,
            1570.75
          ],
          [
            11.815076,
            46.255541,
            1571.5
          ],
          [
            11.815306,
            46.255302,
            1572.75
          ],
          [
            11.815491,
            46.255097,
            1574.5
          ],
          [
            11.815675,
            46.254953,
            1577.25
          ],
          [
            11.815888,
            46.254656,
            1579.5
          ],
          [
            11.815952,
            46.254593,
            1579.75
          ],
          [
            11.816043,
            46.254482,
            1580.25
          ],
          [
            11.816095,
            46.254379,
            1580.75
          ],
          [
            11.816132,
            46.254257,
            1581.5
          ],
          [
            11.816157,
            46.25415,
            1582.5
          ],
          [
            11.816141,
            46.25404,
            1582.75
          ],
          [
            11.816102,
            46.253894,
            1582.25
          ],
          [
            11.816106,
            46.25386,
            1582
          ],
          [
            11.816135,
            46.253803,
            1582.5
          ],
          [
            11.816245,
            46.253697,
            1585.25
          ],
          [
            11.816393,
            46.253588,
            1587
          ],
          [
            11.816633,
            46.253444,
            1586.5
          ],
          [
            11.816744,
            46.253319,
            1585.5
          ],
          [
            11.81686,
            46.253167,
            1586
          ],
          [
            11.817036,
            46.252891,
            1588.25
          ],
          [
            11.81721,
            46.252545,
            1588.25
          ],
          [
            11.817252,
            46.252486,
            1588
          ],
          [
            11.817364,
            46.252413,
            1588.25
          ],
          [
            11.817466,
            46.252371,
            1588.75
          ],
          [
            11.817818,
            46.25225,
            1588.5
          ],
          [
            11.818067,
            46.252137,
            1588.5
          ],
          [
            11.818286,
            46.252021,
            1586.75
          ],
          [
            11.818365,
            46.251992,
            1586.5
          ],
          [
            11.818555,
            46.251951,
            1588
          ],
          [
            11.818715,
            46.251933,
            1588.75
          ],
          [
            11.819017,
            46.251918,
            1589.25
          ],
          [
            11.819359,
            46.251915,
            1590
          ],
          [
            11.819764,
            46.251847,
            1589.75
          ],
          [
            11.819866,
            46.251845,
            1589.25
          ],
          [
            11.819973,
            46.25186,
            1590
          ],
          [
            11.820153,
            46.251918,
            1592.25
          ],
          [
            11.820296,
            46.251935,
            1592
          ],
          [
            11.820382,
            46.251932,
            1592
          ],
          [
            11.820601,
            46.251905,
            1590
          ],
          [
            11.820805,
            46.251893,
            1589.25
          ],
          [
            11.820878,
            46.251908,
            1589
          ],
          [
            11.820952,
            46.251942,
            1589
          ],
          [
            11.821207,
            46.252115,
            1587.75
          ],
          [
            11.821357,
            46.252233,
            1585.5
          ],
          [
            11.821488,
            46.252428,
            1584.75
          ],
          [
            11.821537,
            46.252455,
            1584.25
          ],
          [
            11.821598,
            46.252478,
            1583.5
          ],
          [
            11.821685,
            46.252494,
            1582.5
          ],
          [
            11.821876,
            46.252506,
            1583.25
          ],
          [
            11.821962,
            46.252531,
            1584
          ],
          [
            11.822227,
            46.252711,
            1584.25
          ],
          [
            11.822288,
            46.252735,
            1584.75
          ],
          [
            11.822371,
            46.252756,
            1584.75
          ],
          [
            11.822477,
            46.252766,
            1583.75
          ],
          [
            11.822588,
            46.252757,
            1583.5
          ],
          [
            11.822742,
            46.252717,
            1582.75
          ],
          [
            11.823446,
            46.252584,
            1583.75
          ],
          [
            11.82416,
            46.252511,
            1584.25
          ],
          [
            11.824532,
            46.252491,
            1583.5
          ],
          [
            11.824645,
            46.252499,
            1583.75
          ],
          [
            11.824921,
            46.252505,
            1584
          ],
          [
            11.825107,
            46.252529,
            1584.75
          ],
          [
            11.825526,
            46.25256,
            1584.25
          ],
          [
            11.825652,
            46.252562,
            1584
          ],
          [
            11.825929,
            46.252603,
            1585.75
          ],
          [
            11.826204,
            46.252586,
            1586.25
          ],
          [
            11.826456,
            46.252623,
            1586.75
          ],
          [
            11.8266,
            46.252688,
            1588.25
          ],
          [
            11.82674,
            46.252741,
            1590.75
          ],
          [
            11.826855,
            46.252773,
            1592.5
          ],
          [
            11.827014,
            46.252799,
            1594
          ],
          [
            11.827164,
            46.252851,
            1596.5
          ],
          [
            11.827476,
            46.252942,
            1599
          ],
          [
            11.827608,
            46.252967,
            1599.25
          ],
          [
            11.827907,
            46.253002,
            1600
          ],
          [
            11.828207,
            46.252892,
            1599.25
          ],
          [
            11.82829,
            46.252841,
            1598.25
          ],
          [
            11.828598,
            46.252753,
            1599.25
          ],
          [
            11.828628,
            46.252695,
            1598.25
          ],
          [
            11.828776,
            46.252612,
            1599.5
          ],
          [
            11.828785,
            46.252526,
            1598
          ],
          [
            11.828699,
            46.252366,
            1600
          ],
          [
            11.829019,
            46.252321,
            1607.5
          ],
          [
            11.829089,
            46.252191,
            1612.5
          ],
          [
            11.829186,
            46.252134,
            1615.25
          ],
          [
            11.829371,
            46.25206,
            1618.25
          ],
          [
            11.829534,
            46.251934,
            1622.75
          ],
          [
            11.829751,
            46.251659,
            1634.25
          ],
          [
            11.829888,
            46.251492,
            1640.5
          ],
          [
            11.83006,
            46.251373,
            1645.75
          ],
          [
            11.830173,
            46.251264,
            1650
          ],
          [
            11.830261,
            46.251149,
            1655.25
          ],
          [
            11.83036,
            46.251049,
            1658.75
          ],
          [
            11.830505,
            46.250977,
            1662.25
          ],
          [
            11.830548,
            46.250849,
            1668
          ],
          [
            11.830822,
            46.250696,
            1676.25
          ],
          [
            11.830886,
            46.25058,
            1681.25
          ],
          [
            11.83091,
            46.250385,
            1689.5
          ],
          [
            11.831209,
            46.250171,
            1701.75
          ],
          [
            11.831347,
            46.250123,
            1704.5
          ],
          [
            11.831417,
            46.250034,
            1709.75
          ],
          [
            11.831503,
            46.249982,
            1713.75
          ],
          [
            11.831566,
            46.249918,
            1717.75
          ],
          [
            11.831828,
            46.249925,
            1723
          ],
          [
            11.83186,
            46.249841,
            1726.5
          ],
          [
            11.83179,
            46.249741,
            1728.5
          ],
          [
            11.831863,
            46.249762,
            1729.25
          ],
          [
            11.831826,
            46.24969,
            1731.5
          ],
          [
            11.831941,
            46.24969,
            1733.25
          ],
          [
            11.831916,
            46.249633,
            1735.5
          ],
          [
            11.832005,
            46.249638,
            1737.5
          ],
          [
            11.831971,
            46.249547,
            1740.25
          ],
          [
            11.83208,
            46.249546,
            1743.25
          ],
          [
            11.832131,
            46.249534,
            1745
          ],
          [
            11.832129,
            46.24946,
            1747.5
          ],
          [
            11.832185,
            46.249464,
            1748.5
          ],
          [
            11.832263,
            46.249494,
            1750
          ],
          [
            11.832284,
            46.249453,
            1751.75
          ],
          [
            11.832292,
            46.249399,
            1754.25
          ],
          [
            11.83233,
            46.249405,
            1755
          ],
          [
            11.832391,
            46.249451,
            1755.25
          ],
          [
            11.832453,
            46.24947,
            1756.5
          ],
          [
            11.832458,
            46.249399,
            1759.25
          ],
          [
            11.832486,
            46.249328,
            1762.75
          ],
          [
            11.832553,
            46.24928,
            1766.5
          ],
          [
            11.83257,
            46.249244,
            1768
          ],
          [
            11.832648,
            46.249215,
            1771
          ],
          [
            11.832651,
            46.249191,
            1771.5
          ],
          [
            11.832589,
            46.249111,
            1774.5
          ],
          [
            11.832486,
            46.249048,
            1775.5
          ],
          [
            11.832386,
            46.249006,
            1775.75
          ],
          [
            11.832295,
            46.248951,
            1776.75
          ],
          [
            11.832204,
            46.24891,
            1777.5
          ],
          [
            11.832075,
            46.248893,
            1778
          ],
          [
            11.832018,
            46.248876,
            1778.75
          ],
          [
            11.831937,
            46.248825,
            1780.5
          ],
          [
            11.831846,
            46.248718,
            1783.75
          ],
          [
            11.831767,
            46.24855,
            1791.5
          ],
          [
            11.831705,
            46.248513,
            1793
          ],
          [
            11.831727,
            46.248448,
            1797
          ],
          [
            11.831802,
            46.248432,
            1799
          ],
          [
            11.831885,
            46.248424,
            1800.5
          ],
          [
            11.831826,
            46.248395,
            1801.5
          ],
          [
            11.831703,
            46.248352,
            1802.25
          ],
          [
            11.831512,
            46.248117,
            1810.75
          ],
          [
            11.831437,
            46.248059,
            1812
          ],
          [
            11.831298,
            46.247915,
            1813.75
          ],
          [
            11.831196,
            46.247841,
            1813
          ],
          [
            11.831148,
            46.247761,
            1815.5
          ],
          [
            11.831075,
            46.247705,
            1816.25
          ],
          [
            11.831033,
            46.247635,
            1818.5
          ],
          [
            11.830953,
            46.247567,
            1818
          ],
          [
            11.830942,
            46.247469,
            1823
          ],
          [
            11.83084,
            46.247358,
            1825.5
          ],
          [
            11.830752,
            46.247287,
            1828.25
          ],
          [
            11.830651,
            46.247241,
            1828.5
          ],
          [
            11.830501,
            46.247219,
            1825.25
          ],
          [
            11.83039,
            46.247166,
            1825
          ],
          [
            11.830261,
            46.247022,
            1828.5
          ],
          [
            11.83024,
            46.246963,
            1830.75
          ],
          [
            11.830097,
            46.246859,
            1831.5
          ],
          [
            11.830006,
            46.246701,
            1838.5
          ],
          [
            11.829768,
            46.246516,
            1841
          ],
          [
            11.829835,
            46.246415,
            1847.5
          ],
          [
            11.829792,
            46.246197,
            1857.5
          ],
          [
            11.829746,
            46.246089,
            1863
          ],
          [
            11.829612,
            46.246004,
            1870.5
          ],
          [
            11.829545,
            46.245846,
            1869.5
          ],
          [
            11.829593,
            46.24574,
            1880.25
          ],
          [
            11.829191,
            46.245521,
            1881.75
          ],
          [
            11.829017,
            46.245301,
            1894.75
          ],
          [
            11.829175,
            46.245149,
            1894.5
          ],
          [
            11.829253,
            46.245011,
            1894
          ],
          [
            11.829395,
            46.244887,
            1899
          ],
          [
            11.829454,
            46.244716,
            1901.5
          ],
          [
            11.829853,
            46.244325,
            1919.75
          ],
          [
            11.830266,
            46.243941,
            1928
          ],
          [
            11.83058,
            46.243755,
            1936
          ],
          [
            11.830663,
            46.243718,
            1937.25
          ],
          [
            11.830824,
            46.243694,
            1941
          ],
          [
            11.830985,
            46.243704,
            1945.75
          ],
          [
            11.831149,
            46.243687,
            1948.75
          ],
          [
            11.831246,
            46.243694,
            1952
          ],
          [
            11.83131,
            46.24369,
            1953.5
          ],
          [
            11.831347,
            46.243639,
            1951.5
          ],
          [
            11.831551,
            46.243592,
            1954.75
          ],
          [
            11.831632,
            46.243562,
            1955.25
          ],
          [
            11.831718,
            46.243583,
            1959.5
          ],
          [
            11.831783,
            46.243513,
            1957
          ],
          [
            11.831848,
            46.243494,
            1958.5
          ],
          [
            11.83203,
            46.243282,
            1960.75
          ],
          [
            11.832087,
            46.243115,
            1960
          ],
          [
            11.832094,
            46.243055,
            1958.25
          ],
          [
            11.832194,
            46.243041,
            1962
          ],
          [
            11.832248,
            46.243002,
            1963.5
          ],
          [
            11.832294,
            46.242925,
            1963.25
          ],
          [
            11.832341,
            46.242884,
            1964.5
          ],
          [
            11.832352,
            46.242772,
            1961
          ],
          [
            11.832417,
            46.242661,
            1960.25
          ],
          [
            11.832593,
            46.242562,
            1967
          ],
          [
            11.832564,
            46.242463,
            1962.5
          ],
          [
            11.832552,
            46.242319,
            1961
          ],
          [
            11.832616,
            46.242282,
            1964.75
          ],
          [
            11.832683,
            46.242191,
            1967.75
          ],
          [
            11.832764,
            46.242135,
            1971.25
          ],
          [
            11.832884,
            46.24194,
            1969.5
          ],
          [
            11.833067,
            46.241857,
            1970.5
          ],
          [
            11.833249,
            46.241833,
            1973.75
          ],
          [
            11.83342,
            46.241837,
            1978
          ],
          [
            11.833584,
            46.241774,
            1975.75
          ],
          [
            11.83368,
            46.24175,
            1975.5
          ],
          [
            11.833777,
            46.241759,
            1977.75
          ],
          [
            11.833846,
            46.241752,
            1978.25
          ],
          [
            11.833911,
            46.241737,
            1977.25
          ],
          [
            11.834114,
            46.241759,
            1980.25
          ],
          [
            11.834171,
            46.241753,
            1979.5
          ],
          [
            11.83431,
            46.241755,
            1980.25
          ],
          [
            11.834425,
            46.241729,
            1976
          ],
          [
            11.83465,
            46.241735,
            1972.5
          ],
          [
            11.834835,
            46.241729,
            1973
          ],
          [
            11.834953,
            46.241718,
            1975.25
          ],
          [
            11.834993,
            46.241695,
            1974.25
          ],
          [
            11.835014,
            46.241658,
            1973
          ],
          [
            11.835011,
            46.241617,
            1974.75
          ],
          [
            11.834956,
            46.24152,
            1975.25
          ],
          [
            11.834923,
            46.241395,
            1976
          ],
          [
            11.834956,
            46.241344,
            1979.25
          ],
          [
            11.835036,
            46.241289,
            1984.25
          ],
          [
            11.8351,
            46.241235,
            1986.25
          ],
          [
            11.835124,
            46.241198,
            1986.75
          ],
          [
            11.835144,
            46.241078,
            1985.25
          ],
          [
            11.835187,
            46.240925,
            1983.75
          ],
          [
            11.835224,
            46.240853,
            1983.75
          ],
          [
            11.835294,
            46.240807,
            1985.5
          ],
          [
            11.835331,
            46.240758,
            1985
          ],
          [
            11.835458,
            46.240663,
            1985.25
          ],
          [
            11.835549,
            46.240635,
            1987
          ],
          [
            11.835609,
            46.240607,
            1988
          ],
          [
            11.835703,
            46.240529,
            1987.75
          ],
          [
            11.835703,
            46.240471,
            1986.75
          ],
          [
            11.835726,
            46.24042,
            1987
          ],
          [
            11.835834,
            46.240288,
            1991.25
          ],
          [
            11.835871,
            46.240204,
            1995.75
          ],
          [
            11.835924,
            46.240049,
            1999
          ],
          [
            11.835949,
            46.24,
            1999.5
          ],
          [
            11.835982,
            46.239965,
            2001
          ],
          [
            11.836004,
            46.239887,
            2001
          ],
          [
            11.836037,
            46.239826,
            2001.5
          ],
          [
            11.836068,
            46.2398,
            2002.25
          ],
          [
            11.836131,
            46.23979,
            2003.75
          ],
          [
            11.836292,
            46.239819,
            2006.75
          ],
          [
            11.836464,
            46.239819,
            2008.75
          ],
          [
            11.836846,
            46.239841,
            2016
          ],
          [
            11.836968,
            46.239845,
            2018.5
          ],
          [
            11.836987,
            46.239831,
            2017.75
          ],
          [
            11.837045,
            46.239828,
            2018.75
          ],
          [
            11.837171,
            46.239809,
            2020.5
          ],
          [
            11.837267,
            46.239813,
            2022.5
          ],
          [
            11.837332,
            46.239807,
            2022.75
          ],
          [
            11.837441,
            46.239833,
            2025.75
          ],
          [
            11.837476,
            46.239828,
            2025.75
          ],
          [
            11.837567,
            46.239786,
            2026
          ],
          [
            11.837688,
            46.239755,
            2029
          ],
          [
            11.837757,
            46.239713,
            2029.5
          ],
          [
            11.837893,
            46.239673,
            2031.25
          ],
          [
            11.837975,
            46.239639,
            2031.5
          ],
          [
            11.838121,
            46.239617,
            2033.75
          ],
          [
            11.838172,
            46.239597,
            2033.25
          ],
          [
            11.838258,
            46.239577,
            2033.75
          ],
          [
            11.838373,
            46.23951,
            2032
          ],
          [
            11.838407,
            46.239469,
            2030.5
          ],
          [
            11.838628,
            46.239352,
            2031.25
          ],
          [
            11.83875,
            46.239298,
            2029.5
          ],
          [
            11.838822,
            46.23928,
            2029.5
          ],
          [
            11.838901,
            46.239248,
            2028.25
          ],
          [
            11.838997,
            46.239228,
            2027.75
          ],
          [
            11.839066,
            46.239219,
            2027.75
          ],
          [
            11.839153,
            46.239199,
            2027.25
          ],
          [
            11.83933,
            46.239174,
            2028.25
          ],
          [
            11.839434,
            46.239166,
            2029.75
          ],
          [
            11.839472,
            46.239101,
            2028
          ],
          [
            11.839479,
            46.239035,
            2025.5
          ],
          [
            11.839538,
            46.238986,
            2025.5
          ],
          [
            11.83968,
            46.2389,
            2026.75
          ],
          [
            11.839814,
            46.238833,
            2028.25
          ],
          [
            11.839898,
            46.238776,
            2028.5
          ],
          [
            11.840007,
            46.238725,
            2030.5
          ],
          [
            11.84004,
            46.238693,
            2029.75
          ],
          [
            11.840107,
            46.238671,
            2030.5
          ],
          [
            11.840172,
            46.238639,
            2030.25
          ],
          [
            11.840465,
            46.238547,
            2033.25
          ],
          [
            11.840704,
            46.238432,
            2036.75
          ],
          [
            11.840742,
            46.238396,
            2036.5
          ],
          [
            11.840819,
            46.238302,
            2034.75
          ],
          [
            11.840875,
            46.238264,
            2035
          ],
          [
            11.840892,
            46.238231,
            2034
          ],
          [
            11.840963,
            46.238163,
            2032.75
          ],
          [
            11.840982,
            46.238128,
            2031.5
          ],
          [
            11.840987,
            46.238101,
            2030.25
          ],
          [
            11.840946,
            46.238057,
            2026.75
          ],
          [
            11.84097,
            46.238031,
            2025.5
          ],
          [
            11.841054,
            46.238018,
            2026.5
          ],
          [
            11.841284,
            46.237953,
            2025.75
          ],
          [
            11.841416,
            46.237895,
            2025
          ],
          [
            11.841476,
            46.237885,
            2026
          ],
          [
            11.841555,
            46.237892,
            2029
          ],
          [
            11.841632,
            46.237865,
            2028
          ],
          [
            11.841783,
            46.237821,
            2029.25
          ],
          [
            11.842005,
            46.237622,
            2031.25
          ],
          [
            11.842113,
            46.237437,
            2031.25
          ],
          [
            11.842185,
            46.237361,
            2032
          ],
          [
            11.842274,
            46.237243,
            2032.5
          ],
          [
            11.842281,
            46.237192,
            2030.25
          ],
          [
            11.842324,
            46.237157,
            2031
          ],
          [
            11.842392,
            46.237069,
            2029.5
          ],
          [
            11.842468,
            46.236992,
            2028
          ],
          [
            11.842693,
            46.236552,
            2042.75
          ],
          [
            11.84269,
            46.236383,
            2044.25
          ],
          [
            11.842717,
            46.23624,
            2046.75
          ],
          [
            11.842725,
            46.23619,
            2047.5
          ],
          [
            11.842696,
            46.236016,
            2047.75
          ],
          [
            11.842699,
            46.235777,
            2050.25
          ],
          [
            11.842712,
            46.235658,
            2050
          ],
          [
            11.842766,
            46.235509,
            2053.25
          ],
          [
            11.842688,
            46.23542,
            2053.75
          ],
          [
            11.842269,
            46.235053,
            2055.25
          ],
          [
            11.842232,
            46.234944,
            2059.25
          ],
          [
            11.842044,
            46.234641,
            2061.5
          ],
          [
            11.841977,
            46.2345,
            2062.5
          ],
          [
            11.841582,
            46.234323,
            2060.75
          ],
          [
            11.841577,
            46.234287,
            2062.75
          ],
          [
            11.841498,
            46.234191,
            2066.5
          ],
          [
            11.841365,
            46.234069,
            2069.5
          ],
          [
            11.841206,
            46.233952,
            2069.25
          ],
          [
            11.841146,
            46.233694,
            2079.25
          ],
          [
            11.841148,
            46.23347,
            2088
          ],
          [
            11.841375,
            46.233514,
            2096.5
          ],
          [
            11.841358,
            46.233451,
            2098.5
          ],
          [
            11.84141,
            46.233401,
            2102.75
          ],
          [
            11.84177,
            46.233476,
            2114.75
          ],
          [
            11.841678,
            46.233289,
            2118.5
          ],
          [
            11.84168,
            46.233128,
            2123.75
          ],
          [
            11.841762,
            46.23307,
            2139
          ],
          [
            11.841731,
            46.232963,
            2146
          ],
          [
            11.841646,
            46.232901,
            2137.25
          ],
          [
            11.841468,
            46.232699,
            2158.25
          ],
          [
            11.84137,
            46.232617,
            2169
          ],
          [
            11.841421,
            46.232609,
            2176
          ],
          [
            11.841362,
            46.232584,
            2175.5
          ],
          [
            11.841246,
            46.232557,
            2166.75
          ],
          [
            11.841288,
            46.232528,
            2177.75
          ],
          [
            11.841236,
            46.232506,
            2174.25
          ],
          [
            11.841116,
            46.232473,
            2165.25
          ],
          [
            11.841184,
            46.232443,
            2182.5
          ],
          [
            11.841031,
            46.232311,
            2193.25
          ],
          [
            11.840955,
            46.232194,
            2192.25
          ],
          [
            11.840931,
            46.232132,
            2188.75
          ],
          [
            11.840892,
            46.23209,
            2180.25
          ],
          [
            11.840934,
            46.232065,
            2193.25
          ],
          [
            11.840883,
            46.232043,
            2180.75
          ],
          [
            11.84087,
            46.231957,
            2182.5
          ],
          [
            11.840962,
            46.231969,
            2206
          ],
          [
            11.84102,
            46.231926,
            2221
          ],
          [
            11.841052,
            46.231855,
            2222.75
          ],
          [
            11.841073,
            46.231746,
            2215.75
          ],
          [
            11.841049,
            46.231711,
            2210
          ],
          [
            11.841064,
            46.231635,
            2207.75
          ],
          [
            11.841147,
            46.231565,
            2213.25
          ],
          [
            11.841258,
            46.23159,
            2221.75
          ],
          [
            11.841327,
            46.231591,
            2227.25
          ],
          [
            11.841401,
            46.231538,
            2230.75
          ],
          [
            11.841438,
            46.23138,
            2226.5
          ],
          [
            11.841499,
            46.231232,
            2232.25
          ],
          [
            11.841573,
            46.231072,
            2236.25
          ],
          [
            11.841689,
            46.230884,
            2244
          ],
          [
            11.841687,
            46.230845,
            2244.5
          ],
          [
            11.84161,
            46.230808,
            2245
          ],
          [
            11.841568,
            46.230722,
            2250.75
          ],
          [
            11.841444,
            46.230681,
            2253.5
          ],
          [
            11.841707,
            46.230611,
            2258.75
          ],
          [
            11.84188,
            46.230594,
            2262
          ],
          [
            11.841647,
            46.230493,
            2270.75
          ],
          [
            11.842006,
            46.23044,
            2276.5
          ],
          [
            11.842149,
            46.230404,
            2282
          ],
          [
            11.842291,
            46.230418,
            2284
          ],
          [
            11.842432,
            46.230446,
            2287
          ],
          [
            11.842354,
            46.230357,
            2290
          ],
          [
            11.842459,
            46.230364,
            2292.5
          ],
          [
            11.842593,
            46.230404,
            2294
          ],
          [
            11.842773,
            46.230443,
            2298.25
          ],
          [
            11.842816,
            46.230503,
            2299
          ],
          [
            11.842845,
            46.230586,
            2300.75
          ],
          [
            11.842798,
            46.230676,
            2301.75
          ],
          [
            11.842767,
            46.230787,
            2304
          ],
          [
            11.842719,
            46.230862,
            2305.75
          ],
          [
            11.842589,
            46.230994,
            2311.5
          ],
          [
            11.842502,
            46.231061,
            2314
          ],
          [
            11.842569,
            46.231059,
            2315.75
          ],
          [
            11.842485,
            46.231143,
            2318.5
          ],
          [
            11.84258,
            46.231155,
            2321.5
          ],
          [
            11.842636,
            46.231223,
            2324.75
          ],
          [
            11.842753,
            46.23125,
            2327.5
          ],
          [
            11.84278,
            46.231317,
            2328.75
          ],
          [
            11.842782,
            46.231335,
            2329.75
          ]
        ]
      }
    },
    {
      "type": "Feature",
      "properties": {
        "kind": "waypoint",
        "name": "San Martino di Castrozza",
        "show_label": true
      },
      "geometry": {
        "type": "Point",
        "coordinates": [
          11.802828,
          46.2623377
        ]
      }
    },
    {
      "type": "Feature",
      "properties": {
        "kind": "waypoint",
        "name": "Velo della Madonna",
        "show_label": true
      },
      "geometry": {
        "type": "Point",
        "coordinates": [
          11.8427465,
          46.2313393
        ]
      }
    }
  ]
}
