<?xml version="1.0" encoding="UTF-8"?>
<!-- track-length = 12119 filtered ascend = 1385 plain-ascend = -543 cost=183812 energy=.3kwh time=3h 6m 6s -->
<gpx 
 xmlns="http://www.topografix.com/GPX/1/1" 
 xmlns:xsi="http://www.w3.org/2001/XMLSchema-instance" 
 xsi:schemaLocation="http://www.topografix.com/GPX/1/1 http://www.topografix.com/GPX/1/1/gpx.xsd" 
 creator="BRouter-1.7.10" version="1.1">
 <trk>
  <name>brouter_trekking_0</name>
  <trkseg>
   <trkpt lon="11.854188" lat="46.244253"><ele>2278.0</ele></trkpt>
   <trkpt lon="11.854220" lat="46.244223"><ele>2277.5</ele></trkpt>
   <trkpt lon="11.854266" lat="46.244193"><ele>2277.0</ele></trkpt>
   <trkpt lon="11.854304" lat="46.244182"><ele>2276.75</ele></trkpt>
   <trkpt lon="11.854375" lat="46.244198"><ele>2277.5</ele></trkpt>
   <trkpt lon="11.854433" lat="46.244219"><ele>2278.25</ele></trkpt>
   <trkpt lon="11.854465" lat="46.244270"><ele>2279.0</ele></trkpt>
   <trkpt lon="11.854507" lat="46.244289"><ele>2277.5</ele></trkpt>
   <trkpt lon="11.854699" lat="46.244446"><ele>2272.0</ele></trkpt>
   <trkpt lon="11.854768" lat="46.244473"><ele>2270.0</ele></trkpt>
   <trkpt lon="11.854886" lat="46.244535"><ele>2267.75</ele></trkpt>
   <trkpt lon="11.854964" lat="46.244553"><ele>2266.0</ele></trkpt>
   <trkpt lon="11.855000" lat="46.244696"><ele>2265.75</ele></trkpt>
   <trkpt lon="11.855037" lat="46.244733"><ele>2266.0</ele></trkpt>
   <trkpt lon="11.855099" lat="46.244875"><ele>2264.75</ele></trkpt>
   <trkpt lon="11.855156" lat="46.244939"><ele>2264.25</ele></trkpt>
   <trkpt lon="11.855234" lat="46.245072"><ele>2263.5</ele></trkpt>
   <trkpt lon="11.855289" lat="46.245140"><ele>2263.5</ele></trkpt>
   <trkpt lon="11.855325" lat="46.245224"><ele>2263.5</ele></trkpt>
   <trkpt lon="11.855387" lat="46.245314"><ele>2264.0</ele></trkpt>
   <trkpt lon="11.855387" lat="46.245349"><ele>2264.25</ele></trkpt>
   <trkpt lon="11.855371" lat="46.245376"><ele>2264.5</ele></trkpt>
   <trkpt lon="11.855392" lat="46.245411"><ele>2264.75</ele></trkpt>
   <trkpt lon="11.855468" lat="46.245484"><ele>2264.5</ele></trkpt>
   <trkpt lon="11.855566" lat="46.245533"><ele>2263.0</ele></trkpt>
   <trkpt lon="11.855715" lat="46.245625"><ele>2261.25</ele></trkpt>
   <trkpt lon="11.855780" lat="46.245658"><ele>2260.5</ele></trkpt>
   <trkpt lon="11.855841" lat="46.245701"><ele>2259.75</ele></trkpt>
   <trkpt lon="11.855877" lat="46.245781"><ele>2259.5</ele></trkpt>
   <trkpt lon="11.855916" lat="46.245820"><ele>2259.25</ele></trkpt>
   <trkpt lon="11.855967" lat="46.245906"><ele>2259.5</ele></trkpt>
   <trkpt lon="11.855971" lat="46.245989"><ele>2260.0</ele></trkpt>
   <trkpt lon="11.856025" lat="46.246121"><ele>2259.75</ele></trkpt>
   <trkpt lon="11.856014" lat="46.246186"><ele>2260.5</ele></trkpt>
   <trkpt lon="11.856059" lat="46.246230"><ele>2259.75</ele></trkpt>
   <trkpt lon="11.856040" lat="46.246374"><ele>2261.0</ele></trkpt>
   <trkpt lon="11.855978" lat="46.246417"><ele>2262.75</ele></trkpt>
   <trkpt lon="11.856035" lat="46.246558"><ele>2259.0</ele></trkpt>
   <trkpt lon="11.856017" lat="46.246705"><ele>2257.5</ele></trkpt>
   <trkpt lon="11.856023" lat="46.246774"><ele>2255.75</ele></trkpt>
   <trkpt lon="11.856065" lat="46.246826"><ele>2253.5</ele></trkpt>
   <trkpt lon="11.855986" lat="46.246875"><ele>2255.0</ele></trkpt>
   <trkpt lon="11.855906" lat="46.246966"><ele>2256.0</ele></trkpt>
   <trkpt lon="11.855876" lat="46.247058"><ele>2257.25</ele></trkpt>
   <trkpt lon="11.855852" lat="46.247077"><ele>2258.0</ele></trkpt>
   <trkpt lon="11.855910" lat="46.247148"><ele>2257.0</ele></trkpt>
   <trkpt lon="11.855916" lat="46.247207"><ele>2257.25</ele></trkpt>
   <trkpt lon="11.855992" lat="46.247330"><ele>2259.5</ele></trkpt>
   <trkpt lon="11.855984" lat="46.247487"><ele>2264.75</ele></trkpt>
   <trkpt lon="11.855973" lat="46.247552"><ele>2266.75</ele></trkpt>
   <trkpt lon="11.855998" lat="46.247593"><ele>2267.25</ele></trkpt>
   <trkpt lon="11.855957" lat="46.247697"><ele>2271.5</ele></trkpt>
   <trkpt lon="11.856006" lat="46.247712"><ele>2270.5</ele></trkpt>
   <trkpt lon="11.856015" lat="46.247784"><ele>2272.0</ele></trkpt>
   <trkpt lon="11.855985" lat="46.247828"><ele>2274.0</ele></trkpt>
   <trkpt lon="11.855999" lat="46.247905"><ele>2275.0</ele></trkpt>
   <trkpt lon="11.855933" lat="46.247998"><ele>2279.0</ele></trkpt>
   <trkpt lon="11.855900" lat="46.248024"><ele>2280.25</ele></trkpt>
   <trkpt lon="11.855937" lat="46.248089"><ele>2280.0</ele></trkpt>
   <trkpt lon="11.855910" lat="46.248159"><ele>2281.25</ele></trkpt>
   <trkpt lon="11.855931" lat="46.248304"><ele>2281.5</ele></trkpt>
   <trkpt lon="11.855910" lat="46.248361"><ele>2282.5</ele></trkpt>
   <trkpt lon="11.855921" lat="46.248422"><ele>2282.5</ele></trkpt>
   <trkpt lon="11.855884" lat="46.248519"><ele>2284.0</ele></trkpt>
   <trkpt lon="11.855976" lat="46.248582"><ele>2281.5</ele></trkpt>
   <trkpt lon="11.856081" lat="46.248701"><ele>2282.0</ele></trkpt>
   <trkpt lon="11.856192" lat="46.248793"><ele>2285.75</ele></trkpt>
   <trkpt lon="11.856243" lat="46.248852"><ele>2289.0</ele></trkpt>
   <trkpt lon="11.856260" lat="46.248916"><ele>2292.0</ele></trkpt>
   <trkpt lon="11.856204" lat="46.248961"><ele>2293.0</ele></trkpt>
   <trkpt lon="11.856125" lat="46.248997"><ele>2293.75</ele></trkpt>
   <trkpt lon="11.856126" lat="46.249023"><ele>2294.75</ele></trkpt>
   <trkpt lon="11.856095" lat="46.249036"><ele>2295.25</ele></trkpt>
   <trkpt lon="11.856091" lat="46.249092"><ele>2297.5</ele></trkpt>
   <trkpt lon="11.856098" lat="46.249119"><ele>2298.75</ele></trkpt>
   <trkpt lon="11.856150" lat="46.249115"><ele>2298.75</ele></trkpt>
   <trkpt lon="11.856174" lat="46.249126"><ele>2299.25</ele></trkpt>
   <trkpt lon="11.856192" lat="46.249113"><ele>2298.75</ele></trkpt>
   <trkpt lon="11.856214" lat="46.249113"><ele>2298.75</ele></trkpt>
   <trkpt lon="11.856238" lat="46.249197"><ele>2301.0</ele></trkpt>
   <trkpt lon="11.856302" lat="46.249221"><ele>2301.0</ele></trkpt>
   <trkpt lon="11.856357" lat="46.249234"><ele>2300.75</ele></trkpt>
   <trkpt lon="11.856394" lat="46.249268"><ele>2300.5</ele></trkpt>
   <trkpt lon="11.856445" lat="46.249438"><ele>2300.0</ele></trkpt>
   <trkpt lon="11.856499" lat="46.249524"><ele>2300.25</ele></trkpt>
   <trkpt lon="11.856546" lat="46.249548"><ele>2300.5</ele></trkpt>
   <trkpt lon="11.856572" lat="46.249612"><ele>2300.75</ele></trkpt>
   <trkpt lon="11.856689" lat="46.249648"><ele>2300.5</ele></trkpt>
   <trkpt lon="11.856734" lat="46.249807"><ele>2300.25</ele></trkpt>
   <trkpt lon="11.856800" lat="46.249869"><ele>2299.75</ele></trkpt>
   <trkpt lon="11.856880" lat="46.249921"><ele>2299.0</ele></trkpt>
   <trkpt lon="11.856962" lat="46.249954"><ele>2298.75</ele></trkpt>
   <trkpt lon="11.857068" lat="46.250057"><ele>2299.75</ele></trkpt>
   <trkpt lon="11.857147" lat="46.250023"><ele>2299.75</ele></trkpt>
   <trkpt lon="11.857261" lat="46.250082"><ele>2301.0</ele></trkpt>
   <trkpt lon="11.857309" lat="46.250032"><ele>2301.75</ele></trkpt>
   <trkpt lon="11.857412" lat="46.250007"><ele>2304.0</ele></trkpt>
   <trkpt lon="11.857525" lat="46.250113"><ele>2306.25</ele></trkpt>
   <trkpt lon="11.857579" lat="46.250122"><ele>2308.5</ele></trkpt>
   <trkpt lon="11.857640" lat="46.250170"><ele>2310.75</ele></trkpt>
   <trkpt lon="11.857707" lat="46.250239"><ele>2313.0</ele></trkpt>
   <trkpt lon="11.857761" lat="46.250196"><ele>2315.75</ele></trkpt>
   <trkpt lon="11.857814" lat="46.250253"><ele>2317.5</ele></trkpt>
   <trkpt lon="11.857851" lat="46.250256"><ele>2319.25</ele></trkpt>
   <trkpt lon="11.857845" lat="46.250292"><ele>2318.75</ele></trkpt>
   <trkpt lon="11.857832" lat="46.250921"><ele>2322.75</ele></trkpt>
   <trkpt lon="11.857284" lat="46.251225"><ele>2313.75</ele></trkpt>
   <trkpt lon="11.857102" lat="46.251752"><ele>2335.0</ele></trkpt>
   <trkpt lon="11.857381" lat="46.251856"><ele>2348.75</ele></trkpt>
   <trkpt lon="11.857359" lat="46.252494"><ele>2418.5</ele></trkpt>
   <trkpt lon="11.857553" lat="46.253265"><ele>2433.5</ele></trkpt>
   <trkpt lon="11.857424" lat="46.253933"><ele>2463.25</ele></trkpt>
   <trkpt lon="11.857531" lat="46.254497"><ele>2489.5</ele></trkpt>
   <trkpt lon="11.857617" lat="46.255261"><ele>2547.0</ele></trkpt>
   <trkpt lon="11.857520" lat="46.255684"><ele>2578.25</ele></trkpt>
   <trkpt lon="11.857735" lat="46.256893"><ele>2644.25</ele></trkpt>
   <trkpt lon="11.857767" lat="46.257264"><ele>2662.5</ele></trkpt>
   <trkpt lon="11.857778" lat="46.257857"><ele>2677.0</ele></trkpt>
   <trkpt lon="11.857907" lat="46.258065"><ele>2676.5</ele></trkpt>
   <trkpt lon="11.858314" lat="46.258228"><ele>2677.25</ele></trkpt>
   <trkpt lon="11.858432" lat="46.258451"><ele>2699.0</ele></trkpt>
   <trkpt lon="11.858314" lat="46.258606"><ele>2716.0</ele></trkpt>
   <trkpt lon="11.857724" lat="46.258710"><ele>2712.0</ele></trkpt>
   <trkpt lon="11.857177" lat="46.258903"><ele>2709.0</ele></trkpt>
   <trkpt lon="11.857177" lat="46.259222"><ele>2702.0</ele></trkpt>
   <trkpt lon="11.857542" lat="46.259771"><ele>2681.75</ele></trkpt>
   <trkpt lon="11.858072" lat="46.260279"><ele>2659.0</ele></trkpt>
   <trkpt lon="11.858409" lat="46.260279"><ele>2659.75</ele></trkpt>
   <trkpt lon="11.858698" lat="46.260287"><ele>2662.0</ele></trkpt>
   <trkpt lon="11.858990" lat="46.260269"><ele>2671.25</ele></trkpt>
   <trkpt lon="11.859097" lat="46.260376"><ele>2672.75</ele></trkpt>
   <trkpt lon="11.860028" lat="46.260415"><ele>2670.75</ele></trkpt>
   <trkpt lon="11.860465" lat="46.260366"><ele>2663.25</ele></trkpt>
   <trkpt lon="11.860957" lat="46.260244"><ele>2656.75</ele></trkpt>
   <trkpt lon="11.861173" lat="46.260095"><ele>2654.25</ele></trkpt>
   <trkpt lon="11.862262" lat="46.259749"><ele>2657.5</ele></trkpt>
   <trkpt lon="11.862501" lat="46.259610"><ele>2659.75</ele></trkpt>
   <trkpt lon="11.862909" lat="46.259436"><ele>2658.75</ele></trkpt>
   <trkpt lon="11.863068" lat="46.258956"><ele>2669.5</ele></trkpt>
   <trkpt lon="11.862969" lat="46.258888"><ele>2676.5</ele></trkpt>
   <trkpt lon="11.863032" lat="46.258793"><ele>2674.0</ele></trkpt>
   <trkpt lon="11.862945" lat="46.258594"><ele>2678.0</ele></trkpt>
   <trkpt lon="11.862977" lat="46.258523"><ele>2677.25</ele></trkpt>
   <trkpt lon="11.862933" lat="46.258459"><ele>2678.25</ele></trkpt>
   <trkpt lon="11.863076" lat="46.258344"><ele>2676.25</ele></trkpt>
   <trkpt lon="11.863151" lat="46.258209"><ele>2675.5</ele></trkpt>
   <trkpt lon="11.863771" lat="46.257995"><ele>2666.75</ele></trkpt>
   <trkpt lon="11.864030" lat="46.257980"><ele>2662.5</ele></trkpt>
   <trkpt lon="11.864257" lat="46.258071"><ele>2658.5</ele></trkpt>
   <trkpt lon="11.864455" lat="46.258082"><ele>2656.25</ele></trkpt>
   <trkpt lon="11.864575" lat="46.258143"><ele>2655.75</ele></trkpt>
   <trkpt lon="11.864800" lat="46.258169"><ele>2657.5</ele></trkpt>
   <trkpt lon="11.865605" lat="46.258182"><ele>2667.25</ele></trkpt>
   <trkpt lon="11.865941" lat="46.258135"><ele>2673.0</ele></trkpt>
   <trkpt lon="11.866219" lat="46.258228"><ele>2681.75</ele></trkpt>
   <trkpt lon="11.866374" lat="46.258323"><ele>2690.75</ele></trkpt>
   <trkpt lon="11.866538" lat="46.258373"><ele>2694.0</ele></trkpt>
   <trkpt lon="11.867289" lat="46.258480"><ele>2696.0</ele></trkpt>
   <trkpt lon="11.867705" lat="46.258482"><ele>2693.5</ele></trkpt>
   <trkpt lon="11.867909" lat="46.258512"><ele>2689.5</ele></trkpt>
   <trkpt lon="11.868110" lat="46.258924"><ele>2676.0</ele></trkpt>
   <trkpt lon="11.868265" lat="46.259153"><ele>2671.75</ele></trkpt>
   <trkpt lon="11.868807" lat="46.259345"><ele>2672.5</ele></trkpt>
   <trkpt lon="11.869097" lat="46.259396"><ele>2671.0</ele></trkpt>
   <trkpt lon="11.869271" lat="46.259320"><ele>2669.0</ele></trkpt>
   <trkpt lon="11.869529" lat="46.259267"><ele>2671.25</ele></trkpt>
   <trkpt lon="11.869767" lat="46.259246"><ele>2672.5</ele></trkpt>
   <trkpt lon="11.869893" lat="46.259157"><ele>2673.0</ele></trkpt>
   <trkpt lon="11.870462" lat="46.258851"><ele>2667.0</ele></trkpt>
   <trkpt lon="11.870661" lat="46.258807"><ele>2663.75</ele></trkpt>
   <trkpt lon="11.870722" lat="46.258718"><ele>2663.25</ele></trkpt>
   <trkpt lon="11.870767" lat="46.258415"><ele>2666.25</ele></trkpt>
   <trkpt lon="11.871092" lat="46.258125"><ele>2668.75</ele></trkpt>
   <trkpt lon="11.871319" lat="46.258067"><ele>2671.75</ele></trkpt>
   <trkpt lon="11.871594" lat="46.257948"><ele>2677.0</ele></trkpt>
   <trkpt lon="11.871849" lat="46.258121"><ele>2672.0</ele></trkpt>
   <trkpt lon="11.872272" lat="46.258535"><ele>2668.75</ele></trkpt>
   <trkpt lon="11.872549" lat="46.258567"><ele>2665.5</ele></trkpt>
   <trkpt lon="11.872661" lat="46.258638"><ele>2662.75</ele></trkpt>
   <trkpt lon="11.873010" lat="46.258636"><ele>2660.25</ele></trkpt>
   <trkpt lon="11.873139" lat="46.258683"><ele>2658.75</ele></trkpt>
   <trkpt lon="11.873277" lat="46.258790"><ele>2657.75</ele></trkpt>
   <trkpt lon="11.873313" lat="46.258942"><ele>2658.75</ele></trkpt>
   <trkpt lon="11.873399" lat="46.259074"><ele>2661.25</ele></trkpt>
   <trkpt lon="11.873606" lat="46.259081"><ele>2662.25</ele></trkpt>
   <trkpt lon="11.873781" lat="46.259153"><ele>2663.0</ele></trkpt>
   <trkpt lon="11.874416" lat="46.259263"><ele>2664.5</ele></trkpt>
   <trkpt lon="11.874595" lat="46.259267"><ele>2665.5</ele></trkpt>
   <trkpt lon="11.875282" lat="46.259150"><ele>2672.5</ele></trkpt>
   <trkpt lon="11.875491" lat="46.259137"><ele>2672.5</ele></trkpt>
   <trkpt lon="11.875692" lat="46.259168"><ele>2673.5</ele></trkpt>
   <trkpt lon="11.875877" lat="46.259131"><ele>2674.25</ele></trkpt>
   <trkpt lon="11.876264" lat="46.258894"><ele>2678.0</ele></trkpt>
   <trkpt lon="11.876315" lat="46.258781"><ele>2680.0</ele></trkpt>
   <trkpt lon="11.876527" lat="46.258608"><ele>2687.75</ele></trkpt>
   <trkpt lon="11.876586" lat="46.258478"><ele>2689.5</ele></trkpt>
   <trkpt lon="11.876730" lat="46.258375"><ele>2694.0</ele></trkpt>
   <trkpt lon="11.876803" lat="46.258274"><ele>2693.75</ele></trkpt>
   <trkpt lon="11.877135" lat="46.258182"><ele>2699.0</ele></trkpt>
   <trkpt lon="11.877468" lat="46.258056"><ele>2701.75</ele></trkpt>
   <trkpt lon="11.877632" lat="46.257865"><ele>2700.0</ele></trkpt>
   <trkpt lon="11.877861" lat="46.257789"><ele>2703.5</ele></trkpt>
   <trkpt lon="11.878071" lat="46.257750"><ele>2707.5</ele></trkpt>
   <trkpt lon="11.878227" lat="46.257764"><ele>2706.5</ele></trkpt>
   <trkpt lon="11.878476" lat="46.257876"><ele>2703.25</ele></trkpt>
   <trkpt lon="11.878597" lat="46.257874"><ele>2702.5</ele></trkpt>
   <trkpt lon="11.878726" lat="46.257790"><ele>2704.0</ele></trkpt>
   <trkpt lon="11.878916" lat="46.257685"><ele>2706.25</ele></trkpt>
   <trkpt lon="11.879343" lat="46.257588"><ele>2711.75</ele></trkpt>
   <trkpt lon="11.879705" lat="46.257592"><ele>2715.5</ele></trkpt>
   <trkpt lon="11.880009" lat="46.257659"><ele>2719.5</ele></trkpt>
   <trkpt lon="11.880300" lat="46.257624"><ele>2730.75</ele></trkpt>
   <trkpt lon="11.880416" lat="46.257559"><ele>2734.0</ele></trkpt>
   <trkpt lon="11.880485" lat="46.257444"><ele>2735.75</ele></trkpt>
   <trkpt lon="11.880569" lat="46.257477"><ele>2735.75</ele></trkpt>
   <trkpt lon="11.880660" lat="46.257549"><ele>2735.0</ele></trkpt>
   <trkpt lon="11.880748" lat="46.257681"><ele>2735.75</ele></trkpt>
   <trkpt lon="11.880864" lat="46.257742"><ele>2736.5</ele></trkpt>
   <trkpt lon="11.880920" lat="46.257837"><ele>2735.0</ele></trkpt>
   <trkpt lon="11.880976" lat="46.258106"><ele>2730.25</ele></trkpt>
   <trkpt lon="11.881092" lat="46.258187"><ele>2729.5</ele></trkpt>
   <trkpt lon="11.881127" lat="46.258369"><ele>2728.5</ele></trkpt>
   <trkpt lon="11.881177" lat="46.258451"><ele>2727.25</ele></trkpt>
   <trkpt lon="11.881247" lat="46.258857"><ele>2721.75</ele></trkpt>
   <trkpt lon="11.881440" lat="46.258962"><ele>2720.0</ele></trkpt>
   <trkpt lon="11.881628" lat="46.258968"><ele>2718.25</ele></trkpt>
   <trkpt lon="11.881829" lat="46.258914"><ele>2718.0</ele></trkpt>
   <trkpt lon="11.882130" lat="46.258901"><ele>2718.0</ele></trkpt>
   <trkpt lon="11.882540" lat="46.258762"><ele>2715.75</ele></trkpt>
   <trkpt lon="11.882792" lat="46.258738"><ele>2715.0</ele></trkpt>
   <trkpt lon="11.883385" lat="46.258467"><ele>2717.0</ele></trkpt>
   <trkpt lon="11.883927" lat="46.258289"><ele>2710.5</ele></trkpt>
   <trkpt lon="11.884273" lat="46.258232"><ele>2706.0</ele></trkpt>
   <trkpt lon="11.884597" lat="46.258033"><ele>2702.25</ele></trkpt>
   <trkpt lon="11.884941" lat="46.257905"><ele>2695.5</ele></trkpt>
   <trkpt lon="11.885169" lat="46.257744"><ele>2684.5</ele></trkpt>
   <trkpt lon="11.885236" lat="46.257657"><ele>2680.75</ele></trkpt>
   <trkpt lon="11.885343" lat="46.257598"><ele>2675.25</ele></trkpt>
   <trkpt lon="11.885622" lat="46.257599"><ele>2665.25</ele></trkpt>
   <trkpt lon="11.885732" lat="46.257535"><ele>2660.25</ele></trkpt>
   <trkpt lon="11.885831" lat="46.257522"><ele>2657.0</ele></trkpt>
   <trkpt lon="11.885807" lat="46.257605"><ele>2658.0</ele></trkpt>
   <trkpt lon="11.885976" lat="46.257672"><ele>2651.75</ele></trkpt>
   <trkpt lon="11.886081" lat="46.257648"><ele>2648.0</ele></trkpt>
   <trkpt lon="11.886150" lat="46.257642"><ele>2644.75</ele></trkpt>
   <trkpt lon="11.886199" lat="46.257705"><ele>2642.25</ele></trkpt>
   <trkpt lon="11.886459" lat="46.257761"><ele>2630.75</ele></trkpt>
   <trkpt lon="11.886781" lat="46.257848"><ele>2625.25</ele></trkpt>
   <trkpt lon="11.887025" lat="46.257868"><ele>2620.5</ele></trkpt>
   <trkpt lon="11.887156" lat="46.257807"><ele>2614.25</ele></trkpt>
   <trkpt lon="11.887462" lat="46.257828"><ele>2609.25</ele></trkpt>
   <trkpt lon="11.887719" lat="46.257896"><ele>2604.5</ele></trkpt>
   <trkpt lon="11.888098" lat="46.257846"><ele>2587.75</ele></trkpt>
   <trkpt lon="11.888476" lat="46.257819"><ele>2577.75</ele></trkpt>
   <trkpt lon="11.888895" lat="46.257859"><ele>2574.5</ele></trkpt>
   <trkpt lon="11.889344" lat="46.257868"><ele>2569.0</ele></trkpt>
   <trkpt lon="11.889682" lat="46.257831"><ele>2560.0</ele></trkpt>
   <trkpt lon="11.889979" lat="46.257849"><ele>2556.0</ele></trkpt>
   <trkpt lon="11.890265" lat="46.257921"><ele>2557.0</ele></trkpt>
   <trkpt lon="11.890476" lat="46.257908"><ele>2551.0</ele></trkpt>
   <trkpt lon="11.890777" lat="46.257820"><ele>2535.25</ele></trkpt>
   <trkpt lon="11.891002" lat="46.257830"><ele>2527.0</ele></trkpt>
   <trkpt lon="11.891266" lat="46.257927"><ele>2525.75</ele></trkpt>
   <trkpt lon="11.891367" lat="46.258033"><ele>2532.5</ele></trkpt>
   <trkpt lon="11.891612" lat="46.258027"><ele>2524.5</ele></trkpt>
   <trkpt lon="11.892102" lat="46.258163"><ele>2520.75</ele></trkpt>
   <trkpt lon="11.892192" lat="46.258161"><ele>2517.0</ele></trkpt>
   <trkpt lon="11.892352" lat="46.258134"><ele>2508.75</ele></trkpt>
   <trkpt lon="11.892593" lat="46.257958"><ele>2491.0</ele></trkpt>
   <trkpt lon="11.892946" lat="46.257969"><ele>2488.75</ele></trkpt>
   <trkpt lon="11.893143" lat="46.258037"><ele>2490.0</ele></trkpt>
   <trkpt lon="11.893332" lat="46.258045"><ele>2489.5</ele></trkpt>
   <trkpt lon="11.893593" lat="46.258097"><ele>2491.5</ele></trkpt>
   <trkpt lon="11.893726" lat="46.258084"><ele>2492.5</ele></trkpt>
   <trkpt lon="11.894097" lat="46.257875"><ele>2493.75</ele></trkpt>
   <trkpt lon="11.894303" lat="46.257658"><ele>2494.5</ele></trkpt>
   <trkpt lon="11.894441" lat="46.257535"><ele>2496.25</ele></trkpt>
   <trkpt lon="11.894468" lat="46.257372"><ele>2497.0</ele></trkpt>
   <trkpt lon="11.894486" lat="46.257198"><ele>2498.0</ele></trkpt>
   <trkpt lon="11.894621" lat="46.257005"><ele>2504.0</ele></trkpt>
   <trkpt lon="11.894708" lat="46.256860"><ele>2508.0</ele></trkpt>
   <trkpt lon="11.894902" lat="46.256695"><ele>2513.25</ele></trkpt>
   <trkpt lon="11.895035" lat="46.256673"><ele>2515.0</ele></trkpt>
   <trkpt lon="11.895472" lat="46.256700"><ele>2515.0</ele></trkpt>
   <trkpt lon="11.895749" lat="46.256616"><ele>2512.0</ele></trkpt>
   <trkpt lon="11.895965" lat="46.256581"><ele>2510.5</ele></trkpt>
   <trkpt lon="11.896176" lat="46.256475"><ele>2506.5</ele></trkpt>
   <trkpt lon="11.896549" lat="46.256550"><ele>2500.0</ele></trkpt>
   <trkpt lon="11.896789" lat="46.256480"><ele>2487.75</ele></trkpt>
   <trkpt lon="11.896855" lat="46.256394"><ele>2481.0</ele></trkpt>
   <trkpt lon="11.897047" lat="46.256293"><ele>2469.0</ele></trkpt>
   <trkpt lon="11.897118" lat="46.256117"><ele>2459.25</ele></trkpt>
   <trkpt lon="11.897344" lat="46.256015"><ele>2453.5</ele></trkpt>
   <trkpt lon="11.897762" lat="46.255941"><ele>2443.0</ele></trkpt>
   <trkpt lon="11.898173" lat="46.255791"><ele>2435.5</ele></trkpt>
   <trkpt lon="11.898471" lat="46.255733"><ele>2440.75</ele></trkpt>
   <trkpt lon="11.898879" lat="46.255699"><ele>2447.0</ele></trkpt>
   <trkpt lon="11.899119" lat="46.255704"><ele>2444.25</ele></trkpt>
   <trkpt lon="11.899400" lat="46.255636"><ele>2442.75</ele></trkpt>
   <trkpt lon="11.899696" lat="46.255640"><ele>2441.5</ele></trkpt>
   <trkpt lon="11.899936" lat="46.255585"><ele>2443.75</ele></trkpt>
   <trkpt lon="11.900015" lat="46.255544"><ele>2445.25</ele></trkpt>
   <trkpt lon="11.900079" lat="46.255561"><ele>2446.0</ele></trkpt>
   <trkpt lon="11.900151" lat="46.255567"><ele>2446.75</ele></trkpt>
   <trkpt lon="11.900181" lat="46.255558"><ele>2447.5</ele></trkpt>
   <trkpt lon="11.900256" lat="46.255582"><ele>2448.0</ele></trkpt>
   <trkpt lon="11.900320" lat="46.255594"><ele>2449.75</ele></trkpt>
   <trkpt lon="11.900392" lat="46.255590"><ele>2452.5</ele></trkpt>
   <trkpt lon="11.900496" lat="46.255574"><ele>2457.0</ele></trkpt>
   <trkpt lon="11.900649" lat="46.255539"><ele>2460.25</ele></trkpt>
   <trkpt lon="11.900735" lat="46.255547"><ele>2460.0</ele></trkpt>
   <trkpt lon="11.901499" lat="46.255351"><ele>2471.25</ele></trkpt>
   <trkpt lon="11.901604" lat="46.255323"><ele>2471.5</ele></trkpt>
   <trkpt lon="11.901703" lat="46.255305"><ele>2470.75</ele></trkpt>
   <trkpt lon="11.901899" lat="46.255230"><ele>2467.0</ele></trkpt>
   <trkpt lon="11.902424" lat="46.254936"><ele>2443.0</ele></trkpt>
   <trkpt lon="11.902872" lat="46.254742"><ele>2432.75</ele></trkpt>
   <trkpt lon="11.903169" lat="46.254574"><ele>2425.0</ele></trkpt>
   <trkpt lon="11.903492" lat="46.254483"><ele>2416.25</ele></trkpt>
   <trkpt lon="11.903675" lat="46.254503"><ele>2415.0</ele></trkpt>
   <trkpt lon="11.903840" lat="46.254642"><ele>2412.0</ele></trkpt>
   <trkpt lon="11.903990" lat="46.254965"><ele>2400.25</ele></trkpt>
   <trkpt lon="11.904081" lat="46.255090"><ele>2399.0</ele></trkpt>
   <trkpt lon="11.904325" lat="46.255107"><ele>2393.5</ele></trkpt>
   <trkpt lon="11.904650" lat="46.255024"><ele>2387.25</ele></trkpt>
   <trkpt lon="11.904863" lat="46.254882"><ele>2381.75</ele></trkpt>
   <trkpt lon="11.905076" lat="46.254754"><ele>2377.0</ele></trkpt>
   <trkpt lon="11.905218" lat="46.254631"><ele>2372.75</ele></trkpt>
   <trkpt lon="11.905403" lat="46.254612"><ele>2373.0</ele></trkpt>
   <trkpt lon="11.905516" lat="46.254636"><ele>2375.25</ele></trkpt>
   <trkpt lon="11.905403" lat="46.254548"><ele>2370.25</ele></trkpt>
   <trkpt lon="11.905431" lat="46.254484"><ele>2367.25</ele></trkpt>
   <trkpt lon="11.905481" lat="46.254425"><ele>2365.0</ele></trkpt>
   <trkpt lon="11.905552" lat="46.254396"><ele>2364.25</ele></trkpt>
   <trkpt lon="11.905559" lat="46.254342"><ele>2362.5</ele></trkpt>
   <trkpt lon="11.905502" lat="46.254283"><ele>2360.75</ele></trkpt>
   <trkpt lon="11.905488" lat="46.254209"><ele>2358.5</ele></trkpt>
   <trkpt lon="11.905552" lat="46.254145"><ele>2356.0</ele></trkpt>
   <trkpt lon="11.905687" lat="46.254096"><ele>2351.75</ele></trkpt>
   <trkpt lon="11.905807" lat="46.254067"><ele>2348.75</ele></trkpt>
   <trkpt lon="11.905985" lat="46.254101"><ele>2345.25</ele></trkpt>
   <trkpt lon="11.906156" lat="46.254116"><ele>2341.25</ele></trkpt>
   <trkpt lon="11.906227" lat="46.254086"><ele>2338.75</ele></trkpt>
   <trkpt lon="11.906361" lat="46.254062"><ele>2334.75</ele></trkpt>
   <trkpt lon="11.906518" lat="46.254081"><ele>2332.75</ele></trkpt>
   <trkpt lon="11.906262" lat="46.253826"><ele>2326.5</ele></trkpt>
   <trkpt lon="11.906468" lat="46.253787"><ele>2319.0</ele></trkpt>
   <trkpt lon="11.906653" lat="46.253772"><ele>2314.0</ele></trkpt>
   <trkpt lon="11.906738" lat="46.253757"><ele>2311.75</ele></trkpt>
   <trkpt lon="11.906738" lat="46.253693"><ele>2309.5</ele></trkpt>
   <trkpt lon="11.906695" lat="46.253644"><ele>2308.5</ele></trkpt>
   <trkpt lon="11.906979" lat="46.253698"><ele>2305.0</ele></trkpt>
   <trkpt lon="11.907271" lat="46.253733"><ele>2299.5</ele></trkpt>
   <trkpt lon="11.907550" lat="46.253804"><ele>2295.75</ele></trkpt>
   <trkpt lon="11.907734" lat="46.253786"><ele>2292.75</ele></trkpt>
   <trkpt lon="11.907778" lat="46.253710"><ele>2288.5</ele></trkpt>
   <trkpt lon="11.907735" lat="46.253660"><ele>2287.0</ele></trkpt>
   <trkpt lon="11.907769" lat="46.253605"><ele>2283.75</ele></trkpt>
   <trkpt lon="11.907655" lat="46.253526"><ele>2282.75</ele></trkpt>
   <trkpt lon="11.907655" lat="46.253503"><ele>2281.75</ele></trkpt>
   <trkpt lon="11.907771" lat="46.253459"><ele>2278.0</ele></trkpt>
   <trkpt lon="11.907862" lat="46.253403"><ele>2274.75</ele></trkpt>
   <trkpt lon="11.907848" lat="46.253378"><ele>2274.0</ele></trkpt>
   <trkpt lon="11.907754" lat="46.253350"><ele>2274.0</ele></trkpt>
   <trkpt lon="11.907727" lat="46.253320"><ele>2273.25</ele></trkpt>
   <trkpt lon="11.907694" lat="46.253260"><ele>2271.25</ele></trkpt>
   <trkpt lon="11.907720" lat="46.253214"><ele>2268.75</ele></trkpt>
   <trkpt lon="11.907724" lat="46.253183"><ele>2267.25</ele></trkpt>
   <trkpt lon="11.907824" lat="46.253131"><ele>2263.0</ele></trkpt>
   <trkpt lon="11.907927" lat="46.253053"><ele>2256.5</ele></trkpt>
   <trkpt lon="11.908147" lat="46.253093"><ele>2253.0</ele></trkpt>
   <trkpt lon="11.908305" lat="46.253108"><ele>2250.25</ele></trkpt>
   <trkpt lon="11.908418" lat="46.253050"><ele>2246.5</ele></trkpt>
   <trkpt lon="11.908795" lat="46.252743"><ele>2236.5</ele></trkpt>
   <trkpt lon="11.908809" lat="46.252677"><ele>2234.75</ele></trkpt>
   <trkpt lon="11.908855" lat="46.252582"><ele>2232.75</ele></trkpt>
   <trkpt lon="11.908977" lat="46.252410"><ele>2230.25</ele></trkpt>
   <trkpt lon="11.909018" lat="46.252315"><ele>2228.0</ele></trkpt>
   <trkpt lon="11.909123" lat="46.252171"><ele>2224.75</ele></trkpt>
   <trkpt lon="11.909127" lat="46.252117"><ele>2223.25</ele></trkpt>
   <trkpt lon="11.909173" lat="46.251995"><ele>2219.5</ele></trkpt>
   <trkpt lon="11.909223" lat="46.251985"><ele>2218.75</ele></trkpt>
   <trkpt lon="11.909314" lat="46.251998"><ele>2218.5</ele></trkpt>
   <trkpt lon="11.909395" lat="46.251985"><ele>2217.25</ele></trkpt>
   <trkpt lon="11.909564" lat="46.251841"><ele>2211.25</ele></trkpt>
   <trkpt lon="11.909632" lat="46.251772"><ele>2208.25</ele></trkpt>
   <trkpt lon="11.909677" lat="46.251702"><ele>2204.25</ele></trkpt>
   <trkpt lon="11.909850" lat="46.251548"><ele>2198.75</ele></trkpt>
   <trkpt lon="11.909973" lat="46.251379"><ele>2193.0</ele></trkpt>
   <trkpt lon="11.910050" lat="46.251102"><ele>2186.5</ele></trkpt>
   <trkpt lon="11.910082" lat="46.251027"><ele>2183.5</ele></trkpt>
   <trkpt lon="11.910086" lat="46.250973"><ele>2181.0</ele></trkpt>
   <trkpt lon="11.910205" lat="46.250923"><ele>2181.75</ele></trkpt>
   <trkpt lon="11.910291" lat="46.250876"><ele>2182.25</ele></trkpt>
   <trkpt lon="11.910300" lat="46.250778"><ele>2178.0</ele></trkpt>
   <trkpt lon="11.910364" lat="46.250684"><ele>2175.25</ele></trkpt>
   <trkpt lon="11.910391" lat="46.250627"><ele>2173.0</ele></trkpt>
   <trkpt lon="11.910545" lat="46.250499"><ele>2170.25</ele></trkpt>
   <trkpt lon="11.910614" lat="46.250395"><ele>2166.25</ele></trkpt>
   <trkpt lon="11.910755" lat="46.250291"><ele>2163.75</ele></trkpt>
   <trkpt lon="11.910964" lat="46.250055"><ele>2154.25</ele></trkpt>
   <trkpt lon="11.911018" lat="46.249980"><ele>2150.75</ele></trkpt>
   <trkpt lon="11.911109" lat="46.249939"><ele>2150.5</ele></trkpt>
   <trkpt lon="11.911200" lat="46.249879"><ele>2148.25</ele></trkpt>
   <trkpt lon="11.911177" lat="46.249801"><ele>2143.75</ele></trkpt>
   <trkpt lon="11.911109" lat="46.249719"><ele>2138.5</ele></trkpt>
   <trkpt lon="11.911041" lat="46.249653"><ele>2133.0</ele></trkpt>
   <trkpt lon="11.911018" lat="46.249581"><ele>2128.0</ele></trkpt>
   <trkpt lon="11.911064" lat="46.249543"><ele>2126.25</ele></trkpt>
   <trkpt lon="11.911132" lat="46.249546"><ele>2127.25</ele></trkpt>
   <trkpt lon="11.911256" lat="46.249430"><ele>2124.5</ele></trkpt>
   <trkpt lon="11.911256" lat="46.249393"><ele>2122.75</ele></trkpt>
   <trkpt lon="11.911274" lat="46.249327"><ele>2120.0</ele></trkpt>
   <trkpt lon="11.911297" lat="46.249283"><ele>2118.5</ele></trkpt>
   <trkpt lon="11.911251" lat="46.249264"><ele>2116.5</ele></trkpt>
   <trkpt lon="11.911360" lat="46.249185"><ele>2115.25</ele></trkpt>
   <trkpt lon="11.911374" lat="46.249138"><ele>2113.5</ele></trkpt>
   <trkpt lon="11.911410" lat="46.249085"><ele>2113.0</ele></trkpt>
   <trkpt lon="11.911410" lat="46.249028"><ele>2110.75</ele></trkpt>
   <trkpt lon="11.911438" lat="46.248975"><ele>2110.0</ele></trkpt>
   <trkpt lon="11.911456" lat="46.248890"><ele>2107.0</ele></trkpt>
   <trkpt lon="11.911438" lat="46.248821"><ele>2103.25</ele></trkpt>
   <trkpt lon="11.911542" lat="46.248685"><ele>2101.0</ele></trkpt>
   <trkpt lon="11.911615" lat="46.248525"><ele>2094.5</ele></trkpt>
   <trkpt lon="11.911674" lat="46.248478"><ele>2093.25</ele></trkpt>
   <trkpt lon="11.911729" lat="46.248418"><ele>2090.75</ele></trkpt>
   <trkpt lon="11.911770" lat="46.248358"><ele>2087.5</ele></trkpt>
   <trkpt lon="11.911851" lat="46.248311"><ele>2085.5</ele></trkpt>
   <trkpt lon="11.911942" lat="46.248299"><ele>2086.0</ele></trkpt>
   <trkpt lon="11.911992" lat="46.248260"><ele>2085.75</ele></trkpt>
   <trkpt lon="11.912038" lat="46.248223"><ele>2085.75</ele></trkpt>
   <trkpt lon="11.912074" lat="46.248157"><ele>2084.0</ele></trkpt>
   <trkpt lon="11.912097" lat="46.248057"><ele>2080.0</ele></trkpt>
   <trkpt lon="11.912211" lat="46.247859"><ele>2077.5</ele></trkpt>
   <trkpt lon="11.912156" lat="46.247808"><ele>2072.75</ele></trkpt>
   <trkpt lon="11.912133" lat="46.247736"><ele>2068.75</ele></trkpt>
   <trkpt lon="11.912133" lat="46.247698"><ele>2067.5</ele></trkpt>
   <trkpt lon="11.912357" lat="46.247670"><ele>2074.0</ele></trkpt>
   <trkpt lon="11.912467" lat="46.247635"><ele>2075.75</ele></trkpt>
   <trkpt lon="11.912525" lat="46.247606"><ele>2076.25</ele></trkpt>
   <trkpt lon="11.912703" lat="46.247615"><ele>2082.5</ele></trkpt>
   <trkpt lon="11.912753" lat="46.247645"><ele>2086.0</ele></trkpt>
   <trkpt lon="11.912888" lat="46.247658"><ele>2091.25</ele></trkpt>
   <trkpt lon="11.913073" lat="46.247619"><ele>2095.5</ele></trkpt>
   <trkpt lon="11.913226" lat="46.247535"><ele>2097.25</ele></trkpt>
   <trkpt lon="11.913281" lat="46.247518"><ele>2098.75</ele></trkpt>
   <trkpt lon="11.913319" lat="46.247534"><ele>2101.25</ele></trkpt>
   <trkpt lon="11.913444" lat="46.247492"><ele>2105.0</ele></trkpt>
   <trkpt lon="11.913486" lat="46.247499"><ele>2107.0</ele></trkpt>
   <trkpt lon="11.913590" lat="46.247395"><ele>2109.75</ele></trkpt>
   <trkpt lon="11.913723" lat="46.247391"><ele>2115.25</ele></trkpt>
   <trkpt lon="11.913879" lat="46.247426"><ele>2123.0</ele></trkpt>
   <trkpt lon="11.914027" lat="46.247433"><ele>2129.25</ele></trkpt>
   <trkpt lon="11.914109" lat="46.247448"><ele>2133.0</ele></trkpt>
   <trkpt lon="11.914061" lat="46.247380"><ele>2128.25</ele></trkpt>
   <trkpt lon="11.914130" lat="46.247389"><ele>2131.25</ele></trkpt>
   <trkpt lon="11.914195" lat="46.247376"><ele>2134.25</ele></trkpt>
   <trkpt lon="11.914407" lat="46.247394"><ele>2151.75</ele></trkpt>
   <trkpt lon="11.914555" lat="46.247434"><ele>2164.5</ele></trkpt>
   <trkpt lon="11.914778" lat="46.247451"><ele>2174.25</ele></trkpt>
   <trkpt lon="11.914935" lat="46.247489"><ele>2174.75</ele></trkpt>
   <trkpt lon="11.914995" lat="46.247510"><ele>2175.5</ele></trkpt>
   <trkpt lon="11.915616" lat="46.247576"><ele>2188.0</ele></trkpt>
   <trkpt lon="11.916334" lat="46.247644"><ele>2217.25</ele></trkpt>
   <trkpt lon="11.916738" lat="46.247713"><ele>2236.75</ele></trkpt>
   <trkpt lon="11.917125" lat="46.247717"><ele>2254.25</ele></trkpt>
   <trkpt lon="11.917836" lat="46.247670"><ele>2288.5</ele></trkpt>
   <trkpt lon="11.918404" lat="46.247715"><ele>2376.0</ele></trkpt>
   <trkpt lon="11.918773" lat="46.247781"><ele>2404.25</ele></trkpt>
   <trkpt lon="11.919160" lat="46.247838"><ele>2407.5</ele></trkpt>
   <trkpt lon="11.919441" lat="46.247987"><ele>2415.75</ele></trkpt>
   <trkpt lon="11.919416" lat="46.248060"><ele>2415.25</ele></trkpt>
   <trkpt lon="11.919452" lat="46.248122"><ele>2415.0</ele></trkpt>
   <trkpt lon="11.919513" lat="46.248175"><ele>2419.5</ele></trkpt>
   <trkpt lon="11.919522" lat="46.248326"><ele>2419.75</ele></trkpt>
   <trkpt lon="11.919618" lat="46.248531"><ele>2438.25</ele></trkpt>
   <trkpt lon="11.919676" lat="46.248599"><ele>2445.0</ele></trkpt>
   <trkpt lon="11.919802" lat="46.248710"><ele>2472.25</ele></trkpt>
   <trkpt lon="11.919994" lat="46.248720"><ele>2507.5</ele></trkpt>
   <trkpt lon="11.920138" lat="46.248661"><ele>2524.0</ele></trkpt>
   <trkpt lon="11.920288" lat="46.248566"><ele>2541.25</ele></trkpt>
   <trkpt lon="11.920350" lat="46.248512"><ele>2550.0</ele></trkpt>
   <trkpt lon="11.920640" lat="46.248512"><ele>2570.5</ele></trkpt>
   <trkpt lon="11.920759" lat="46.248498"><ele>2587.0</ele></trkpt>
   <trkpt lon="11.921256" lat="46.248483"><ele>2608.75</ele></trkpt>
   <trkpt lon="11.921487" lat="46.248375"><ele>2622.75</ele></trkpt>
   <trkpt lon="11.921625" lat="46.248340"><ele>2627.75</ele></trkpt>
   <trkpt lon="11.921825" lat="46.248328"><ele>2630.5</ele></trkpt>
   <trkpt lon="11.922241" lat="46.248323"><ele>2630.75</ele></trkpt>
   <trkpt lon="11.922344" lat="46.248203"><ele>2631.5</ele></trkpt>
   <trkpt lon="11.922463" lat="46.248137"><ele>2631.0</ele></trkpt>
   <trkpt lon="11.922446" lat="46.248075"><ele>2633.25</ele></trkpt>
   <trkpt lon="11.922539" lat="46.247938"><ele>2634.25</ele></trkpt>
   <trkpt lon="11.922768" lat="46.247810"><ele>2633.5</ele></trkpt>
   <trkpt lon="11.922935" lat="46.247746"><ele>2636.75</ele></trkpt>
   <trkpt lon="11.923151" lat="46.247705"><ele>2639.5</ele></trkpt>
   <trkpt lon="11.923200" lat="46.247727"><ele>2639.75</ele></trkpt>
   <trkpt lon="11.923217" lat="46.247672"><ele>2639.75</ele></trkpt>
   <trkpt lon="11.923267" lat="46.247635"><ele>2640.0</ele></trkpt>
   <trkpt lon="11.923285" lat="46.247495"><ele>2639.75</ele></trkpt>
   <trkpt lon="11.923322" lat="46.247431"><ele>2639.5</ele></trkpt>
   <trkpt lon="11.923383" lat="46.247390"><ele>2639.25</ele></trkpt>
   <trkpt lon="11.923437" lat="46.247338"><ele>2639.0</ele></trkpt>
   <trkpt lon="11.923444" lat="46.247299"><ele>2639.0</ele></trkpt>
   <trkpt lon="11.923373" lat="46.247251"><ele>2639.0</ele></trkpt>
   <trkpt lon="11.923385" lat="46.247193"><ele>2639.75</ele></trkpt>
   <trkpt lon="11.923441" lat="46.247114"><ele>2641.0</ele></trkpt>
   <trkpt lon="11.923496" lat="46.247009"><ele>2641.75</ele></trkpt>
   <trkpt lon="11.923560" lat="46.246942"><ele>2641.0</ele></trkpt>
   <trkpt lon="11.923582" lat="46.246902"><ele>2642.5</ele></trkpt>
   <trkpt lon="11.923686" lat="46.246829"><ele>2643.0</ele></trkpt>
   <trkpt lon="11.923645" lat="46.246763"><ele>2646.75</ele></trkpt>
   <trkpt lon="11.923633" lat="46.246727"><ele>2648.5</ele></trkpt>
   <trkpt lon="11.923590" lat="46.246711"><ele>2650.75</ele></trkpt>
   <trkpt lon="11.923552" lat="46.246684"><ele>2653.75</ele></trkpt>
   <trkpt lon="11.923531" lat="46.246660"><ele>2656.0</ele></trkpt>
   <trkpt lon="11.923552" lat="46.246644"><ele>2655.75</ele></trkpt>
   <trkpt lon="11.923591" lat="46.246645"><ele>2653.75</ele></trkpt>
   <trkpt lon="11.923620" lat="46.246637"><ele>2653.0</ele></trkpt>
   <trkpt lon="11.923629" lat="46.246607"><ele>2654.0</ele></trkpt>
   <trkpt lon="11.923625" lat="46.246506"><ele>2658.75</ele></trkpt>
   <trkpt lon="11.923584" lat="46.246490"><ele>2661.25</ele></trkpt>
   <trkpt lon="11.923577" lat="46.246465"><ele>2662.75</ele></trkpt>
   <trkpt lon="11.923511" lat="46.246446"><ele>2666.0</ele></trkpt>
   <trkpt lon="11.923489" lat="46.246445"><ele>2667.0</ele></trkpt>
   <trkpt lon="11.923483" lat="46.246416"><ele>2668.25</ele></trkpt>
   <trkpt lon="11.923494" lat="46.246400"><ele>2668.5</ele></trkpt>
   <trkpt lon="11.923480" lat="46.246369"><ele>2670.5</ele></trkpt>
   <trkpt lon="11.923460" lat="46.246349"><ele>2672.0</ele></trkpt>
   <trkpt lon="11.923451" lat="46.246268"><ele>2675.5</ele></trkpt>
   <trkpt lon="11.923425" lat="46.246254"><ele>2677.0</ele></trkpt>
   <trkpt lon="11.923437" lat="46.246227"><ele>2677.5</ele></trkpt>
   <trkpt lon="11.923432" lat="46.246171"><ele>2680.0</ele></trkpt>
   <trkpt lon="11.923453" lat="46.246161"><ele>2679.5</ele></trkpt>
   <trkpt lon="11.923422" lat="46.246119"><ele>2682.25</ele></trkpt>
   <trkpt lon="11.923405" lat="46.246075"><ele>2684.25</ele></trkpt>
   <trkpt lon="11.923405" lat="46.246034"><ele>2685.5</ele></trkpt>
   <trkpt lon="11.923422" lat="46.246018"><ele>2685.25</ele></trkpt>
   <trkpt lon="11.923453" lat="46.245947"><ele>2685.5</ele></trkpt>
   <trkpt lon="11.923431" lat="46.245859"><ele>2689.0</ele></trkpt>
   <trkpt lon="11.923444" lat="46.245809"><ele>2689.5</ele></trkpt>
   <trkpt lon="11.923470" lat="46.245776"><ele>2688.75</ele></trkpt>
   <trkpt lon="11.923526" lat="46.245756"><ele>2685.75</ele></trkpt>
   <trkpt lon="11.923521" lat="46.245713"><ele>2686.75</ele></trkpt>
   <trkpt lon="11.923492" lat="46.245650"><ele>2689.75</ele></trkpt>
   <trkpt lon="11.923495" lat="46.245605"><ele>2690.25</ele></trkpt>
   <trkpt lon="11.923468" lat="46.245499"><ele>2693.5</ele></trkpt>
   <trkpt lon="11.923443" lat="46.245454"><ele>2695.5</ele></trkpt>
   <trkpt lon="11.923423" lat="46.245390"><ele>2697.5</ele></trkpt>
   <trkpt lon="11.923435" lat="46.245300"><ele>2697.0</ele></trkpt>
   <trkpt lon="11.923348" lat="46.245254"><ele>2705.0</ele></trkpt>
   <trkpt lon="11.923377" lat="46.245115"><ele>2705.5</ele></trkpt>
   <trkpt lon="11.923403" lat="46.245057"><ele>2704.75</ele></trkpt>
   <trkpt lon="11.923567" lat="46.244988"><ele>2694.5</ele></trkpt>
   <trkpt lon="11.923599" lat="46.244915"><ele>2690.25</ele></trkpt>
   <trkpt lon="11.923533" lat="46.244819"><ele>2689.25</ele></trkpt>
   <trkpt lon="11.923586" lat="46.244805"><ele>2687.5</ele></trkpt>
   <trkpt lon="11.923536" lat="46.244756"><ele>2686.25</ele></trkpt>
   <trkpt lon="11.923578" lat="46.244737"><ele>2685.25</ele></trkpt>
   <trkpt lon="11.923520" lat="46.244690"><ele>2680.0</ele></trkpt>
   <trkpt lon="11.923473" lat="46.244688"><ele>2680.25</ele></trkpt>
   <trkpt lon="11.923290" lat="46.244649"><ele>2679.75</ele></trkpt>
   <trkpt lon="11.923192" lat="46.244595"><ele>2676.5</ele></trkpt>
   <trkpt lon="11.923164" lat="46.244560"><ele>2674.0</ele></trkpt>
   <trkpt lon="11.923107" lat="46.244518"><ele>2671.25</ele></trkpt>
   <trkpt lon="11.923024" lat="46.244486"><ele>2669.25</ele></trkpt>
   <trkpt lon="11.923025" lat="46.244458"><ele>2667.0</ele></trkpt>
   <trkpt lon="11.923035" lat="46.244447"><ele>2666.0</ele></trkpt>
   <trkpt lon="11.923027" lat="46.244430"><ele>2665.0</ele></trkpt>
   <trkpt lon="11.923083" lat="46.244376"><ele>2661.75</ele></trkpt>
   <trkpt lon="11.923045" lat="46.244361"><ele>2661.0</ele></trkpt>
   <trkpt lon="11.923031" lat="46.244338"><ele>2659.75</ele></trkpt>
   <trkpt lon="11.923032" lat="46.244324"><ele>2658.75</ele></trkpt>
   <trkpt lon="11.923088" lat="46.244318"><ele>2658.25</ele></trkpt>
   <trkpt lon="11.923083" lat="46.244293"><ele>2656.75</ele></trkpt>
   <trkpt lon="11.923181" lat="46.244213"><ele>2650.25</ele></trkpt>
   <trkpt lon="11.923238" lat="46.244108"><ele>2645.5</ele></trkpt>
   <trkpt lon="11.923225" lat="46.244060"><ele>2645.0</ele></trkpt>
   <trkpt lon="11.923049" lat="46.244047"><ele>2643.75</ele></trkpt>
   <trkpt lon="11.922872" lat="46.243973"><ele>2637.0</ele></trkpt>
   <trkpt lon="11.922746" lat="46.243951"><ele>2633.25</ele></trkpt>
   <trkpt lon="11.922456" lat="46.244050"><ele>2635.75</ele></trkpt>
   <trkpt lon="11.922227" lat="46.244106"><ele>2639.0</ele></trkpt>
   <trkpt lon="11.922118" lat="46.244100"><ele>2639.0</ele></trkpt>
   <trkpt lon="11.921890" lat="46.244015"><ele>2629.5</ele></trkpt>
   <trkpt lon="11.921885" lat="46.243973"><ele>2624.25</ele></trkpt>
   <trkpt lon="11.921898" lat="46.243931"><ele>2619.0</ele></trkpt>
   <trkpt lon="11.921875" lat="46.243879"><ele>2613.25</ele></trkpt>
   <trkpt lon="11.921747" lat="46.243787"><ele>2606.5</ele></trkpt>
   <trkpt lon="11.921547" lat="46.243696"><ele>2600.5</ele></trkpt>
   <trkpt lon="11.921608" lat="46.243659"><ele>2597.0</ele></trkpt>
   <trkpt lon="11.921586" lat="46.243626"><ele>2594.75</ele></trkpt>
   <trkpt lon="11.921738" lat="46.243604"><ele>2593.0</ele></trkpt>
   <trkpt lon="11.921415" lat="46.243537"><ele>2590.5</ele></trkpt>
   <trkpt lon="11.921303" lat="46.243498"><ele>2590.0</ele></trkpt>
   <trkpt lon="11.921305" lat="46.243431"><ele>2586.0</ele></trkpt>
   <trkpt lon="11.921212" lat="46.243367"><ele>2584.0</ele></trkpt>
   <trkpt lon="11.921212" lat="46.243328"><ele>2581.75</ele></trkpt>
   <trkpt lon="11.921153" lat="46.243306"><ele>2581.75</ele></trkpt>
   <trkpt lon="11.921182" lat="46.243142"><ele>2573.5</ele></trkpt>
   <trkpt lon="11.921142" lat="46.243043"><ele>2569.75</ele></trkpt>
   <trkpt lon="11.921156" lat="46.242981"><ele>2567.75</ele></trkpt>
   <trkpt lon="11.921157" lat="46.242923"><ele>2566.0</ele></trkpt>
   <trkpt lon="11.921233" lat="46.242788"><ele>2558.5</ele></trkpt>
   <trkpt lon="11.921222" lat="46.242769"><ele>2558.25</ele></trkpt>
   <trkpt lon="11.921209" lat="46.242770"><ele>2559.0</ele></trkpt>
   <trkpt lon="11.921108" lat="46.242836"><ele>2565.5</ele></trkpt>
   <trkpt lon="11.920947" lat="46.242802"><ele>2572.75</ele></trkpt>
   <trkpt lon="11.920908" lat="46.242735"><ele>2571.0</ele></trkpt>
   <trkpt lon="11.920979" lat="46.242644"><ele>2561.5</ele></trkpt>
   <trkpt lon="11.921002" lat="46.242581"><ele>2556.25</ele></trkpt>
   <trkpt lon="11.920991" lat="46.242461"><ele>2549.5</ele></trkpt>
   <trkpt lon="11.920966" lat="46.242399"><ele>2547.25</ele></trkpt>
   <trkpt lon="11.920950" lat="46.242237"><ele>2540.25</ele></trkpt>
   <trkpt lon="11.920897" lat="46.242169"><ele>2541.25</ele></trkpt>
   <trkpt lon="11.920878" lat="46.242144"><ele>2541.75</ele></trkpt>
   <trkpt lon="11.920934" lat="46.241895"><ele>2537.0</ele></trkpt>
   <trkpt lon="11.920892" lat="46.241835"><ele>2536.25</ele></trkpt>
   <trkpt lon="11.920886" lat="46.241722"><ele>2532.75</ele></trkpt>
   <trkpt lon="11.920911" lat="46.241637"><ele>2530.5</ele></trkpt>
   <trkpt lon="11.920964" lat="46.241570"><ele>2529.0</ele></trkpt>
   <trkpt lon="11.920980" lat="46.241498"><ele>2527.5</ele></trkpt>
   <trkpt lon="11.921064" lat="46.241404"><ele>2525.75</ele></trkpt>
   <trkpt lon="11.921087" lat="46.241263"><ele>2523.0</ele></trkpt>
   <trkpt lon="11.921108" lat="46.241218"><ele>2522.25</ele></trkpt>
   <trkpt lon="11.921095" lat="46.241172"><ele>2521.25</ele></trkpt>
   <trkpt lon="11.921117" lat="46.241050"><ele>2518.75</ele></trkpt>
   <trkpt lon="11.920897" lat="46.240949"><ele>2520.0</ele></trkpt>
   <trkpt lon="11.920856" lat="46.240882"><ele>2521.0</ele></trkpt>
   <trkpt lon="11.920782" lat="46.240802"><ele>2521.25</ele></trkpt>
   <trkpt lon="11.920662" lat="46.240716"><ele>2519.75</ele></trkpt>
   <trkpt lon="11.920634" lat="46.240613"><ele>2517.0</ele></trkpt>
   <trkpt lon="11.920654" lat="46.240518"><ele>2513.25</ele></trkpt>
   <trkpt lon="11.920717" lat="46.240521"><ele>2512.0</ele></trkpt>
   <trkpt lon="11.920837" lat="46.240549"><ele>2511.25</ele></trkpt>
   <trkpt lon="11.920890" lat="46.240527"><ele>2507.75</ele></trkpt>
   <trkpt lon="11.920831" lat="46.240377"><ele>2501.0</ele></trkpt>
   <trkpt lon="11.920764" lat="46.240270"><ele>2497.0</ele></trkpt>
   <trkpt lon="11.920653" lat="46.240218"><ele>2497.0</ele></trkpt>
   <trkpt lon="11.920601" lat="46.240149"><ele>2492.75</ele></trkpt>
   <trkpt lon="11.920596" lat="46.240065"><ele>2485.75</ele></trkpt>
   <trkpt lon="11.920486" lat="46.240013"><ele>2481.25</ele></trkpt>
   <trkpt lon="11.920374" lat="46.240002"><ele>2480.75</ele></trkpt>
   <trkpt lon="11.920319" lat="46.239943"><ele>2473.0</ele></trkpt>
   <trkpt lon="11.920342" lat="46.239804"><ele>2455.25</ele></trkpt>
   <trkpt lon="11.920292" lat="46.239743"><ele>2444.5</ele></trkpt>
   <trkpt lon="11.920268" lat="46.239806"><ele>2452.75</ele></trkpt>
   <trkpt lon="11.920141" lat="46.239731"><ele>2438.5</ele></trkpt>
   <trkpt lon="11.920093" lat="46.239745"><ele>2439.5</ele></trkpt>
   <trkpt lon="11.920016" lat="46.239824"><ele>2452.25</ele></trkpt>
   <trkpt lon="11.919986" lat="46.239751"><ele>2437.75</ele></trkpt>
   <trkpt lon="11.919858" lat="46.239788"><ele>2441.25</ele></trkpt>
   <trkpt lon="11.919783" lat="46.239747"><ele>2430.75</ele></trkpt>
   <trkpt lon="11.919660" lat="46.239799"><ele>2438.25</ele></trkpt>
   <trkpt lon="11.919592" lat="46.239726"><ele>2421.75</ele></trkpt>
   <trkpt lon="11.919559" lat="46.239643"><ele>2413.5</ele></trkpt>
   <trkpt lon="11.919468" lat="46.239580"><ele>2407.25</ele></trkpt>
   <trkpt lon="11.919474" lat="46.239530"><ele>2403.5</ele></trkpt>
   <trkpt lon="11.919428" lat="46.239453"><ele>2397.75</ele></trkpt>
   <trkpt lon="11.919365" lat="46.239420"><ele>2396.5</ele></trkpt>
   <trkpt lon="11.919249" lat="46.239279"><ele>2388.25</ele></trkpt>
   <trkpt lon="11.919138" lat="46.239241"><ele>2388.0</ele></trkpt>
   <trkpt lon="11.919121" lat="46.239151"><ele>2382.0</ele></trkpt>
   <trkpt lon="11.918936" lat="46.239014"><ele>2375.75</ele></trkpt>
   <trkpt lon="11.918755" lat="46.238958"><ele>2387.5</ele></trkpt>
   <trkpt lon="11.918695" lat="46.238904"><ele>2390.25</ele></trkpt>
   <trkpt lon="11.918619" lat="46.238881"><ele>2397.5</ele></trkpt>
   <trkpt lon="11.918656" lat="46.238823"><ele>2389.0</ele></trkpt>
   <trkpt lon="11.918704" lat="46.238794"><ele>2381.5</ele></trkpt>
   <trkpt lon="11.918793" lat="46.238720"><ele>2366.25</ele></trkpt>
   <trkpt lon="11.918877" lat="46.238683"><ele>2354.25</ele></trkpt>
   <trkpt lon="11.918902" lat="46.238634"><ele>2349.25</ele></trkpt>
   <trkpt lon="11.918816" lat="46.238650"><ele>2358.75</ele></trkpt>
   <trkpt lon="11.918744" lat="46.238672"><ele>2368.25</ele></trkpt>
   <trkpt lon="11.918665" lat="46.238685"><ele>2378.25</ele></trkpt>
   <trkpt lon="11.918613" lat="46.238668"><ele>2382.75</ele></trkpt>
   <trkpt lon="11.918662" lat="46.238614"><ele>2373.5</ele></trkpt>
   <trkpt lon="11.918766" lat="46.238613"><ele>2361.75</ele></trkpt>
   <trkpt lon="11.918864" lat="46.238535"><ele>2344.75</ele></trkpt>
   <trkpt lon="11.918897" lat="46.238368"><ele>2330.25</ele></trkpt>
   <trkpt lon="11.918871" lat="46.238347"><ele>2330.0</ele></trkpt>
   <trkpt lon="11.918885" lat="46.238267"><ele>2323.75</ele></trkpt>
   <trkpt lon="11.918861" lat="46.238217"><ele>2322.0</ele></trkpt>
   <trkpt lon="11.918911" lat="46.238190"><ele>2318.0</ele></trkpt>
   <trkpt lon="11.918983" lat="46.238131"><ele>2312.25</ele></trkpt>
   <trkpt lon="11.918924" lat="46.238107"><ele>2312.25</ele></trkpt>
   <trkpt lon="11.918632" lat="46.238110"><ele>2329.5</ele></trkpt>
   <trkpt lon="11.918558" lat="46.238083"><ele>2335.75</ele></trkpt>
   <trkpt lon="11.918580" lat="46.238043"><ele>2330.75</ele></trkpt>
   <trkpt lon="11.918543" lat="46.237996"><ele>2331.75</ele></trkpt>
   <trkpt lon="11.918543" lat="46.237937"><ele>2327.0</ele></trkpt>
   <trkpt lon="11.918572" lat="46.237902"><ele>2322.25</ele></trkpt>
   <trkpt lon="11.918645" lat="46.237849"><ele>2314.25</ele></trkpt>
   <trkpt lon="11.918638" lat="46.237827"><ele>2313.75</ele></trkpt>
   <trkpt lon="11.918498" lat="46.237778"><ele>2316.25</ele></trkpt>
   <trkpt lon="11.918588" lat="46.237748"><ele>2311.0</ele></trkpt>
   <trkpt lon="11.918568" lat="46.237718"><ele>2309.0</ele></trkpt>
   <trkpt lon="11.918519" lat="46.237712"><ele>2310.0</ele></trkpt>
   <trkpt lon="11.918540" lat="46.237674"><ele>2306.25</ele></trkpt>
   <trkpt lon="11.918403" lat="46.237710"><ele>2313.0</ele></trkpt>
   <trkpt lon="11.918415" lat="46.237692"><ele>2311.0</ele></trkpt>
   <trkpt lon="11.918504" lat="46.237615"><ele>2302.0</ele></trkpt>
   <trkpt lon="11.918589" lat="46.237576"><ele>2296.75</ele></trkpt>
   <trkpt lon="11.918734" lat="46.237471"><ele>2283.5</ele></trkpt>
   <trkpt lon="11.918806" lat="46.237371"><ele>2274.25</ele></trkpt>
   <trkpt lon="11.918866" lat="46.237321"><ele>2269.5</ele></trkpt>
   <trkpt lon="11.919195" lat="46.237242"><ele>2255.75</ele></trkpt>
   <trkpt lon="11.919260" lat="46.237170"><ele>2248.75</ele></trkpt>
   <trkpt lon="11.919246" lat="46.237052"><ele>2240.25</ele></trkpt>
   <trkpt lon="11.919290" lat="46.236962"><ele>2232.75</ele></trkpt>
   <trkpt lon="11.919353" lat="46.236877"><ele>2226.0</ele></trkpt>
   <trkpt lon="11.919238" lat="46.236772"><ele>2221.25</ele></trkpt>
   <trkpt lon="11.919214" lat="46.236685"><ele>2216.5</ele></trkpt>
   <trkpt lon="11.919222" lat="46.236663"><ele>2214.75</ele></trkpt>
   <trkpt lon="11.919307" lat="46.236438"><ele>2196.75</ele></trkpt>
   <trkpt lon="11.919196" lat="46.236425"><ele>2199.5</ele></trkpt>
   <trkpt lon="11.919195" lat="46.236393"><ele>2197.25</ele></trkpt>
   <trkpt lon="11.919130" lat="46.236339"><ele>2195.0</ele></trkpt>
   <trkpt lon="11.919102" lat="46.236328"><ele>2194.75</ele></trkpt>
   <trkpt lon="11.919010" lat="46.236317"><ele>2196.0</ele></trkpt>
   <trkpt lon="11.918992" lat="46.236279"><ele>2193.5</ele></trkpt>
   <trkpt lon="11.918948" lat="46.236226"><ele>2190.75</ele></trkpt>
   <trkpt lon="11.918951" lat="46.236159"><ele>2185.75</ele></trkpt>
   <trkpt lon="11.918981" lat="46.236125"><ele>2182.5</ele></trkpt>
   <trkpt lon="11.918967" lat="46.236061"><ele>2179.0</ele></trkpt>
   <trkpt lon="11.919015" lat="46.236037"><ele>2176.25</ele></trkpt>
   <trkpt lon="11.919115" lat="46.236026"><ele>2172.75</ele></trkpt>
   <trkpt lon="11.919172" lat="46.236060"><ele>2173.5</ele></trkpt>
   <trkpt lon="11.919247" lat="46.236081"><ele>2173.25</ele></trkpt>
   <trkpt lon="11.919317" lat="46.236056"><ele>2170.0</ele></trkpt>
   <trkpt lon="11.919395" lat="46.236037"><ele>2167.25</ele></trkpt>
   <trkpt lon="11.919455" lat="46.235979"><ele>2162.0</ele></trkpt>
   <trkpt lon="11.919504" lat="46.235949"><ele>2159.0</ele></trkpt>
   <trkpt lon="11.919583" lat="46.235975"><ele>2158.75</ele></trkpt>
   <trkpt lon="11.919684" lat="46.235946"><ele>2154.75</ele></trkpt>
   <trkpt lon="11.919680" lat="46.235913"><ele>2153.0</ele></trkpt>
   <trkpt lon="11.919663" lat="46.235874"><ele>2151.25</ele></trkpt>
   <trkpt lon="11.919709" lat="46.235829"><ele>2147.75</ele></trkpt>
   <trkpt lon="11.919692" lat="46.235807"><ele>2146.75</ele></trkpt>
   <trkpt lon="11.919722" lat="46.235801"><ele>2146.0</ele></trkpt>
   <trkpt lon="11.919728" lat="46.235769"><ele>2143.75</ele></trkpt>
   <trkpt lon="11.919722" lat="46.235715"><ele>2140.75</ele></trkpt>
   <trkpt lon="11.919641" lat="46.235678"><ele>2140.0</ele></trkpt>
   <trkpt lon="11.919672" lat="46.235640"><ele>2137.0</ele></trkpt>
   <trkpt lon="11.919727" lat="46.235602"><ele>2133.5</ele></trkpt>
   <trkpt lon="11.919737" lat="46.235548"><ele>2130.0</ele></trkpt>
   <trkpt lon="11.919814" lat="46.235498"><ele>2125.75</ele></trkpt>
   <trkpt lon="11.919867" lat="46.235483"><ele>2123.75</ele></trkpt>
   <trkpt lon="11.919913" lat="46.235450"><ele>2121.25</ele></trkpt>
   <trkpt lon="11.919952" lat="46.235399"><ele>2117.75</ele></trkpt>
   <trkpt lon="11.919948" lat="46.235352"><ele>2115.5</ele></trkpt>
   <trkpt lon="11.920037" lat="46.235343"><ele>2113.25</ele></trkpt>
   <trkpt lon="11.920042" lat="46.235242"><ele>2107.75</ele></trkpt>
   <trkpt lon="11.920028" lat="46.235166"><ele>2103.5</ele></trkpt>
   <trkpt lon="11.920006" lat="46.235111"><ele>2100.5</ele></trkpt>
   <trkpt lon="11.920000" lat="46.235044"><ele>2096.5</ele></trkpt>
   <trkpt lon="11.919979" lat="46.234968"><ele>2092.25</ele></trkpt>
   <trkpt lon="11.920044" lat="46.234963"><ele>2091.0</ele></trkpt>
   <trkpt lon="11.920025" lat="46.234915"><ele>2088.25</ele></trkpt>
   <trkpt lon="11.920025" lat="46.234886"><ele>2086.5</ele></trkpt>
   <trkpt lon="11.920058" lat="46.234850"><ele>2084.0</ele></trkpt>
   <trkpt lon="11.920047" lat="46.234819"><ele>2082.25</ele></trkpt>
   <trkpt lon="11.920083" lat="46.234801"><ele>2080.75</ele></trkpt>
   <trkpt lon="11.920113" lat="46.234745"><ele>2077.25</ele></trkpt>
   <trkpt lon="11.920187" lat="46.234726"><ele>2075.75</ele></trkpt>
   <trkpt lon="11.920162" lat="46.234670"><ele>2072.75</ele></trkpt>
   <trkpt lon="11.920160" lat="46.234547"><ele>2065.75</ele></trkpt>
   <trkpt lon="11.920130" lat="46.234488"><ele>2062.5</ele></trkpt>
   <trkpt lon="11.919985" lat="46.234404"><ele>2057.75</ele></trkpt>
   <trkpt lon="11.919951" lat="46.234394"><ele>2057.25</ele></trkpt>
   <trkpt lon="11.919847" lat="46.234369"><ele>2056.25</ele></trkpt>
   <trkpt lon="11.919759" lat="46.234335"><ele>2055.0</ele></trkpt>
   <trkpt lon="11.919716" lat="46.234296"><ele>2053.75</ele></trkpt>
   <trkpt lon="11.919710" lat="46.234252"><ele>2052.0</ele></trkpt>
   <trkpt lon="11.919673" lat="46.234226"><ele>2052.25</ele></trkpt>
   <trkpt lon="11.919669" lat="46.234161"><ele>2049.5</ele></trkpt>
   <trkpt lon="11.919683" lat="46.234123"><ele>2047.5</ele></trkpt>
   <trkpt lon="11.919660" lat="46.234102"><ele>2047.5</ele></trkpt>
   <trkpt lon="11.919583" lat="46.233977"><ele>2044.5</ele></trkpt>
   <trkpt lon="11.919534" lat="46.233946"><ele>2044.5</ele></trkpt>
   <trkpt lon="11.919474" lat="46.233861"><ele>2041.75</ele></trkpt>
   <trkpt lon="11.919456" lat="46.233775"><ele>2037.75</ele></trkpt>
   <trkpt lon="11.919491" lat="46.233719"><ele>2034.0</ele></trkpt>
   <trkpt lon="11.919474" lat="46.233682"><ele>2032.5</ele></trkpt>
   <trkpt lon="11.919444" lat="46.233696"><ele>2034.25</ele></trkpt>
   <trkpt lon="11.919376" lat="46.233682"><ele>2036.5</ele></trkpt>
   <trkpt lon="11.919370" lat="46.233633"><ele>2034.5</ele></trkpt>
   <trkpt lon="11.919453" lat="46.233525"><ele>2028.25</ele></trkpt>
   <trkpt lon="11.919496" lat="46.233495"><ele>2026.25</ele></trkpt>
   <trkpt lon="11.919563" lat="46.233456"><ele>2023.0</ele></trkpt>
   <trkpt lon="11.919603" lat="46.233416"><ele>2020.5</ele></trkpt>
   <trkpt lon="11.919741" lat="46.233334"><ele>2013.25</ele></trkpt>
   <trkpt lon="11.919788" lat="46.233278"><ele>2011.5</ele></trkpt>
   <trkpt lon="11.919889" lat="46.233230"><ele>2007.75</ele></trkpt>
   <trkpt lon="11.920020" lat="46.233126"><ele>2002.25</ele></trkpt>
   <trkpt lon="11.920053" lat="46.233078"><ele>2000.75</ele></trkpt>
   <trkpt lon="11.920116" lat="46.233068"><ele>1998.0</ele></trkpt>
   <trkpt lon="11.920173" lat="46.233042"><ele>1995.5</ele></trkpt>
   <trkpt lon="11.920204" lat="46.233006"><ele>1994.0</ele></trkpt>
   <trkpt lon="11.920198" lat="46.232977"><ele>1994.25</ele></trkpt>
   <trkpt lon="11.920202" lat="46.232922"><ele>1994.25</ele></trkpt>
   <trkpt lon="11.920221" lat="46.232908"><ele>1993.25</ele></trkpt>
   <trkpt lon="11.920241" lat="46.232873"><ele>1992.5</ele></trkpt>
   <trkpt lon="11.920305" lat="46.232848"><ele>1989.75</ele></trkpt>
   <trkpt lon="11.920353" lat="46.232793"><ele>1987.75</ele></trkpt>
   <trkpt lon="11.920380" lat="46.232800"><ele>1986.5</ele></trkpt>
   <trkpt lon="11.920408" lat="46.232791"><ele>1985.25</ele></trkpt>
   <trkpt lon="11.920456" lat="46.232713"><ele>1982.25</ele></trkpt>
   <trkpt lon="11.920506" lat="46.232688"><ele>1979.75</ele></trkpt>
   <trkpt lon="11.920515" lat="46.232672"><ele>1979.0</ele></trkpt>
   <trkpt lon="11.920542" lat="46.232659"><ele>1977.75</ele></trkpt>
   <trkpt lon="11.920560" lat="46.232573"><ele>1975.75</ele></trkpt>
   <trkpt lon="11.920556" lat="46.232548"><ele>1975.5</ele></trkpt>
   <trkpt lon="11.920616" lat="46.232458"><ele>1971.5</ele></trkpt>
   <trkpt lon="11.920614" lat="46.232424"><ele>1971.25</ele></trkpt>
   <trkpt lon="11.920666" lat="46.232381"><ele>1968.5</ele></trkpt>
   <trkpt lon="11.920671" lat="46.232366"><ele>1968.0</ele></trkpt>
   <trkpt lon="11.920722" lat="46.232317"><ele>1965.0</ele></trkpt>
   <trkpt lon="11.920767" lat="46.232303"><ele>1962.75</ele></trkpt>
   <trkpt lon="11.920831" lat="46.232298"><ele>1959.75</ele></trkpt>
   <trkpt lon="11.920911" lat="46.232278"><ele>1956.0</ele></trkpt>
   <trkpt lon="11.920975" lat="46.232276"><ele>1953.25</ele></trkpt>
   <trkpt lon="11.921084" lat="46.232344"><ele>1949.0</ele></trkpt>
   <trkpt lon="11.921159" lat="46.232351"><ele>1945.75</ele></trkpt>
   <trkpt lon="11.921221" lat="46.232276"><ele>1942.5</ele></trkpt>
   <trkpt lon="11.921267" lat="46.232237"><ele>1940.25</ele></trkpt>
   <trkpt lon="11.921322" lat="46.232203"><ele>1937.5</ele></trkpt>
   <trkpt lon="11.921389" lat="46.232124"><ele>1933.75</ele></trkpt>
   <trkpt lon="11.921448" lat="46.232113"><ele>1931.0</ele></trkpt>
   <trkpt lon="11.921530" lat="46.232018"><ele>1926.5</ele></trkpt>
   <trkpt lon="11.921650" lat="46.231943"><ele>1920.5</ele></trkpt>
   <trkpt lon="11.921716" lat="46.231955"><ele>1918.0</ele></trkpt>
   <trkpt lon="11.921763" lat="46.231910"><ele>1915.75</ele></trkpt>
   <trkpt lon="11.921794" lat="46.231861"><ele>1913.75</ele></trkpt>
   <trkpt lon="11.921833" lat="46.231834"><ele>1911.75</ele></trkpt>
   <trkpt lon="11.921879" lat="46.231827"><ele>1910.0</ele></trkpt>
   <trkpt lon="11.921952" lat="46.231739"><ele>1905.75</ele></trkpt>
   <trkpt lon="11.921963" lat="46.231690"><ele>1904.5</ele></trkpt>
   <trkpt lon="11.922010" lat="46.231694"><ele>1903.0</ele></trkpt>
   <trkpt lon="11.922047" lat="46.231721"><ele>1902.0</ele></trkpt>
   <trkpt lon="11.922062" lat="46.231701"><ele>1901.0</ele></trkpt>
   <trkpt lon="11.922114" lat="46.231716"><ele>1899.25</ele></trkpt>
   <trkpt lon="11.922144" lat="46.231696"><ele>1898.0</ele></trkpt>
   <trkpt lon="11.922194" lat="46.231714"><ele>1896.5</ele></trkpt>
   <trkpt lon="11.922214" lat="46.231696"><ele>1895.5</ele></trkpt>
   <trkpt lon="11.922287" lat="46.231714"><ele>1892.75</ele></trkpt>
   <trkpt lon="11.922323" lat="46.231700"><ele>1891.25</ele></trkpt>
   <trkpt lon="11.922356" lat="46.231713"><ele>1890.0</ele></trkpt>
   <trkpt lon="11.922399" lat="46.231688"><ele>1888.0</ele></trkpt>
   <trkpt lon="11.922488" lat="46.231710"><ele>1884.75</ele></trkpt>
   <trkpt lon="11.922521" lat="46.231659"><ele>1883.0</ele></trkpt>
   <trkpt lon="11.922584" lat="46.231638"><ele>1880.75</ele></trkpt>
   <trkpt lon="11.922609" lat="46.231583"><ele>1879.75</ele></trkpt>
   <trkpt lon="11.922668" lat="46.231527"><ele>1877.75</ele></trkpt>
   <trkpt lon="11.922727" lat="46.231492"><ele>1875.5</ele></trkpt>
   <trkpt lon="11.922764" lat="46.231488"><ele>1874.0</ele></trkpt>
   <trkpt lon="11.922860" lat="46.231444"><ele>1870.5</ele></trkpt>
   <trkpt lon="11.922931" lat="46.231391"><ele>1867.75</ele></trkpt>
   <trkpt lon="11.923050" lat="46.231377"><ele>1863.0</ele></trkpt>
   <trkpt lon="11.923109" lat="46.231388"><ele>1860.75</ele></trkpt>
   <trkpt lon="11.923149" lat="46.231368"><ele>1859.0</ele></trkpt>
   <trkpt lon="11.923210" lat="46.231312"><ele>1856.25</ele></trkpt>
   <trkpt lon="11.923244" lat="46.231322"><ele>1855.0</ele></trkpt>
   <trkpt lon="11.923298" lat="46.231314"><ele>1852.75</ele></trkpt>
   <trkpt lon="11.923366" lat="46.231269"><ele>1849.75</ele></trkpt>
   <trkpt lon="11.923411" lat="46.231227"><ele>1847.75</ele></trkpt>
   <trkpt lon="11.923427" lat="46.231183"><ele>1846.75</ele></trkpt>
   <trkpt lon="11.923455" lat="46.231182"><ele>1845.75</ele></trkpt>
   <trkpt lon="11.923510" lat="46.231126"><ele>1843.0</ele></trkpt>
   <trkpt lon="11.923571" lat="46.231101"><ele>1840.5</ele></trkpt>
   <trkpt lon="11.923564" lat="46.231053"><ele>1840.75</ele></trkpt>
   <trkpt lon="11.923669" lat="46.231013"><ele>1836.75</ele></trkpt>
   <trkpt lon="11.923684" lat="46.230952"><ele>1836.0</ele></trkpt>
   <trkpt lon="11.923882" lat="46.230851"><ele>1828.25</ele></trkpt>
   <trkpt lon="11.923997" lat="46.230760"><ele>1823.0</ele></trkpt>
   <trkpt lon="11.924123" lat="46.230694"><ele>1817.5</ele></trkpt>
   <trkpt lon="11.924163" lat="46.230664"><ele>1815.5</ele></trkpt>
   <trkpt lon="11.924244" lat="46.230543"><ele>1810.75</ele></trkpt>
   <trkpt lon="11.924312" lat="46.230487"><ele>1807.25</ele></trkpt>
   <trkpt lon="11.924354" lat="46.230436"><ele>1804.75</ele></trkpt>
   <trkpt lon="11.924509" lat="46.230353"><ele>1798.25</ele></trkpt>
   <trkpt lon="11.924529" lat="46.230255"><ele>1795.75</ele></trkpt>
   <trkpt lon="11.924626" lat="46.230223"><ele>1791.75</ele></trkpt>
   <trkpt lon="11.924661" lat="46.230194"><ele>1790.0</ele></trkpt>
   <trkpt lon="11.924748" lat="46.230195"><ele>1787.25</ele></trkpt>
   <trkpt lon="11.924779" lat="46.230157"><ele>1785.75</ele></trkpt>
   <trkpt lon="11.924846" lat="46.230130"><ele>1783.25</ele></trkpt>
   <trkpt lon="11.924881" lat="46.230076"><ele>1781.25</ele></trkpt>
   <trkpt lon="11.924976" lat="46.230038"><ele>1778.25</ele></trkpt>
   <trkpt lon="11.925006" lat="46.229991"><ele>1776.5</ele></trkpt>
   <trkpt lon="11.925064" lat="46.229996"><ele>1775.0</ele></trkpt>
   <trkpt lon="11.925155" lat="46.230020"><ele>1772.75</ele></trkpt>
   <trkpt lon="11.925437" lat="46.229945"><ele>1763.75</ele></trkpt>
   <trkpt lon="11.925492" lat="46.229894"><ele>1761.5</ele></trkpt>
   <trkpt lon="11.925686" lat="46.229853"><ele>1757.25</ele></trkpt>
   <trkpt lon="11.926163" lat="46.229845"><ele>1751.0</ele></trkpt>
   <trkpt lon="11.926391" lat="46.229821"><ele>1748.0</ele></trkpt>
   <trkpt lon="11.926646" lat="46.229763"><ele>1744.75</ele></trkpt>
   <trkpt lon="11.926996" lat="46.229713"><ele>1740.25</ele></trkpt>
   <trkpt lon="11.927231" lat="46.229653"><ele>1737.75</ele></trkpt>
   <trkpt lon="11.927364" lat="46.229601"><ele>1734.5</ele></trkpt>
  </trkseg>
 </trk>
</gpx>
