<?xml version="1.0" encoding="UTF-8"?>
<!-- track-length = 6093 filtered ascend = 145 plain-ascend = -440 cost=63858 energy=.0kwh time=24m 41s -->
<gpx 
 xmlns="http://www.topografix.com/GPX/1/1" 
 xmlns:xsi="http://www.w3.org/2001/XMLSchema-instance" 
 xsi:schemaLocation="http://www.topografix.com/GPX/1/1 http://www.topografix.com/GPX/1/1/gpx.xsd" 
 creator="BRouter-1.7.10" version="1.1">
 <trk>
  <name>brouter_trekking_0</name>
  <trkseg>
   <trkpt lon="11.927364" lat="46.229601"><ele>1735.25</ele></trkpt>
   <trkpt lon="11.927411" lat="46.229583"><ele>1734.5</ele></trkpt>
   <trkpt lon="11.927459" lat="46.229539"><ele>1733.5</ele></trkpt>
   <trkpt lon="11.927595" lat="46.229551"><ele>1731.75</ele></trkpt>
   <trkpt lon="11.927852" lat="46.229768"><ele>1730.25</ele></trkpt>
   <trkpt lon="11.928118" lat="46.229904"><ele>1728.0</ele></trkpt>
   <trkpt lon="11.928408" lat="46.230002"><ele>1725.0</ele></trkpt>
   <trkpt lon="11.928684" lat="46.230119"><ele>1723.0</ele></trkpt>
   <trkpt lon="11.928935" lat="46.230251"><ele>1721.0</ele></trkpt>
   <trkpt lon="11.929168" lat="46.230359"><ele>1718.75</ele></trkpt>
   <trkpt lon="11.929487" lat="46.230495"><ele>1715.25</ele></trkpt>
   <trkpt lon="11.929667" lat="46.230596"><ele>1713.75</ele></trkpt>
   <trkpt lon="11.929842" lat="46.230717"><ele>1713.0</ele></trkpt>
   <trkpt lon="11.930001" lat="46.230839"><ele>1712.0</ele></trkpt>
   <trkpt lon="11.930092" lat="46.230939"><ele>1711.5</ele></trkpt>
   <trkpt lon="11.930164" lat="46.231031"><ele>1711.0</ele></trkpt>
   <trkpt lon="11.930195" lat="46.231088"><ele>1710.75</ele></trkpt>
   <trkpt lon="11.930207" lat="46.231229"><ele>1710.75</ele></trkpt>
   <trkpt lon="11.930238" lat="46.231311"><ele>1710.25</ele></trkpt>
   <trkpt lon="11.930314" lat="46.231398"><ele>1709.5</ele></trkpt>
   <trkpt lon="11.930355" lat="46.231481"><ele>1708.5</ele></trkpt>
   <trkpt lon="11.930378" lat="46.231573"><ele>1707.5</ele></trkpt>
   <trkpt lon="11.930409" lat="46.231841"><ele>1705.75</ele></trkpt>
   <trkpt lon="11.930493" lat="46.231915"><ele>1704.75</ele></trkpt>
   <trkpt lon="11.930597" lat="46.232038"><ele>1703.5</ele></trkpt>
   <trkpt lon="11.930733" lat="46.232337"><ele>1700.25</ele></trkpt>
   <trkpt lon="11.930741" lat="46.232410"><ele>1699.25</ele></trkpt>
   <trkpt lon="11.930712" lat="46.232447"><ele>1699.0</ele></trkpt>
   <trkpt lon="11.930594" lat="46.232499"><ele>1699.5</ele></trkpt>
   <trkpt lon="11.930576" lat="46.232506"><ele>1699.5</ele></trkpt>
   <trkpt lon="11.930549" lat="46.232537"><ele>1699.75</ele></trkpt>
   <trkpt lon="11.930594" lat="46.232649"><ele>1698.5</ele></trkpt>
   <trkpt lon="11.930660" lat="46.232732"><ele>1697.5</ele></trkpt>
   <trkpt lon="11.930768" lat="46.232986"><ele>1696.75</ele></trkpt>
   <trkpt lon="11.930764" lat="46.233065"><ele>1697.0</ele></trkpt>
   <trkpt lon="11.930836" lat="46.233186"><ele>1696.75</ele></trkpt>
   <trkpt lon="11.930922" lat="46.233257"><ele>1695.25</ele></trkpt>
   <trkpt lon="11.930988" lat="46.233365"><ele>1694.25</ele></trkpt>
   <trkpt lon="11.931116" lat="46.233605"><ele>1693.75</ele></trkpt>
   <trkpt lon="11.931106" lat="46.233706"><ele>1694.75</ele></trkpt>
   <trkpt lon="11.931106" lat="46.233818"><ele>1695.5</ele></trkpt>
   <trkpt lon="11.931122" lat="46.234124"><ele>1695.75</ele></trkpt>
   <trkpt lon="11.931163" lat="46.234325"><ele>1691.25</ele></trkpt>
   <trkpt lon="11.931095" lat="46.234385"><ele>1692.75</ele></trkpt>
   <trkpt lon="11.931071" lat="46.234461"><ele>1692.5</ele></trkpt>
   <trkpt lon="11.931003" lat="46.234554"><ele>1692.5</ele></trkpt>
   <trkpt lon="11.930943" lat="46.234687"><ele>1690.75</ele></trkpt>
   <trkpt lon="11.930937" lat="46.234739"><ele>1689.0</ele></trkpt>
   <trkpt lon="11.930980" lat="46.234711"><ele>1687.25</ele></trkpt>
   <trkpt lon="11.930980" lat="46.234840"><ele>1682.75</ele></trkpt>
   <trkpt lon="11.931018" lat="46.234810"><ele>1681.5</ele></trkpt>
   <trkpt lon="11.931055" lat="46.234804"><ele>1679.75</ele></trkpt>
   <trkpt lon="11.931030" lat="46.234866"><ele>1679.25</ele></trkpt>
   <trkpt lon="11.931023" lat="46.234918"><ele>1678.25</ele></trkpt>
   <trkpt lon="11.930918" lat="46.234977"><ele>1680.0</ele></trkpt>
   <trkpt lon="11.930890" lat="46.235003"><ele>1680.25</ele></trkpt>
   <trkpt lon="11.930931" lat="46.235076"><ele>1682.5</ele></trkpt>
   <trkpt lon="11.930916" lat="46.235092"><ele>1683.75</ele></trkpt>
   <trkpt lon="11.930871" lat="46.235141"><ele>1686.25</ele></trkpt>
   <trkpt lon="11.930868" lat="46.235176"><ele>1687.75</ele></trkpt>
   <trkpt lon="11.930883" lat="46.235192"><ele>1688.25</ele></trkpt>
   <trkpt lon="11.930908" lat="46.235200"><ele>1688.75</ele></trkpt>
   <trkpt lon="11.930869" lat="46.235223"><ele>1689.5</ele></trkpt>
   <trkpt lon="11.930877" lat="46.235261"><ele>1691.25</ele></trkpt>
   <trkpt lon="11.930918" lat="46.235282"><ele>1693.0</ele></trkpt>
   <trkpt lon="11.930995" lat="46.235287"><ele>1695.0</ele></trkpt>
   <trkpt lon="11.931089" lat="46.235270"><ele>1695.75</ele></trkpt>
   <trkpt lon="11.931181" lat="46.235249"><ele>1694.0</ele></trkpt>
   <trkpt lon="11.931286" lat="46.235214"><ele>1690.75</ele></trkpt>
   <trkpt lon="11.931329" lat="46.235227"><ele>1691.75</ele></trkpt>
   <trkpt lon="11.931393" lat="46.235265"><ele>1694.0</ele></trkpt>
   <trkpt lon="11.931396" lat="46.235327"><ele>1696.75</ele></trkpt>
   <trkpt lon="11.931446" lat="46.235394"><ele>1698.5</ele></trkpt>
   <trkpt lon="11.931499" lat="46.235433"><ele>1699.0</ele></trkpt>
   <trkpt lon="11.931526" lat="46.235509"><ele>1701.5</ele></trkpt>
   <trkpt lon="11.931493" lat="46.235539"><ele>1703.5</ele></trkpt>
   <trkpt lon="11.931515" lat="46.235572"><ele>1704.25</ele></trkpt>
   <trkpt lon="11.931530" lat="46.235618"><ele>1705.75</ele></trkpt>
   <trkpt lon="11.931611" lat="46.235647"><ele>1705.0</ele></trkpt>
   <trkpt lon="11.931594" lat="46.235710"><ele>1708.0</ele></trkpt>
   <trkpt lon="11.931656" lat="46.235758"><ele>1708.75</ele></trkpt>
   <trkpt lon="11.931705" lat="46.235771"><ele>1709.25</ele></trkpt>
   <trkpt lon="11.931745" lat="46.235834"><ele>1712.25</ele></trkpt>
   <trkpt lon="11.931782" lat="46.235867"><ele>1713.75</ele></trkpt>
   <trkpt lon="11.932086" lat="46.235934"><ele>1717.5</ele></trkpt>
   <trkpt lon="11.932116" lat="46.235905"><ele>1716.25</ele></trkpt>
   <trkpt lon="11.932154" lat="46.235887"><ele>1715.25</ele></trkpt>
   <trkpt lon="11.932234" lat="46.235940"><ele>1717.75</ele></trkpt>
   <trkpt lon="11.932278" lat="46.235980"><ele>1719.5</ele></trkpt>
   <trkpt lon="11.932281" lat="46.236014"><ele>1721.0</ele></trkpt>
   <trkpt lon="11.932337" lat="46.236029"><ele>1721.5</ele></trkpt>
   <trkpt lon="11.932414" lat="46.236070"><ele>1723.25</ele></trkpt>
   <trkpt lon="11.932604" lat="46.236115"><ele>1724.25</ele></trkpt>
   <trkpt lon="11.932687" lat="46.236153"><ele>1725.5</ele></trkpt>
   <trkpt lon="11.932767" lat="46.236226"><ele>1728.25</ele></trkpt>
   <trkpt lon="11.932823" lat="46.236339"><ele>1733.0</ele></trkpt>
   <trkpt lon="11.932950" lat="46.236392"><ele>1734.25</ele></trkpt>
   <trkpt lon="11.933003" lat="46.236405"><ele>1734.25</ele></trkpt>
   <trkpt lon="11.933043" lat="46.236430"><ele>1735.0</ele></trkpt>
   <trkpt lon="11.933079" lat="46.236430"><ele>1734.5</ele></trkpt>
   <trkpt lon="11.933124" lat="46.236466"><ele>1735.75</ele></trkpt>
   <trkpt lon="11.933220" lat="46.236514"><ele>1737.0</ele></trkpt>
   <trkpt lon="11.933347" lat="46.236556"><ele>1737.5</ele></trkpt>
   <trkpt lon="11.933407" lat="46.236601"><ele>1739.25</ele></trkpt>
   <trkpt lon="11.933477" lat="46.236637"><ele>1740.75</ele></trkpt>
   <trkpt lon="11.933506" lat="46.236637"><ele>1740.5</ele></trkpt>
   <trkpt lon="11.933868" lat="46.236631"><ele>1740.25</ele></trkpt>
   <trkpt lon="11.934107" lat="46.236679"><ele>1743.0</ele></trkpt>
   <trkpt lon="11.934187" lat="46.236712"><ele>1744.75</ele></trkpt>
   <trkpt lon="11.934227" lat="46.236705"><ele>1744.0</ele></trkpt>
   <trkpt lon="11.934280" lat="46.236713"><ele>1744.25</ele></trkpt>
   <trkpt lon="11.934364" lat="46.236764"><ele>1747.0</ele></trkpt>
   <trkpt lon="11.934437" lat="46.236790"><ele>1748.0</ele></trkpt>
   <trkpt lon="11.934624" lat="46.236836"><ele>1749.5</ele></trkpt>
   <trkpt lon="11.934655" lat="46.236870"><ele>1751.0</ele></trkpt>
   <trkpt lon="11.934723" lat="46.236901"><ele>1751.75</ele></trkpt>
   <trkpt lon="11.934812" lat="46.236932"><ele>1751.75</ele></trkpt>
   <trkpt lon="11.934874" lat="46.236977"><ele>1753.25</ele></trkpt>
   <trkpt lon="11.935102" lat="46.237034"><ele>1752.75</ele></trkpt>
   <trkpt lon="11.935574" lat="46.237124"><ele>1750.0</ele></trkpt>
   <trkpt lon="11.935725" lat="46.237175"><ele>1748.0</ele></trkpt>
   <trkpt lon="11.935784" lat="46.237223"><ele>1748.75</ele></trkpt>
   <trkpt lon="11.935908" lat="46.237299"><ele>1749.25</ele></trkpt>
   <trkpt lon="11.936235" lat="46.237556"><ele>1748.75</ele></trkpt>
   <trkpt lon="11.936317" lat="46.237646"><ele>1750.5</ele></trkpt>
   <trkpt lon="11.936365" lat="46.237685"><ele>1750.5</ele></trkpt>
   <trkpt lon="11.936365" lat="46.237710"><ele>1752.0</ele></trkpt>
   <trkpt lon="11.936404" lat="46.237740"><ele>1752.0</ele></trkpt>
   <trkpt lon="11.936439" lat="46.237806"><ele>1754.5</ele></trkpt>
   <trkpt lon="11.936517" lat="46.237869"><ele>1755.5</ele></trkpt>
   <trkpt lon="11.936796" lat="46.238002"><ele>1753.75</ele></trkpt>
   <trkpt lon="11.936878" lat="46.238092"><ele>1756.0</ele></trkpt>
   <trkpt lon="11.936934" lat="46.238169"><ele>1757.5</ele></trkpt>
   <trkpt lon="11.937099" lat="46.238350"><ele>1759.25</ele></trkpt>
   <trkpt lon="11.937101" lat="46.238424"><ele>1761.25</ele></trkpt>
   <trkpt lon="11.937140" lat="46.238532"><ele>1762.5</ele></trkpt>
   <trkpt lon="11.937202" lat="46.238579"><ele>1761.0</ele></trkpt>
   <trkpt lon="11.937264" lat="46.238741"><ele>1761.75</ele></trkpt>
   <trkpt lon="11.937321" lat="46.238829"><ele>1760.75</ele></trkpt>
   <trkpt lon="11.937373" lat="46.238941"><ele>1759.5</ele></trkpt>
   <trkpt lon="11.937282" lat="46.239015"><ele>1763.75</ele></trkpt>
   <trkpt lon="11.937364" lat="46.239069"><ele>1760.5</ele></trkpt>
   <trkpt lon="11.937400" lat="46.239120"><ele>1759.25</ele></trkpt>
   <trkpt lon="11.937470" lat="46.239182"><ele>1757.75</ele></trkpt>
   <trkpt lon="11.937519" lat="46.239250"><ele>1759.5</ele></trkpt>
   <trkpt lon="11.937536" lat="46.239322"><ele>1762.5</ele></trkpt>
   <trkpt lon="11.937602" lat="46.239393"><ele>1763.5</ele></trkpt>
   <trkpt lon="11.937707" lat="46.239457"><ele>1762.25</ele></trkpt>
   <trkpt lon="11.938051" lat="46.239518"><ele>1764.75</ele></trkpt>
   <trkpt lon="11.938138" lat="46.239506"><ele>1764.5</ele></trkpt>
   <trkpt lon="11.938284" lat="46.239526"><ele>1766.5</ele></trkpt>
   <trkpt lon="11.938484" lat="46.239571"><ele>1770.0</ele></trkpt>
   <trkpt lon="11.939049" lat="46.239737"><ele>1779.5</ele></trkpt>
   <trkpt lon="11.939238" lat="46.239784"><ele>1781.75</ele></trkpt>
   <trkpt lon="11.939331" lat="46.239781"><ele>1781.0</ele></trkpt>
   <trkpt lon="11.939517" lat="46.239761"><ele>1779.0</ele></trkpt>
   <trkpt lon="11.939686" lat="46.239780"><ele>1781.5</ele></trkpt>
   <trkpt lon="11.939762" lat="46.239757"><ele>1780.75</ele></trkpt>
   <trkpt lon="11.940005" lat="46.239744"><ele>1783.0</ele></trkpt>
   <trkpt lon="11.940170" lat="46.239691"><ele>1782.5</ele></trkpt>
   <trkpt lon="11.940351" lat="46.239665"><ele>1783.0</ele></trkpt>
   <trkpt lon="11.940430" lat="46.239665"><ele>1783.5</ele></trkpt>
   <trkpt lon="11.940475" lat="46.239618"><ele>1781.25</ele></trkpt>
   <trkpt lon="11.940545" lat="46.239586"><ele>1780.0</ele></trkpt>
   <trkpt lon="11.940549" lat="46.239567"><ele>1779.0</ele></trkpt>
   <trkpt lon="11.940580" lat="46.239566"><ele>1779.5</ele></trkpt>
   <trkpt lon="11.940628" lat="46.239583"><ele>1781.0</ele></trkpt>
   <trkpt lon="11.940673" lat="46.239582"><ele>1781.5</ele></trkpt>
   <trkpt lon="11.940687" lat="46.239549"><ele>1780.5</ele></trkpt>
   <trkpt lon="11.940737" lat="46.239519"><ele>1780.25</ele></trkpt>
   <trkpt lon="11.940772" lat="46.239510"><ele>1780.5</ele></trkpt>
   <trkpt lon="11.940840" lat="46.239414"><ele>1779.25</ele></trkpt>
   <trkpt lon="11.940906" lat="46.239398"><ele>1779.0</ele></trkpt>
   <trkpt lon="11.941061" lat="46.239335"><ele>1777.5</ele></trkpt>
   <trkpt lon="11.941193" lat="46.239239"><ele>1774.5</ele></trkpt>
   <trkpt lon="11.941613" lat="46.238778"><ele>1764.0</ele></trkpt>
   <trkpt lon="11.942026" lat="46.238461"><ele>1762.75</ele></trkpt>
   <trkpt lon="11.942088" lat="46.238356"><ele>1762.5</ele></trkpt>
   <trkpt lon="11.942206" lat="46.238110"><ele>1762.25</ele></trkpt>
   <trkpt lon="11.942389" lat="46.237796"><ele>1760.5</ele></trkpt>
   <trkpt lon="11.942457" lat="46.237654"><ele>1759.0</ele></trkpt>
   <trkpt lon="11.942590" lat="46.237571"><ele>1758.75</ele></trkpt>
   <trkpt lon="11.942749" lat="46.237502"><ele>1757.75</ele></trkpt>
   <trkpt lon="11.942792" lat="46.237474"><ele>1757.0</ele></trkpt>
   <trkpt lon="11.942897" lat="46.237508"><ele>1757.25</ele></trkpt>
   <trkpt lon="11.942989" lat="46.237504"><ele>1756.5</ele></trkpt>
   <trkpt lon="11.943016" lat="46.237526"><ele>1757.0</ele></trkpt>
   <trkpt lon="11.943095" lat="46.237545"><ele>1757.0</ele></trkpt>
   <trkpt lon="11.943292" lat="46.237583"><ele>1755.75</ele></trkpt>
   <trkpt lon="11.943353" lat="46.237727"><ele>1759.0</ele></trkpt>
   <trkpt lon="11.943484" lat="46.237841"><ele>1759.75</ele></trkpt>
   <trkpt lon="11.943675" lat="46.238027"><ele>1761.0</ele></trkpt>
   <trkpt lon="11.943838" lat="46.238254"><ele>1764.5</ele></trkpt>
   <trkpt lon="11.943901" lat="46.238298"><ele>1764.5</ele></trkpt>
   <trkpt lon="11.943991" lat="46.238323"><ele>1763.25</ele></trkpt>
   <trkpt lon="11.944149" lat="46.238490"><ele>1765.5</ele></trkpt>
   <trkpt lon="11.944387" lat="46.238786"><ele>1768.25</ele></trkpt>
   <trkpt lon="11.944453" lat="46.238844"><ele>1768.5</ele></trkpt>
   <trkpt lon="11.944719" lat="46.238891"><ele>1769.0</ele></trkpt>
   <trkpt lon="11.944900" lat="46.238961"><ele>1772.0</ele></trkpt>
   <trkpt lon="11.945078" lat="46.239016"><ele>1775.0</ele></trkpt>
   <trkpt lon="11.945216" lat="46.239026"><ele>1777.0</ele></trkpt>
   <trkpt lon="11.945354" lat="46.239078"><ele>1781.0</ele></trkpt>
   <trkpt lon="11.945456" lat="46.239101"><ele>1783.75</ele></trkpt>
   <trkpt lon="11.945503" lat="46.239140"><ele>1785.5</ele></trkpt>
   <trkpt lon="11.945607" lat="46.239157"><ele>1787.75</ele></trkpt>
   <trkpt lon="11.945752" lat="46.239274"><ele>1791.75</ele></trkpt>
   <trkpt lon="11.945820" lat="46.239271"><ele>1792.5</ele></trkpt>
   <trkpt lon="11.945883" lat="46.239341"><ele>1791.25</ele></trkpt>
   <trkpt lon="11.945905" lat="46.239372"><ele>1790.5</ele></trkpt>
   <trkpt lon="11.945916" lat="46.239428"><ele>1790.25</ele></trkpt>
   <trkpt lon="11.945901" lat="46.239490"><ele>1791.0</ele></trkpt>
   <trkpt lon="11.945890" lat="46.239601"><ele>1791.75</ele></trkpt>
   <trkpt lon="11.945915" lat="46.239713"><ele>1790.5</ele></trkpt>
   <trkpt lon="11.945917" lat="46.239791"><ele>1789.5</ele></trkpt>
   <trkpt lon="11.945966" lat="46.239868"><ele>1786.0</ele></trkpt>
   <trkpt lon="11.945975" lat="46.239964"><ele>1784.25</ele></trkpt>
   <trkpt lon="11.945964" lat="46.240119"><ele>1780.25</ele></trkpt>
   <trkpt lon="11.945888" lat="46.240194"><ele>1782.0</ele></trkpt>
   <trkpt lon="11.945780" lat="46.240308"><ele>1784.5</ele></trkpt>
   <trkpt lon="11.945783" lat="46.240438"><ele>1782.25</ele></trkpt>
   <trkpt lon="11.945755" lat="46.240540"><ele>1782.0</ele></trkpt>
   <trkpt lon="11.945788" lat="46.240587"><ele>1779.75</ele></trkpt>
   <trkpt lon="11.945799" lat="46.240787"><ele>1777.25</ele></trkpt>
   <trkpt lon="11.945792" lat="46.240867"><ele>1777.0</ele></trkpt>
   <trkpt lon="11.945822" lat="46.240930"><ele>1775.5</ele></trkpt>
   <trkpt lon="11.945864" lat="46.240973"><ele>1773.0</ele></trkpt>
   <trkpt lon="11.945910" lat="46.241092"><ele>1770.5</ele></trkpt>
   <trkpt lon="11.945947" lat="46.241151"><ele>1769.75</ele></trkpt>
   <trkpt lon="11.945976" lat="46.241217"><ele>1770.25</ele></trkpt>
   <trkpt lon="11.946006" lat="46.241263"><ele>1770.25</ele></trkpt>
   <trkpt lon="11.946054" lat="46.241323"><ele>1770.0</ele></trkpt>
   <trkpt lon="11.946095" lat="46.241391"><ele>1770.75</ele></trkpt>
   <trkpt lon="11.946155" lat="46.241461"><ele>1771.75</ele></trkpt>
   <trkpt lon="11.946424" lat="46.241575"><ele>1767.5</ele></trkpt>
   <trkpt lon="11.946449" lat="46.241607"><ele>1768.25</ele></trkpt>
   <trkpt lon="11.946485" lat="46.241678"><ele>1770.0</ele></trkpt>
   <trkpt lon="11.946614" lat="46.241811"><ele>1768.75</ele></trkpt>
   <trkpt lon="11.946619" lat="46.241844"><ele>1769.25</ele></trkpt>
   <trkpt lon="11.946672" lat="46.241882"><ele>1768.25</ele></trkpt>
   <trkpt lon="11.946797" lat="46.241995"><ele>1767.0</ele></trkpt>
   <trkpt lon="11.946820" lat="46.242049"><ele>1768.0</ele></trkpt>
   <trkpt lon="11.946910" lat="46.242137"><ele>1767.5</ele></trkpt>
   <trkpt lon="11.946961" lat="46.242150"><ele>1766.5</ele></trkpt>
   <trkpt lon="11.947006" lat="46.242181"><ele>1767.75</ele></trkpt>
   <trkpt lon="11.947028" lat="46.242211"><ele>1769.25</ele></trkpt>
   <trkpt lon="11.947064" lat="46.242215"><ele>1769.75</ele></trkpt>
   <trkpt lon="11.947245" lat="46.242168"><ele>1768.0</ele></trkpt>
   <trkpt lon="11.947361" lat="46.242119"><ele>1764.75</ele></trkpt>
   <trkpt lon="11.947497" lat="46.242085"><ele>1762.5</ele></trkpt>
   <trkpt lon="11.947606" lat="46.242090"><ele>1761.75</ele></trkpt>
   <trkpt lon="11.947769" lat="46.242111"><ele>1761.25</ele></trkpt>
   <trkpt lon="11.948170" lat="46.242110"><ele>1757.5</ele></trkpt>
   <trkpt lon="11.948270" lat="46.242131"><ele>1758.75</ele></trkpt>
   <trkpt lon="11.948352" lat="46.242130"><ele>1759.0</ele></trkpt>
   <trkpt lon="11.948368" lat="46.242122"><ele>1759.0</ele></trkpt>
   <trkpt lon="11.948395" lat="46.242108"><ele>1759.0</ele></trkpt>
   <trkpt lon="11.948414" lat="46.242085"><ele>1758.25</ele></trkpt>
   <trkpt lon="11.948540" lat="46.242032"><ele>1758.75</ele></trkpt>
   <trkpt lon="11.948683" lat="46.241986"><ele>1759.0</ele></trkpt>
   <trkpt lon="11.948808" lat="46.241968"><ele>1759.5</ele></trkpt>
   <trkpt lon="11.948906" lat="46.241975"><ele>1761.0</ele></trkpt>
   <trkpt lon="11.949046" lat="46.241972"><ele>1760.75</ele></trkpt>
   <trkpt lon="11.949107" lat="46.241978"><ele>1761.25</ele></trkpt>
   <trkpt lon="11.949151" lat="46.241992"><ele>1762.25</ele></trkpt>
   <trkpt lon="11.949219" lat="46.242000"><ele>1761.75</ele></trkpt>
   <trkpt lon="11.949308" lat="46.242021"><ele>1761.0</ele></trkpt>
   <trkpt lon="11.949446" lat="46.242112"><ele>1763.75</ele></trkpt>
   <trkpt lon="11.949551" lat="46.242193"><ele>1764.75</ele></trkpt>
   <trkpt lon="11.949676" lat="46.242278"><ele>1765.25</ele></trkpt>
   <trkpt lon="11.949915" lat="46.242414"><ele>1766.5</ele></trkpt>
   <trkpt lon="11.950005" lat="46.242412"><ele>1763.75</ele></trkpt>
   <trkpt lon="11.950084" lat="46.242399"><ele>1762.0</ele></trkpt>
   <trkpt lon="11.950238" lat="46.242357"><ele>1757.0</ele></trkpt>
   <trkpt lon="11.950477" lat="46.242379"><ele>1756.0</ele></trkpt>
   <trkpt lon="11.950554" lat="46.242358"><ele>1753.0</ele></trkpt>
   <trkpt lon="11.950757" lat="46.242381"><ele>1756.5</ele></trkpt>
   <trkpt lon="11.950841" lat="46.242345"><ele>1754.25</ele></trkpt>
   <trkpt lon="11.950919" lat="46.242322"><ele>1752.75</ele></trkpt>
   <trkpt lon="11.951027" lat="46.242314"><ele>1752.75</ele></trkpt>
   <trkpt lon="11.951228" lat="46.242355"><ele>1757.25</ele></trkpt>
   <trkpt lon="11.951470" lat="46.242347"><ele>1759.5</ele></trkpt>
   <trkpt lon="11.951849" lat="46.242265"><ele>1763.25</ele></trkpt>
   <trkpt lon="11.951939" lat="46.242240"><ele>1765.0</ele></trkpt>
   <trkpt lon="11.952005" lat="46.242243"><ele>1763.75</ele></trkpt>
   <trkpt lon="11.952048" lat="46.242265"><ele>1762.75</ele></trkpt>
   <trkpt lon="11.952072" lat="46.242324"><ele>1762.0</ele></trkpt>
   <trkpt lon="11.952075" lat="46.242429"><ele>1761.75</ele></trkpt>
   <trkpt lon="11.952129" lat="46.242526"><ele>1759.25</ele></trkpt>
   <trkpt lon="11.952141" lat="46.242569"><ele>1758.25</ele></trkpt>
   <trkpt lon="11.952112" lat="46.242648"><ele>1758.5</ele></trkpt>
   <trkpt lon="11.952123" lat="46.242708"><ele>1757.25</ele></trkpt>
   <trkpt lon="11.952184" lat="46.242812"><ele>1753.25</ele></trkpt>
   <trkpt lon="11.952267" lat="46.242910"><ele>1750.0</ele></trkpt>
   <trkpt lon="11.952355" lat="46.242985"><ele>1746.25</ele></trkpt>
   <trkpt lon="11.952408" lat="46.243053"><ele>1744.5</ele></trkpt>
   <trkpt lon="11.952441" lat="46.243083"><ele>1743.75</ele></trkpt>
   <trkpt lon="11.952482" lat="46.243106"><ele>1742.5</ele></trkpt>
   <trkpt lon="11.952523" lat="46.243182"><ele>1743.0</ele></trkpt>
   <trkpt lon="11.952617" lat="46.243293"><ele>1743.25</ele></trkpt>
   <trkpt lon="11.952717" lat="46.243358"><ele>1742.0</ele></trkpt>
   <trkpt lon="11.952778" lat="46.243418"><ele>1742.0</ele></trkpt>
   <trkpt lon="11.952820" lat="46.243488"><ele>1742.75</ele></trkpt>
   <trkpt lon="11.952841" lat="46.243592"><ele>1745.0</ele></trkpt>
   <trkpt lon="11.952883" lat="46.243682"><ele>1747.0</ele></trkpt>
   <trkpt lon="11.952946" lat="46.243751"><ele>1747.25</ele></trkpt>
   <trkpt lon="11.953075" lat="46.243809"><ele>1745.0</ele></trkpt>
   <trkpt lon="11.953343" lat="46.243891"><ele>1740.75</ele></trkpt>
   <trkpt lon="11.953409" lat="46.243936"><ele>1740.25</ele></trkpt>
   <trkpt lon="11.953491" lat="46.244005"><ele>1740.0</ele></trkpt>
   <trkpt lon="11.953602" lat="46.244072"><ele>1738.25</ele></trkpt>
   <trkpt lon="11.953677" lat="46.244104"><ele>1736.5</ele></trkpt>
   <trkpt lon="11.953751" lat="46.244120"><ele>1734.0</ele></trkpt>
   <trkpt lon="11.953772" lat="46.244144"><ele>1734.0</ele></trkpt>
   <trkpt lon="11.953794" lat="46.244189"><ele>1734.25</ele></trkpt>
   <trkpt lon="11.953925" lat="46.244261"><ele>1731.0</ele></trkpt>
   <trkpt lon="11.953954" lat="46.244313"><ele>1731.5</ele></trkpt>
   <trkpt lon="11.954023" lat="46.244400"><ele>1731.5</ele></trkpt>
   <trkpt lon="11.954096" lat="46.244421"><ele>1729.5</ele></trkpt>
   <trkpt lon="11.954160" lat="46.244450"><ele>1728.25</ele></trkpt>
   <trkpt lon="11.954200" lat="46.244485"><ele>1728.75</ele></trkpt>
   <trkpt lon="11.954300" lat="46.244527"><ele>1728.0</ele></trkpt>
   <trkpt lon="11.954374" lat="46.244529"><ele>1726.25</ele></trkpt>
   <trkpt lon="11.954457" lat="46.244557"><ele>1725.5</ele></trkpt>
   <trkpt lon="11.954584" lat="46.244611"><ele>1724.75</ele></trkpt>
   <trkpt lon="11.954640" lat="46.244654"><ele>1725.5</ele></trkpt>
   <trkpt lon="11.954702" lat="46.244671"><ele>1725.0</ele></trkpt>
   <trkpt lon="11.954858" lat="46.244697"><ele>1723.25</ele></trkpt>
   <trkpt lon="11.955261" lat="46.244782"><ele>1722.0</ele></trkpt>
   <trkpt lon="11.955311" lat="46.244783"><ele>1722.0</ele></trkpt>
   <trkpt lon="11.955622" lat="46.244740"><ele>1720.0</ele></trkpt>
   <trkpt lon="11.955785" lat="46.244747"><ele>1720.75</ele></trkpt>
   <trkpt lon="11.955987" lat="46.244746"><ele>1719.5</ele></trkpt>
   <trkpt lon="11.956175" lat="46.244779"><ele>1718.75</ele></trkpt>
   <trkpt lon="11.956401" lat="46.244804"><ele>1717.0</ele></trkpt>
   <trkpt lon="11.956658" lat="46.244865"><ele>1715.5</ele></trkpt>
   <trkpt lon="11.956824" lat="46.244890"><ele>1717.0</ele></trkpt>
   <trkpt lon="11.956779" lat="46.244864"><ele>1716.5</ele></trkpt>
   <trkpt lon="11.956744" lat="46.244807"><ele>1716.0</ele></trkpt>
   <trkpt lon="11.956738" lat="46.244756"><ele>1716.0</ele></trkpt>
   <trkpt lon="11.956773" lat="46.244676"><ele>1714.25</ele></trkpt>
   <trkpt lon="11.956818" lat="46.244601"><ele>1711.5</ele></trkpt>
   <trkpt lon="11.956942" lat="46.244501"><ele>1708.5</ele></trkpt>
   <trkpt lon="11.957092" lat="46.244458"><ele>1709.0</ele></trkpt>
   <trkpt lon="11.957302" lat="46.244378"><ele>1709.75</ele></trkpt>
   <trkpt lon="11.957423" lat="46.244313"><ele>1709.75</ele></trkpt>
   <trkpt lon="11.957511" lat="46.244203"><ele>1708.25</ele></trkpt>
   <trkpt lon="11.957806" lat="46.243954"><ele>1704.25</ele></trkpt>
   <trkpt lon="11.957992" lat="46.243882"><ele>1704.5</ele></trkpt>
   <trkpt lon="11.958107" lat="46.243817"><ele>1702.0</ele></trkpt>
   <trkpt lon="11.958225" lat="46.243790"><ele>1700.25</ele></trkpt>
   <trkpt lon="11.958329" lat="46.243778"><ele>1699.25</ele></trkpt>
   <trkpt lon="11.958465" lat="46.243780"><ele>1698.0</ele></trkpt>
   <trkpt lon="11.958633" lat="46.243796"><ele>1697.5</ele></trkpt>
   <trkpt lon="11.958745" lat="46.243766"><ele>1695.0</ele></trkpt>
   <trkpt lon="11.958845" lat="46.243709"><ele>1691.25</ele></trkpt>
   <trkpt lon="11.958978" lat="46.243682"><ele>1690.5</ele></trkpt>
   <trkpt lon="11.959096" lat="46.243621"><ele>1688.5</ele></trkpt>
   <trkpt lon="11.959214" lat="46.243541"><ele>1685.25</ele></trkpt>
   <trkpt lon="11.959356" lat="46.243466"><ele>1684.25</ele></trkpt>
   <trkpt lon="11.959489" lat="46.243406"><ele>1684.75</ele></trkpt>
   <trkpt lon="11.959714" lat="46.243233"><ele>1682.5</ele></trkpt>
   <trkpt lon="11.959777" lat="46.243209"><ele>1683.5</ele></trkpt>
   <trkpt lon="11.959833" lat="46.243142"><ele>1682.0</ele></trkpt>
   <trkpt lon="11.959856" lat="46.243091"><ele>1680.5</ele></trkpt>
   <trkpt lon="11.959887" lat="46.243057"><ele>1680.0</ele></trkpt>
   <trkpt lon="11.960017" lat="46.242948"><ele>1674.75</ele></trkpt>
   <trkpt lon="11.960043" lat="46.242942"><ele>1674.5</ele></trkpt>
   <trkpt lon="11.960362" lat="46.242941"><ele>1678.5</ele></trkpt>
   <trkpt lon="11.960453" lat="46.242936"><ele>1680.0</ele></trkpt>
   <trkpt lon="11.960531" lat="46.242894"><ele>1678.0</ele></trkpt>
   <trkpt lon="11.960627" lat="46.242860"><ele>1678.25</ele></trkpt>
   <trkpt lon="11.960662" lat="46.242820"><ele>1676.5</ele></trkpt>
   <trkpt lon="11.960682" lat="46.242749"><ele>1673.0</ele></trkpt>
   <trkpt lon="11.960740" lat="46.242681"><ele>1672.25</ele></trkpt>
   <trkpt lon="11.960735" lat="46.242639"><ele>1670.25</ele></trkpt>
   <trkpt lon="11.960677" lat="46.242613"><ele>1667.25</ele></trkpt>
   <trkpt lon="11.960658" lat="46.242586"><ele>1665.5</ele></trkpt>
   <trkpt lon="11.960664" lat="46.242547"><ele>1664.25</ele></trkpt>
   <trkpt lon="11.960651" lat="46.242504"><ele>1662.0</ele></trkpt>
   <trkpt lon="11.960594" lat="46.242467"><ele>1659.25</ele></trkpt>
   <trkpt lon="11.960560" lat="46.242403"><ele>1656.0</ele></trkpt>
   <trkpt lon="11.960550" lat="46.242305"><ele>1652.0</ele></trkpt>
   <trkpt lon="11.960555" lat="46.242224"><ele>1649.0</ele></trkpt>
   <trkpt lon="11.960574" lat="46.242074"><ele>1645.0</ele></trkpt>
   <trkpt lon="11.960602" lat="46.241980"><ele>1642.25</ele></trkpt>
   <trkpt lon="11.960656" lat="46.241957"><ele>1640.75</ele></trkpt>
   <trkpt lon="11.960705" lat="46.241953"><ele>1640.0</ele></trkpt>
   <trkpt lon="11.960815" lat="46.241988"><ele>1639.75</ele></trkpt>
   <trkpt lon="11.960938" lat="46.242011"><ele>1637.75</ele></trkpt>
   <trkpt lon="11.961251" lat="46.242009"><ele>1627.75</ele></trkpt>
   <trkpt lon="11.961983" lat="46.241984"><ele>1607.75</ele></trkpt>
   <trkpt lon="11.962239" lat="46.241981"><ele>1604.5</ele></trkpt>
   <trkpt lon="11.962503" lat="46.241962"><ele>1599.75</ele></trkpt>
   <trkpt lon="11.963232" lat="46.241943"><ele>1593.75</ele></trkpt>
   <trkpt lon="11.963287" lat="46.241921"><ele>1592.5</ele></trkpt>
   <trkpt lon="11.963355" lat="46.241895"><ele>1591.25</ele></trkpt>
   <trkpt lon="11.963441" lat="46.241769"><ele>1586.0</ele></trkpt>
   <trkpt lon="11.963505" lat="46.241706"><ele>1584.5</ele></trkpt>
   <trkpt lon="11.963639" lat="46.241619"><ele>1585.0</ele></trkpt>
   <trkpt lon="11.963682" lat="46.241569"><ele>1584.75</ele></trkpt>
   <trkpt lon="11.963623" lat="46.241446"><ele>1577.0</ele></trkpt>
   <trkpt lon="11.963644" lat="46.241379"><ele>1575.5</ele></trkpt>
   <trkpt lon="11.963688" lat="46.241346"><ele>1577.5</ele></trkpt>
   <trkpt lon="11.963865" lat="46.241086"><ele>1578.75</ele></trkpt>
   <trkpt lon="11.964031" lat="46.240863"><ele>1576.0</ele></trkpt>
   <trkpt lon="11.964144" lat="46.240741"><ele>1574.0</ele></trkpt>
   <trkpt lon="11.964585" lat="46.240495"><ele>1570.75</ele></trkpt>
   <trkpt lon="11.964664" lat="46.240360"><ele>1566.0</ele></trkpt>
   <trkpt lon="11.964682" lat="46.240306"><ele>1563.75</ele></trkpt>
   <trkpt lon="11.964683" lat="46.240223"><ele>1560.25</ele></trkpt>
   <trkpt lon="11.964699" lat="46.240193"><ele>1559.25</ele></trkpt>
   <trkpt lon="11.964770" lat="46.240150"><ele>1557.75</ele></trkpt>
   <trkpt lon="11.964880" lat="46.240125"><ele>1556.75</ele></trkpt>
   <trkpt lon="11.964957" lat="46.240095"><ele>1555.25</ele></trkpt>
   <trkpt lon="11.965177" lat="46.239990"><ele>1549.0</ele></trkpt>
   <trkpt lon="11.965596" lat="46.239811"><ele>1538.25</ele></trkpt>
   <trkpt lon="11.965892" lat="46.239699"><ele>1531.0</ele></trkpt>
   <trkpt lon="11.966111" lat="46.239634"><ele>1524.0</ele></trkpt>
   <trkpt lon="11.966297" lat="46.239611"><ele>1517.25</ele></trkpt>
   <trkpt lon="11.966430" lat="46.239530"><ele>1509.75</ele></trkpt>
   <trkpt lon="11.966521" lat="46.239516"><ele>1505.75</ele></trkpt>
   <trkpt lon="11.966621" lat="46.239536"><ele>1503.25</ele></trkpt>
   <trkpt lon="11.966686" lat="46.239579"><ele>1503.0</ele></trkpt>
   <trkpt lon="11.966752" lat="46.239669"><ele>1505.0</ele></trkpt>
   <trkpt lon="11.966800" lat="46.239698"><ele>1504.75</ele></trkpt>
   <trkpt lon="11.966903" lat="46.239714"><ele>1502.0</ele></trkpt>
   <trkpt lon="11.967019" lat="46.239719"><ele>1497.75</ele></trkpt>
   <trkpt lon="11.967200" lat="46.239754"><ele>1492.0</ele></trkpt>
   <trkpt lon="11.967459" lat="46.239812"><ele>1487.0</ele></trkpt>
   <trkpt lon="11.967643" lat="46.239877"><ele>1485.75</ele></trkpt>
   <trkpt lon="11.967704" lat="46.239995"><ele>1490.0</ele></trkpt>
   <trkpt lon="11.967740" lat="46.240024"><ele>1490.5</ele></trkpt>
   <trkpt lon="11.967789" lat="46.240042"><ele>1490.5</ele></trkpt>
   <trkpt lon="11.967938" lat="46.240031"><ele>1488.5</ele></trkpt>
   <trkpt lon="11.968156" lat="46.240036"><ele>1486.5</ele></trkpt>
   <trkpt lon="11.968259" lat="46.240026"><ele>1485.25</ele></trkpt>
   <trkpt lon="11.968399" lat="46.239978"><ele>1481.75</ele></trkpt>
   <trkpt lon="11.968499" lat="46.239976"><ele>1479.75</ele></trkpt>
   <trkpt lon="11.968612" lat="46.239965"><ele>1477.5</ele></trkpt>
   <trkpt lon="11.968807" lat="46.239964"><ele>1473.5</ele></trkpt>
   <trkpt lon="11.968923" lat="46.239972"><ele>1471.75</ele></trkpt>
   <trkpt lon="11.969014" lat="46.239997"><ele>1471.0</ele></trkpt>
   <trkpt lon="11.969067" lat="46.239990"><ele>1470.0</ele></trkpt>
   <trkpt lon="11.969273" lat="46.239915"><ele>1465.75</ele></trkpt>
   <trkpt lon="11.969431" lat="46.239940"><ele>1464.25</ele></trkpt>
   <trkpt lon="11.969634" lat="46.240001"><ele>1461.75</ele></trkpt>
   <trkpt lon="11.969765" lat="46.240003"><ele>1458.75</ele></trkpt>
   <trkpt lon="11.969978" lat="46.239964"><ele>1451.5</ele></trkpt>
   <trkpt lon="11.970277" lat="46.239942"><ele>1445.75</ele></trkpt>
   <trkpt lon="11.970477" lat="46.240002"><ele>1445.5</ele></trkpt>
   <trkpt lon="11.970563" lat="46.240022"><ele>1445.0</ele></trkpt>
   <trkpt lon="11.970813" lat="46.240012"><ele>1443.25</ele></trkpt>
   <trkpt lon="11.971139" lat="46.239969"><ele>1443.0</ele></trkpt>
   <trkpt lon="11.971705" lat="46.239852"><ele>1445.75</ele></trkpt>
   <trkpt lon="11.971914" lat="46.239816"><ele>1445.75</ele></trkpt>
   <trkpt lon="11.972037" lat="46.239763"><ele>1445.0</ele></trkpt>
   <trkpt lon="11.972192" lat="46.239662"><ele>1441.75</ele></trkpt>
   <trkpt lon="11.972434" lat="46.239562"><ele>1435.25</ele></trkpt>
   <trkpt lon="11.972555" lat="46.239545"><ele>1433.25</ele></trkpt>
   <trkpt lon="11.972670" lat="46.239567"><ele>1432.5</ele></trkpt>
   <trkpt lon="11.972750" lat="46.239591"><ele>1432.5</ele></trkpt>
   <trkpt lon="11.972810" lat="46.239600"><ele>1432.0</ele></trkpt>
   <trkpt lon="11.972855" lat="46.239579"><ele>1431.0</ele></trkpt>
   <trkpt lon="11.972863" lat="46.239547"><ele>1430.25</ele></trkpt>
   <trkpt lon="11.972838" lat="46.239506"><ele>1429.5</ele></trkpt>
   <trkpt lon="11.972837" lat="46.239462"><ele>1428.25</ele></trkpt>
   <trkpt lon="11.972767" lat="46.239375"><ele>1425.5</ele></trkpt>
   <trkpt lon="11.972716" lat="46.239174"><ele>1419.0</ele></trkpt>
   <trkpt lon="11.972808" lat="46.239101"><ele>1415.75</ele></trkpt>
   <trkpt lon="11.972835" lat="46.239072"><ele>1414.75</ele></trkpt>
   <trkpt lon="11.972812" lat="46.238942"><ele>1410.5</ele></trkpt>
   <trkpt lon="11.972826" lat="46.238749"><ele>1400.75</ele></trkpt>
   <trkpt lon="11.972872" lat="46.238680"><ele>1396.75</ele></trkpt>
   <trkpt lon="11.972944" lat="46.238635"><ele>1394.25</ele></trkpt>
   <trkpt lon="11.973278" lat="46.238536"><ele>1386.0</ele></trkpt>
   <trkpt lon="11.973533" lat="46.238491"><ele>1379.0</ele></trkpt>
   <trkpt lon="11.973819" lat="46.238481"><ele>1371.0</ele></trkpt>
   <trkpt lon="11.974147" lat="46.238484"><ele>1359.75</ele></trkpt>
   <trkpt lon="11.974416" lat="46.238505"><ele>1352.5</ele></trkpt>
   <trkpt lon="11.974814" lat="46.238579"><ele>1347.0</ele></trkpt>
   <trkpt lon="11.974872" lat="46.238568"><ele>1346.0</ele></trkpt>
   <trkpt lon="11.974963" lat="46.238483"><ele>1343.25</ele></trkpt>
   <trkpt lon="11.975099" lat="46.238384"><ele>1341.5</ele></trkpt>
   <trkpt lon="11.975162" lat="46.238363"><ele>1341.25</ele></trkpt>
   <trkpt lon="11.975293" lat="46.238355"><ele>1341.25</ele></trkpt>
   <trkpt lon="11.975360" lat="46.238373"><ele>1341.25</ele></trkpt>
   <trkpt lon="11.975568" lat="46.238355"><ele>1339.5</ele></trkpt>
   <trkpt lon="11.975617" lat="46.238293"><ele>1338.0</ele></trkpt>
   <trkpt lon="11.975634" lat="46.238223"><ele>1335.75</ele></trkpt>
   <trkpt lon="11.975714" lat="46.238085"><ele>1332.25</ele></trkpt>
   <trkpt lon="11.975718" lat="46.238034"><ele>1330.75</ele></trkpt>
   <trkpt lon="11.975690" lat="46.237996"><ele>1329.5</ele></trkpt>
   <trkpt lon="11.975555" lat="46.237906"><ele>1325.0</ele></trkpt>
   <trkpt lon="11.975496" lat="46.237842"><ele>1322.75</ele></trkpt>
   <trkpt lon="11.975437" lat="46.237618"><ele>1316.25</ele></trkpt>
   <trkpt lon="11.975382" lat="46.237505"><ele>1312.5</ele></trkpt>
   <trkpt lon="11.975215" lat="46.237536"><ele>1311.5</ele></trkpt>
   <trkpt lon="11.975069" lat="46.237525"><ele>1310.75</ele></trkpt>
   <trkpt lon="11.974967" lat="46.237484"><ele>1310.0</ele></trkpt>
   <trkpt lon="11.974889" lat="46.237390"><ele>1309.75</ele></trkpt>
   <trkpt lon="11.974831" lat="46.237250"><ele>1308.25</ele></trkpt>
   <trkpt lon="11.974983" lat="46.237227"><ele>1308.0</ele></trkpt>
   <trkpt lon="11.975348" lat="46.237070"><ele>1305.75</ele></trkpt>
   <trkpt lon="11.975562" lat="46.236949"><ele>1304.0</ele></trkpt>
   <trkpt lon="11.975671" lat="46.236847"><ele>1300.75</ele></trkpt>
   <trkpt lon="11.975691" lat="46.236750"><ele>1298.25</ele></trkpt>
   <trkpt lon="11.975683" lat="46.236483"><ele>1296.5</ele></trkpt>
   <trkpt lon="11.975813" lat="46.236495"><ele>1296.0</ele></trkpt>
   <trkpt lon="11.975921" lat="46.236519"><ele>1295.25</ele></trkpt>
   <trkpt lon="11.976049" lat="46.236572"><ele>1294.0</ele></trkpt>
  </trkseg>
 </trk>
</gpx>
