{
  "type": "FeatureCollection",
  "features": [
    {
      "type": "Feature",
      "properties": {
        "kind": "route",
        "name": "День 3 · Rosetta → Bolver Lugli → Vezzana → Fiamme Gialle",
        "distance_km": 6.222,
        "ascent_m": 1160,
        "source": "BRouter / OpenStreetMap"
      },
      "geometry": {
        "type": "LineString",
        "coordinates": [
          [
            11.839024,
            46.267335,
            2575.25
          ],
          [
            11.838919,
            46.267332,
            2576
          ],
          [
            11.838722,
            46.267353,
            2576.25
          ],
          [
            11.838649,
            46.267386,
            2576
          ],
          [
            11.838574,
            46.267369,
            2575.25
          ],
          [
            11.838374,
            46.267206,
            2573
          ],
          [
            11.83826,
            46.267134,
            2572.25
          ],
          [
            11.837878,
            46.266942,
            2570.25
          ],
          [
            11.837621,
            46.266829,
            2569.5
          ],
          [
            11.837343,
            46.26672,
            2571.25
          ],
          [
            11.837196,
            46.266624,
            2571.5
          ],
          [
            11.837122,
            46.266586,
            2571.5
          ],
          [
            11.836729,
            46.266478,
            2574.75
          ],
          [
            11.836355,
            46.266365,
            2575.5
          ],
          [
            11.836286,
            46.266354,
            2575.25
          ],
          [
            11.836046,
            46.266233,
            2572.5
          ],
          [
            11.835903,
            46.266188,
            2572
          ],
          [
            11.835817,
            46.266173,
            2571.75
          ],
          [
            11.835669,
            46.266192,
            2571.25
          ],
          [
            11.835609,
            46.266221,
            2571.5
          ],
          [
            11.835485,
            46.266265,
            2571
          ],
          [
            11.835245,
            46.266295,
            2567.75
          ],
          [
            11.835066,
            46.266358,
            2567
          ],
          [
            11.834756,
            46.26635,
            2564.25
          ],
          [
            11.834636,
            46.266262,
            2563.75
          ],
          [
            11.834406,
            46.266216,
            2563.75
          ],
          [
            11.834062,
            46.266326,
            2558.25
          ],
          [
            11.833804,
            46.266439,
            2551.75
          ],
          [
            11.833543,
            46.266403,
            2549.75
          ],
          [
            11.833323,
            46.266403,
            2545.5
          ],
          [
            11.833545,
            46.266525,
            2542.5
          ],
          [
            11.833498,
            46.266553,
            2539.5
          ],
          [
            11.83312,
            46.266475,
            2534.5
          ],
          [
            11.832947,
            46.266414,
            2533.25
          ],
          [
            11.832748,
            46.266315,
            2530
          ],
          [
            11.832729,
            46.266343,
            2527.75
          ],
          [
            11.832866,
            46.266436,
            2528.25
          ],
          [
            11.832854,
            46.266469,
            2525.25
          ],
          [
            11.832758,
            46.266447,
            2523
          ],
          [
            11.832782,
            46.266503,
            2520.25
          ],
          [
            11.832675,
            46.266444,
            2519.5
          ],
          [
            11.832504,
            46.266309,
            2518
          ],
          [
            11.832419,
            46.26627,
            2517.25
          ],
          [
            11.832254,
            46.26629,
            2513.25
          ],
          [
            11.832198,
            46.266224,
            2513.25
          ],
          [
            11.832041,
            46.26614,
            2509.5
          ],
          [
            11.831969,
            46.266311,
            2505.5
          ],
          [
            11.831733,
            46.266181,
            2500.25
          ],
          [
            11.831707,
            46.266266,
            2498.75
          ],
          [
            11.83162,
            46.266311,
            2496.5
          ],
          [
            11.831598,
            46.26638,
            2496
          ],
          [
            11.831685,
            46.266475,
            2495.75
          ],
          [
            11.831634,
            46.266611,
            2492.25
          ],
          [
            11.831632,
            46.266675,
            2490.75
          ],
          [
            11.831546,
            46.2667,
            2487.5
          ],
          [
            11.831397,
            46.266618,
            2487.25
          ],
          [
            11.831202,
            46.266563,
            2484
          ],
          [
            11.831023,
            46.266529,
            2479.75
          ],
          [
            11.830922,
            46.266444,
            2478
          ],
          [
            11.830853,
            46.266305,
            2475
          ],
          [
            11.83065,
            46.266757,
            2466.25
          ],
          [
            11.830686,
            46.266883,
            2464.5
          ],
          [
            11.830268,
            46.266767,
            2455.75
          ],
          [
            11.8303,
            46.266568,
            2454.5
          ],
          [
            11.829966,
            46.266775,
            2445.75
          ],
          [
            11.829871,
            46.266732,
            2441.75
          ],
          [
            11.829807,
            46.266746,
            2438.75
          ],
          [
            11.829805,
            46.266864,
            2438.25
          ],
          [
            11.82973,
            46.266867,
            2435.25
          ],
          [
            11.829716,
            46.266919,
            2434.5
          ],
          [
            11.82968,
            46.266919,
            2433
          ],
          [
            11.829561,
            46.266839,
            2425
          ],
          [
            11.829469,
            46.266823,
            2418.25
          ],
          [
            11.829446,
            46.26691,
            2422.5
          ],
          [
            11.829267,
            46.266866,
            2411.75
          ],
          [
            11.829203,
            46.266914,
            2413.25
          ],
          [
            11.829227,
            46.266999,
            2414
          ],
          [
            11.829064,
            46.266956,
            2408.25
          ],
          [
            11.829165,
            46.267052,
            2408.5
          ],
          [
            11.829034,
            46.267025,
            2403
          ],
          [
            11.828939,
            46.267055,
            2396.25
          ],
          [
            11.828777,
            46.267054,
            2388
          ],
          [
            11.828918,
            46.266936,
            2399.75
          ],
          [
            11.82868,
            46.266987,
            2384.5
          ],
          [
            11.828527,
            46.267072,
            2373.75
          ],
          [
            11.828589,
            46.26697,
            2379
          ],
          [
            11.828374,
            46.267069,
            2363
          ],
          [
            11.82834,
            46.267251,
            2358
          ],
          [
            11.828173,
            46.267159,
            2352.75
          ],
          [
            11.828053,
            46.267192,
            2347.75
          ],
          [
            11.828125,
            46.267072,
            2347.75
          ],
          [
            11.827798,
            46.267192,
            2339.25
          ],
          [
            11.828258,
            46.266754,
            2337.5
          ],
          [
            11.827467,
            46.267046,
            2321
          ],
          [
            11.82713,
            46.267112,
            2307.5
          ],
          [
            11.827113,
            46.267206,
            2310
          ],
          [
            11.82745,
            46.267397,
            2299
          ],
          [
            11.827655,
            46.267397,
            2309.5
          ],
          [
            11.827764,
            46.267458,
            2306.75
          ],
          [
            11.827648,
            46.267461,
            2299.75
          ],
          [
            11.827808,
            46.267527,
            2299.25
          ],
          [
            11.828265,
            46.267618,
            2304.25
          ],
          [
            11.82864,
            46.267816,
            2292.25
          ],
          [
            11.828964,
            46.268043,
            2284.25
          ],
          [
            11.829328,
            46.268325,
            2277.75
          ],
          [
            11.829332,
            46.268445,
            2275.75
          ],
          [
            11.829291,
            46.268644,
            2271.75
          ],
          [
            11.82911,
            46.268804,
            2265.25
          ],
          [
            11.829141,
            46.269046,
            2263.25
          ],
          [
            11.829202,
            46.269207,
            2263
          ],
          [
            11.829103,
            46.269408,
            2258.75
          ],
          [
            11.828909,
            46.269593,
            2256.25
          ],
          [
            11.828726,
            46.269655,
            2251.25
          ],
          [
            11.828326,
            46.26988,
            2241.5
          ],
          [
            11.828232,
            46.270006,
            2239
          ],
          [
            11.828199,
            46.270114,
            2228.75
          ],
          [
            11.828271,
            46.270166,
            2227.5
          ],
          [
            11.828453,
            46.270164,
            2233
          ],
          [
            11.828559,
            46.270225,
            2231.25
          ],
          [
            11.828734,
            46.270259,
            2232.75
          ],
          [
            11.828725,
            46.270335,
            2231.25
          ],
          [
            11.828664,
            46.270552,
            2228.25
          ],
          [
            11.828598,
            46.270654,
            2230.25
          ],
          [
            11.82852,
            46.270713,
            2229.75
          ],
          [
            11.828452,
            46.270744,
            2228
          ],
          [
            11.828485,
            46.270842,
            2233.25
          ],
          [
            11.828514,
            46.270899,
            2235.75
          ],
          [
            11.82849,
            46.270937,
            2235
          ],
          [
            11.828428,
            46.270963,
            2232.5
          ],
          [
            11.828394,
            46.271012,
            2232
          ],
          [
            11.828321,
            46.271039,
            2229.5
          ],
          [
            11.828304,
            46.271084,
            2230
          ],
          [
            11.828322,
            46.271206,
            2235
          ],
          [
            11.828335,
            46.271292,
            2239
          ],
          [
            11.828291,
            46.271381,
            2240.25
          ],
          [
            11.828239,
            46.271434,
            2243.25
          ],
          [
            11.828101,
            46.271484,
            2243.25
          ],
          [
            11.827734,
            46.271466,
            2223.75
          ],
          [
            11.827666,
            46.271498,
            2223.5
          ],
          [
            11.827634,
            46.271542,
            2225.5
          ],
          [
            11.827559,
            46.271558,
            2222.5
          ],
          [
            11.827512,
            46.271606,
            2222.5
          ],
          [
            11.827468,
            46.271637,
            2221.5
          ],
          [
            11.827454,
            46.271729,
            2224.5
          ],
          [
            11.827454,
            46.271811,
            2227.25
          ],
          [
            11.827139,
            46.272291,
            2220.5
          ],
          [
            11.82708,
            46.272357,
            2217.75
          ],
          [
            11.82708,
            46.272398,
            2218
          ],
          [
            11.827101,
            46.272452,
            2219.75
          ],
          [
            11.827138,
            46.272507,
            2222.25
          ],
          [
            11.827185,
            46.272548,
            2224.75
          ],
          [
            11.827209,
            46.272604,
            2226.25
          ],
          [
            11.827199,
            46.272668,
            2225.5
          ],
          [
            11.827167,
            46.272732,
            2224
          ],
          [
            11.827006,
            46.272922,
            2223
          ],
          [
            11.826902,
            46.273016,
            2223.5
          ],
          [
            11.826727,
            46.273059,
            2221.5
          ],
          [
            11.826671,
            46.273089,
            2220.25
          ],
          [
            11.826658,
            46.273138,
            2220.25
          ],
          [
            11.826604,
            46.273162,
            2217.25
          ],
          [
            11.826607,
            46.273208,
            2217.75
          ],
          [
            11.826578,
            46.273223,
            2216.25
          ],
          [
            11.826812,
            46.273474,
            2224.5
          ],
          [
            11.826836,
            46.273568,
            2222
          ],
          [
            11.826823,
            46.273618,
            2219.25
          ],
          [
            11.826887,
            46.273769,
            2222.5
          ],
          [
            11.826852,
            46.273813,
            2220
          ],
          [
            11.826844,
            46.273885,
            2219.25
          ],
          [
            11.826621,
            46.273937,
            2208.5
          ],
          [
            11.826627,
            46.274006,
            2208.5
          ],
          [
            11.826672,
            46.274087,
            2209.75
          ],
          [
            11.826672,
            46.27415,
            2209.25
          ],
          [
            11.826536,
            46.274301,
            2209.25
          ],
          [
            11.826474,
            46.274404,
            2210
          ],
          [
            11.82638,
            46.27444,
            2207.5
          ],
          [
            11.826299,
            46.274556,
            2210
          ],
          [
            11.826246,
            46.274875,
            2220.5
          ],
          [
            11.826192,
            46.274922,
            2220
          ],
          [
            11.826144,
            46.274994,
            2220.75
          ],
          [
            11.826208,
            46.275209,
            2228.5
          ],
          [
            11.8262,
            46.275361,
            2229
          ],
          [
            11.82624,
            46.275411,
            2230.25
          ],
          [
            11.826265,
            46.275528,
            2230.25
          ],
          [
            11.826227,
            46.275634,
            2227
          ],
          [
            11.826259,
            46.275689,
            2227.25
          ],
          [
            11.82635,
            46.275745,
            2230.25
          ],
          [
            11.826332,
            46.2758,
            2228.25
          ],
          [
            11.826391,
            46.275849,
            2232.25
          ],
          [
            11.826415,
            46.275897,
            2241.5
          ],
          [
            11.826289,
            46.275978,
            2239.75
          ],
          [
            11.826125,
            46.276195,
            2228.75
          ],
          [
            11.82605,
            46.276332,
            2229.5
          ],
          [
            11.826031,
            46.276433,
            2231.75
          ],
          [
            11.825852,
            46.276688,
            2226.75
          ],
          [
            11.825798,
            46.276802,
            2228.5
          ],
          [
            11.825696,
            46.276957,
            2231.25
          ],
          [
            11.825554,
            46.277098,
            2232.5
          ],
          [
            11.825519,
            46.277183,
            2235
          ],
          [
            11.825393,
            46.277282,
            2234
          ],
          [
            11.82521,
            46.27746,
            2232
          ],
          [
            11.825186,
            46.277571,
            2234
          ],
          [
            11.825133,
            46.277658,
            2234.75
          ],
          [
            11.825004,
            46.27773,
            2234.75
          ],
          [
            11.824722,
            46.277901,
            2239.5
          ],
          [
            11.824669,
            46.277984,
            2242.75
          ],
          [
            11.824572,
            46.278073,
            2244.25
          ],
          [
            11.824449,
            46.278142,
            2244
          ],
          [
            11.824293,
            46.278283,
            2245.75
          ],
          [
            11.824218,
            46.278365,
            2246.75
          ],
          [
            11.824191,
            46.278438,
            2248.75
          ],
          [
            11.824132,
            46.2785,
            2250
          ],
          [
            11.823875,
            46.278517,
            2248
          ],
          [
            11.82377,
            46.278563,
            2248.75
          ],
          [
            11.823638,
            46.278605,
            2248.25
          ],
          [
            11.823836,
            46.278744,
            2256
          ],
          [
            11.824175,
            46.27887,
            2266.25
          ],
          [
            11.824663,
            46.278976,
            2288.5
          ],
          [
            11.824728,
            46.279171,
            2307.75
          ],
          [
            11.824862,
            46.27907,
            2304.75
          ],
          [
            11.825032,
            46.279162,
            2320.75
          ],
          [
            11.824999,
            46.279582,
            2367.25
          ],
          [
            11.825061,
            46.279875,
            2402.75
          ],
          [
            11.825365,
            46.28013,
            2436.75
          ],
          [
            11.825378,
            46.280323,
            2461.25
          ],
          [
            11.825295,
            46.280382,
            2471
          ],
          [
            11.825429,
            46.280618,
            2496
          ],
          [
            11.825418,
            46.28076,
            2508.75
          ],
          [
            11.825481,
            46.280914,
            2520.25
          ],
          [
            11.825659,
            46.281118,
            2537
          ],
          [
            11.825759,
            46.281245,
            2552.25
          ],
          [
            11.825679,
            46.281478,
            2585.5
          ],
          [
            11.825411,
            46.281553,
            2589.25
          ],
          [
            11.825308,
            46.281619,
            2597
          ],
          [
            11.825331,
            46.281767,
            2617
          ],
          [
            11.825408,
            46.281861,
            2631.25
          ],
          [
            11.825733,
            46.28181,
            2657.75
          ],
          [
            11.825923,
            46.281846,
            2684
          ],
          [
            11.826002,
            46.281736,
            2680
          ],
          [
            11.826137,
            46.281785,
            2701
          ],
          [
            11.826191,
            46.281727,
            2700.5
          ],
          [
            11.82631,
            46.281811,
            2719.5
          ],
          [
            11.826301,
            46.281925,
            2729.5
          ],
          [
            11.826456,
            46.281917,
            2743
          ],
          [
            11.82662,
            46.281849,
            2751.75
          ],
          [
            11.82668,
            46.281885,
            2759
          ],
          [
            11.826772,
            46.28184,
            2755.75
          ],
          [
            11.826857,
            46.281984,
            2787
          ],
          [
            11.826921,
            46.28215,
            2848.25
          ],
          [
            11.826962,
            46.282196,
            2865.25
          ],
          [
            11.82689,
            46.282251,
            2871
          ],
          [
            11.826789,
            46.282279,
            2859.75
          ],
          [
            11.826805,
            46.28232,
            2863
          ],
          [
            11.826849,
            46.282368,
            2870.75
          ],
          [
            11.826912,
            46.282368,
            2879.75
          ],
          [
            11.826978,
            46.282355,
            2883.25
          ],
          [
            11.827009,
            46.282386,
            2886
          ],
          [
            11.827019,
            46.28244,
            2892
          ],
          [
            11.827038,
            46.282475,
            2897.25
          ],
          [
            11.827176,
            46.282486,
            2909.75
          ],
          [
            11.827243,
            46.282466,
            2908.75
          ],
          [
            11.827324,
            46.282468,
            2910.25
          ],
          [
            11.827375,
            46.282488,
            2915
          ],
          [
            11.82741,
            46.28254,
            2919
          ],
          [
            11.827394,
            46.282566,
            2920
          ],
          [
            11.827346,
            46.282597,
            2921.5
          ],
          [
            11.827168,
            46.282575,
            2918
          ],
          [
            11.827067,
            46.282621,
            2917.75
          ],
          [
            11.82691,
            46.282658,
            2917
          ],
          [
            11.826806,
            46.28273,
            2929.75
          ],
          [
            11.826671,
            46.282779,
            2944.75
          ],
          [
            11.826484,
            46.282986,
            2945
          ],
          [
            11.826458,
            46.283007,
            2947.75
          ],
          [
            11.826439,
            46.283053,
            2955.25
          ],
          [
            11.826484,
            46.283159,
            2959.25
          ],
          [
            11.826514,
            46.283296,
            2964.5
          ],
          [
            11.826574,
            46.28335,
            2965.75
          ],
          [
            11.82669,
            46.283418,
            2967.5
          ],
          [
            11.826839,
            46.283485,
            2969.25
          ],
          [
            11.82685,
            46.283539,
            2973
          ],
          [
            11.826768,
            46.283588,
            2978.25
          ],
          [
            11.826794,
            46.283648,
            2982
          ],
          [
            11.826899,
            46.283764,
            2987.5
          ],
          [
            11.827153,
            46.283834,
            2989.5
          ],
          [
            11.827251,
            46.283826,
            2987.5
          ],
          [
            11.827385,
            46.283842,
            2986.75
          ],
          [
            11.827361,
            46.283918,
            2991.5
          ],
          [
            11.827348,
            46.283961,
            2991.5
          ],
          [
            11.827438,
            46.283968,
            2989.25
          ],
          [
            11.827498,
            46.283935,
            2988.25
          ],
          [
            11.827628,
            46.283917,
            2986.75
          ],
          [
            11.827733,
            46.283999,
            2982.75
          ],
          [
            11.827707,
            46.284103,
            2980
          ],
          [
            11.827628,
            46.284216,
            2978.25
          ],
          [
            11.827565,
            46.284299,
            2977
          ],
          [
            11.827486,
            46.28433,
            2979.75
          ],
          [
            11.82752,
            46.284413,
            2974.75
          ],
          [
            11.827625,
            46.284408,
            2968.5
          ],
          [
            11.827752,
            46.284353,
            2964.5
          ],
          [
            11.827771,
            46.284415,
            2959.25
          ],
          [
            11.827782,
            46.284503,
            2953.75
          ],
          [
            11.827707,
            46.284586,
            2954.25
          ],
          [
            11.827647,
            46.284635,
            2955.75
          ],
          [
            11.827651,
            46.284708,
            2951.75
          ],
          [
            11.827606,
            46.284767,
            2952.5
          ],
          [
            11.827711,
            46.285046,
            2937.75
          ],
          [
            11.827677,
            46.285199,
            2939.5
          ],
          [
            11.827722,
            46.285431,
            2939.25
          ],
          [
            11.827887,
            46.28547,
            2930.75
          ],
          [
            11.827913,
            46.285574,
            2930.5
          ],
          [
            11.827966,
            46.285668,
            2926.25
          ],
          [
            11.828014,
            46.285728,
            2923.5
          ],
          [
            11.828092,
            46.285745,
            2922.5
          ],
          [
            11.828127,
            46.285785,
            2923.75
          ],
          [
            11.828169,
            46.285811,
            2925.5
          ],
          [
            11.828293,
            46.285844,
            2932
          ],
          [
            11.828408,
            46.285892,
            2938.5
          ],
          [
            11.828491,
            46.285889,
            2939
          ],
          [
            11.828557,
            46.285923,
            2942.25
          ],
          [
            11.828534,
            46.285941,
            2943.5
          ],
          [
            11.828627,
            46.28601,
            2949.5
          ],
          [
            11.828617,
            46.286047,
            2952.25
          ],
          [
            11.828714,
            46.286096,
            2957.25
          ],
          [
            11.828766,
            46.286156,
            2961.75
          ],
          [
            11.828772,
            46.286175,
            2963
          ],
          [
            11.828743,
            46.286174,
            2962.5
          ],
          [
            11.828749,
            46.286191,
            2963.5
          ],
          [
            11.828814,
            46.286222,
            2966.25
          ],
          [
            11.828952,
            46.286228,
            2969.25
          ],
          [
            11.829028,
            46.286221,
            2970.75
          ],
          [
            11.829065,
            46.286266,
            2974.25
          ],
          [
            11.829119,
            46.286276,
            2976.25
          ],
          [
            11.829145,
            46.286322,
            2979.5
          ],
          [
            11.829135,
            46.286432,
            2986
          ],
          [
            11.829289,
            46.286554,
            2997.5
          ],
          [
            11.829461,
            46.286491,
            2998.25
          ],
          [
            11.829552,
            46.286511,
            3002.75
          ],
          [
            11.829584,
            46.286528,
            3005
          ],
          [
            11.829672,
            46.286553,
            3009.5
          ],
          [
            11.829756,
            46.286517,
            3011
          ],
          [
            11.829792,
            46.286544,
            3014.5
          ],
          [
            11.829986,
            46.286448,
            3018.25
          ],
          [
            11.829987,
            46.286453,
            3018.5
          ],
          [
            11.83001,
            46.28645,
            3019.75
          ],
          [
            11.830023,
            46.28644,
            3019.75
          ],
          [
            11.830068,
            46.286446,
            3023.25
          ],
          [
            11.830139,
            46.286488,
            3031.25
          ],
          [
            11.830222,
            46.286467,
            3035
          ],
          [
            11.830322,
            46.286413,
            3035
          ],
          [
            11.830345,
            46.286388,
            3033.75
          ],
          [
            11.830411,
            46.286343,
            3036
          ],
          [
            11.830475,
            46.286278,
            3037.75
          ],
          [
            11.830535,
            46.286248,
            3039.5
          ],
          [
            11.830572,
            46.286265,
            3040
          ],
          [
            11.830562,
            46.28627,
            3040.5
          ],
          [
            11.830548,
            46.286328,
            3041.5
          ],
          [
            11.830546,
            46.286378,
            3042.25
          ],
          [
            11.830519,
            46.286392,
            3041.5
          ],
          [
            11.830508,
            46.286503,
            3048.25
          ],
          [
            11.830497,
            46.286524,
            3049.25
          ],
          [
            11.830498,
            46.286545,
            3050.75
          ],
          [
            11.830474,
            46.286573,
            3052.25
          ],
          [
            11.830468,
            46.286605,
            3054.5
          ],
          [
            11.830434,
            46.286684,
            3059.25
          ],
          [
            11.830398,
            46.286713,
            3060.5
          ],
          [
            11.830315,
            46.286822,
            3067.75
          ],
          [
            11.830297,
            46.286817,
            3068.25
          ],
          [
            11.830258,
            46.286835,
            3069.75
          ],
          [
            11.83023,
            46.286922,
            3076
          ],
          [
            11.830233,
            46.286945,
            3078
          ],
          [
            11.830203,
            46.286968,
            3079.25
          ],
          [
            11.830209,
            46.286998,
            3081
          ],
          [
            11.830195,
            46.287069,
            3085.5
          ],
          [
            11.830208,
            46.287108,
            3087.75
          ],
          [
            11.830192,
            46.287181,
            3092.5
          ],
          [
            11.830208,
            46.287213,
            3094
          ],
          [
            11.830188,
            46.287254,
            3097
          ],
          [
            11.830159,
            46.287273,
            3098.75
          ],
          [
            11.830128,
            46.287324,
            3102.5
          ],
          [
            11.830159,
            46.287383,
            3105.5
          ],
          [
            11.830171,
            46.287468,
            3110.25
          ],
          [
            11.830155,
            46.287498,
            3112.25
          ],
          [
            11.830114,
            46.287545,
            3115.25
          ],
          [
            11.830113,
            46.287599,
            3118.5
          ],
          [
            11.8301,
            46.287634,
            3121
          ],
          [
            11.8301,
            46.287672,
            3123.25
          ],
          [
            11.830139,
            46.287716,
            3125.25
          ],
          [
            11.830141,
            46.287843,
            3130
          ],
          [
            11.830129,
            46.287894,
            3131.25
          ],
          [
            11.830069,
            46.288022,
            3134.25
          ],
          [
            11.830085,
            46.288134,
            3137.75
          ],
          [
            11.830165,
            46.288173,
            3139.5
          ],
          [
            11.830159,
            46.288208,
            3141.25
          ],
          [
            11.830181,
            46.288242,
            3143
          ],
          [
            11.830173,
            46.288288,
            3145
          ],
          [
            11.830143,
            46.288333,
            3146.5
          ],
          [
            11.830163,
            46.288376,
            3149
          ],
          [
            11.83027,
            46.288474,
            3154.5
          ],
          [
            11.830313,
            46.288624,
            3158.25
          ],
          [
            11.830227,
            46.28871,
            3159
          ],
          [
            11.830201,
            46.288769,
            3159.25
          ],
          [
            11.830149,
            46.288805,
            3160.5
          ],
          [
            11.83006,
            46.288922,
            3164.75
          ],
          [
            11.830047,
            46.288977,
            3166
          ],
          [
            11.830039,
            46.289104,
            3168.5
          ],
          [
            11.830015,
            46.289133,
            3170.25
          ],
          [
            11.829984,
            46.289231,
            3171.5
          ],
          [
            11.829995,
            46.28925,
            3172.75
          ],
          [
            11.830008,
            46.289325,
            3174.25
          ],
          [
            11.829983,
            46.289414,
            3174
          ],
          [
            11.830004,
            46.28945,
            3176.75
          ],
          [
            11.829994,
            46.289487,
            3176.5
          ],
          [
            11.829963,
            46.28951,
            3173
          ],
          [
            11.82992,
            46.28952,
            3168.25
          ],
          [
            11.829877,
            46.289569,
            3166.25
          ],
          [
            11.829851,
            46.289578,
            3164.5
          ],
          [
            11.829865,
            46.289648,
            3170.5
          ],
          [
            11.829821,
            46.289851,
            3177.5
          ],
          [
            11.829741,
            46.289914,
            3180
          ],
          [
            11.829821,
            46.289851,
            3177.5
          ],
          [
            11.829865,
            46.289648,
            3170.5
          ],
          [
            11.829851,
            46.289578,
            3164.5
          ],
          [
            11.829877,
            46.289569,
            3166.25
          ],
          [
            11.82992,
            46.28952,
            3168.25
          ],
          [
            11.829963,
            46.28951,
            3173
          ],
          [
            11.829994,
            46.289487,
            3176.5
          ],
          [
            11.830004,
            46.28945,
            3176.75
          ],
          [
            11.829983,
            46.289414,
            3174
          ],
          [
            11.830008,
            46.289325,
            3174.25
          ],
          [
            11.829995,
            46.28925,
            3172.75
          ],
          [
            11.829984,
            46.289231,
            3171.5
          ],
          [
            11.830015,
            46.289133,
            3170.25
          ],
          [
            11.830039,
            46.289104,
            3168.5
          ],
          [
            11.830047,
            46.288977,
            3166
          ],
          [
            11.83006,
            46.288922,
            3164.75
          ],
          [
            11.830149,
            46.288805,
            3160.5
          ],
          [
            11.830201,
            46.288769,
            3159.25
          ],
          [
            11.830227,
            46.28871,
            3159
          ],
          [
            11.830313,
            46.288624,
            3158.25
          ],
          [
            11.83027,
            46.288474,
            3154.5
          ],
          [
            11.830163,
            46.288376,
            3149
          ],
          [
            11.830143,
            46.288333,
            3146.5
          ],
          [
            11.830173,
            46.288288,
            3145
          ],
          [
            11.830181,
            46.288242,
            3143
          ],
          [
            11.830159,
            46.288208,
            3141.25
          ],
          [
            11.830165,
            46.288173,
            3139.5
          ],
          [
            11.830085,
            46.288134,
            3137.75
          ],
          [
            11.830069,
            46.288022,
            3134.25
          ],
          [
            11.830129,
            46.287894,
            3131.25
          ],
          [
            11.830141,
            46.287843,
            3130
          ],
          [
            11.830139,
            46.287716,
            3125.25
          ],
          [
            11.8301,
            46.287672,
            3123.25
          ],
          [
            11.8301,
            46.287634,
            3121
          ],
          [
            11.830113,
            46.287599,
            3118.5
          ],
          [
            11.830114,
            46.287545,
            3115.25
          ],
          [
            11.830155,
            46.287498,
            3112.25
          ],
          [
            11.830171,
            46.287468,
            3110.25
          ],
          [
            11.830159,
            46.287383,
            3105.5
          ],
          [
            11.830128,
            46.287324,
            3102.5
          ],
          [
            11.830159,
            46.287273,
            3098.75
          ],
          [
            11.830188,
            46.287254,
            3097
          ],
          [
            11.830208,
            46.287213,
            3094
          ],
          [
            11.830192,
            46.287181,
            3092.5
          ],
          [
            11.830208,
            46.287108,
            3087.75
          ],
          [
            11.830195,
            46.287069,
            3085.5
          ],
          [
            11.830209,
            46.286998,
            3081
          ],
          [
            11.830203,
            46.286968,
            3079.25
          ],
          [
            11.830233,
            46.286945,
            3078
          ],
          [
            11.83023,
            46.286922,
            3076
          ],
          [
            11.830258,
            46.286835,
            3069.75
          ],
          [
            11.830297,
            46.286817,
            3068.25
          ],
          [
            11.830315,
            46.286822,
            3067.75
          ],
          [
            11.830398,
            46.286713,
            3060.5
          ],
          [
            11.830434,
            46.286684,
            3059.25
          ],
          [
            11.830468,
            46.286605,
            3054.5
          ],
          [
            11.830474,
            46.286573,
            3052.25
          ],
          [
            11.830498,
            46.286545,
            3050.75
          ],
          [
            11.830497,
            46.286524,
            3049.25
          ],
          [
            11.830508,
            46.286503,
            3048.25
          ],
          [
            11.830519,
            46.286392,
            3041.5
          ],
          [
            11.830546,
            46.286378,
            3042.25
          ],
          [
            11.830548,
            46.286328,
            3041.5
          ],
          [
            11.830562,
            46.28627,
            3040.5
          ],
          [
            11.830572,
            46.286265,
            3040
          ],
          [
            11.830535,
            46.286248,
            3039.5
          ],
          [
            11.830475,
            46.286278,
            3037.75
          ],
          [
            11.830411,
            46.286343,
            3036
          ],
          [
            11.830345,
            46.286388,
            3033.75
          ],
          [
            11.830322,
            46.286413,
            3035
          ],
          [
            11.830222,
            46.286467,
            3035
          ],
          [
            11.830139,
            46.286488,
            3031.25
          ],
          [
            11.830068,
            46.286446,
            3023.25
          ],
          [
            11.830023,
            46.28644,
            3019.75
          ],
          [
            11.83001,
            46.28645,
            3019.75
          ],
          [
            11.829987,
            46.286453,
            3018.5
          ],
          [
            11.829986,
            46.286448,
            3018.25
          ],
          [
            11.829792,
            46.286544,
            3014.5
          ],
          [
            11.829756,
            46.286517,
            3011
          ],
          [
            11.829672,
            46.286553,
            3009.5
          ],
          [
            11.829584,
            46.286528,
            3005
          ],
          [
            11.829552,
            46.286511,
            3002.75
          ],
          [
            11.829461,
            46.286491,
            2998.25
          ],
          [
            11.829289,
            46.286554,
            2997.5
          ],
          [
            11.829135,
            46.286432,
            2986
          ],
          [
            11.829145,
            46.286322,
            2979.5
          ],
          [
            11.829119,
            46.286276,
            2976.25
          ],
          [
            11.829065,
            46.286266,
            2974.25
          ],
          [
            11.829028,
            46.286221,
            2970.75
          ],
          [
            11.828952,
            46.286228,
            2969.25
          ],
          [
            11.828814,
            46.286222,
            2966.25
          ],
          [
            11.828749,
            46.286191,
            2963.5
          ],
          [
            11.828743,
            46.286174,
            2962.5
          ],
          [
            11.828772,
            46.286175,
            2963
          ],
          [
            11.828766,
            46.286156,
            2961.75
          ],
          [
            11.828714,
            46.286096,
            2957.25
          ],
          [
            11.828617,
            46.286047,
            2952.25
          ],
          [
            11.828627,
            46.28601,
            2949.5
          ],
          [
            11.828534,
            46.285941,
            2943.5
          ],
          [
            11.828557,
            46.285923,
            2942.25
          ],
          [
            11.828491,
            46.285889,
            2939
          ],
          [
            11.828408,
            46.285892,
            2938.5
          ],
          [
            11.828293,
            46.285844,
            2932
          ],
          [
            11.828169,
            46.285811,
            2925.5
          ],
          [
            11.828127,
            46.285785,
            2923.75
          ],
          [
            11.828092,
            46.285745,
            2922.5
          ],
          [
            11.828014,
            46.285728,
            2923.5
          ],
          [
            11.827966,
            46.285668,
            2926.25
          ],
          [
            11.827913,
            46.285574,
            2930.5
          ],
          [
            11.827887,
            46.28547,
            2930.75
          ],
          [
            11.827722,
            46.285431,
            2939.25
          ],
          [
            11.827677,
            46.285199,
            2939.5
          ],
          [
            11.827711,
            46.285046,
            2937.75
          ],
          [
            11.827606,
            46.284767,
            2952.5
          ],
          [
            11.827651,
            46.284708,
            2951.75
          ],
          [
            11.827647,
            46.284635,
            2955.75
          ],
          [
            11.827707,
            46.284586,
            2954.25
          ],
          [
            11.827782,
            46.284503,
            2953.75
          ],
          [
            11.827771,
            46.284415,
            2959.25
          ],
          [
            11.827752,
            46.284353,
            2964.5
          ],
          [
            11.827625,
            46.284408,
            2968.5
          ],
          [
            11.82752,
            46.284413,
            2974.75
          ],
          [
            11.827486,
            46.28433,
            2979.75
          ],
          [
            11.827565,
            46.284299,
            2977
          ],
          [
            11.827628,
            46.284216,
            2978.25
          ],
          [
            11.827707,
            46.284103,
            2980
          ],
          [
            11.827733,
            46.283999,
            2982.75
          ],
          [
            11.827628,
            46.283917,
            2986.75
          ],
          [
            11.827498,
            46.283935,
            2988.25
          ],
          [
            11.827438,
            46.283968,
            2989.25
          ],
          [
            11.827348,
            46.283961,
            2991.5
          ],
          [
            11.827361,
            46.283918,
            2986.75
          ]
        ]
      }
    },
    {
      "type": "Feature",
      "properties": {
        "kind": "waypoint",
        "name": "Rifugio Rosetta",
        "show_label": true
      },
      "geometry": {
        "type": "Point",
        "coordinates": [
          11.8390203,
          46.2674223
        ]
      }
    },
    {
      "type": "Feature",
      "properties": {
        "kind": "waypoint",
        "name": "Ferrata Bolver Lugli",
        "show_label": true
      },
      "geometry": {
        "type": "Point",
        "coordinates": [
          11.826,
          46.2808
        ]
      }
    },
    {
      "type": "Feature",
      "properties": {
        "kind": "waypoint",
        "name": "Passo del Travignolo",
        "show_label": false
      },
      "geometry": {
        "type": "Point",
        "coordinates": [
          11.828169,
          46.285811
        ]
      }
    },
    {
      "type": "Feature",
      "properties": {
        "kind": "waypoint",
        "name": "Cima della Vezzana",
        "show_label": true
      },
      "geometry": {
        "type": "Point",
        "coordinates": [
          11.8297409,
          46.2899137
        ]
      }
    },
    {
      "type": "Feature",
      "properties": {
        "kind": "waypoint",
        "name": "Bivacco Fiamme Gialle",
        "show_label": true
      },
      "geometry": {
        "type": "Point",
        "coordinates": [
          11.827366,
          46.2839186
        ]
      }
    }
  ]
}
