{
  "type": "FeatureCollection",
  "features": [
    {
      "type": "Feature",
      "properties": {
        "kind": "route",
        "name": "День 6 · Menegazzi → Col di Luna → Forcella Aurine",
        "distance_km": 6.093,
        "ascent_m": 145,
        "source": "BRouter / OpenStreetMap"
      },
      "geometry": {
        "type": "LineString",
        "coordinates": [
          [
            11.927364,
            46.229601,
            1735.25
          ],
          [
            11.927411,
            46.229583,
            1734.5
          ],
          [
            11.927459,
            46.229539,
            1733.5
          ],
          [
            11.927595,
            46.229551,
            1731.75
          ],
          [
            11.927852,
            46.229768,
            1730.25
          ],
          [
            11.928118,
            46.229904,
            1728
          ],
          [
            11.928408,
            46.230002,
            1725
          ],
          [
            11.928684,
            46.230119,
            1723
          ],
          [
            11.928935,
            46.230251,
            1721
          ],
          [
            11.929168,
            46.230359,
            1718.75
          ],
          [
            11.929487,
            46.230495,
            1715.25
          ],
          [
            11.929667,
            46.230596,
            1713.75
          ],
          [
            11.929842,
            46.230717,
            1713
          ],
          [
            11.930001,
            46.230839,
            1712
          ],
          [
            11.930092,
            46.230939,
            1711.5
          ],
          [
            11.930164,
            46.231031,
            1711
          ],
          [
            11.930195,
            46.231088,
            1710.75
          ],
          [
            11.930207,
            46.231229,
            1710.75
          ],
          [
            11.930238,
            46.231311,
            1710.25
          ],
          [
            11.930314,
            46.231398,
            1709.5
          ],
          [
            11.930355,
            46.231481,
            1708.5
          ],
          [
            11.930378,
            46.231573,
            1707.5
          ],
          [
            11.930409,
            46.231841,
            1705.75
          ],
          [
            11.930493,
            46.231915,
            1704.75
          ],
          [
            11.930597,
            46.232038,
            1703.5
          ],
          [
            11.930733,
            46.232337,
            1700.25
          ],
          [
            11.930741,
            46.23241,
            1699.25
          ],
          [
            11.930712,
            46.232447,
            1699
          ],
          [
            11.930594,
            46.232499,
            1699.5
          ],
          [
            11.930576,
            46.232506,
            1699.5
          ],
          [
            11.930549,
            46.232537,
            1699.75
          ],
          [
            11.930594,
            46.232649,
            1698.5
          ],
          [
            11.93066,
            46.232732,
            1697.5
          ],
          [
            11.930768,
            46.232986,
            1696.75
          ],
          [
            11.930764,
            46.233065,
            1697
          ],
          [
            11.930836,
            46.233186,
            1696.75
          ],
          [
            11.930922,
            46.233257,
            1695.25
          ],
          [
            11.930988,
            46.233365,
            1694.25
          ],
          [
            11.931116,
            46.233605,
            1693.75
          ],
          [
            11.931106,
            46.233706,
            1694.75
          ],
          [
            11.931106,
            46.233818,
            1695.5
          ],
          [
            11.931122,
            46.234124,
            1695.75
          ],
          [
            11.931163,
            46.234325,
            1691.25
          ],
          [
            11.931095,
            46.234385,
            1692.75
          ],
          [
            11.931071,
            46.234461,
            1692.5
          ],
          [
            11.931003,
            46.234554,
            1692.5
          ],
          [
            11.930943,
            46.234687,
            1690.75
          ],
          [
            11.930937,
            46.234739,
            1689
          ],
          [
            11.93098,
            46.234711,
            1687.25
          ],
          [
            11.93098,
            46.23484,
            1682.75
          ],
          [
            11.931018,
            46.23481,
            1681.5
          ],
          [
            11.931055,
            46.234804,
            1679.75
          ],
          [
            11.93103,
            46.234866,
            1679.25
          ],
          [
            11.931023,
            46.234918,
            1678.25
          ],
          [
            11.930918,
            46.234977,
            1680
          ],
          [
            11.93089,
            46.235003,
            1680.25
          ],
          [
            11.930931,
            46.235076,
            1682.5
          ],
          [
            11.930916,
            46.235092,
            1683.75
          ],
          [
            11.930871,
            46.235141,
            1686.25
          ],
          [
            11.930868,
            46.235176,
            1687.75
          ],
          [
            11.930883,
            46.235192,
            1688.25
          ],
          [
            11.930908,
            46.2352,
            1688.75
          ],
          [
            11.930869,
            46.235223,
            1689.5
          ],
          [
            11.930877,
            46.235261,
            1691.25
          ],
          [
            11.930918,
            46.235282,
            1693
          ],
          [
            11.930995,
            46.235287,
            1695
          ],
          [
            11.931089,
            46.23527,
            1695.75
          ],
          [
            11.931181,
            46.235249,
            1694
          ],
          [
            11.931286,
            46.235214,
            1690.75
          ],
          [
            11.931329,
            46.235227,
            1691.75
          ],
          [
            11.931393,
            46.235265,
            1694
          ],
          [
            11.931396,
            46.235327,
            1696.75
          ],
          [
            11.931446,
            46.235394,
            1698.5
          ],
          [
            11.931499,
            46.235433,
            1699
          ],
          [
            11.931526,
            46.235509,
            1701.5
          ],
          [
            11.931493,
            46.235539,
            1703.5
          ],
          [
            11.931515,
            46.235572,
            1704.25
          ],
          [
            11.93153,
            46.235618,
            1705.75
          ],
          [
            11.931611,
            46.235647,
            1705
          ],
          [
            11.931594,
            46.23571,
            1708
          ],
          [
            11.931656,
            46.235758,
            1708.75
          ],
          [
            11.931705,
            46.235771,
            1709.25
          ],
          [
            11.931745,
            46.235834,
            1712.25
          ],
          [
            11.931782,
            46.235867,
            1713.75
          ],
          [
            11.932086,
            46.235934,
            1717.5
          ],
          [
            11.932116,
            46.235905,
            1716.25
          ],
          [
            11.932154,
            46.235887,
            1715.25
          ],
          [
            11.932234,
            46.23594,
            1717.75
          ],
          [
            11.932278,
            46.23598,
            1719.5
          ],
          [
            11.932281,
            46.236014,
            1721
          ],
          [
            11.932337,
            46.236029,
            1721.5
          ],
          [
            11.932414,
            46.23607,
            1723.25
          ],
          [
            11.932604,
            46.236115,
            1724.25
          ],
          [
            11.932687,
            46.236153,
            1725.5
          ],
          [
            11.932767,
            46.236226,
            1728.25
          ],
          [
            11.932823,
            46.236339,
            1733
          ],
          [
            11.93295,
            46.236392,
            1734.25
          ],
          [
            11.933003,
            46.236405,
            1734.25
          ],
          [
            11.933043,
            46.23643,
            1735
          ],
          [
            11.933079,
            46.23643,
            1734.5
          ],
          [
            11.933124,
            46.236466,
            1735.75
          ],
          [
            11.93322,
            46.236514,
            1737
          ],
          [
            11.933347,
            46.236556,
            1737.5
          ],
          [
            11.933407,
            46.236601,
            1739.25
          ],
          [
            11.933477,
            46.236637,
            1740.75
          ],
          [
            11.933506,
            46.236637,
            1740.5
          ],
          [
            11.933868,
            46.236631,
            1740.25
          ],
          [
            11.934107,
            46.236679,
            1743
          ],
          [
            11.934187,
            46.236712,
            1744.75
          ],
          [
            11.934227,
            46.236705,
            1744
          ],
          [
            11.93428,
            46.236713,
            1744.25
          ],
          [
            11.934364,
            46.236764,
            1747
          ],
          [
            11.934437,
            46.23679,
            1748
          ],
          [
            11.934624,
            46.236836,
            1749.5
          ],
          [
            11.934655,
            46.23687,
            1751
          ],
          [
            11.934723,
            46.236901,
            1751.75
          ],
          [
            11.934812,
            46.236932,
            1751.75
          ],
          [
            11.934874,
            46.236977,
            1753.25
          ],
          [
            11.935102,
            46.237034,
            1752.75
          ],
          [
            11.935574,
            46.237124,
            1750
          ],
          [
            11.935725,
            46.237175,
            1748
          ],
          [
            11.935784,
            46.237223,
            1748.75
          ],
          [
            11.935908,
            46.237299,
            1749.25
          ],
          [
            11.936235,
            46.237556,
            1748.75
          ],
          [
            11.936317,
            46.237646,
            1750.5
          ],
          [
            11.936365,
            46.237685,
            1750.5
          ],
          [
            11.936365,
            46.23771,
            1752
          ],
          [
            11.936404,
            46.23774,
            1752
          ],
          [
            11.936439,
            46.237806,
            1754.5
          ],
          [
            11.936517,
            46.237869,
            1755.5
          ],
          [
            11.936796,
            46.238002,
            1753.75
          ],
          [
            11.936878,
            46.238092,
            1756
          ],
          [
            11.936934,
            46.238169,
            1757.5
          ],
          [
            11.937099,
            46.23835,
            1759.25
          ],
          [
            11.937101,
            46.238424,
            1761.25
          ],
          [
            11.93714,
            46.238532,
            1762.5
          ],
          [
            11.937202,
            46.238579,
            1761
          ],
          [
            11.937264,
            46.238741,
            1761.75
          ],
          [
            11.937321,
            46.238829,
            1760.75
          ],
          [
            11.937373,
            46.238941,
            1759.5
          ],
          [
            11.937282,
            46.239015,
            1763.75
          ],
          [
            11.937364,
            46.239069,
            1760.5
          ],
          [
            11.9374,
            46.23912,
            1759.25
          ],
          [
            11.93747,
            46.239182,
            1757.75
          ],
          [
            11.937519,
            46.23925,
            1759.5
          ],
          [
            11.937536,
            46.239322,
            1762.5
          ],
          [
            11.937602,
            46.239393,
            1763.5
          ],
          [
            11.937707,
            46.239457,
            1762.25
          ],
          [
            11.938051,
            46.239518,
            1764.75
          ],
          [
            11.938138,
            46.239506,
            1764.5
          ],
          [
            11.938284,
            46.239526,
            1766.5
          ],
          [
            11.938484,
            46.239571,
            1770
          ],
          [
            11.939049,
            46.239737,
            1779.5
          ],
          [
            11.939238,
            46.239784,
            1781.75
          ],
          [
            11.939331,
            46.239781,
            1781
          ],
          [
            11.939517,
            46.239761,
            1779
          ],
          [
            11.939686,
            46.23978,
            1781.5
          ],
          [
            11.939762,
            46.239757,
            1780.75
          ],
          [
            11.940005,
            46.239744,
            1783
          ],
          [
            11.94017,
            46.239691,
            1782.5
          ],
          [
            11.940351,
            46.239665,
            1783
          ],
          [
            11.94043,
            46.239665,
            1783.5
          ],
          [
            11.940475,
            46.239618,
            1781.25
          ],
          [
            11.940545,
            46.239586,
            1780
          ],
          [
            11.940549,
            46.239567,
            1779
          ],
          [
            11.94058,
            46.239566,
            1779.5
          ],
          [
            11.940628,
            46.239583,
            1781
          ],
          [
            11.940673,
            46.239582,
            1781.5
          ],
          [
            11.940687,
            46.239549,
            1780.5
          ],
          [
            11.940737,
            46.239519,
            1780.25
          ],
          [
            11.940772,
            46.23951,
            1780.5
          ],
          [
            11.94084,
            46.239414,
            1779.25
          ],
          [
            11.940906,
            46.239398,
            1779
          ],
          [
            11.941061,
            46.239335,
            1777.5
          ],
          [
            11.941193,
            46.239239,
            1774.5
          ],
          [
            11.941613,
            46.238778,
            1764
          ],
          [
            11.942026,
            46.238461,
            1762.75
          ],
          [
            11.942088,
            46.238356,
            1762.5
          ],
          [
            11.942206,
            46.23811,
            1762.25
          ],
          [
            11.942389,
            46.237796,
            1760.5
          ],
          [
            11.942457,
            46.237654,
            1759
          ],
          [
            11.94259,
            46.237571,
            1758.75
          ],
          [
            11.942749,
            46.237502,
            1757.75
          ],
          [
            11.942792,
            46.237474,
            1757
          ],
          [
            11.942897,
            46.237508,
            1757.25
          ],
          [
            11.942989,
            46.237504,
            1756.5
          ],
          [
            11.943016,
            46.237526,
            1757
          ],
          [
            11.943095,
            46.237545,
            1757
          ],
          [
            11.943292,
            46.237583,
            1755.75
          ],
          [
            11.943353,
            46.237727,
            1759
          ],
          [
            11.943484,
            46.237841,
            1759.75
          ],
          [
            11.943675,
            46.238027,
            1761
          ],
          [
            11.943838,
            46.238254,
            1764.5
          ],
          [
            11.943901,
            46.238298,
            1764.5
          ],
          [
            11.943991,
            46.238323,
            1763.25
          ],
          [
            11.944149,
            46.23849,
            1765.5
          ],
          [
            11.944387,
            46.238786,
            1768.25
          ],
          [
            11.944453,
            46.238844,
            1768.5
          ],
          [
            11.944719,
            46.238891,
            1769
          ],
          [
            11.9449,
            46.238961,
            1772
          ],
          [
            11.945078,
            46.239016,
            1775
          ],
          [
            11.945216,
            46.239026,
            1777
          ],
          [
            11.945354,
            46.239078,
            1781
          ],
          [
            11.945456,
            46.239101,
            1783.75
          ],
          [
            11.945503,
            46.23914,
            1785.5
          ],
          [
            11.945607,
            46.239157,
            1787.75
          ],
          [
            11.945752,
            46.239274,
            1791.75
          ],
          [
            11.94582,
            46.239271,
            1792.5
          ],
          [
            11.945883,
            46.239341,
            1791.25
          ],
          [
            11.945905,
            46.239372,
            1790.5
          ],
          [
            11.945916,
            46.239428,
            1790.25
          ],
          [
            11.945901,
            46.23949,
            1791
          ],
          [
            11.94589,
            46.239601,
            1791.75
          ],
          [
            11.945915,
            46.239713,
            1790.5
          ],
          [
            11.945917,
            46.239791,
            1789.5
          ],
          [
            11.945966,
            46.239868,
            1786
          ],
          [
            11.945975,
            46.239964,
            1784.25
          ],
          [
            11.945964,
            46.240119,
            1780.25
          ],
          [
            11.945888,
            46.240194,
            1782
          ],
          [
            11.94578,
            46.240308,
            1784.5
          ],
          [
            11.945783,
            46.240438,
            1782.25
          ],
          [
            11.945755,
            46.24054,
            1782
          ],
          [
            11.945788,
            46.240587,
            1779.75
          ],
          [
            11.945799,
            46.240787,
            1777.25
          ],
          [
            11.945792,
            46.240867,
            1777
          ],
          [
            11.945822,
            46.24093,
            1775.5
          ],
          [
            11.945864,
            46.240973,
            1773
          ],
          [
            11.94591,
            46.241092,
            1770.5
          ],
          [
            11.945947,
            46.241151,
            1769.75
          ],
          [
            11.945976,
            46.241217,
            1770.25
          ],
          [
            11.946006,
            46.241263,
            1770.25
          ],
          [
            11.946054,
            46.241323,
            1770
          ],
          [
            11.946095,
            46.241391,
            1770.75
          ],
          [
            11.946155,
            46.241461,
            1771.75
          ],
          [
            11.946424,
            46.241575,
            1767.5
          ],
          [
            11.946449,
            46.241607,
            1768.25
          ],
          [
            11.946485,
            46.241678,
            1770
          ],
          [
            11.946614,
            46.241811,
            1768.75
          ],
          [
            11.946619,
            46.241844,
            1769.25
          ],
          [
            11.946672,
            46.241882,
            1768.25
          ],
          [
            11.946797,
            46.241995,
            1767
          ],
          [
            11.94682,
            46.242049,
            1768
          ],
          [
            11.94691,
            46.242137,
            1767.5
          ],
          [
            11.946961,
            46.24215,
            1766.5
          ],
          [
            11.947006,
            46.242181,
            1767.75
          ],
          [
            11.947028,
            46.242211,
            1769.25
          ],
          [
            11.947064,
            46.242215,
            1769.75
          ],
          [
            11.947245,
            46.242168,
            1768
          ],
          [
            11.947361,
            46.242119,
            1764.75
          ],
          [
            11.947497,
            46.242085,
            1762.5
          ],
          [
            11.947606,
            46.24209,
            1761.75
          ],
          [
            11.947769,
            46.242111,
            1761.25
          ],
          [
            11.94817,
            46.24211,
            1757.5
          ],
          [
            11.94827,
            46.242131,
            1758.75
          ],
          [
            11.948352,
            46.24213,
            1759
          ],
          [
            11.948368,
            46.242122,
            1759
          ],
          [
            11.948395,
            46.242108,
            1759
          ],
          [
            11.948414,
            46.242085,
            1758.25
          ],
          [
            11.94854,
            46.242032,
            1758.75
          ],
          [
            11.948683,
            46.241986,
            1759
          ],
          [
            11.948808,
            46.241968,
            1759.5
          ],
          [
            11.948906,
            46.241975,
            1761
          ],
          [
            11.949046,
            46.241972,
            1760.75
          ],
          [
            11.949107,
            46.241978,
            1761.25
          ],
          [
            11.949151,
            46.241992,
            1762.25
          ],
          [
            11.949219,
            46.242,
            1761.75
          ],
          [
            11.949308,
            46.242021,
            1761
          ],
          [
            11.949446,
            46.242112,
            1763.75
          ],
          [
            11.949551,
            46.242193,
            1764.75
          ],
          [
            11.949676,
            46.242278,
            1765.25
          ],
          [
            11.949915,
            46.242414,
            1766.5
          ],
          [
            11.950005,
            46.242412,
            1763.75
          ],
          [
            11.950084,
            46.242399,
            1762
          ],
          [
            11.950238,
            46.242357,
            1757
          ],
          [
            11.950477,
            46.242379,
            1756
          ],
          [
            11.950554,
            46.242358,
            1753
          ],
          [
            11.950757,
            46.242381,
            1756.5
          ],
          [
            11.950841,
            46.242345,
            1754.25
          ],
          [
            11.950919,
            46.242322,
            1752.75
          ],
          [
            11.951027,
            46.242314,
            1752.75
          ],
          [
            11.951228,
            46.242355,
            1757.25
          ],
          [
            11.95147,
            46.242347,
            1759.5
          ],
          [
            11.951849,
            46.242265,
            1763.25
          ],
          [
            11.951939,
            46.24224,
            1765
          ],
          [
            11.952005,
            46.242243,
            1763.75
          ],
          [
            11.952048,
            46.242265,
            1762.75
          ],
          [
            11.952072,
            46.242324,
            1762
          ],
          [
            11.952075,
            46.242429,
            1761.75
          ],
          [
            11.952129,
            46.242526,
            1759.25
          ],
          [
            11.952141,
            46.242569,
            1758.25
          ],
          [
            11.952112,
            46.242648,
            1758.5
          ],
          [
            11.952123,
            46.242708,
            1757.25
          ],
          [
            11.952184,
            46.242812,
            1753.25
          ],
          [
            11.952267,
            46.24291,
            1750
          ],
          [
            11.952355,
            46.242985,
            1746.25
          ],
          [
            11.952408,
            46.243053,
            1744.5
          ],
          [
            11.952441,
            46.243083,
            1743.75
          ],
          [
            11.952482,
            46.243106,
            1742.5
          ],
          [
            11.952523,
            46.243182,
            1743
          ],
          [
            11.952617,
            46.243293,
            1743.25
          ],
          [
            11.952717,
            46.243358,
            1742
          ],
          [
            11.952778,
            46.243418,
            1742
          ],
          [
            11.95282,
            46.243488,
            1742.75
          ],
          [
            11.952841,
            46.243592,
            1745
          ],
          [
            11.952883,
            46.243682,
            1747
          ],
          [
            11.952946,
            46.243751,
            1747.25
          ],
          [
            11.953075,
            46.243809,
            1745
          ],
          [
            11.953343,
            46.243891,
            1740.75
          ],
          [
            11.953409,
            46.243936,
            1740.25
          ],
          [
            11.953491,
            46.244005,
            1740
          ],
          [
            11.953602,
            46.244072,
            1738.25
          ],
          [
            11.953677,
            46.244104,
            1736.5
          ],
          [
            11.953751,
            46.24412,
            1734
          ],
          [
            11.953772,
            46.244144,
            1734
          ],
          [
            11.953794,
            46.244189,
            1734.25
          ],
          [
            11.953925,
            46.244261,
            1731
          ],
          [
            11.953954,
            46.244313,
            1731.5
          ],
          [
            11.954023,
            46.2444,
            1731.5
          ],
          [
            11.954096,
            46.244421,
            1729.5
          ],
          [
            11.95416,
            46.24445,
            1728.25
          ],
          [
            11.9542,
            46.244485,
            1728.75
          ],
          [
            11.9543,
            46.244527,
            1728
          ],
          [
            11.954374,
            46.244529,
            1726.25
          ],
          [
            11.954457,
            46.244557,
            1725.5
          ],
          [
            11.954584,
            46.244611,
            1724.75
          ],
          [
            11.95464,
            46.244654,
            1725.5
          ],
          [
            11.954702,
            46.244671,
            1725
          ],
          [
            11.954858,
            46.244697,
            1723.25
          ],
          [
            11.955261,
            46.244782,
            1722
          ],
          [
            11.955311,
            46.244783,
            1722
          ],
          [
            11.955622,
            46.24474,
            1720
          ],
          [
            11.955785,
            46.244747,
            1720.75
          ],
          [
            11.955987,
            46.244746,
            1719.5
          ],
          [
            11.956175,
            46.244779,
            1718.75
          ],
          [
            11.956401,
            46.244804,
            1717
          ],
          [
            11.956658,
            46.244865,
            1715.5
          ],
          [
            11.956824,
            46.24489,
            1717
          ],
          [
            11.956779,
            46.244864,
            1716.5
          ],
          [
            11.956744,
            46.244807,
            1716
          ],
          [
            11.956738,
            46.244756,
            1716
          ],
          [
            11.956773,
            46.244676,
            1714.25
          ],
          [
            11.956818,
            46.244601,
            1711.5
          ],
          [
            11.956942,
            46.244501,
            1708.5
          ],
          [
            11.957092,
            46.244458,
            1709
          ],
          [
            11.957302,
            46.244378,
            1709.75
          ],
          [
            11.957423,
            46.244313,
            1709.75
          ],
          [
            11.957511,
            46.244203,
            1708.25
          ],
          [
            11.957806,
            46.243954,
            1704.25
          ],
          [
            11.957992,
            46.243882,
            1704.5
          ],
          [
            11.958107,
            46.243817,
            1702
          ],
          [
            11.958225,
            46.24379,
            1700.25
          ],
          [
            11.958329,
            46.243778,
            1699.25
          ],
          [
            11.958465,
            46.24378,
            1698
          ],
          [
            11.958633,
            46.243796,
            1697.5
          ],
          [
            11.958745,
            46.243766,
            1695
          ],
          [
            11.958845,
            46.243709,
            1691.25
          ],
          [
            11.958978,
            46.243682,
            1690.5
          ],
          [
            11.959096,
            46.243621,
            1688.5
          ],
          [
            11.959214,
            46.243541,
            1685.25
          ],
          [
            11.959356,
            46.243466,
            1684.25
          ],
          [
            11.959489,
            46.243406,
            1684.75
          ],
          [
            11.959714,
            46.243233,
            1682.5
          ],
          [
            11.959777,
            46.243209,
            1683.5
          ],
          [
            11.959833,
            46.243142,
            1682
          ],
          [
            11.959856,
            46.243091,
            1680.5
          ],
          [
            11.959887,
            46.243057,
            1680
          ],
          [
            11.960017,
            46.242948,
            1674.75
          ],
          [
            11.960043,
            46.242942,
            1674.5
          ],
          [
            11.960362,
            46.242941,
            1678.5
          ],
          [
            11.960453,
            46.242936,
            1680
          ],
          [
            11.960531,
            46.242894,
            1678
          ],
          [
            11.960627,
            46.24286,
            1678.25
          ],
          [
            11.960662,
            46.24282,
            1676.5
          ],
          [
            11.960682,
            46.242749,
            1673
          ],
          [
            11.96074,
            46.242681,
            1672.25
          ],
          [
            11.960735,
            46.242639,
            1670.25
          ],
          [
            11.960677,
            46.242613,
            1667.25
          ],
          [
            11.960658,
            46.242586,
            1665.5
          ],
          [
            11.960664,
            46.242547,
            1664.25
          ],
          [
            11.960651,
            46.242504,
            1662
          ],
          [
            11.960594,
            46.242467,
            1659.25
          ],
          [
            11.96056,
            46.242403,
            1656
          ],
          [
            11.96055,
            46.242305,
            1652
          ],
          [
            11.960555,
            46.242224,
            1649
          ],
          [
            11.960574,
            46.242074,
            1645
          ],
          [
            11.960602,
            46.24198,
            1642.25
          ],
          [
            11.960656,
            46.241957,
            1640.75
          ],
          [
            11.960705,
            46.241953,
            1640
          ],
          [
            11.960815,
            46.241988,
            1639.75
          ],
          [
            11.960938,
            46.242011,
            1637.75
          ],
          [
            11.961251,
            46.242009,
            1627.75
          ],
          [
            11.961983,
            46.241984,
            1607.75
          ],
          [
            11.962239,
            46.241981,
            1604.5
          ],
          [
            11.962503,
            46.241962,
            1599.75
          ],
          [
            11.963232,
            46.241943,
            1593.75
          ],
          [
            11.963287,
            46.241921,
            1592.5
          ],
          [
            11.963355,
            46.241895,
            1591.25
          ],
          [
            11.963441,
            46.241769,
            1586
          ],
          [
            11.963505,
            46.241706,
            1584.5
          ],
          [
            11.963639,
            46.241619,
            1585
          ],
          [
            11.963682,
            46.241569,
            1584.75
          ],
          [
            11.963623,
            46.241446,
            1577
          ],
          [
            11.963644,
            46.241379,
            1575.5
          ],
          [
            11.963688,
            46.241346,
            1577.5
          ],
          [
            11.963865,
            46.241086,
            1578.75
          ],
          [
            11.964031,
            46.240863,
            1576
          ],
          [
            11.964144,
            46.240741,
            1574
          ],
          [
            11.964585,
            46.240495,
            1570.75
          ],
          [
            11.964664,
            46.24036,
            1566
          ],
          [
            11.964682,
            46.240306,
            1563.75
          ],
          [
            11.964683,
            46.240223,
            1560.25
          ],
          [
            11.964699,
            46.240193,
            1559.25
          ],
          [
            11.96477,
            46.24015,
            1557.75
          ],
          [
            11.96488,
            46.240125,
            1556.75
          ],
          [
            11.964957,
            46.240095,
            1555.25
          ],
          [
            11.965177,
            46.23999,
            1549
          ],
          [
            11.965596,
            46.239811,
            1538.25
          ],
          [
            11.965892,
            46.239699,
            1531
          ],
          [
            11.966111,
            46.239634,
            1524
          ],
          [
            11.966297,
            46.239611,
            1517.25
          ],
          [
            11.96643,
            46.23953,
            1509.75
          ],
          [
            11.966521,
            46.239516,
            1505.75
          ],
          [
            11.966621,
            46.239536,
            1503.25
          ],
          [
            11.966686,
            46.239579,
            1503
          ],
          [
            11.966752,
            46.239669,
            1505
          ],
          [
            11.9668,
            46.239698,
            1504.75
          ],
          [
            11.966903,
            46.239714,
            1502
          ],
          [
            11.967019,
            46.239719,
            1497.75
          ],
          [
            11.9672,
            46.239754,
            1492
          ],
          [
            11.967459,
            46.239812,
            1487
          ],
          [
            11.967643,
            46.239877,
            1485.75
          ],
          [
            11.967704,
            46.239995,
            1490
          ],
          [
            11.96774,
            46.240024,
            1490.5
          ],
          [
            11.967789,
            46.240042,
            1490.5
          ],
          [
            11.967938,
            46.240031,
            1488.5
          ],
          [
            11.968156,
            46.240036,
            1486.5
          ],
          [
            11.968259,
            46.240026,
            1485.25
          ],
          [
            11.968399,
            46.239978,
            1481.75
          ],
          [
            11.968499,
            46.239976,
            1479.75
          ],
          [
            11.968612,
            46.239965,
            1477.5
          ],
          [
            11.968807,
            46.239964,
            1473.5
          ],
          [
            11.968923,
            46.239972,
            1471.75
          ],
          [
            11.969014,
            46.239997,
            1471
          ],
          [
            11.969067,
            46.23999,
            1470
          ],
          [
            11.969273,
            46.239915,
            1465.75
          ],
          [
            11.969431,
            46.23994,
            1464.25
          ],
          [
            11.969634,
            46.240001,
            1461.75
          ],
          [
            11.969765,
            46.240003,
            1458.75
          ],
          [
            11.969978,
            46.239964,
            1451.5
          ],
          [
            11.970277,
            46.239942,
            1445.75
          ],
          [
            11.970477,
            46.240002,
            1445.5
          ],
          [
            11.970563,
            46.240022,
            1445
          ],
          [
            11.970813,
            46.240012,
            1443.25
          ],
          [
            11.971139,
            46.239969,
            1443
          ],
          [
            11.971705,
            46.239852,
            1445.75
          ],
          [
            11.971914,
            46.239816,
            1445.75
          ],
          [
            11.972037,
            46.239763,
            1445
          ],
          [
            11.972192,
            46.239662,
            1441.75
          ],
          [
            11.972434,
            46.239562,
            1435.25
          ],
          [
            11.972555,
            46.239545,
            1433.25
          ],
          [
            11.97267,
            46.239567,
            1432.5
          ],
          [
            11.97275,
            46.239591,
            1432.5
          ],
          [
            11.97281,
            46.2396,
            1432
          ],
          [
            11.972855,
            46.239579,
            1431
          ],
          [
            11.972863,
            46.239547,
            1430.25
          ],
          [
            11.972838,
            46.239506,
            1429.5
          ],
          [
            11.972837,
            46.239462,
            1428.25
          ],
          [
            11.972767,
            46.239375,
            1425.5
          ],
          [
            11.972716,
            46.239174,
            1419
          ],
          [
            11.972808,
            46.239101,
            1415.75
          ],
          [
            11.972835,
            46.239072,
            1414.75
          ],
          [
            11.972812,
            46.238942,
            1410.5
          ],
          [
            11.972826,
            46.238749,
            1400.75
          ],
          [
            11.972872,
            46.23868,
            1396.75
          ],
          [
            11.972944,
            46.238635,
            1394.25
          ],
          [
            11.973278,
            46.238536,
            1386
          ],
          [
            11.973533,
            46.238491,
            1379
          ],
          [
            11.973819,
            46.238481,
            1371
          ],
          [
            11.974147,
            46.238484,
            1359.75
          ],
          [
            11.974416,
            46.238505,
            1352.5
          ],
          [
            11.974814,
            46.238579,
            1347
          ],
          [
            11.974872,
            46.238568,
            1346
          ],
          [
            11.974963,
            46.238483,
            1343.25
          ],
          [
            11.975099,
            46.238384,
            1341.5
          ],
          [
            11.975162,
            46.238363,
            1341.25
          ],
          [
            11.975293,
            46.238355,
            1341.25
          ],
          [
            11.97536,
            46.238373,
            1341.25
          ],
          [
            11.975568,
            46.238355,
            1339.5
          ],
          [
            11.975617,
            46.238293,
            1338
          ],
          [
            11.975634,
            46.238223,
            1335.75
          ],
          [
            11.975714,
            46.238085,
            1332.25
          ],
          [
            11.975718,
            46.238034,
            1330.75
          ],
          [
            11.97569,
            46.237996,
            1329.5
          ],
          [
            11.975555,
            46.237906,
            1325
          ],
          [
            11.975496,
            46.237842,
            1322.75
          ],
          [
            11.975437,
            46.237618,
            1316.25
          ],
          [
            11.975382,
            46.237505,
            1312.5
          ],
          [
            11.975215,
            46.237536,
            1311.5
          ],
          [
            11.975069,
            46.237525,
            1310.75
          ],
          [
            11.974967,
            46.237484,
            1310
          ],
          [
            11.974889,
            46.23739,
            1309.75
          ],
          [
            11.974831,
            46.23725,
            1308.25
          ],
          [
            11.974983,
            46.237227,
            1308
          ],
          [
            11.975348,
            46.23707,
            1305.75
          ],
          [
            11.975562,
            46.236949,
            1304
          ],
          [
            11.975671,
            46.236847,
            1300.75
          ],
          [
            11.975691,
            46.23675,
            1298.25
          ],
          [
            11.975683,
            46.236483,
            1296.5
          ],
          [
            11.975813,
            46.236495,
            1296
          ],
          [
            11.975921,
            46.236519,
            1295.25
          ],
          [
            11.976049,
            46.236572,
            1294
          ]
        ]
      }
    },
    {
      "type": "Feature",
      "properties": {
        "kind": "waypoint",
        "name": "Bivacco Menegazzi",
        "show_label": true
      },
      "geometry": {
        "type": "Point",
        "coordinates": [
          11.9273123,
          46.2295357
        ]
      }
    },
    {
      "type": "Feature",
      "properties": {
        "kind": "waypoint",
        "name": "Passo del Col di Luna",
        "show_label": true
      },
      "geometry": {
        "type": "Point",
        "coordinates": [
          11.9568244,
          46.2448903
        ]
      }
    },
    {
      "type": "Feature",
      "properties": {
        "kind": "waypoint",
        "name": "Forcella Aurine",
        "show_label": true
      },
      "geometry": {
        "type": "Point",
        "coordinates": [
          11.9760487,
          46.2365722
        ]
      }
    }
  ]
}
