{
  "type": "FeatureCollection",
  "features": [
    {
      "type": "Feature",
      "properties": {
        "kind": "route",
        "name": "День 5 · Pradidali → Passo Canali → Fiamme Gialle → Reali",
        "distance_km": 8.977,
        "ascent_m": 1230,
        "source": "BRouter / OpenStreetMap"
      },
      "geometry": {
        "type": "LineString",
        "coordinates": [
          [
            11.854188,
            46.244253,
            2278
          ],
          [
            11.85422,
            46.244223,
            2277.5
          ],
          [
            11.854266,
            46.244193,
            2277
          ],
          [
            11.854304,
            46.244182,
            2276.75
          ],
          [
            11.854375,
            46.244198,
            2277.5
          ],
          [
            11.854433,
            46.244219,
            2278.25
          ],
          [
            11.854465,
            46.24427,
            2279
          ],
          [
            11.854507,
            46.244289,
            2277.5
          ],
          [
            11.854699,
            46.244446,
            2272
          ],
          [
            11.854768,
            46.244473,
            2270
          ],
          [
            11.854886,
            46.244535,
            2267.75
          ],
          [
            11.854964,
            46.244553,
            2266
          ],
          [
            11.855,
            46.244696,
            2265.75
          ],
          [
            11.855037,
            46.244733,
            2266
          ],
          [
            11.855099,
            46.244875,
            2264.75
          ],
          [
            11.855156,
            46.244939,
            2264.25
          ],
          [
            11.855234,
            46.245072,
            2263.5
          ],
          [
            11.855289,
            46.24514,
            2263.5
          ],
          [
            11.855325,
            46.245224,
            2263.5
          ],
          [
            11.855387,
            46.245314,
            2264
          ],
          [
            11.855387,
            46.245349,
            2264.25
          ],
          [
            11.855371,
            46.245376,
            2264.5
          ],
          [
            11.855392,
            46.245411,
            2264.75
          ],
          [
            11.855468,
            46.245484,
            2264.5
          ],
          [
            11.855566,
            46.245533,
            2263
          ],
          [
            11.855715,
            46.245625,
            2261.25
          ],
          [
            11.85578,
            46.245658,
            2260.5
          ],
          [
            11.855841,
            46.245701,
            2259.75
          ],
          [
            11.855877,
            46.245781,
            2259.5
          ],
          [
            11.855916,
            46.24582,
            2259.25
          ],
          [
            11.855967,
            46.245906,
            2259.5
          ],
          [
            11.855971,
            46.245989,
            2260
          ],
          [
            11.856025,
            46.246121,
            2259.75
          ],
          [
            11.856014,
            46.246186,
            2260.5
          ],
          [
            11.856059,
            46.24623,
            2259.75
          ],
          [
            11.85604,
            46.246374,
            2261
          ],
          [
            11.855978,
            46.246417,
            2262.75
          ],
          [
            11.856035,
            46.246558,
            2259
          ],
          [
            11.856017,
            46.246705,
            2257.5
          ],
          [
            11.856023,
            46.246774,
            2255.75
          ],
          [
            11.856065,
            46.246826,
            2253.5
          ],
          [
            11.855986,
            46.246875,
            2255
          ],
          [
            11.855906,
            46.246966,
            2256
          ],
          [
            11.855876,
            46.247058,
            2257.25
          ],
          [
            11.855852,
            46.247077,
            2258
          ],
          [
            11.85591,
            46.247148,
            2257
          ],
          [
            11.855916,
            46.247207,
            2257.25
          ],
          [
            11.855992,
            46.24733,
            2259.5
          ],
          [
            11.855984,
            46.247487,
            2264.75
          ],
          [
            11.855973,
            46.247552,
            2266.75
          ],
          [
            11.855998,
            46.247593,
            2267.25
          ],
          [
            11.855957,
            46.247697,
            2271.5
          ],
          [
            11.856006,
            46.247712,
            2270.5
          ],
          [
            11.856015,
            46.247784,
            2272
          ],
          [
            11.855985,
            46.247828,
            2274
          ],
          [
            11.855999,
            46.247905,
            2275
          ],
          [
            11.855933,
            46.247998,
            2279
          ],
          [
            11.8559,
            46.248024,
            2280.25
          ],
          [
            11.855937,
            46.248089,
            2280
          ],
          [
            11.85591,
            46.248159,
            2281.25
          ],
          [
            11.855931,
            46.248304,
            2281.5
          ],
          [
            11.85591,
            46.248361,
            2282.5
          ],
          [
            11.855921,
            46.248422,
            2282.5
          ],
          [
            11.855884,
            46.248519,
            2284
          ],
          [
            11.855976,
            46.248582,
            2281.5
          ],
          [
            11.856081,
            46.248701,
            2282
          ],
          [
            11.856192,
            46.248793,
            2285.75
          ],
          [
            11.856243,
            46.248852,
            2289
          ],
          [
            11.85626,
            46.248916,
            2292
          ],
          [
            11.856204,
            46.248961,
            2293
          ],
          [
            11.856125,
            46.248997,
            2293.75
          ],
          [
            11.856126,
            46.249023,
            2294.75
          ],
          [
            11.856095,
            46.249036,
            2295.25
          ],
          [
            11.856091,
            46.249092,
            2297.5
          ],
          [
            11.856098,
            46.249119,
            2298.75
          ],
          [
            11.85615,
            46.249115,
            2298.75
          ],
          [
            11.856174,
            46.249126,
            2299.25
          ],
          [
            11.856192,
            46.249113,
            2298.75
          ],
          [
            11.856214,
            46.249113,
            2298.75
          ],
          [
            11.856238,
            46.249197,
            2301
          ],
          [
            11.856302,
            46.249221,
            2301
          ],
          [
            11.856357,
            46.249234,
            2300.75
          ],
          [
            11.856394,
            46.249268,
            2300.5
          ],
          [
            11.856445,
            46.249438,
            2300
          ],
          [
            11.856499,
            46.249524,
            2300.25
          ],
          [
            11.856546,
            46.249548,
            2300.5
          ],
          [
            11.856572,
            46.249612,
            2300.75
          ],
          [
            11.856689,
            46.249648,
            2300.5
          ],
          [
            11.856734,
            46.249807,
            2300.25
          ],
          [
            11.8568,
            46.249869,
            2299.75
          ],
          [
            11.85688,
            46.249921,
            2299
          ],
          [
            11.856962,
            46.249954,
            2298.75
          ],
          [
            11.857068,
            46.250057,
            2299.75
          ],
          [
            11.857147,
            46.250023,
            2299.75
          ],
          [
            11.857261,
            46.250082,
            2301
          ],
          [
            11.857309,
            46.250032,
            2301.75
          ],
          [
            11.857412,
            46.250007,
            2304
          ],
          [
            11.857525,
            46.250113,
            2306.25
          ],
          [
            11.857579,
            46.250122,
            2308.5
          ],
          [
            11.85764,
            46.25017,
            2310.75
          ],
          [
            11.857707,
            46.250239,
            2313
          ],
          [
            11.857761,
            46.250196,
            2315.75
          ],
          [
            11.857814,
            46.250253,
            2317.5
          ],
          [
            11.857851,
            46.250256,
            2319.25
          ],
          [
            11.857845,
            46.250292,
            2318.75
          ],
          [
            11.857832,
            46.250921,
            2322.75
          ],
          [
            11.857284,
            46.251225,
            2313.75
          ],
          [
            11.857102,
            46.251752,
            2335
          ],
          [
            11.857381,
            46.251856,
            2348.75
          ],
          [
            11.857359,
            46.252494,
            2418.5
          ],
          [
            11.857553,
            46.253265,
            2433.5
          ],
          [
            11.857424,
            46.253933,
            2463.25
          ],
          [
            11.857531,
            46.254497,
            2489.5
          ],
          [
            11.857617,
            46.255261,
            2547
          ],
          [
            11.85752,
            46.255684,
            2578.25
          ],
          [
            11.857735,
            46.256893,
            2644.25
          ],
          [
            11.857767,
            46.257264,
            2662.5
          ],
          [
            11.857778,
            46.257857,
            2677
          ],
          [
            11.857907,
            46.258065,
            2676.5
          ],
          [
            11.858314,
            46.258228,
            2677.25
          ],
          [
            11.858432,
            46.258451,
            2699
          ],
          [
            11.858314,
            46.258606,
            2716
          ],
          [
            11.857724,
            46.25871,
            2712
          ],
          [
            11.857177,
            46.258903,
            2709
          ],
          [
            11.857177,
            46.259222,
            2702
          ],
          [
            11.857542,
            46.259771,
            2681.75
          ],
          [
            11.858072,
            46.260279,
            2659
          ],
          [
            11.858409,
            46.260279,
            2659.75
          ],
          [
            11.858698,
            46.260287,
            2662
          ],
          [
            11.85899,
            46.260269,
            2671.25
          ],
          [
            11.859097,
            46.260376,
            2672.75
          ],
          [
            11.860028,
            46.260415,
            2670.75
          ],
          [
            11.860465,
            46.260366,
            2663.25
          ],
          [
            11.860957,
            46.260244,
            2656.75
          ],
          [
            11.861173,
            46.260095,
            2654.25
          ],
          [
            11.862262,
            46.259749,
            2657.5
          ],
          [
            11.862501,
            46.25961,
            2659.75
          ],
          [
            11.862909,
            46.259436,
            2658.75
          ],
          [
            11.863068,
            46.258956,
            2669.5
          ],
          [
            11.862969,
            46.258888,
            2676.5
          ],
          [
            11.863032,
            46.258793,
            2674
          ],
          [
            11.862945,
            46.258594,
            2678
          ],
          [
            11.862977,
            46.258523,
            2677.25
          ],
          [
            11.862933,
            46.258459,
            2678.25
          ],
          [
            11.863076,
            46.258344,
            2676.25
          ],
          [
            11.863151,
            46.258209,
            2675.5
          ],
          [
            11.863771,
            46.257995,
            2666.75
          ],
          [
            11.86403,
            46.25798,
            2662.5
          ],
          [
            11.864257,
            46.258071,
            2658.5
          ],
          [
            11.864455,
            46.258082,
            2656.25
          ],
          [
            11.864575,
            46.258143,
            2655.75
          ],
          [
            11.8648,
            46.258169,
            2657.5
          ],
          [
            11.865605,
            46.258182,
            2667.25
          ],
          [
            11.865941,
            46.258135,
            2673
          ],
          [
            11.866219,
            46.258228,
            2681.75
          ],
          [
            11.866374,
            46.258323,
            2690.75
          ],
          [
            11.866538,
            46.258373,
            2694
          ],
          [
            11.867289,
            46.25848,
            2696
          ],
          [
            11.867705,
            46.258482,
            2693.5
          ],
          [
            11.867909,
            46.258512,
            2689.5
          ],
          [
            11.86811,
            46.258924,
            2676
          ],
          [
            11.868265,
            46.259153,
            2671.75
          ],
          [
            11.868807,
            46.259345,
            2672.5
          ],
          [
            11.869097,
            46.259396,
            2671
          ],
          [
            11.869271,
            46.25932,
            2669
          ],
          [
            11.869529,
            46.259267,
            2671.25
          ],
          [
            11.869767,
            46.259246,
            2672.5
          ],
          [
            11.869893,
            46.259157,
            2673
          ],
          [
            11.870462,
            46.258851,
            2667
          ],
          [
            11.870661,
            46.258807,
            2663.75
          ],
          [
            11.870722,
            46.258718,
            2663.25
          ],
          [
            11.870767,
            46.258415,
            2666.25
          ],
          [
            11.871092,
            46.258125,
            2668.75
          ],
          [
            11.871319,
            46.258067,
            2671.75
          ],
          [
            11.871594,
            46.257948,
            2677
          ],
          [
            11.871849,
            46.258121,
            2672
          ],
          [
            11.872272,
            46.258535,
            2668.75
          ],
          [
            11.872549,
            46.258567,
            2665.5
          ],
          [
            11.872661,
            46.258638,
            2662.75
          ],
          [
            11.87301,
            46.258636,
            2660.25
          ],
          [
            11.873139,
            46.258683,
            2658.75
          ],
          [
            11.873277,
            46.25879,
            2657.75
          ],
          [
            11.873313,
            46.258942,
            2658.75
          ],
          [
            11.873399,
            46.259074,
            2661.25
          ],
          [
            11.873606,
            46.259081,
            2662.25
          ],
          [
            11.873781,
            46.259153,
            2663
          ],
          [
            11.874416,
            46.259263,
            2664.5
          ],
          [
            11.874595,
            46.259267,
            2665.5
          ],
          [
            11.875282,
            46.25915,
            2672.5
          ],
          [
            11.875491,
            46.259137,
            2672.5
          ],
          [
            11.875692,
            46.259168,
            2673.5
          ],
          [
            11.875877,
            46.259131,
            2674.25
          ],
          [
            11.876264,
            46.258894,
            2678
          ],
          [
            11.876315,
            46.258781,
            2680
          ],
          [
            11.876527,
            46.258608,
            2687.75
          ],
          [
            11.876586,
            46.258478,
            2689.5
          ],
          [
            11.87673,
            46.258375,
            2694
          ],
          [
            11.876803,
            46.258274,
            2693.75
          ],
          [
            11.877135,
            46.258182,
            2699
          ],
          [
            11.877468,
            46.258056,
            2701.75
          ],
          [
            11.877632,
            46.257865,
            2700
          ],
          [
            11.877861,
            46.257789,
            2703.5
          ],
          [
            11.878071,
            46.25775,
            2707.5
          ],
          [
            11.878227,
            46.257764,
            2706.5
          ],
          [
            11.878476,
            46.257876,
            2703.25
          ],
          [
            11.878597,
            46.257874,
            2702.5
          ],
          [
            11.878726,
            46.25779,
            2704
          ],
          [
            11.878916,
            46.257685,
            2706.25
          ],
          [
            11.879343,
            46.257588,
            2711.75
          ],
          [
            11.879705,
            46.257592,
            2715.5
          ],
          [
            11.880009,
            46.257659,
            2719.5
          ],
          [
            11.8803,
            46.257624,
            2730.75
          ],
          [
            11.880416,
            46.257559,
            2734
          ],
          [
            11.880485,
            46.257444,
            2735.75
          ],
          [
            11.880569,
            46.257477,
            2735.75
          ],
          [
            11.88066,
            46.257549,
            2735
          ],
          [
            11.880748,
            46.257681,
            2735.75
          ],
          [
            11.880864,
            46.257742,
            2736.5
          ],
          [
            11.88092,
            46.257837,
            2735
          ],
          [
            11.880976,
            46.258106,
            2730.25
          ],
          [
            11.881092,
            46.258187,
            2729.5
          ],
          [
            11.881127,
            46.258369,
            2728.5
          ],
          [
            11.881177,
            46.258451,
            2727.25
          ],
          [
            11.881247,
            46.258857,
            2721.75
          ],
          [
            11.88144,
            46.258962,
            2720
          ],
          [
            11.881628,
            46.258968,
            2718.25
          ],
          [
            11.881829,
            46.258914,
            2718
          ],
          [
            11.88213,
            46.258901,
            2718
          ],
          [
            11.88254,
            46.258762,
            2715.75
          ],
          [
            11.882792,
            46.258738,
            2715
          ],
          [
            11.883385,
            46.258467,
            2717
          ],
          [
            11.883927,
            46.258289,
            2710.5
          ],
          [
            11.884273,
            46.258232,
            2706
          ],
          [
            11.884597,
            46.258033,
            2702.25
          ],
          [
            11.884941,
            46.257905,
            2695.5
          ],
          [
            11.885169,
            46.257744,
            2684.5
          ],
          [
            11.885236,
            46.257657,
            2680.75
          ],
          [
            11.885343,
            46.257598,
            2675.25
          ],
          [
            11.885622,
            46.257599,
            2665.25
          ],
          [
            11.885732,
            46.257535,
            2660.25
          ],
          [
            11.885831,
            46.257522,
            2657
          ],
          [
            11.885807,
            46.257605,
            2658
          ],
          [
            11.885976,
            46.257672,
            2651.75
          ],
          [
            11.886081,
            46.257648,
            2648
          ],
          [
            11.88615,
            46.257642,
            2644.75
          ],
          [
            11.886199,
            46.257705,
            2642.25
          ],
          [
            11.886459,
            46.257761,
            2630.75
          ],
          [
            11.886781,
            46.257848,
            2625.25
          ],
          [
            11.887025,
            46.257868,
            2620.5
          ],
          [
            11.887156,
            46.257807,
            2614.25
          ],
          [
            11.887462,
            46.257828,
            2609.25
          ],
          [
            11.887719,
            46.257896,
            2604.5
          ],
          [
            11.888098,
            46.257846,
            2587.75
          ],
          [
            11.888476,
            46.257819,
            2577.75
          ],
          [
            11.888895,
            46.257859,
            2574.5
          ],
          [
            11.889344,
            46.257868,
            2569
          ],
          [
            11.889682,
            46.257831,
            2560
          ],
          [
            11.889979,
            46.257849,
            2556
          ],
          [
            11.890265,
            46.257921,
            2557
          ],
          [
            11.890476,
            46.257908,
            2551
          ],
          [
            11.890777,
            46.25782,
            2535.25
          ],
          [
            11.891002,
            46.25783,
            2527
          ],
          [
            11.891266,
            46.257927,
            2525.75
          ],
          [
            11.891367,
            46.258033,
            2532.5
          ],
          [
            11.891612,
            46.258027,
            2524.5
          ],
          [
            11.892102,
            46.258163,
            2520.75
          ],
          [
            11.892192,
            46.258161,
            2517
          ],
          [
            11.892352,
            46.258134,
            2508.75
          ],
          [
            11.892593,
            46.257958,
            2491
          ],
          [
            11.892946,
            46.257969,
            2488.75
          ],
          [
            11.893143,
            46.258037,
            2490
          ],
          [
            11.893332,
            46.258045,
            2489.5
          ],
          [
            11.893593,
            46.258097,
            2491.5
          ],
          [
            11.893726,
            46.258084,
            2492.5
          ],
          [
            11.894097,
            46.257875,
            2493.75
          ],
          [
            11.894303,
            46.257658,
            2494.5
          ],
          [
            11.894441,
            46.257535,
            2496.25
          ],
          [
            11.894468,
            46.257372,
            2497
          ],
          [
            11.894486,
            46.257198,
            2498
          ],
          [
            11.894621,
            46.257005,
            2504
          ],
          [
            11.894708,
            46.25686,
            2508
          ],
          [
            11.894902,
            46.256695,
            2513.25
          ],
          [
            11.895035,
            46.256673,
            2515
          ],
          [
            11.895472,
            46.2567,
            2515
          ],
          [
            11.895749,
            46.256616,
            2512
          ],
          [
            11.895965,
            46.256581,
            2510.5
          ],
          [
            11.896176,
            46.256475,
            2506.5
          ],
          [
            11.896549,
            46.25655,
            2500
          ],
          [
            11.896789,
            46.25648,
            2487.75
          ],
          [
            11.896855,
            46.256394,
            2481
          ],
          [
            11.897047,
            46.256293,
            2469
          ],
          [
            11.897118,
            46.256117,
            2459.25
          ],
          [
            11.897344,
            46.256015,
            2453.5
          ],
          [
            11.897762,
            46.255941,
            2443
          ],
          [
            11.898173,
            46.255791,
            2435.5
          ],
          [
            11.898471,
            46.255733,
            2440.75
          ],
          [
            11.898879,
            46.255699,
            2447
          ],
          [
            11.899119,
            46.255704,
            2444.25
          ],
          [
            11.8994,
            46.255636,
            2442.75
          ],
          [
            11.899696,
            46.25564,
            2441.5
          ],
          [
            11.899936,
            46.255585,
            2443.75
          ],
          [
            11.900015,
            46.255544,
            2445.25
          ],
          [
            11.900079,
            46.255561,
            2446
          ],
          [
            11.900151,
            46.255567,
            2446.75
          ],
          [
            11.900181,
            46.255558,
            2447.5
          ],
          [
            11.900256,
            46.255582,
            2448
          ],
          [
            11.90032,
            46.255594,
            2449.75
          ],
          [
            11.900392,
            46.25559,
            2452.5
          ],
          [
            11.900496,
            46.255574,
            2457
          ],
          [
            11.900649,
            46.255539,
            2460.25
          ],
          [
            11.900735,
            46.255547,
            2460
          ],
          [
            11.901499,
            46.255351,
            2471.25
          ],
          [
            11.901604,
            46.255323,
            2471.5
          ],
          [
            11.901703,
            46.255305,
            2470.75
          ],
          [
            11.901899,
            46.25523,
            2467
          ],
          [
            11.902424,
            46.254936,
            2443
          ],
          [
            11.902872,
            46.254742,
            2432.75
          ],
          [
            11.903169,
            46.254574,
            2425
          ],
          [
            11.903492,
            46.254483,
            2416.25
          ],
          [
            11.903675,
            46.254503,
            2415
          ],
          [
            11.90384,
            46.254642,
            2412
          ],
          [
            11.90399,
            46.254965,
            2400.25
          ],
          [
            11.904081,
            46.25509,
            2399
          ],
          [
            11.904325,
            46.255107,
            2393.5
          ],
          [
            11.90465,
            46.255024,
            2387.25
          ],
          [
            11.904863,
            46.254882,
            2381.75
          ],
          [
            11.905076,
            46.254754,
            2377
          ],
          [
            11.905218,
            46.254631,
            2372.75
          ],
          [
            11.905403,
            46.254612,
            2373
          ],
          [
            11.905516,
            46.254636,
            2375.25
          ],
          [
            11.905403,
            46.254548,
            2370.25
          ],
          [
            11.905431,
            46.254484,
            2367.25
          ],
          [
            11.905481,
            46.254425,
            2365
          ],
          [
            11.905552,
            46.254396,
            2364.25
          ],
          [
            11.905559,
            46.254342,
            2362.5
          ],
          [
            11.905502,
            46.254283,
            2360.75
          ],
          [
            11.905488,
            46.254209,
            2358.5
          ],
          [
            11.905552,
            46.254145,
            2356
          ],
          [
            11.905687,
            46.254096,
            2351.75
          ],
          [
            11.905807,
            46.254067,
            2348.75
          ],
          [
            11.905985,
            46.254101,
            2345.25
          ],
          [
            11.906156,
            46.254116,
            2341.25
          ],
          [
            11.906227,
            46.254086,
            2338.75
          ],
          [
            11.906361,
            46.254062,
            2334.75
          ],
          [
            11.906518,
            46.254081,
            2332.75
          ],
          [
            11.906262,
            46.253826,
            2326.5
          ],
          [
            11.906468,
            46.253787,
            2319
          ],
          [
            11.906653,
            46.253772,
            2314
          ],
          [
            11.906738,
            46.253757,
            2311.75
          ],
          [
            11.906738,
            46.253693,
            2309.5
          ],
          [
            11.906695,
            46.253644,
            2308.5
          ],
          [
            11.906979,
            46.253698,
            2305
          ],
          [
            11.907271,
            46.253733,
            2299.5
          ],
          [
            11.90755,
            46.253804,
            2295.75
          ],
          [
            11.907734,
            46.253786,
            2292.75
          ],
          [
            11.907778,
            46.25371,
            2288.5
          ],
          [
            11.907735,
            46.25366,
            2287
          ],
          [
            11.907769,
            46.253605,
            2283.75
          ],
          [
            11.907655,
            46.253526,
            2282.75
          ],
          [
            11.907655,
            46.253503,
            2281.75
          ],
          [
            11.907771,
            46.253459,
            2278
          ],
          [
            11.907862,
            46.253403,
            2274.75
          ],
          [
            11.907848,
            46.253378,
            2274
          ],
          [
            11.907754,
            46.25335,
            2274
          ],
          [
            11.907727,
            46.25332,
            2273.25
          ],
          [
            11.907694,
            46.25326,
            2271.25
          ],
          [
            11.90772,
            46.253214,
            2268.75
          ],
          [
            11.907724,
            46.253183,
            2267.25
          ],
          [
            11.907824,
            46.253131,
            2263
          ],
          [
            11.907927,
            46.253053,
            2256.5
          ],
          [
            11.908147,
            46.253093,
            2253
          ],
          [
            11.908305,
            46.253108,
            2250.25
          ],
          [
            11.908418,
            46.25305,
            2246.5
          ],
          [
            11.908795,
            46.252743,
            2236.5
          ],
          [
            11.908809,
            46.252677,
            2234.75
          ],
          [
            11.908855,
            46.252582,
            2232.75
          ],
          [
            11.908977,
            46.25241,
            2230.25
          ],
          [
            11.909018,
            46.252315,
            2228
          ],
          [
            11.909123,
            46.252171,
            2224.75
          ],
          [
            11.909127,
            46.252117,
            2223.25
          ],
          [
            11.909173,
            46.251995,
            2219.5
          ],
          [
            11.909223,
            46.251985,
            2218.75
          ],
          [
            11.909314,
            46.251998,
            2218.5
          ],
          [
            11.909395,
            46.251985,
            2217.25
          ],
          [
            11.909564,
            46.251841,
            2211.25
          ],
          [
            11.909632,
            46.251772,
            2208.25
          ],
          [
            11.909677,
            46.251702,
            2204.25
          ],
          [
            11.90985,
            46.251548,
            2198.75
          ],
          [
            11.909973,
            46.251379,
            2193
          ],
          [
            11.91005,
            46.251102,
            2186.5
          ],
          [
            11.910082,
            46.251027,
            2183.5
          ],
          [
            11.910086,
            46.250973,
            2181
          ],
          [
            11.910205,
            46.250923,
            2181.75
          ],
          [
            11.910291,
            46.250876,
            2182.25
          ],
          [
            11.9103,
            46.250778,
            2178
          ],
          [
            11.910364,
            46.250684,
            2175.25
          ],
          [
            11.910391,
            46.250627,
            2173
          ],
          [
            11.910545,
            46.250499,
            2170.25
          ],
          [
            11.910614,
            46.250395,
            2166.25
          ],
          [
            11.910755,
            46.250291,
            2163.75
          ],
          [
            11.910964,
            46.250055,
            2154.25
          ],
          [
            11.911018,
            46.24998,
            2150.75
          ],
          [
            11.911109,
            46.249939,
            2150.5
          ],
          [
            11.9112,
            46.249879,
            2148.25
          ],
          [
            11.911177,
            46.249801,
            2143.75
          ],
          [
            11.911109,
            46.249719,
            2138.5
          ],
          [
            11.911041,
            46.249653,
            2133
          ],
          [
            11.911018,
            46.249581,
            2128
          ],
          [
            11.911064,
            46.249543,
            2126.25
          ],
          [
            11.911132,
            46.249546,
            2127.25
          ],
          [
            11.911256,
            46.24943,
            2124.5
          ],
          [
            11.911256,
            46.249393,
            2122.75
          ],
          [
            11.911274,
            46.249327,
            2120
          ],
          [
            11.911297,
            46.249283,
            2118.5
          ],
          [
            11.911251,
            46.249264,
            2116.5
          ],
          [
            11.91136,
            46.249185,
            2115.25
          ],
          [
            11.911374,
            46.249138,
            2113.5
          ],
          [
            11.91141,
            46.249085,
            2113
          ],
          [
            11.91141,
            46.249028,
            2110.75
          ],
          [
            11.911438,
            46.248975,
            2110
          ],
          [
            11.911456,
            46.24889,
            2107
          ],
          [
            11.911438,
            46.248821,
            2103.25
          ],
          [
            11.911542,
            46.248685,
            2101
          ],
          [
            11.911615,
            46.248525,
            2094.5
          ],
          [
            11.911674,
            46.248478,
            2093.25
          ],
          [
            11.911729,
            46.248418,
            2090.75
          ],
          [
            11.91177,
            46.248358,
            2087.5
          ],
          [
            11.911851,
            46.248311,
            2085.5
          ],
          [
            11.911942,
            46.248299,
            2086
          ],
          [
            11.911992,
            46.24826,
            2085.75
          ],
          [
            11.912038,
            46.248223,
            2085.75
          ],
          [
            11.912074,
            46.248157,
            2084
          ],
          [
            11.912097,
            46.248057,
            2080
          ],
          [
            11.912211,
            46.247859,
            2077.5
          ],
          [
            11.912156,
            46.247808,
            2072.75
          ],
          [
            11.912133,
            46.247736,
            2068.75
          ],
          [
            11.912133,
            46.247698,
            2067.5
          ],
          [
            11.912357,
            46.24767,
            2074
          ],
          [
            11.912467,
            46.247635,
            2075.75
          ],
          [
            11.912525,
            46.247606,
            2076.25
          ],
          [
            11.912703,
            46.247615,
            2082.5
          ],
          [
            11.912753,
            46.247645,
            2086
          ],
          [
            11.912888,
            46.247658,
            2091.25
          ],
          [
            11.913073,
            46.247619,
            2095.5
          ],
          [
            11.913226,
            46.247535,
            2097.25
          ],
          [
            11.913281,
            46.247518,
            2098.75
          ],
          [
            11.913319,
            46.247534,
            2101.25
          ],
          [
            11.913444,
            46.247492,
            2105
          ],
          [
            11.913486,
            46.247499,
            2107
          ],
          [
            11.91359,
            46.247395,
            2109.75
          ],
          [
            11.913723,
            46.247391,
            2115.25
          ],
          [
            11.913879,
            46.247426,
            2123
          ],
          [
            11.914027,
            46.247433,
            2129.25
          ],
          [
            11.914109,
            46.247448,
            2133
          ],
          [
            11.914061,
            46.24738,
            2128.25
          ],
          [
            11.91413,
            46.247389,
            2131.25
          ],
          [
            11.914195,
            46.247376,
            2134.25
          ],
          [
            11.914407,
            46.247394,
            2151.75
          ],
          [
            11.914555,
            46.247434,
            2164.5
          ],
          [
            11.914778,
            46.247451,
            2174.25
          ],
          [
            11.914935,
            46.247489,
            2174.75
          ],
          [
            11.914995,
            46.24751,
            2175.5
          ],
          [
            11.915616,
            46.247576,
            2188
          ],
          [
            11.916334,
            46.247644,
            2217.25
          ],
          [
            11.916738,
            46.247713,
            2236.75
          ],
          [
            11.917125,
            46.247717,
            2254.25
          ],
          [
            11.917836,
            46.24767,
            2288.5
          ],
          [
            11.918404,
            46.247715,
            2376
          ],
          [
            11.918773,
            46.247781,
            2404.25
          ],
          [
            11.91916,
            46.247838,
            2407.5
          ],
          [
            11.919441,
            46.247987,
            2415.75
          ],
          [
            11.919416,
            46.24806,
            2415.25
          ],
          [
            11.919452,
            46.248122,
            2415
          ],
          [
            11.919513,
            46.248175,
            2419.5
          ],
          [
            11.919522,
            46.248326,
            2419.75
          ],
          [
            11.919618,
            46.248531,
            2438.25
          ],
          [
            11.919676,
            46.248599,
            2445
          ],
          [
            11.919802,
            46.24871,
            2472.25
          ],
          [
            11.919994,
            46.24872,
            2507.5
          ],
          [
            11.920138,
            46.248661,
            2524
          ],
          [
            11.920288,
            46.248566,
            2541.25
          ],
          [
            11.92035,
            46.248512,
            2550
          ],
          [
            11.92064,
            46.248512,
            2570.5
          ],
          [
            11.920759,
            46.248498,
            2587
          ],
          [
            11.921256,
            46.248483,
            2608.75
          ],
          [
            11.921487,
            46.248375,
            2622.75
          ],
          [
            11.921625,
            46.24834,
            2627.75
          ],
          [
            11.921825,
            46.248328,
            2630.5
          ],
          [
            11.922241,
            46.248323,
            2630.75
          ],
          [
            11.922344,
            46.248203,
            2631.5
          ],
          [
            11.922463,
            46.248137,
            2631
          ],
          [
            11.922446,
            46.248075,
            2633.25
          ],
          [
            11.922539,
            46.247938,
            2634.25
          ],
          [
            11.922768,
            46.24781,
            2633.5
          ],
          [
            11.922935,
            46.247746,
            2636.75
          ],
          [
            11.923151,
            46.247705,
            2639.5
          ],
          [
            11.9232,
            46.247727,
            2639.75
          ],
          [
            11.923217,
            46.247672,
            2639.75
          ],
          [
            11.923267,
            46.247635,
            2640
          ],
          [
            11.923285,
            46.247495,
            2639.75
          ],
          [
            11.923322,
            46.247431,
            2639.5
          ],
          [
            11.923383,
            46.24739,
            2639.25
          ],
          [
            11.923437,
            46.247338,
            2639
          ],
          [
            11.923444,
            46.247299,
            2639
          ]
        ]
      }
    },
    {
      "type": "Feature",
      "properties": {
        "kind": "waypoint",
        "name": "Rifugio Pradidali",
        "show_label": true
      },
      "geometry": {
        "type": "Point",
        "coordinates": [
          11.8543039,
          46.2443107
        ]
      }
    },
    {
      "type": "Feature",
      "properties": {
        "kind": "waypoint",
        "name": "Passo Pradidali Basso",
        "show_label": false
      },
      "geometry": {
        "type": "Point",
        "coordinates": [
          11.8644549,
          46.2580818
        ]
      }
    },
    {
      "type": "Feature",
      "properties": {
        "kind": "waypoint",
        "name": "Passo Canali",
        "show_label": true
      },
      "geometry": {
        "type": "Point",
        "coordinates": [
          11.9014988,
          46.2553508
        ]
      }
    },
    {
      "type": "Feature",
      "properties": {
        "kind": "waypoint",
        "name": "Ferrata Fiamme Gialle",
        "show_label": false
      },
      "geometry": {
        "type": "Point",
        "coordinates": [
          11.91765,
          46.24771
        ]
      }
    },
    {
      "type": "Feature",
      "properties": {
        "kind": "waypoint",
        "name": "Forcella del Marmor",
        "show_label": false
      },
      "geometry": {
        "type": "Point",
        "coordinates": [
          11.9207587,
          46.2484978
        ]
      }
    },
    {
      "type": "Feature",
      "properties": {
        "kind": "waypoint",
        "name": "Bivacco Renato Reali",
        "show_label": true
      },
      "geometry": {
        "type": "Point",
        "coordinates": [
          11.9234933,
          46.2472815
        ]
      }
    }
  ]
}
