<?xml version="1.0" encoding="UTF-8"?>
<!-- track-length = 6222 filtered ascend = 1160 plain-ascend = 412 cost=93829 energy=.2kwh time=2h 20m 7s -->
<gpx 
 xmlns="http://www.topografix.com/GPX/1/1" 
 xmlns:xsi="http://www.w3.org/2001/XMLSchema-instance" 
 xsi:schemaLocation="http://www.topografix.com/GPX/1/1 http://www.topografix.com/GPX/1/1/gpx.xsd" 
 creator="BRouter-1.7.10" version="1.1">
 <trk>
  <name>brouter_trekking_0</name>
  <trkseg>
   <trkpt lon="11.839024" lat="46.267335"><ele>2575.25</ele></trkpt>
   <trkpt lon="11.838919" lat="46.267332"><ele>2576.0</ele></trkpt>
   <trkpt lon="11.838722" lat="46.267353"><ele>2576.25</ele></trkpt>
   <trkpt lon="11.838649" lat="46.267386"><ele>2576.0</ele></trkpt>
   <trkpt lon="11.838574" lat="46.267369"><ele>2575.25</ele></trkpt>
   <trkpt lon="11.838374" lat="46.267206"><ele>2573.0</ele></trkpt>
   <trkpt lon="11.838260" lat="46.267134"><ele>2572.25</ele></trkpt>
   <trkpt lon="11.837878" lat="46.266942"><ele>2570.25</ele></trkpt>
   <trkpt lon="11.837621" lat="46.266829"><ele>2569.5</ele></trkpt>
   <trkpt lon="11.837343" lat="46.266720"><ele>2571.25</ele></trkpt>
   <trkpt lon="11.837196" lat="46.266624"><ele>2571.5</ele></trkpt>
   <trkpt lon="11.837122" lat="46.266586"><ele>2571.5</ele></trkpt>
   <trkpt lon="11.836729" lat="46.266478"><ele>2574.75</ele></trkpt>
   <trkpt lon="11.836355" lat="46.266365"><ele>2575.5</ele></trkpt>
   <trkpt lon="11.836286" lat="46.266354"><ele>2575.25</ele></trkpt>
   <trkpt lon="11.836046" lat="46.266233"><ele>2572.5</ele></trkpt>
   <trkpt lon="11.835903" lat="46.266188"><ele>2572.0</ele></trkpt>
   <trkpt lon="11.835817" lat="46.266173"><ele>2571.75</ele></trkpt>
   <trkpt lon="11.835669" lat="46.266192"><ele>2571.25</ele></trkpt>
   <trkpt lon="11.835609" lat="46.266221"><ele>2571.5</ele></trkpt>
   <trkpt lon="11.835485" lat="46.266265"><ele>2571.0</ele></trkpt>
   <trkpt lon="11.835245" lat="46.266295"><ele>2567.75</ele></trkpt>
   <trkpt lon="11.835066" lat="46.266358"><ele>2567.0</ele></trkpt>
   <trkpt lon="11.834756" lat="46.266350"><ele>2564.25</ele></trkpt>
   <trkpt lon="11.834636" lat="46.266262"><ele>2563.75</ele></trkpt>
   <trkpt lon="11.834406" lat="46.266216"><ele>2563.75</ele></trkpt>
   <trkpt lon="11.834062" lat="46.266326"><ele>2558.25</ele></trkpt>
   <trkpt lon="11.833804" lat="46.266439"><ele>2551.75</ele></trkpt>
   <trkpt lon="11.833543" lat="46.266403"><ele>2549.75</ele></trkpt>
   <trkpt lon="11.833323" lat="46.266403"><ele>2545.5</ele></trkpt>
   <trkpt lon="11.833545" lat="46.266525"><ele>2542.5</ele></trkpt>
   <trkpt lon="11.833498" lat="46.266553"><ele>2539.5</ele></trkpt>
   <trkpt lon="11.833120" lat="46.266475"><ele>2534.5</ele></trkpt>
   <trkpt lon="11.832947" lat="46.266414"><ele>2533.25</ele></trkpt>
   <trkpt lon="11.832748" lat="46.266315"><ele>2530.0</ele></trkpt>
   <trkpt lon="11.832729" lat="46.266343"><ele>2527.75</ele></trkpt>
   <trkpt lon="11.832866" lat="46.266436"><ele>2528.25</ele></trkpt>
   <trkpt lon="11.832854" lat="46.266469"><ele>2525.25</ele></trkpt>
   <trkpt lon="11.832758" lat="46.266447"><ele>2523.0</ele></trkpt>
   <trkpt lon="11.832782" lat="46.266503"><ele>2520.25</ele></trkpt>
   <trkpt lon="11.832675" lat="46.266444"><ele>2519.5</ele></trkpt>
   <trkpt lon="11.832504" lat="46.266309"><ele>2518.0</ele></trkpt>
   <trkpt lon="11.832419" lat="46.266270"><ele>2517.25</ele></trkpt>
   <trkpt lon="11.832254" lat="46.266290"><ele>2513.25</ele></trkpt>
   <trkpt lon="11.832198" lat="46.266224"><ele>2513.25</ele></trkpt>
   <trkpt lon="11.832041" lat="46.266140"><ele>2509.5</ele></trkpt>
   <trkpt lon="11.831969" lat="46.266311"><ele>2505.5</ele></trkpt>
   <trkpt lon="11.831733" lat="46.266181"><ele>2500.25</ele></trkpt>
   <trkpt lon="11.831707" lat="46.266266"><ele>2498.75</ele></trkpt>
   <trkpt lon="11.831620" lat="46.266311"><ele>2496.5</ele></trkpt>
   <trkpt lon="11.831598" lat="46.266380"><ele>2496.0</ele></trkpt>
   <trkpt lon="11.831685" lat="46.266475"><ele>2495.75</ele></trkpt>
   <trkpt lon="11.831634" lat="46.266611"><ele>2492.25</ele></trkpt>
   <trkpt lon="11.831632" lat="46.266675"><ele>2490.75</ele></trkpt>
   <trkpt lon="11.831546" lat="46.266700"><ele>2487.5</ele></trkpt>
   <trkpt lon="11.831397" lat="46.266618"><ele>2487.25</ele></trkpt>
   <trkpt lon="11.831202" lat="46.266563"><ele>2484.0</ele></trkpt>
   <trkpt lon="11.831023" lat="46.266529"><ele>2479.75</ele></trkpt>
   <trkpt lon="11.830922" lat="46.266444"><ele>2478.0</ele></trkpt>
   <trkpt lon="11.830853" lat="46.266305"><ele>2475.0</ele></trkpt>
   <trkpt lon="11.830650" lat="46.266757"><ele>2466.25</ele></trkpt>
   <trkpt lon="11.830686" lat="46.266883"><ele>2464.5</ele></trkpt>
   <trkpt lon="11.830268" lat="46.266767"><ele>2455.75</ele></trkpt>
   <trkpt lon="11.830300" lat="46.266568"><ele>2454.5</ele></trkpt>
   <trkpt lon="11.829966" lat="46.266775"><ele>2445.75</ele></trkpt>
   <trkpt lon="11.829871" lat="46.266732"><ele>2441.75</ele></trkpt>
   <trkpt lon="11.829807" lat="46.266746"><ele>2438.75</ele></trkpt>
   <trkpt lon="11.829805" lat="46.266864"><ele>2438.25</ele></trkpt>
   <trkpt lon="11.829730" lat="46.266867"><ele>2435.25</ele></trkpt>
   <trkpt lon="11.829716" lat="46.266919"><ele>2434.5</ele></trkpt>
   <trkpt lon="11.829680" lat="46.266919"><ele>2433.0</ele></trkpt>
   <trkpt lon="11.829561" lat="46.266839"><ele>2425.0</ele></trkpt>
   <trkpt lon="11.829469" lat="46.266823"><ele>2418.25</ele></trkpt>
   <trkpt lon="11.829446" lat="46.266910"><ele>2422.5</ele></trkpt>
   <trkpt lon="11.829267" lat="46.266866"><ele>2411.75</ele></trkpt>
   <trkpt lon="11.829203" lat="46.266914"><ele>2413.25</ele></trkpt>
   <trkpt lon="11.829227" lat="46.266999"><ele>2414.0</ele></trkpt>
   <trkpt lon="11.829064" lat="46.266956"><ele>2408.25</ele></trkpt>
   <trkpt lon="11.829165" lat="46.267052"><ele>2408.5</ele></trkpt>
   <trkpt lon="11.829034" lat="46.267025"><ele>2403.0</ele></trkpt>
   <trkpt lon="11.828939" lat="46.267055"><ele>2396.25</ele></trkpt>
   <trkpt lon="11.828777" lat="46.267054"><ele>2388.0</ele></trkpt>
   <trkpt lon="11.828918" lat="46.266936"><ele>2399.75</ele></trkpt>
   <trkpt lon="11.828680" lat="46.266987"><ele>2384.5</ele></trkpt>
   <trkpt lon="11.828527" lat="46.267072"><ele>2373.75</ele></trkpt>
   <trkpt lon="11.828589" lat="46.266970"><ele>2379.0</ele></trkpt>
   <trkpt lon="11.828374" lat="46.267069"><ele>2363.0</ele></trkpt>
   <trkpt lon="11.828340" lat="46.267251"><ele>2358.0</ele></trkpt>
   <trkpt lon="11.828173" lat="46.267159"><ele>2352.75</ele></trkpt>
   <trkpt lon="11.828053" lat="46.267192"><ele>2347.75</ele></trkpt>
   <trkpt lon="11.828125" lat="46.267072"><ele>2347.75</ele></trkpt>
   <trkpt lon="11.827798" lat="46.267192"><ele>2339.25</ele></trkpt>
   <trkpt lon="11.828258" lat="46.266754"><ele>2337.5</ele></trkpt>
   <trkpt lon="11.827467" lat="46.267046"><ele>2321.0</ele></trkpt>
   <trkpt lon="11.827130" lat="46.267112"><ele>2307.5</ele></trkpt>
   <trkpt lon="11.827113" lat="46.267206"><ele>2310.0</ele></trkpt>
   <trkpt lon="11.827450" lat="46.267397"><ele>2299.0</ele></trkpt>
   <trkpt lon="11.827655" lat="46.267397"><ele>2309.5</ele></trkpt>
   <trkpt lon="11.827764" lat="46.267458"><ele>2306.75</ele></trkpt>
   <trkpt lon="11.827648" lat="46.267461"><ele>2299.75</ele></trkpt>
   <trkpt lon="11.827808" lat="46.267527"><ele>2299.25</ele></trkpt>
   <trkpt lon="11.828265" lat="46.267618"><ele>2304.25</ele></trkpt>
   <trkpt lon="11.828640" lat="46.267816"><ele>2292.25</ele></trkpt>
   <trkpt lon="11.828964" lat="46.268043"><ele>2284.25</ele></trkpt>
   <trkpt lon="11.829328" lat="46.268325"><ele>2277.75</ele></trkpt>
   <trkpt lon="11.829332" lat="46.268445"><ele>2275.75</ele></trkpt>
   <trkpt lon="11.829291" lat="46.268644"><ele>2271.75</ele></trkpt>
   <trkpt lon="11.829110" lat="46.268804"><ele>2265.25</ele></trkpt>
   <trkpt lon="11.829141" lat="46.269046"><ele>2263.25</ele></trkpt>
   <trkpt lon="11.829202" lat="46.269207"><ele>2263.0</ele></trkpt>
   <trkpt lon="11.829103" lat="46.269408"><ele>2258.75</ele></trkpt>
   <trkpt lon="11.828909" lat="46.269593"><ele>2256.25</ele></trkpt>
   <trkpt lon="11.828726" lat="46.269655"><ele>2251.25</ele></trkpt>
   <trkpt lon="11.828326" lat="46.269880"><ele>2241.5</ele></trkpt>
   <trkpt lon="11.828232" lat="46.270006"><ele>2239.0</ele></trkpt>
   <trkpt lon="11.828199" lat="46.270114"><ele>2228.75</ele></trkpt>
   <trkpt lon="11.828271" lat="46.270166"><ele>2227.5</ele></trkpt>
   <trkpt lon="11.828453" lat="46.270164"><ele>2233.0</ele></trkpt>
   <trkpt lon="11.828559" lat="46.270225"><ele>2231.25</ele></trkpt>
   <trkpt lon="11.828734" lat="46.270259"><ele>2232.75</ele></trkpt>
   <trkpt lon="11.828725" lat="46.270335"><ele>2231.25</ele></trkpt>
   <trkpt lon="11.828664" lat="46.270552"><ele>2228.25</ele></trkpt>
   <trkpt lon="11.828598" lat="46.270654"><ele>2230.25</ele></trkpt>
   <trkpt lon="11.828520" lat="46.270713"><ele>2229.75</ele></trkpt>
   <trkpt lon="11.828452" lat="46.270744"><ele>2228.0</ele></trkpt>
   <trkpt lon="11.828485" lat="46.270842"><ele>2233.25</ele></trkpt>
   <trkpt lon="11.828514" lat="46.270899"><ele>2235.75</ele></trkpt>
   <trkpt lon="11.828490" lat="46.270937"><ele>2235.0</ele></trkpt>
   <trkpt lon="11.828428" lat="46.270963"><ele>2232.5</ele></trkpt>
   <trkpt lon="11.828394" lat="46.271012"><ele>2232.0</ele></trkpt>
   <trkpt lon="11.828321" lat="46.271039"><ele>2229.5</ele></trkpt>
   <trkpt lon="11.828304" lat="46.271084"><ele>2230.0</ele></trkpt>
   <trkpt lon="11.828322" lat="46.271206"><ele>2235.0</ele></trkpt>
   <trkpt lon="11.828335" lat="46.271292"><ele>2239.0</ele></trkpt>
   <trkpt lon="11.828291" lat="46.271381"><ele>2240.25</ele></trkpt>
   <trkpt lon="11.828239" lat="46.271434"><ele>2243.25</ele></trkpt>
   <trkpt lon="11.828101" lat="46.271484"><ele>2243.25</ele></trkpt>
   <trkpt lon="11.827734" lat="46.271466"><ele>2223.75</ele></trkpt>
   <trkpt lon="11.827666" lat="46.271498"><ele>2223.5</ele></trkpt>
   <trkpt lon="11.827634" lat="46.271542"><ele>2225.5</ele></trkpt>
   <trkpt lon="11.827559" lat="46.271558"><ele>2222.5</ele></trkpt>
   <trkpt lon="11.827512" lat="46.271606"><ele>2222.5</ele></trkpt>
   <trkpt lon="11.827468" lat="46.271637"><ele>2221.5</ele></trkpt>
   <trkpt lon="11.827454" lat="46.271729"><ele>2224.5</ele></trkpt>
   <trkpt lon="11.827454" lat="46.271811"><ele>2227.25</ele></trkpt>
   <trkpt lon="11.827139" lat="46.272291"><ele>2220.5</ele></trkpt>
   <trkpt lon="11.827080" lat="46.272357"><ele>2217.75</ele></trkpt>
   <trkpt lon="11.827080" lat="46.272398"><ele>2218.0</ele></trkpt>
   <trkpt lon="11.827101" lat="46.272452"><ele>2219.75</ele></trkpt>
   <trkpt lon="11.827138" lat="46.272507"><ele>2222.25</ele></trkpt>
   <trkpt lon="11.827185" lat="46.272548"><ele>2224.75</ele></trkpt>
   <trkpt lon="11.827209" lat="46.272604"><ele>2226.25</ele></trkpt>
   <trkpt lon="11.827199" lat="46.272668"><ele>2225.5</ele></trkpt>
   <trkpt lon="11.827167" lat="46.272732"><ele>2224.0</ele></trkpt>
   <trkpt lon="11.827006" lat="46.272922"><ele>2223.0</ele></trkpt>
   <trkpt lon="11.826902" lat="46.273016"><ele>2223.5</ele></trkpt>
   <trkpt lon="11.826727" lat="46.273059"><ele>2221.5</ele></trkpt>
   <trkpt lon="11.826671" lat="46.273089"><ele>2220.25</ele></trkpt>
   <trkpt lon="11.826658" lat="46.273138"><ele>2220.25</ele></trkpt>
   <trkpt lon="11.826604" lat="46.273162"><ele>2217.25</ele></trkpt>
   <trkpt lon="11.826607" lat="46.273208"><ele>2217.75</ele></trkpt>
   <trkpt lon="11.826578" lat="46.273223"><ele>2216.25</ele></trkpt>
   <trkpt lon="11.826812" lat="46.273474"><ele>2224.5</ele></trkpt>
   <trkpt lon="11.826836" lat="46.273568"><ele>2222.0</ele></trkpt>
   <trkpt lon="11.826823" lat="46.273618"><ele>2219.25</ele></trkpt>
   <trkpt lon="11.826887" lat="46.273769"><ele>2222.5</ele></trkpt>
   <trkpt lon="11.826852" lat="46.273813"><ele>2220.0</ele></trkpt>
   <trkpt lon="11.826844" lat="46.273885"><ele>2219.25</ele></trkpt>
   <trkpt lon="11.826621" lat="46.273937"><ele>2208.5</ele></trkpt>
   <trkpt lon="11.826627" lat="46.274006"><ele>2208.5</ele></trkpt>
   <trkpt lon="11.826672" lat="46.274087"><ele>2209.75</ele></trkpt>
   <trkpt lon="11.826672" lat="46.274150"><ele>2209.25</ele></trkpt>
   <trkpt lon="11.826536" lat="46.274301"><ele>2209.25</ele></trkpt>
   <trkpt lon="11.826474" lat="46.274404"><ele>2210.0</ele></trkpt>
   <trkpt lon="11.826380" lat="46.274440"><ele>2207.5</ele></trkpt>
   <trkpt lon="11.826299" lat="46.274556"><ele>2210.0</ele></trkpt>
   <trkpt lon="11.826246" lat="46.274875"><ele>2220.5</ele></trkpt>
   <trkpt lon="11.826192" lat="46.274922"><ele>2220.0</ele></trkpt>
   <trkpt lon="11.826144" lat="46.274994"><ele>2220.75</ele></trkpt>
   <trkpt lon="11.826208" lat="46.275209"><ele>2228.5</ele></trkpt>
   <trkpt lon="11.826200" lat="46.275361"><ele>2229.0</ele></trkpt>
   <trkpt lon="11.826240" lat="46.275411"><ele>2230.25</ele></trkpt>
   <trkpt lon="11.826265" lat="46.275528"><ele>2230.25</ele></trkpt>
   <trkpt lon="11.826227" lat="46.275634"><ele>2227.0</ele></trkpt>
   <trkpt lon="11.826259" lat="46.275689"><ele>2227.25</ele></trkpt>
   <trkpt lon="11.826350" lat="46.275745"><ele>2230.25</ele></trkpt>
   <trkpt lon="11.826332" lat="46.275800"><ele>2228.25</ele></trkpt>
   <trkpt lon="11.826391" lat="46.275849"><ele>2232.25</ele></trkpt>
   <trkpt lon="11.826415" lat="46.275897"><ele>2241.5</ele></trkpt>
   <trkpt lon="11.826289" lat="46.275978"><ele>2239.75</ele></trkpt>
   <trkpt lon="11.826125" lat="46.276195"><ele>2228.75</ele></trkpt>
   <trkpt lon="11.826050" lat="46.276332"><ele>2229.5</ele></trkpt>
   <trkpt lon="11.826031" lat="46.276433"><ele>2231.75</ele></trkpt>
   <trkpt lon="11.825852" lat="46.276688"><ele>2226.75</ele></trkpt>
   <trkpt lon="11.825798" lat="46.276802"><ele>2228.5</ele></trkpt>
   <trkpt lon="11.825696" lat="46.276957"><ele>2231.25</ele></trkpt>
   <trkpt lon="11.825554" lat="46.277098"><ele>2232.5</ele></trkpt>
   <trkpt lon="11.825519" lat="46.277183"><ele>2235.0</ele></trkpt>
   <trkpt lon="11.825393" lat="46.277282"><ele>2234.0</ele></trkpt>
   <trkpt lon="11.825210" lat="46.277460"><ele>2232.0</ele></trkpt>
   <trkpt lon="11.825186" lat="46.277571"><ele>2234.0</ele></trkpt>
   <trkpt lon="11.825133" lat="46.277658"><ele>2234.75</ele></trkpt>
   <trkpt lon="11.825004" lat="46.277730"><ele>2234.75</ele></trkpt>
   <trkpt lon="11.824722" lat="46.277901"><ele>2239.5</ele></trkpt>
   <trkpt lon="11.824669" lat="46.277984"><ele>2242.75</ele></trkpt>
   <trkpt lon="11.824572" lat="46.278073"><ele>2244.25</ele></trkpt>
   <trkpt lon="11.824449" lat="46.278142"><ele>2244.0</ele></trkpt>
   <trkpt lon="11.824293" lat="46.278283"><ele>2245.75</ele></trkpt>
   <trkpt lon="11.824218" lat="46.278365"><ele>2246.75</ele></trkpt>
   <trkpt lon="11.824191" lat="46.278438"><ele>2248.75</ele></trkpt>
   <trkpt lon="11.824132" lat="46.278500"><ele>2250.0</ele></trkpt>
   <trkpt lon="11.823875" lat="46.278517"><ele>2248.0</ele></trkpt>
   <trkpt lon="11.823770" lat="46.278563"><ele>2248.75</ele></trkpt>
   <trkpt lon="11.823638" lat="46.278605"><ele>2248.25</ele></trkpt>
   <trkpt lon="11.823836" lat="46.278744"><ele>2256.0</ele></trkpt>
   <trkpt lon="11.824175" lat="46.278870"><ele>2266.25</ele></trkpt>
   <trkpt lon="11.824663" lat="46.278976"><ele>2288.5</ele></trkpt>
   <trkpt lon="11.824728" lat="46.279171"><ele>2307.75</ele></trkpt>
   <trkpt lon="11.824862" lat="46.279070"><ele>2304.75</ele></trkpt>
   <trkpt lon="11.825032" lat="46.279162"><ele>2320.75</ele></trkpt>
   <trkpt lon="11.824999" lat="46.279582"><ele>2367.25</ele></trkpt>
   <trkpt lon="11.825061" lat="46.279875"><ele>2402.75</ele></trkpt>
   <trkpt lon="11.825365" lat="46.280130"><ele>2436.75</ele></trkpt>
   <trkpt lon="11.825378" lat="46.280323"><ele>2461.25</ele></trkpt>
   <trkpt lon="11.825295" lat="46.280382"><ele>2471.0</ele></trkpt>
   <trkpt lon="11.825429" lat="46.280618"><ele>2496.0</ele></trkpt>
   <trkpt lon="11.825418" lat="46.280760"><ele>2508.75</ele></trkpt>
   <trkpt lon="11.825481" lat="46.280914"><ele>2520.25</ele></trkpt>
   <trkpt lon="11.825659" lat="46.281118"><ele>2537.0</ele></trkpt>
   <trkpt lon="11.825759" lat="46.281245"><ele>2552.25</ele></trkpt>
   <trkpt lon="11.825679" lat="46.281478"><ele>2585.5</ele></trkpt>
   <trkpt lon="11.825411" lat="46.281553"><ele>2589.25</ele></trkpt>
   <trkpt lon="11.825308" lat="46.281619"><ele>2597.0</ele></trkpt>
   <trkpt lon="11.825331" lat="46.281767"><ele>2617.0</ele></trkpt>
   <trkpt lon="11.825408" lat="46.281861"><ele>2631.25</ele></trkpt>
   <trkpt lon="11.825733" lat="46.281810"><ele>2657.75</ele></trkpt>
   <trkpt lon="11.825923" lat="46.281846"><ele>2684.0</ele></trkpt>
   <trkpt lon="11.826002" lat="46.281736"><ele>2680.0</ele></trkpt>
   <trkpt lon="11.826137" lat="46.281785"><ele>2701.0</ele></trkpt>
   <trkpt lon="11.826191" lat="46.281727"><ele>2700.5</ele></trkpt>
   <trkpt lon="11.826310" lat="46.281811"><ele>2719.5</ele></trkpt>
   <trkpt lon="11.826301" lat="46.281925"><ele>2729.5</ele></trkpt>
   <trkpt lon="11.826456" lat="46.281917"><ele>2743.0</ele></trkpt>
   <trkpt lon="11.826620" lat="46.281849"><ele>2751.75</ele></trkpt>
   <trkpt lon="11.826680" lat="46.281885"><ele>2759.0</ele></trkpt>
   <trkpt lon="11.826772" lat="46.281840"><ele>2755.75</ele></trkpt>
   <trkpt lon="11.826857" lat="46.281984"><ele>2787.0</ele></trkpt>
   <trkpt lon="11.826921" lat="46.282150"><ele>2848.25</ele></trkpt>
   <trkpt lon="11.826962" lat="46.282196"><ele>2865.25</ele></trkpt>
   <trkpt lon="11.826890" lat="46.282251"><ele>2871.0</ele></trkpt>
   <trkpt lon="11.826789" lat="46.282279"><ele>2859.75</ele></trkpt>
   <trkpt lon="11.826805" lat="46.282320"><ele>2863.0</ele></trkpt>
   <trkpt lon="11.826849" lat="46.282368"><ele>2870.75</ele></trkpt>
   <trkpt lon="11.826912" lat="46.282368"><ele>2879.75</ele></trkpt>
   <trkpt lon="11.826978" lat="46.282355"><ele>2883.25</ele></trkpt>
   <trkpt lon="11.827009" lat="46.282386"><ele>2886.0</ele></trkpt>
   <trkpt lon="11.827019" lat="46.282440"><ele>2892.0</ele></trkpt>
   <trkpt lon="11.827038" lat="46.282475"><ele>2897.25</ele></trkpt>
   <trkpt lon="11.827176" lat="46.282486"><ele>2909.75</ele></trkpt>
   <trkpt lon="11.827243" lat="46.282466"><ele>2908.75</ele></trkpt>
   <trkpt lon="11.827324" lat="46.282468"><ele>2910.25</ele></trkpt>
   <trkpt lon="11.827375" lat="46.282488"><ele>2915.0</ele></trkpt>
   <trkpt lon="11.827410" lat="46.282540"><ele>2919.0</ele></trkpt>
   <trkpt lon="11.827394" lat="46.282566"><ele>2920.0</ele></trkpt>
   <trkpt lon="11.827346" lat="46.282597"><ele>2921.5</ele></trkpt>
   <trkpt lon="11.827168" lat="46.282575"><ele>2918.0</ele></trkpt>
   <trkpt lon="11.827067" lat="46.282621"><ele>2917.75</ele></trkpt>
   <trkpt lon="11.826910" lat="46.282658"><ele>2917.0</ele></trkpt>
   <trkpt lon="11.826806" lat="46.282730"><ele>2929.75</ele></trkpt>
   <trkpt lon="11.826671" lat="46.282779"><ele>2944.75</ele></trkpt>
   <trkpt lon="11.826484" lat="46.282986"><ele>2945.0</ele></trkpt>
   <trkpt lon="11.826458" lat="46.283007"><ele>2947.75</ele></trkpt>
   <trkpt lon="11.826439" lat="46.283053"><ele>2955.25</ele></trkpt>
   <trkpt lon="11.826484" lat="46.283159"><ele>2959.25</ele></trkpt>
   <trkpt lon="11.826514" lat="46.283296"><ele>2964.5</ele></trkpt>
   <trkpt lon="11.826574" lat="46.283350"><ele>2965.75</ele></trkpt>
   <trkpt lon="11.826690" lat="46.283418"><ele>2967.5</ele></trkpt>
   <trkpt lon="11.826839" lat="46.283485"><ele>2969.25</ele></trkpt>
   <trkpt lon="11.826850" lat="46.283539"><ele>2973.0</ele></trkpt>
   <trkpt lon="11.826768" lat="46.283588"><ele>2978.25</ele></trkpt>
   <trkpt lon="11.826794" lat="46.283648"><ele>2982.0</ele></trkpt>
   <trkpt lon="11.826899" lat="46.283764"><ele>2987.5</ele></trkpt>
   <trkpt lon="11.827153" lat="46.283834"><ele>2989.5</ele></trkpt>
   <trkpt lon="11.827251" lat="46.283826"><ele>2987.5</ele></trkpt>
   <trkpt lon="11.827385" lat="46.283842"><ele>2986.75</ele></trkpt>
   <trkpt lon="11.827361" lat="46.283918"><ele>2991.5</ele></trkpt>
   <trkpt lon="11.827348" lat="46.283961"><ele>2991.5</ele></trkpt>
   <trkpt lon="11.827438" lat="46.283968"><ele>2989.25</ele></trkpt>
   <trkpt lon="11.827498" lat="46.283935"><ele>2988.25</ele></trkpt>
   <trkpt lon="11.827628" lat="46.283917"><ele>2986.75</ele></trkpt>
   <trkpt lon="11.827733" lat="46.283999"><ele>2982.75</ele></trkpt>
   <trkpt lon="11.827707" lat="46.284103"><ele>2980.0</ele></trkpt>
   <trkpt lon="11.827628" lat="46.284216"><ele>2978.25</ele></trkpt>
   <trkpt lon="11.827565" lat="46.284299"><ele>2977.0</ele></trkpt>
   <trkpt lon="11.827486" lat="46.284330"><ele>2979.75</ele></trkpt>
   <trkpt lon="11.827520" lat="46.284413"><ele>2974.75</ele></trkpt>
   <trkpt lon="11.827625" lat="46.284408"><ele>2968.5</ele></trkpt>
   <trkpt lon="11.827752" lat="46.284353"><ele>2964.5</ele></trkpt>
   <trkpt lon="11.827771" lat="46.284415"><ele>2959.25</ele></trkpt>
   <trkpt lon="11.827782" lat="46.284503"><ele>2953.75</ele></trkpt>
   <trkpt lon="11.827707" lat="46.284586"><ele>2954.25</ele></trkpt>
   <trkpt lon="11.827647" lat="46.284635"><ele>2955.75</ele></trkpt>
   <trkpt lon="11.827651" lat="46.284708"><ele>2951.75</ele></trkpt>
   <trkpt lon="11.827606" lat="46.284767"><ele>2952.5</ele></trkpt>
   <trkpt lon="11.827711" lat="46.285046"><ele>2937.75</ele></trkpt>
   <trkpt lon="11.827677" lat="46.285199"><ele>2939.5</ele></trkpt>
   <trkpt lon="11.827722" lat="46.285431"><ele>2939.25</ele></trkpt>
   <trkpt lon="11.827887" lat="46.285470"><ele>2930.75</ele></trkpt>
   <trkpt lon="11.827913" lat="46.285574"><ele>2930.5</ele></trkpt>
   <trkpt lon="11.827966" lat="46.285668"><ele>2926.25</ele></trkpt>
   <trkpt lon="11.828014" lat="46.285728"><ele>2923.5</ele></trkpt>
   <trkpt lon="11.828092" lat="46.285745"><ele>2922.5</ele></trkpt>
   <trkpt lon="11.828127" lat="46.285785"><ele>2923.75</ele></trkpt>
   <trkpt lon="11.828169" lat="46.285811"><ele>2925.5</ele></trkpt>
   <trkpt lon="11.828293" lat="46.285844"><ele>2932.0</ele></trkpt>
   <trkpt lon="11.828408" lat="46.285892"><ele>2938.5</ele></trkpt>
   <trkpt lon="11.828491" lat="46.285889"><ele>2939.0</ele></trkpt>
   <trkpt lon="11.828557" lat="46.285923"><ele>2942.25</ele></trkpt>
   <trkpt lon="11.828534" lat="46.285941"><ele>2943.5</ele></trkpt>
   <trkpt lon="11.828627" lat="46.286010"><ele>2949.5</ele></trkpt>
   <trkpt lon="11.828617" lat="46.286047"><ele>2952.25</ele></trkpt>
   <trkpt lon="11.828714" lat="46.286096"><ele>2957.25</ele></trkpt>
   <trkpt lon="11.828766" lat="46.286156"><ele>2961.75</ele></trkpt>
   <trkpt lon="11.828772" lat="46.286175"><ele>2963.0</ele></trkpt>
   <trkpt lon="11.828743" lat="46.286174"><ele>2962.5</ele></trkpt>
   <trkpt lon="11.828749" lat="46.286191"><ele>2963.5</ele></trkpt>
   <trkpt lon="11.828814" lat="46.286222"><ele>2966.25</ele></trkpt>
   <trkpt lon="11.828952" lat="46.286228"><ele>2969.25</ele></trkpt>
   <trkpt lon="11.829028" lat="46.286221"><ele>2970.75</ele></trkpt>
   <trkpt lon="11.829065" lat="46.286266"><ele>2974.25</ele></trkpt>
   <trkpt lon="11.829119" lat="46.286276"><ele>2976.25</ele></trkpt>
   <trkpt lon="11.829145" lat="46.286322"><ele>2979.5</ele></trkpt>
   <trkpt lon="11.829135" lat="46.286432"><ele>2986.0</ele></trkpt>
   <trkpt lon="11.829289" lat="46.286554"><ele>2997.5</ele></trkpt>
   <trkpt lon="11.829461" lat="46.286491"><ele>2998.25</ele></trkpt>
   <trkpt lon="11.829552" lat="46.286511"><ele>3002.75</ele></trkpt>
   <trkpt lon="11.829584" lat="46.286528"><ele>3005.0</ele></trkpt>
   <trkpt lon="11.829672" lat="46.286553"><ele>3009.5</ele></trkpt>
   <trkpt lon="11.829756" lat="46.286517"><ele>3011.0</ele></trkpt>
   <trkpt lon="11.829792" lat="46.286544"><ele>3014.5</ele></trkpt>
   <trkpt lon="11.829986" lat="46.286448"><ele>3018.25</ele></trkpt>
   <trkpt lon="11.829987" lat="46.286453"><ele>3018.5</ele></trkpt>
   <trkpt lon="11.830010" lat="46.286450"><ele>3019.75</ele></trkpt>
   <trkpt lon="11.830023" lat="46.286440"><ele>3019.75</ele></trkpt>
   <trkpt lon="11.830068" lat="46.286446"><ele>3023.25</ele></trkpt>
   <trkpt lon="11.830139" lat="46.286488"><ele>3031.25</ele></trkpt>
   <trkpt lon="11.830222" lat="46.286467"><ele>3035.0</ele></trkpt>
   <trkpt lon="11.830322" lat="46.286413"><ele>3035.0</ele></trkpt>
   <trkpt lon="11.830345" lat="46.286388"><ele>3033.75</ele></trkpt>
   <trkpt lon="11.830411" lat="46.286343"><ele>3036.0</ele></trkpt>
   <trkpt lon="11.830475" lat="46.286278"><ele>3037.75</ele></trkpt>
   <trkpt lon="11.830535" lat="46.286248"><ele>3039.5</ele></trkpt>
   <trkpt lon="11.830572" lat="46.286265"><ele>3040.0</ele></trkpt>
   <trkpt lon="11.830562" lat="46.286270"><ele>3040.5</ele></trkpt>
   <trkpt lon="11.830548" lat="46.286328"><ele>3041.5</ele></trkpt>
   <trkpt lon="11.830546" lat="46.286378"><ele>3042.25</ele></trkpt>
   <trkpt lon="11.830519" lat="46.286392"><ele>3041.5</ele></trkpt>
   <trkpt lon="11.830508" lat="46.286503"><ele>3048.25</ele></trkpt>
   <trkpt lon="11.830497" lat="46.286524"><ele>3049.25</ele></trkpt>
   <trkpt lon="11.830498" lat="46.286545"><ele>3050.75</ele></trkpt>
   <trkpt lon="11.830474" lat="46.286573"><ele>3052.25</ele></trkpt>
   <trkpt lon="11.830468" lat="46.286605"><ele>3054.5</ele></trkpt>
   <trkpt lon="11.830434" lat="46.286684"><ele>3059.25</ele></trkpt>
   <trkpt lon="11.830398" lat="46.286713"><ele>3060.5</ele></trkpt>
   <trkpt lon="11.830315" lat="46.286822"><ele>3067.75</ele></trkpt>
   <trkpt lon="11.830297" lat="46.286817"><ele>3068.25</ele></trkpt>
   <trkpt lon="11.830258" lat="46.286835"><ele>3069.75</ele></trkpt>
   <trkpt lon="11.830230" lat="46.286922"><ele>3076.0</ele></trkpt>
   <trkpt lon="11.830233" lat="46.286945"><ele>3078.0</ele></trkpt>
   <trkpt lon="11.830203" lat="46.286968"><ele>3079.25</ele></trkpt>
   <trkpt lon="11.830209" lat="46.286998"><ele>3081.0</ele></trkpt>
   <trkpt lon="11.830195" lat="46.287069"><ele>3085.5</ele></trkpt>
   <trkpt lon="11.830208" lat="46.287108"><ele>3087.75</ele></trkpt>
   <trkpt lon="11.830192" lat="46.287181"><ele>3092.5</ele></trkpt>
   <trkpt lon="11.830208" lat="46.287213"><ele>3094.0</ele></trkpt>
   <trkpt lon="11.830188" lat="46.287254"><ele>3097.0</ele></trkpt>
   <trkpt lon="11.830159" lat="46.287273"><ele>3098.75</ele></trkpt>
   <trkpt lon="11.830128" lat="46.287324"><ele>3102.5</ele></trkpt>
   <trkpt lon="11.830159" lat="46.287383"><ele>3105.5</ele></trkpt>
   <trkpt lon="11.830171" lat="46.287468"><ele>3110.25</ele></trkpt>
   <trkpt lon="11.830155" lat="46.287498"><ele>3112.25</ele></trkpt>
   <trkpt lon="11.830114" lat="46.287545"><ele>3115.25</ele></trkpt>
   <trkpt lon="11.830113" lat="46.287599"><ele>3118.5</ele></trkpt>
   <trkpt lon="11.830100" lat="46.287634"><ele>3121.0</ele></trkpt>
   <trkpt lon="11.830100" lat="46.287672"><ele>3123.25</ele></trkpt>
   <trkpt lon="11.830139" lat="46.287716"><ele>3125.25</ele></trkpt>
   <trkpt lon="11.830141" lat="46.287843"><ele>3130.0</ele></trkpt>
   <trkpt lon="11.830129" lat="46.287894"><ele>3131.25</ele></trkpt>
   <trkpt lon="11.830069" lat="46.288022"><ele>3134.25</ele></trkpt>
   <trkpt lon="11.830085" lat="46.288134"><ele>3137.75</ele></trkpt>
   <trkpt lon="11.830165" lat="46.288173"><ele>3139.5</ele></trkpt>
   <trkpt lon="11.830159" lat="46.288208"><ele>3141.25</ele></trkpt>
   <trkpt lon="11.830181" lat="46.288242"><ele>3143.0</ele></trkpt>
   <trkpt lon="11.830173" lat="46.288288"><ele>3145.0</ele></trkpt>
   <trkpt lon="11.830143" lat="46.288333"><ele>3146.5</ele></trkpt>
   <trkpt lon="11.830163" lat="46.288376"><ele>3149.0</ele></trkpt>
   <trkpt lon="11.830270" lat="46.288474"><ele>3154.5</ele></trkpt>
   <trkpt lon="11.830313" lat="46.288624"><ele>3158.25</ele></trkpt>
   <trkpt lon="11.830227" lat="46.288710"><ele>3159.0</ele></trkpt>
   <trkpt lon="11.830201" lat="46.288769"><ele>3159.25</ele></trkpt>
   <trkpt lon="11.830149" lat="46.288805"><ele>3160.5</ele></trkpt>
   <trkpt lon="11.830060" lat="46.288922"><ele>3164.75</ele></trkpt>
   <trkpt lon="11.830047" lat="46.288977"><ele>3166.0</ele></trkpt>
   <trkpt lon="11.830039" lat="46.289104"><ele>3168.5</ele></trkpt>
   <trkpt lon="11.830015" lat="46.289133"><ele>3170.25</ele></trkpt>
   <trkpt lon="11.829984" lat="46.289231"><ele>3171.5</ele></trkpt>
   <trkpt lon="11.829995" lat="46.289250"><ele>3172.75</ele></trkpt>
   <trkpt lon="11.830008" lat="46.289325"><ele>3174.25</ele></trkpt>
   <trkpt lon="11.829983" lat="46.289414"><ele>3174.0</ele></trkpt>
   <trkpt lon="11.830004" lat="46.289450"><ele>3176.75</ele></trkpt>
   <trkpt lon="11.829994" lat="46.289487"><ele>3176.5</ele></trkpt>
   <trkpt lon="11.829963" lat="46.289510"><ele>3173.0</ele></trkpt>
   <trkpt lon="11.829920" lat="46.289520"><ele>3168.25</ele></trkpt>
   <trkpt lon="11.829877" lat="46.289569"><ele>3166.25</ele></trkpt>
   <trkpt lon="11.829851" lat="46.289578"><ele>3164.5</ele></trkpt>
   <trkpt lon="11.829865" lat="46.289648"><ele>3170.5</ele></trkpt>
   <trkpt lon="11.829821" lat="46.289851"><ele>3177.5</ele></trkpt>
   <trkpt lon="11.829741" lat="46.289914"><ele>3180.0</ele></trkpt>
   <trkpt lon="11.829821" lat="46.289851"><ele>3177.5</ele></trkpt>
   <trkpt lon="11.829865" lat="46.289648"><ele>3170.5</ele></trkpt>
   <trkpt lon="11.829851" lat="46.289578"><ele>3164.5</ele></trkpt>
   <trkpt lon="11.829877" lat="46.289569"><ele>3166.25</ele></trkpt>
   <trkpt lon="11.829920" lat="46.289520"><ele>3168.25</ele></trkpt>
   <trkpt lon="11.829963" lat="46.289510"><ele>3173.0</ele></trkpt>
   <trkpt lon="11.829994" lat="46.289487"><ele>3176.5</ele></trkpt>
   <trkpt lon="11.830004" lat="46.289450"><ele>3176.75</ele></trkpt>
   <trkpt lon="11.829983" lat="46.289414"><ele>3174.0</ele></trkpt>
   <trkpt lon="11.830008" lat="46.289325"><ele>3174.25</ele></trkpt>
   <trkpt lon="11.829995" lat="46.289250"><ele>3172.75</ele></trkpt>
   <trkpt lon="11.829984" lat="46.289231"><ele>3171.5</ele></trkpt>
   <trkpt lon="11.830015" lat="46.289133"><ele>3170.25</ele></trkpt>
   <trkpt lon="11.830039" lat="46.289104"><ele>3168.5</ele></trkpt>
   <trkpt lon="11.830047" lat="46.288977"><ele>3166.0</ele></trkpt>
   <trkpt lon="11.830060" lat="46.288922"><ele>3164.75</ele></trkpt>
   <trkpt lon="11.830149" lat="46.288805"><ele>3160.5</ele></trkpt>
   <trkpt lon="11.830201" lat="46.288769"><ele>3159.25</ele></trkpt>
   <trkpt lon="11.830227" lat="46.288710"><ele>3159.0</ele></trkpt>
   <trkpt lon="11.830313" lat="46.288624"><ele>3158.25</ele></trkpt>
   <trkpt lon="11.830270" lat="46.288474"><ele>3154.5</ele></trkpt>
   <trkpt lon="11.830163" lat="46.288376"><ele>3149.0</ele></trkpt>
   <trkpt lon="11.830143" lat="46.288333"><ele>3146.5</ele></trkpt>
   <trkpt lon="11.830173" lat="46.288288"><ele>3145.0</ele></trkpt>
   <trkpt lon="11.830181" lat="46.288242"><ele>3143.0</ele></trkpt>
   <trkpt lon="11.830159" lat="46.288208"><ele>3141.25</ele></trkpt>
   <trkpt lon="11.830165" lat="46.288173"><ele>3139.5</ele></trkpt>
   <trkpt lon="11.830085" lat="46.288134"><ele>3137.75</ele></trkpt>
   <trkpt lon="11.830069" lat="46.288022"><ele>3134.25</ele></trkpt>
   <trkpt lon="11.830129" lat="46.287894"><ele>3131.25</ele></trkpt>
   <trkpt lon="11.830141" lat="46.287843"><ele>3130.0</ele></trkpt>
   <trkpt lon="11.830139" lat="46.287716"><ele>3125.25</ele></trkpt>
   <trkpt lon="11.830100" lat="46.287672"><ele>3123.25</ele></trkpt>
   <trkpt lon="11.830100" lat="46.287634"><ele>3121.0</ele></trkpt>
   <trkpt lon="11.830113" lat="46.287599"><ele>3118.5</ele></trkpt>
   <trkpt lon="11.830114" lat="46.287545"><ele>3115.25</ele></trkpt>
   <trkpt lon="11.830155" lat="46.287498"><ele>3112.25</ele></trkpt>
   <trkpt lon="11.830171" lat="46.287468"><ele>3110.25</ele></trkpt>
   <trkpt lon="11.830159" lat="46.287383"><ele>3105.5</ele></trkpt>
   <trkpt lon="11.830128" lat="46.287324"><ele>3102.5</ele></trkpt>
   <trkpt lon="11.830159" lat="46.287273"><ele>3098.75</ele></trkpt>
   <trkpt lon="11.830188" lat="46.287254"><ele>3097.0</ele></trkpt>
   <trkpt lon="11.830208" lat="46.287213"><ele>3094.0</ele></trkpt>
   <trkpt lon="11.830192" lat="46.287181"><ele>3092.5</ele></trkpt>
   <trkpt lon="11.830208" lat="46.287108"><ele>3087.75</ele></trkpt>
   <trkpt lon="11.830195" lat="46.287069"><ele>3085.5</ele></trkpt>
   <trkpt lon="11.830209" lat="46.286998"><ele>3081.0</ele></trkpt>
   <trkpt lon="11.830203" lat="46.286968"><ele>3079.25</ele></trkpt>
   <trkpt lon="11.830233" lat="46.286945"><ele>3078.0</ele></trkpt>
   <trkpt lon="11.830230" lat="46.286922"><ele>3076.0</ele></trkpt>
   <trkpt lon="11.830258" lat="46.286835"><ele>3069.75</ele></trkpt>
   <trkpt lon="11.830297" lat="46.286817"><ele>3068.25</ele></trkpt>
   <trkpt lon="11.830315" lat="46.286822"><ele>3067.75</ele></trkpt>
   <trkpt lon="11.830398" lat="46.286713"><ele>3060.5</ele></trkpt>
   <trkpt lon="11.830434" lat="46.286684"><ele>3059.25</ele></trkpt>
   <trkpt lon="11.830468" lat="46.286605"><ele>3054.5</ele></trkpt>
   <trkpt lon="11.830474" lat="46.286573"><ele>3052.25</ele></trkpt>
   <trkpt lon="11.830498" lat="46.286545"><ele>3050.75</ele></trkpt>
   <trkpt lon="11.830497" lat="46.286524"><ele>3049.25</ele></trkpt>
   <trkpt lon="11.830508" lat="46.286503"><ele>3048.25</ele></trkpt>
   <trkpt lon="11.830519" lat="46.286392"><ele>3041.5</ele></trkpt>
   <trkpt lon="11.830546" lat="46.286378"><ele>3042.25</ele></trkpt>
   <trkpt lon="11.830548" lat="46.286328"><ele>3041.5</ele></trkpt>
   <trkpt lon="11.830562" lat="46.286270"><ele>3040.5</ele></trkpt>
   <trkpt lon="11.830572" lat="46.286265"><ele>3040.0</ele></trkpt>
   <trkpt lon="11.830535" lat="46.286248"><ele>3039.5</ele></trkpt>
   <trkpt lon="11.830475" lat="46.286278"><ele>3037.75</ele></trkpt>
   <trkpt lon="11.830411" lat="46.286343"><ele>3036.0</ele></trkpt>
   <trkpt lon="11.830345" lat="46.286388"><ele>3033.75</ele></trkpt>
   <trkpt lon="11.830322" lat="46.286413"><ele>3035.0</ele></trkpt>
   <trkpt lon="11.830222" lat="46.286467"><ele>3035.0</ele></trkpt>
   <trkpt lon="11.830139" lat="46.286488"><ele>3031.25</ele></trkpt>
   <trkpt lon="11.830068" lat="46.286446"><ele>3023.25</ele></trkpt>
   <trkpt lon="11.830023" lat="46.286440"><ele>3019.75</ele></trkpt>
   <trkpt lon="11.830010" lat="46.286450"><ele>3019.75</ele></trkpt>
   <trkpt lon="11.829987" lat="46.286453"><ele>3018.5</ele></trkpt>
   <trkpt lon="11.829986" lat="46.286448"><ele>3018.25</ele></trkpt>
   <trkpt lon="11.829792" lat="46.286544"><ele>3014.5</ele></trkpt>
   <trkpt lon="11.829756" lat="46.286517"><ele>3011.0</ele></trkpt>
   <trkpt lon="11.829672" lat="46.286553"><ele>3009.5</ele></trkpt>
   <trkpt lon="11.829584" lat="46.286528"><ele>3005.0</ele></trkpt>
   <trkpt lon="11.829552" lat="46.286511"><ele>3002.75</ele></trkpt>
   <trkpt lon="11.829461" lat="46.286491"><ele>2998.25</ele></trkpt>
   <trkpt lon="11.829289" lat="46.286554"><ele>2997.5</ele></trkpt>
   <trkpt lon="11.829135" lat="46.286432"><ele>2986.0</ele></trkpt>
   <trkpt lon="11.829145" lat="46.286322"><ele>2979.5</ele></trkpt>
   <trkpt lon="11.829119" lat="46.286276"><ele>2976.25</ele></trkpt>
   <trkpt lon="11.829065" lat="46.286266"><ele>2974.25</ele></trkpt>
   <trkpt lon="11.829028" lat="46.286221"><ele>2970.75</ele></trkpt>
   <trkpt lon="11.828952" lat="46.286228"><ele>2969.25</ele></trkpt>
   <trkpt lon="11.828814" lat="46.286222"><ele>2966.25</ele></trkpt>
   <trkpt lon="11.828749" lat="46.286191"><ele>2963.5</ele></trkpt>
   <trkpt lon="11.828743" lat="46.286174"><ele>2962.5</ele></trkpt>
   <trkpt lon="11.828772" lat="46.286175"><ele>2963.0</ele></trkpt>
   <trkpt lon="11.828766" lat="46.286156"><ele>2961.75</ele></trkpt>
   <trkpt lon="11.828714" lat="46.286096"><ele>2957.25</ele></trkpt>
   <trkpt lon="11.828617" lat="46.286047"><ele>2952.25</ele></trkpt>
   <trkpt lon="11.828627" lat="46.286010"><ele>2949.5</ele></trkpt>
   <trkpt lon="11.828534" lat="46.285941"><ele>2943.5</ele></trkpt>
   <trkpt lon="11.828557" lat="46.285923"><ele>2942.25</ele></trkpt>
   <trkpt lon="11.828491" lat="46.285889"><ele>2939.0</ele></trkpt>
   <trkpt lon="11.828408" lat="46.285892"><ele>2938.5</ele></trkpt>
   <trkpt lon="11.828293" lat="46.285844"><ele>2932.0</ele></trkpt>
   <trkpt lon="11.828169" lat="46.285811"><ele>2925.5</ele></trkpt>
   <trkpt lon="11.828127" lat="46.285785"><ele>2923.75</ele></trkpt>
   <trkpt lon="11.828092" lat="46.285745"><ele>2922.5</ele></trkpt>
   <trkpt lon="11.828014" lat="46.285728"><ele>2923.5</ele></trkpt>
   <trkpt lon="11.827966" lat="46.285668"><ele>2926.25</ele></trkpt>
   <trkpt lon="11.827913" lat="46.285574"><ele>2930.5</ele></trkpt>
   <trkpt lon="11.827887" lat="46.285470"><ele>2930.75</ele></trkpt>
   <trkpt lon="11.827722" lat="46.285431"><ele>2939.25</ele></trkpt>
   <trkpt lon="11.827677" lat="46.285199"><ele>2939.5</ele></trkpt>
   <trkpt lon="11.827711" lat="46.285046"><ele>2937.75</ele></trkpt>
   <trkpt lon="11.827606" lat="46.284767"><ele>2952.5</ele></trkpt>
   <trkpt lon="11.827651" lat="46.284708"><ele>2951.75</ele></trkpt>
   <trkpt lon="11.827647" lat="46.284635"><ele>2955.75</ele></trkpt>
   <trkpt lon="11.827707" lat="46.284586"><ele>2954.25</ele></trkpt>
   <trkpt lon="11.827782" lat="46.284503"><ele>2953.75</ele></trkpt>
   <trkpt lon="11.827771" lat="46.284415"><ele>2959.25</ele></trkpt>
   <trkpt lon="11.827752" lat="46.284353"><ele>2964.5</ele></trkpt>
   <trkpt lon="11.827625" lat="46.284408"><ele>2968.5</ele></trkpt>
   <trkpt lon="11.827520" lat="46.284413"><ele>2974.75</ele></trkpt>
   <trkpt lon="11.827486" lat="46.284330"><ele>2979.75</ele></trkpt>
   <trkpt lon="11.827565" lat="46.284299"><ele>2977.0</ele></trkpt>
   <trkpt lon="11.827628" lat="46.284216"><ele>2978.25</ele></trkpt>
   <trkpt lon="11.827707" lat="46.284103"><ele>2980.0</ele></trkpt>
   <trkpt lon="11.827733" lat="46.283999"><ele>2982.75</ele></trkpt>
   <trkpt lon="11.827628" lat="46.283917"><ele>2986.75</ele></trkpt>
   <trkpt lon="11.827498" lat="46.283935"><ele>2988.25</ele></trkpt>
   <trkpt lon="11.827438" lat="46.283968"><ele>2989.25</ele></trkpt>
   <trkpt lon="11.827348" lat="46.283961"><ele>2991.5</ele></trkpt>
   <trkpt lon="11.827361" lat="46.283918"><ele>2986.75</ele></trkpt>
  </trkseg>
 </trk>
</gpx>
