<?xml version="1.0" encoding="UTF-8"?>
<!-- track-length = 8366 filtered ascend = 358 plain-ascend = -710 cost=114855 energy=.1kwh time=48m 25s -->
<gpx 
 xmlns="http://www.topografix.com/GPX/1/1" 
 xmlns:xsi="http://www.w3.org/2001/XMLSchema-instance" 
 xsi:schemaLocation="http://www.topografix.com/GPX/1/1 http://www.topografix.com/GPX/1/1/gpx.xsd" 
 creator="BRouter-1.7.10" version="1.1">
 <trk>
  <name>brouter_trekking_0</name>
  <trkseg>
   <trkpt lon="11.827361" lat="46.283918"><ele>2989.75</ele></trkpt>
   <trkpt lon="11.827348" lat="46.283961"><ele>2991.5</ele></trkpt>
   <trkpt lon="11.827438" lat="46.283968"><ele>2989.25</ele></trkpt>
   <trkpt lon="11.827498" lat="46.283935"><ele>2988.25</ele></trkpt>
   <trkpt lon="11.827628" lat="46.283917"><ele>2986.75</ele></trkpt>
   <trkpt lon="11.827733" lat="46.283999"><ele>2982.75</ele></trkpt>
   <trkpt lon="11.827707" lat="46.284103"><ele>2980.0</ele></trkpt>
   <trkpt lon="11.827628" lat="46.284216"><ele>2978.25</ele></trkpt>
   <trkpt lon="11.827565" lat="46.284299"><ele>2977.0</ele></trkpt>
   <trkpt lon="11.827486" lat="46.284330"><ele>2979.75</ele></trkpt>
   <trkpt lon="11.827520" lat="46.284413"><ele>2974.75</ele></trkpt>
   <trkpt lon="11.827625" lat="46.284408"><ele>2968.5</ele></trkpt>
   <trkpt lon="11.827752" lat="46.284353"><ele>2964.5</ele></trkpt>
   <trkpt lon="11.827771" lat="46.284415"><ele>2959.25</ele></trkpt>
   <trkpt lon="11.827782" lat="46.284503"><ele>2953.75</ele></trkpt>
   <trkpt lon="11.827707" lat="46.284586"><ele>2954.25</ele></trkpt>
   <trkpt lon="11.827647" lat="46.284635"><ele>2955.75</ele></trkpt>
   <trkpt lon="11.827651" lat="46.284708"><ele>2951.75</ele></trkpt>
   <trkpt lon="11.827606" lat="46.284767"><ele>2952.5</ele></trkpt>
   <trkpt lon="11.827711" lat="46.285046"><ele>2937.75</ele></trkpt>
   <trkpt lon="11.827677" lat="46.285199"><ele>2939.5</ele></trkpt>
   <trkpt lon="11.827722" lat="46.285431"><ele>2939.25</ele></trkpt>
   <trkpt lon="11.827887" lat="46.285470"><ele>2930.75</ele></trkpt>
   <trkpt lon="11.827913" lat="46.285574"><ele>2930.5</ele></trkpt>
   <trkpt lon="11.827966" lat="46.285668"><ele>2926.25</ele></trkpt>
   <trkpt lon="11.828014" lat="46.285728"><ele>2923.5</ele></trkpt>
   <trkpt lon="11.828092" lat="46.285745"><ele>2922.5</ele></trkpt>
   <trkpt lon="11.828127" lat="46.285785"><ele>2923.75</ele></trkpt>
   <trkpt lon="11.828169" lat="46.285811"><ele>2925.5</ele></trkpt>
   <trkpt lon="11.828127" lat="46.285785"><ele>2923.75</ele></trkpt>
   <trkpt lon="11.828092" lat="46.285745"><ele>2922.5</ele></trkpt>
   <trkpt lon="11.828014" lat="46.285728"><ele>2923.5</ele></trkpt>
   <trkpt lon="11.827966" lat="46.285668"><ele>2926.25</ele></trkpt>
   <trkpt lon="11.828135" lat="46.285561"><ele>2922.0</ele></trkpt>
   <trkpt lon="11.828118" lat="46.285513"><ele>2921.25</ele></trkpt>
   <trkpt lon="11.828142" lat="46.285427"><ele>2918.75</ele></trkpt>
   <trkpt lon="11.828202" lat="46.285388"><ele>2915.5</ele></trkpt>
   <trkpt lon="11.828317" lat="46.285356"><ele>2910.25</ele></trkpt>
   <trkpt lon="11.828374" lat="46.285362"><ele>2909.0</ele></trkpt>
   <trkpt lon="11.828434" lat="46.285308"><ele>2905.0</ele></trkpt>
   <trkpt lon="11.828532" lat="46.285289"><ele>2901.0</ele></trkpt>
   <trkpt lon="11.828583" lat="46.285289"><ele>2899.5</ele></trkpt>
   <trkpt lon="11.828595" lat="46.285227"><ele>2896.5</ele></trkpt>
   <trkpt lon="11.828730" lat="46.285238"><ele>2894.75</ele></trkpt>
   <trkpt lon="11.828742" lat="46.285212"><ele>2893.5</ele></trkpt>
   <trkpt lon="11.828791" lat="46.285199"><ele>2892.0</ele></trkpt>
   <trkpt lon="11.828843" lat="46.285142"><ele>2888.0</ele></trkpt>
   <trkpt lon="11.828859" lat="46.285058"><ele>2883.0</ele></trkpt>
   <trkpt lon="11.828908" lat="46.285078"><ele>2883.25</ele></trkpt>
   <trkpt lon="11.828961" lat="46.285046"><ele>2880.5</ele></trkpt>
   <trkpt lon="11.828995" lat="46.284940"><ele>2874.25</ele></trkpt>
   <trkpt lon="11.829048" lat="46.284946"><ele>2873.5</ele></trkpt>
   <trkpt lon="11.829077" lat="46.284940"><ele>2872.75</ele></trkpt>
   <trkpt lon="11.829122" lat="46.284879"><ele>2868.75</ele></trkpt>
   <trkpt lon="11.829283" lat="46.284829"><ele>2864.75</ele></trkpt>
   <trkpt lon="11.829181" lat="46.284727"><ele>2860.0</ele></trkpt>
   <trkpt lon="11.829296" lat="46.284668"><ele>2856.0</ele></trkpt>
   <trkpt lon="11.829329" lat="46.284560"><ele>2850.25</ele></trkpt>
   <trkpt lon="11.829374" lat="46.284532"><ele>2848.0</ele></trkpt>
   <trkpt lon="11.829431" lat="46.284480"><ele>2844.0</ele></trkpt>
   <trkpt lon="11.829593" lat="46.284394"><ele>2838.75</ele></trkpt>
   <trkpt lon="11.829809" lat="46.284353"><ele>2835.75</ele></trkpt>
   <trkpt lon="11.829823" lat="46.284257"><ele>2831.0</ele></trkpt>
   <trkpt lon="11.829842" lat="46.284235"><ele>2829.75</ele></trkpt>
   <trkpt lon="11.829900" lat="46.284193"><ele>2827.5</ele></trkpt>
   <trkpt lon="11.829908" lat="46.284170"><ele>2826.5</ele></trkpt>
   <trkpt lon="11.830090" lat="46.284169"><ele>2825.25</ele></trkpt>
   <trkpt lon="11.830144" lat="46.284103"><ele>2821.5</ele></trkpt>
   <trkpt lon="11.830211" lat="46.284059"><ele>2818.25</ele></trkpt>
   <trkpt lon="11.830305" lat="46.283968"><ele>2812.5</ele></trkpt>
   <trkpt lon="11.830344" lat="46.283886"><ele>2807.5</ele></trkpt>
   <trkpt lon="11.830386" lat="46.283827"><ele>2804.25</ele></trkpt>
   <trkpt lon="11.830406" lat="46.283783"><ele>2801.5</ele></trkpt>
   <trkpt lon="11.830406" lat="46.283715"><ele>2797.75</ele></trkpt>
   <trkpt lon="11.830483" lat="46.283602"><ele>2790.0</ele></trkpt>
   <trkpt lon="11.830436" lat="46.283557"><ele>2790.0</ele></trkpt>
   <trkpt lon="11.830455" lat="46.283535"><ele>2788.75</ele></trkpt>
   <trkpt lon="11.830453" lat="46.283504"><ele>2787.75</ele></trkpt>
   <trkpt lon="11.830480" lat="46.283484"><ele>2786.0</ele></trkpt>
   <trkpt lon="11.830512" lat="46.283400"><ele>2781.0</ele></trkpt>
   <trkpt lon="11.830505" lat="46.283353"><ele>2779.5</ele></trkpt>
   <trkpt lon="11.830535" lat="46.283327"><ele>2776.5</ele></trkpt>
   <trkpt lon="11.830541" lat="46.283308"><ele>2776.25</ele></trkpt>
   <trkpt lon="11.830574" lat="46.283299"><ele>2774.5</ele></trkpt>
   <trkpt lon="11.830652" lat="46.283261"><ele>2771.5</ele></trkpt>
   <trkpt lon="11.830749" lat="46.283116"><ele>2763.5</ele></trkpt>
   <trkpt lon="11.830766" lat="46.283076"><ele>2761.0</ele></trkpt>
   <trkpt lon="11.830836" lat="46.282974"><ele>2753.0</ele></trkpt>
   <trkpt lon="11.830876" lat="46.282953"><ele>2750.5</ele></trkpt>
   <trkpt lon="11.830869" lat="46.282885"><ele>2749.25</ele></trkpt>
   <trkpt lon="11.830895" lat="46.282696"><ele>2743.0</ele></trkpt>
   <trkpt lon="11.831042" lat="46.282793"><ele>2736.0</ele></trkpt>
   <trkpt lon="11.831099" lat="46.282596"><ele>2722.25</ele></trkpt>
   <trkpt lon="11.831107" lat="46.282473"><ele>2715.5</ele></trkpt>
   <trkpt lon="11.831032" lat="46.282490"><ele>2723.75</ele></trkpt>
   <trkpt lon="11.831081" lat="46.282425"><ele>2717.0</ele></trkpt>
   <trkpt lon="11.831069" lat="46.282423"><ele>2718.25</ele></trkpt>
   <trkpt lon="11.831062" lat="46.282414"><ele>2718.75</ele></trkpt>
   <trkpt lon="11.831080" lat="46.282393"><ele>2716.5</ele></trkpt>
   <trkpt lon="11.831083" lat="46.282374"><ele>2715.5</ele></trkpt>
   <trkpt lon="11.831065" lat="46.282356"><ele>2717.0</ele></trkpt>
   <trkpt lon="11.831191" lat="46.282200"><ele>2701.75</ele></trkpt>
   <trkpt lon="11.831249" lat="46.282159"><ele>2696.75</ele></trkpt>
   <trkpt lon="11.831293" lat="46.282069"><ele>2692.75</ele></trkpt>
   <trkpt lon="11.831352" lat="46.281992"><ele>2687.75</ele></trkpt>
   <trkpt lon="11.831411" lat="46.281994"><ele>2684.0</ele></trkpt>
   <trkpt lon="11.831598" lat="46.281868"><ele>2677.75</ele></trkpt>
   <trkpt lon="11.831643" lat="46.281848"><ele>2676.25</ele></trkpt>
   <trkpt lon="11.831759" lat="46.281776"><ele>2673.0</ele></trkpt>
   <trkpt lon="11.831894" lat="46.281685"><ele>2668.25</ele></trkpt>
   <trkpt lon="11.831935" lat="46.281637"><ele>2666.75</ele></trkpt>
   <trkpt lon="11.832090" lat="46.281531"><ele>2662.5</ele></trkpt>
   <trkpt lon="11.832329" lat="46.281452"><ele>2656.0</ele></trkpt>
   <trkpt lon="11.832392" lat="46.281395"><ele>2655.0</ele></trkpt>
   <trkpt lon="11.832435" lat="46.281470"><ele>2653.0</ele></trkpt>
   <trkpt lon="11.832531" lat="46.281494"><ele>2650.0</ele></trkpt>
   <trkpt lon="11.832596" lat="46.281462"><ele>2647.75</ele></trkpt>
   <trkpt lon="11.832640" lat="46.281465"><ele>2646.25</ele></trkpt>
   <trkpt lon="11.832749" lat="46.281414"><ele>2642.0</ele></trkpt>
   <trkpt lon="11.833047" lat="46.281254"><ele>2630.75</ele></trkpt>
   <trkpt lon="11.833242" lat="46.281217"><ele>2622.75</ele></trkpt>
   <trkpt lon="11.833398" lat="46.281141"><ele>2617.0</ele></trkpt>
   <trkpt lon="11.833607" lat="46.281050"><ele>2610.0</ele></trkpt>
   <trkpt lon="11.833732" lat="46.281019"><ele>2606.25</ele></trkpt>
   <trkpt lon="11.833923" lat="46.280934"><ele>2599.25</ele></trkpt>
   <trkpt lon="11.834086" lat="46.280951"><ele>2594.5</ele></trkpt>
   <trkpt lon="11.834136" lat="46.280922"><ele>2592.0</ele></trkpt>
   <trkpt lon="11.834253" lat="46.280834"><ele>2586.75</ele></trkpt>
   <trkpt lon="11.834415" lat="46.280770"><ele>2585.5</ele></trkpt>
   <trkpt lon="11.834652" lat="46.280643"><ele>2575.5</ele></trkpt>
   <trkpt lon="11.834688" lat="46.280598"><ele>2572.5</ele></trkpt>
   <trkpt lon="11.834769" lat="46.280586"><ele>2568.25</ele></trkpt>
   <trkpt lon="11.834948" lat="46.280613"><ele>2564.5</ele></trkpt>
   <trkpt lon="11.835046" lat="46.280577"><ele>2562.0</ele></trkpt>
   <trkpt lon="11.835136" lat="46.280521"><ele>2562.25</ele></trkpt>
   <trkpt lon="11.835178" lat="46.280445"><ele>2564.0</ele></trkpt>
   <trkpt lon="11.835187" lat="46.280333"><ele>2567.0</ele></trkpt>
   <trkpt lon="11.835303" lat="46.280280"><ele>2562.5</ele></trkpt>
   <trkpt lon="11.835313" lat="46.280268"><ele>2563.0</ele></trkpt>
   <trkpt lon="11.835414" lat="46.280255"><ele>2561.5</ele></trkpt>
   <trkpt lon="11.835489" lat="46.280176"><ele>2562.0</ele></trkpt>
   <trkpt lon="11.835561" lat="46.280035"><ele>2560.25</ele></trkpt>
   <trkpt lon="11.835638" lat="46.279976"><ele>2559.0</ele></trkpt>
   <trkpt lon="11.835633" lat="46.279912"><ele>2561.25</ele></trkpt>
   <trkpt lon="11.835729" lat="46.279920"><ele>2556.5</ele></trkpt>
   <trkpt lon="11.835759" lat="46.279877"><ele>2555.5</ele></trkpt>
   <trkpt lon="11.835845" lat="46.279803"><ele>2551.0</ele></trkpt>
   <trkpt lon="11.835942" lat="46.279749"><ele>2548.75</ele></trkpt>
   <trkpt lon="11.836035" lat="46.279683"><ele>2547.75</ele></trkpt>
   <trkpt lon="11.836092" lat="46.279667"><ele>2546.75</ele></trkpt>
   <trkpt lon="11.836228" lat="46.279595"><ele>2546.25</ele></trkpt>
   <trkpt lon="11.836294" lat="46.279546"><ele>2546.0</ele></trkpt>
   <trkpt lon="11.836457" lat="46.279453"><ele>2543.25</ele></trkpt>
   <trkpt lon="11.836596" lat="46.279391"><ele>2545.5</ele></trkpt>
   <trkpt lon="11.836829" lat="46.279321"><ele>2544.75</ele></trkpt>
   <trkpt lon="11.836783" lat="46.279231"><ele>2552.25</ele></trkpt>
   <trkpt lon="11.836791" lat="46.279215"><ele>2553.0</ele></trkpt>
   <trkpt lon="11.836785" lat="46.279164"><ele>2556.75</ele></trkpt>
   <trkpt lon="11.836813" lat="46.279115"><ele>2558.0</ele></trkpt>
   <trkpt lon="11.836806" lat="46.279043"><ele>2562.75</ele></trkpt>
   <trkpt lon="11.836858" lat="46.278862"><ele>2570.75</ele></trkpt>
   <trkpt lon="11.836942" lat="46.278654"><ele>2572.0</ele></trkpt>
   <trkpt lon="11.837011" lat="46.278539"><ele>2573.75</ele></trkpt>
   <trkpt lon="11.837340" lat="46.278183"><ele>2582.75</ele></trkpt>
   <trkpt lon="11.837369" lat="46.278142"><ele>2584.75</ele></trkpt>
   <trkpt lon="11.837395" lat="46.278125"><ele>2585.25</ele></trkpt>
   <trkpt lon="11.837531" lat="46.278105"><ele>2583.75</ele></trkpt>
   <trkpt lon="11.837657" lat="46.278096"><ele>2581.75</ele></trkpt>
   <trkpt lon="11.837732" lat="46.278072"><ele>2582.25</ele></trkpt>
   <trkpt lon="11.838019" lat="46.277895"><ele>2586.5</ele></trkpt>
   <trkpt lon="11.838119" lat="46.277788"><ele>2588.75</ele></trkpt>
   <trkpt lon="11.838182" lat="46.277661"><ele>2586.0</ele></trkpt>
   <trkpt lon="11.838026" lat="46.277497"><ele>2596.5</ele></trkpt>
   <trkpt lon="11.837952" lat="46.277446"><ele>2599.0</ele></trkpt>
   <trkpt lon="11.837910" lat="46.277382"><ele>2599.25</ele></trkpt>
   <trkpt lon="11.837887" lat="46.277294"><ele>2598.0</ele></trkpt>
   <trkpt lon="11.837790" lat="46.277196"><ele>2601.0</ele></trkpt>
   <trkpt lon="11.837669" lat="46.276970"><ele>2604.5</ele></trkpt>
   <trkpt lon="11.837585" lat="46.276893"><ele>2605.25</ele></trkpt>
   <trkpt lon="11.837387" lat="46.276741"><ele>2606.0</ele></trkpt>
   <trkpt lon="11.837111" lat="46.276669"><ele>2610.75</ele></trkpt>
   <trkpt lon="11.836908" lat="46.276588"><ele>2613.25</ele></trkpt>
   <trkpt lon="11.836777" lat="46.276498"><ele>2613.75</ele></trkpt>
   <trkpt lon="11.836572" lat="46.276400"><ele>2615.25</ele></trkpt>
   <trkpt lon="11.836398" lat="46.276263"><ele>2617.0</ele></trkpt>
   <trkpt lon="11.836005" lat="46.276083"><ele>2624.75</ele></trkpt>
   <trkpt lon="11.835774" lat="46.275798"><ele>2630.0</ele></trkpt>
   <trkpt lon="11.835564" lat="46.275650"><ele>2636.5</ele></trkpt>
   <trkpt lon="11.835456" lat="46.275460"><ele>2642.25</ele></trkpt>
   <trkpt lon="11.835439" lat="46.275402"><ele>2644.0</ele></trkpt>
   <trkpt lon="11.835343" lat="46.275303"><ele>2647.0</ele></trkpt>
   <trkpt lon="11.835206" lat="46.275237"><ele>2650.75</ele></trkpt>
   <trkpt lon="11.835145" lat="46.275163"><ele>2654.25</ele></trkpt>
   <trkpt lon="11.835061" lat="46.275095"><ele>2657.25</ele></trkpt>
   <trkpt lon="11.834978" lat="46.274982"><ele>2660.25</ele></trkpt>
   <trkpt lon="11.834968" lat="46.274860"><ele>2662.75</ele></trkpt>
   <trkpt lon="11.834916" lat="46.274808"><ele>2661.75</ele></trkpt>
   <trkpt lon="11.834903" lat="46.274804"><ele>2661.25</ele></trkpt>
   <trkpt lon="11.834844" lat="46.274829"><ele>2658.75</ele></trkpt>
   <trkpt lon="11.834794" lat="46.274834"><ele>2657.0</ele></trkpt>
   <trkpt lon="11.834745" lat="46.274834"><ele>2655.25</ele></trkpt>
   <trkpt lon="11.834701" lat="46.274824"><ele>2653.0</ele></trkpt>
   <trkpt lon="11.834614" lat="46.274837"><ele>2649.5</ele></trkpt>
   <trkpt lon="11.834569" lat="46.274833"><ele>2647.5</ele></trkpt>
   <trkpt lon="11.834480" lat="46.274740"><ele>2640.25</ele></trkpt>
   <trkpt lon="11.834424" lat="46.274692"><ele>2637.5</ele></trkpt>
   <trkpt lon="11.834395" lat="46.274656"><ele>2636.5</ele></trkpt>
   <trkpt lon="11.834357" lat="46.274629"><ele>2635.25</ele></trkpt>
   <trkpt lon="11.834325" lat="46.274586"><ele>2634.25</ele></trkpt>
   <trkpt lon="11.834231" lat="46.274498"><ele>2630.5</ele></trkpt>
   <trkpt lon="11.834191" lat="46.274429"><ele>2629.0</ele></trkpt>
   <trkpt lon="11.834157" lat="46.274395"><ele>2627.0</ele></trkpt>
   <trkpt lon="11.834144" lat="46.274371"><ele>2626.5</ele></trkpt>
   <trkpt lon="11.834066" lat="46.274322"><ele>2622.75</ele></trkpt>
   <trkpt lon="11.834035" lat="46.274268"><ele>2621.25</ele></trkpt>
   <trkpt lon="11.834005" lat="46.274191"><ele>2619.5</ele></trkpt>
   <trkpt lon="11.833874" lat="46.274103"><ele>2614.5</ele></trkpt>
   <trkpt lon="11.833871" lat="46.274017"><ele>2614.5</ele></trkpt>
   <trkpt lon="11.833839" lat="46.273949"><ele>2613.75</ele></trkpt>
   <trkpt lon="11.833770" lat="46.273926"><ele>2612.25</ele></trkpt>
   <trkpt lon="11.833670" lat="46.273903"><ele>2610.25</ele></trkpt>
   <trkpt lon="11.833515" lat="46.273840"><ele>2607.25</ele></trkpt>
   <trkpt lon="11.833399" lat="46.273779"><ele>2605.0</ele></trkpt>
   <trkpt lon="11.833253" lat="46.273681"><ele>2602.5</ele></trkpt>
   <trkpt lon="11.833224" lat="46.273589"><ele>2601.25</ele></trkpt>
   <trkpt lon="11.833193" lat="46.273553"><ele>2600.25</ele></trkpt>
   <trkpt lon="11.833173" lat="46.273485"><ele>2598.75</ele></trkpt>
   <trkpt lon="11.833109" lat="46.273377"><ele>2595.0</ele></trkpt>
   <trkpt lon="11.833051" lat="46.273326"><ele>2591.5</ele></trkpt>
   <trkpt lon="11.833034" lat="46.273273"><ele>2589.75</ele></trkpt>
   <trkpt lon="11.832921" lat="46.273052"><ele>2579.5</ele></trkpt>
   <trkpt lon="11.832891" lat="46.272950"><ele>2575.75</ele></trkpt>
   <trkpt lon="11.832919" lat="46.272871"><ele>2575.25</ele></trkpt>
   <trkpt lon="11.832790" lat="46.272832"><ele>2568.75</ele></trkpt>
   <trkpt lon="11.832790" lat="46.272725"><ele>2566.75</ele></trkpt>
   <trkpt lon="11.832833" lat="46.272582"><ele>2566.25</ele></trkpt>
   <trkpt lon="11.832959" lat="46.272544"><ele>2570.75</ele></trkpt>
   <trkpt lon="11.833048" lat="46.272446"><ele>2572.0</ele></trkpt>
   <trkpt lon="11.833112" lat="46.272404"><ele>2573.75</ele></trkpt>
   <trkpt lon="11.833143" lat="46.272352"><ele>2573.25</ele></trkpt>
   <trkpt lon="11.833322" lat="46.272259"><ele>2575.5</ele></trkpt>
   <trkpt lon="11.833512" lat="46.272182"><ele>2584.5</ele></trkpt>
   <trkpt lon="11.833525" lat="46.272150"><ele>2582.0</ele></trkpt>
   <trkpt lon="11.833581" lat="46.272111"><ele>2581.0</ele></trkpt>
   <trkpt lon="11.833632" lat="46.272063"><ele>2578.25</ele></trkpt>
   <trkpt lon="11.833737" lat="46.272007"><ele>2576.5</ele></trkpt>
   <trkpt lon="11.833886" lat="46.271985"><ele>2579.5</ele></trkpt>
   <trkpt lon="11.833924" lat="46.271960"><ele>2577.25</ele></trkpt>
   <trkpt lon="11.834119" lat="46.271892"><ele>2585.75</ele></trkpt>
   <trkpt lon="11.834183" lat="46.271892"><ele>2590.75</ele></trkpt>
   <trkpt lon="11.834273" lat="46.271863"><ele>2595.5</ele></trkpt>
   <trkpt lon="11.834334" lat="46.271855"><ele>2599.25</ele></trkpt>
   <trkpt lon="11.834379" lat="46.271837"><ele>2601.0</ele></trkpt>
   <trkpt lon="11.834404" lat="46.271790"><ele>2597.75</ele></trkpt>
   <trkpt lon="11.834419" lat="46.271733"><ele>2592.75</ele></trkpt>
   <trkpt lon="11.834475" lat="46.271722"><ele>2594.5</ele></trkpt>
   <trkpt lon="11.834523" lat="46.271683"><ele>2591.75</ele></trkpt>
   <trkpt lon="11.834575" lat="46.271627"><ele>2590.5</ele></trkpt>
   <trkpt lon="11.834711" lat="46.271565"><ele>2595.25</ele></trkpt>
   <trkpt lon="11.834900" lat="46.271422"><ele>2602.25</ele></trkpt>
   <trkpt lon="11.835009" lat="46.271361"><ele>2605.5</ele></trkpt>
   <trkpt lon="11.835217" lat="46.271303"><ele>2610.0</ele></trkpt>
   <trkpt lon="11.835500" lat="46.271121"><ele>2612.0</ele></trkpt>
   <trkpt lon="11.835578" lat="46.271077"><ele>2613.0</ele></trkpt>
   <trkpt lon="11.835653" lat="46.271048"><ele>2614.25</ele></trkpt>
   <trkpt lon="11.835669" lat="46.270981"><ele>2611.5</ele></trkpt>
   <trkpt lon="11.835715" lat="46.270922"><ele>2610.0</ele></trkpt>
   <trkpt lon="11.835802" lat="46.270859"><ele>2609.25</ele></trkpt>
   <trkpt lon="11.835895" lat="46.270847"><ele>2612.5</ele></trkpt>
   <trkpt lon="11.835934" lat="46.270812"><ele>2612.25</ele></trkpt>
   <trkpt lon="11.835968" lat="46.270706"><ele>2607.5</ele></trkpt>
   <trkpt lon="11.835965" lat="46.270679"><ele>2605.75</ele></trkpt>
   <trkpt lon="11.836035" lat="46.270662"><ele>2607.25</ele></trkpt>
   <trkpt lon="11.836112" lat="46.270620"><ele>2607.25</ele></trkpt>
   <trkpt lon="11.836230" lat="46.270591"><ele>2608.25</ele></trkpt>
   <trkpt lon="11.836373" lat="46.270572"><ele>2610.0</ele></trkpt>
   <trkpt lon="11.836711" lat="46.270479"><ele>2616.75</ele></trkpt>
   <trkpt lon="11.836858" lat="46.270429"><ele>2620.75</ele></trkpt>
   <trkpt lon="11.836948" lat="46.270357"><ele>2619.75</ele></trkpt>
   <trkpt lon="11.837006" lat="46.270296"><ele>2617.75</ele></trkpt>
   <trkpt lon="11.837011" lat="46.270255"><ele>2616.5</ele></trkpt>
   <trkpt lon="11.836989" lat="46.270123"><ele>2616.5</ele></trkpt>
   <trkpt lon="11.836946" lat="46.270065"><ele>2616.0</ele></trkpt>
   <trkpt lon="11.836732" lat="46.269925"><ele>2612.25</ele></trkpt>
   <trkpt lon="11.836714" lat="46.269828"><ele>2612.0</ele></trkpt>
   <trkpt lon="11.836796" lat="46.269748"><ele>2614.0</ele></trkpt>
   <trkpt lon="11.836897" lat="46.269694"><ele>2615.75</ele></trkpt>
   <trkpt lon="11.837068" lat="46.269581"><ele>2613.0</ele></trkpt>
   <trkpt lon="11.837162" lat="46.269568"><ele>2612.75</ele></trkpt>
   <trkpt lon="11.837161" lat="46.269509"><ele>2609.25</ele></trkpt>
   <trkpt lon="11.837173" lat="46.269499"><ele>2608.5</ele></trkpt>
   <trkpt lon="11.837392" lat="46.269456"><ele>2603.75</ele></trkpt>
   <trkpt lon="11.837595" lat="46.269407"><ele>2598.75</ele></trkpt>
   <trkpt lon="11.837547" lat="46.269299"><ele>2595.25</ele></trkpt>
   <trkpt lon="11.837826" lat="46.269210"><ele>2591.25</ele></trkpt>
   <trkpt lon="11.837910" lat="46.269116"><ele>2589.25</ele></trkpt>
   <trkpt lon="11.837923" lat="46.269068"><ele>2588.5</ele></trkpt>
   <trkpt lon="11.837982" lat="46.269022"><ele>2587.75</ele></trkpt>
   <trkpt lon="11.837989" lat="46.269004"><ele>2587.5</ele></trkpt>
   <trkpt lon="11.838072" lat="46.268912"><ele>2587.0</ele></trkpt>
   <trkpt lon="11.838139" lat="46.268861"><ele>2586.5</ele></trkpt>
   <trkpt lon="11.838205" lat="46.268779"><ele>2585.75</ele></trkpt>
   <trkpt lon="11.838308" lat="46.268613"><ele>2584.75</ele></trkpt>
   <trkpt lon="11.838269" lat="46.268410"><ele>2586.75</ele></trkpt>
   <trkpt lon="11.838261" lat="46.268394"><ele>2586.75</ele></trkpt>
   <trkpt lon="11.838200" lat="46.268333"><ele>2586.5</ele></trkpt>
   <trkpt lon="11.838183" lat="46.268264"><ele>2585.25</ele></trkpt>
   <trkpt lon="11.838275" lat="46.268229"><ele>2585.25</ele></trkpt>
   <trkpt lon="11.838318" lat="46.268181"><ele>2584.0</ele></trkpt>
   <trkpt lon="11.838404" lat="46.268178"><ele>2584.0</ele></trkpt>
   <trkpt lon="11.838566" lat="46.268142"><ele>2582.5</ele></trkpt>
   <trkpt lon="11.838746" lat="46.268063"><ele>2580.0</ele></trkpt>
   <trkpt lon="11.838797" lat="46.268001"><ele>2580.75</ele></trkpt>
   <trkpt lon="11.838794" lat="46.267972"><ele>2581.0</ele></trkpt>
   <trkpt lon="11.838696" lat="46.267825"><ele>2581.0</ele></trkpt>
   <trkpt lon="11.838727" lat="46.267712"><ele>2581.0</ele></trkpt>
   <trkpt lon="11.838853" lat="46.267599"><ele>2581.0</ele></trkpt>
   <trkpt lon="11.838909" lat="46.267545"><ele>2580.5</ele></trkpt>
   <trkpt lon="11.839199" lat="46.267528"><ele>2578.75</ele></trkpt>
   <trkpt lon="11.839223" lat="46.267397"><ele>2575.75</ele></trkpt>
   <trkpt lon="11.839282" lat="46.267339"><ele>2574.25</ele></trkpt>
   <trkpt lon="11.839215" lat="46.267341"><ele>2574.25</ele></trkpt>
   <trkpt lon="11.839024" lat="46.267335"><ele>2576.0</ele></trkpt>
   <trkpt lon="11.839215" lat="46.267341"><ele>2574.25</ele></trkpt>
   <trkpt lon="11.839282" lat="46.267339"><ele>2574.25</ele></trkpt>
   <trkpt lon="11.839348" lat="46.267350"><ele>2574.25</ele></trkpt>
   <trkpt lon="11.839443" lat="46.267316"><ele>2573.5</ele></trkpt>
   <trkpt lon="11.839756" lat="46.267258"><ele>2573.25</ele></trkpt>
   <trkpt lon="11.840113" lat="46.267169"><ele>2570.25</ele></trkpt>
   <trkpt lon="11.840648" lat="46.266995"><ele>2565.75</ele></trkpt>
   <trkpt lon="11.840852" lat="46.266902"><ele>2565.5</ele></trkpt>
   <trkpt lon="11.840822" lat="46.266830"><ele>2567.0</ele></trkpt>
   <trkpt lon="11.840832" lat="46.266795"><ele>2567.5</ele></trkpt>
   <trkpt lon="11.840863" lat="46.266753"><ele>2568.0</ele></trkpt>
   <trkpt lon="11.840944" lat="46.266711"><ele>2568.0</ele></trkpt>
   <trkpt lon="11.841088" lat="46.266654"><ele>2567.25</ele></trkpt>
   <trkpt lon="11.841216" lat="46.266629"><ele>2566.5</ele></trkpt>
   <trkpt lon="11.841457" lat="46.266540"><ele>2568.0</ele></trkpt>
   <trkpt lon="11.841440" lat="46.266482"><ele>2570.0</ele></trkpt>
   <trkpt lon="11.841840" lat="46.266463"><ele>2569.0</ele></trkpt>
   <trkpt lon="11.842165" lat="46.266441"><ele>2566.75</ele></trkpt>
   <trkpt lon="11.842403" lat="46.266439"><ele>2563.25</ele></trkpt>
   <trkpt lon="11.842652" lat="46.266348"><ele>2562.75</ele></trkpt>
   <trkpt lon="11.843472" lat="46.266180"><ele>2558.25</ele></trkpt>
   <trkpt lon="11.843982" lat="46.266044"><ele>2552.0</ele></trkpt>
   <trkpt lon="11.844415" lat="46.266145"><ele>2550.5</ele></trkpt>
   <trkpt lon="11.844658" lat="46.266143"><ele>2548.5</ele></trkpt>
   <trkpt lon="11.845515" lat="46.266051"><ele>2544.75</ele></trkpt>
   <trkpt lon="11.845775" lat="46.266051"><ele>2543.5</ele></trkpt>
   <trkpt lon="11.846110" lat="46.265976"><ele>2543.25</ele></trkpt>
   <trkpt lon="11.846448" lat="46.265931"><ele>2543.0</ele></trkpt>
   <trkpt lon="11.846732" lat="46.265980"><ele>2545.5</ele></trkpt>
   <trkpt lon="11.847029" lat="46.265964"><ele>2551.25</ele></trkpt>
   <trkpt lon="11.847135" lat="46.265974"><ele>2553.5</ele></trkpt>
   <trkpt lon="11.847633" lat="46.265948"><ele>2564.75</ele></trkpt>
   <trkpt lon="11.847976" lat="46.265974"><ele>2573.5</ele></trkpt>
   <trkpt lon="11.848225" lat="46.266018"><ele>2578.25</ele></trkpt>
   <trkpt lon="11.848662" lat="46.266119"><ele>2583.5</ele></trkpt>
   <trkpt lon="11.848964" lat="46.266116"><ele>2588.75</ele></trkpt>
   <trkpt lon="11.849127" lat="46.266194"><ele>2589.5</ele></trkpt>
   <trkpt lon="11.849412" lat="46.266219"><ele>2593.75</ele></trkpt>
   <trkpt lon="11.849692" lat="46.266274"><ele>2595.75</ele></trkpt>
   <trkpt lon="11.850009" lat="46.266262"><ele>2598.25</ele></trkpt>
   <trkpt lon="11.850067" lat="46.266232"><ele>2599.5</ele></trkpt>
   <trkpt lon="11.850347" lat="46.266225"><ele>2602.5</ele></trkpt>
   <trkpt lon="11.850505" lat="46.266171"><ele>2603.5</ele></trkpt>
   <trkpt lon="11.850560" lat="46.265992"><ele>2607.75</ele></trkpt>
   <trkpt lon="11.850674" lat="46.265987"><ele>2607.5</ele></trkpt>
   <trkpt lon="11.851002" lat="46.265818"><ele>2609.75</ele></trkpt>
   <trkpt lon="11.851340" lat="46.265754"><ele>2608.0</ele></trkpt>
   <trkpt lon="11.851633" lat="46.265689"><ele>2608.0</ele></trkpt>
   <trkpt lon="11.851772" lat="46.265699"><ele>2607.75</ele></trkpt>
   <trkpt lon="11.851995" lat="46.265585"><ele>2606.25</ele></trkpt>
   <trkpt lon="11.852060" lat="46.265585"><ele>2605.25</ele></trkpt>
   <trkpt lon="11.852191" lat="46.265484"><ele>2600.75</ele></trkpt>
   <trkpt lon="11.852373" lat="46.265467"><ele>2600.25</ele></trkpt>
   <trkpt lon="11.852879" lat="46.265451"><ele>2605.25</ele></trkpt>
   <trkpt lon="11.853023" lat="46.265376"><ele>2609.25</ele></trkpt>
   <trkpt lon="11.853286" lat="46.265356"><ele>2611.75</ele></trkpt>
   <trkpt lon="11.853329" lat="46.265292"><ele>2614.25</ele></trkpt>
   <trkpt lon="11.853497" lat="46.265242"><ele>2614.25</ele></trkpt>
   <trkpt lon="11.853604" lat="46.265176"><ele>2615.5</ele></trkpt>
   <trkpt lon="11.853771" lat="46.265042"><ele>2617.5</ele></trkpt>
   <trkpt lon="11.854044" lat="46.264983"><ele>2616.0</ele></trkpt>
   <trkpt lon="11.854475" lat="46.264806"><ele>2613.25</ele></trkpt>
   <trkpt lon="11.854603" lat="46.264646"><ele>2612.0</ele></trkpt>
   <trkpt lon="11.854697" lat="46.264621"><ele>2613.0</ele></trkpt>
   <trkpt lon="11.854794" lat="46.264636"><ele>2611.5</ele></trkpt>
   <trkpt lon="11.854939" lat="46.264507"><ele>2608.25</ele></trkpt>
   <trkpt lon="11.855150" lat="46.264445"><ele>2608.75</ele></trkpt>
   <trkpt lon="11.855351" lat="46.264298"><ele>2613.0</ele></trkpt>
   <trkpt lon="11.855432" lat="46.264143"><ele>2618.25</ele></trkpt>
   <trkpt lon="11.855330" lat="46.264084"><ele>2619.25</ele></trkpt>
   <trkpt lon="11.855465" lat="46.264036"><ele>2622.25</ele></trkpt>
   <trkpt lon="11.855498" lat="46.263945"><ele>2625.5</ele></trkpt>
   <trkpt lon="11.855452" lat="46.263843"><ele>2627.5</ele></trkpt>
   <trkpt lon="11.855595" lat="46.263660"><ele>2630.25</ele></trkpt>
   <trkpt lon="11.855556" lat="46.263149"><ele>2632.75</ele></trkpt>
   <trkpt lon="11.855606" lat="46.262901"><ele>2638.75</ele></trkpt>
   <trkpt lon="11.855575" lat="46.262755"><ele>2642.5</ele></trkpt>
   <trkpt lon="11.855654" lat="46.262640"><ele>2645.5</ele></trkpt>
   <trkpt lon="11.855635" lat="46.262408"><ele>2648.5</ele></trkpt>
   <trkpt lon="11.855657" lat="46.262256"><ele>2649.0</ele></trkpt>
   <trkpt lon="11.855533" lat="46.262256"><ele>2649.5</ele></trkpt>
   <trkpt lon="11.855502" lat="46.262068"><ele>2648.0</ele></trkpt>
   <trkpt lon="11.855565" lat="46.261859"><ele>2648.0</ele></trkpt>
   <trkpt lon="11.855864" lat="46.261738"><ele>2651.0</ele></trkpt>
   <trkpt lon="11.856015" lat="46.261570"><ele>2656.25</ele></trkpt>
   <trkpt lon="11.856259" lat="46.261540"><ele>2656.5</ele></trkpt>
   <trkpt lon="11.856497" lat="46.261361"><ele>2662.0</ele></trkpt>
   <trkpt lon="11.856835" lat="46.261272"><ele>2662.75</ele></trkpt>
   <trkpt lon="11.857028" lat="46.261123"><ele>2665.75</ele></trkpt>
   <trkpt lon="11.857272" lat="46.261063"><ele>2663.25</ele></trkpt>
   <trkpt lon="11.857595" lat="46.260929"><ele>2657.75</ele></trkpt>
   <trkpt lon="11.857803" lat="46.260731"><ele>2657.25</ele></trkpt>
   <trkpt lon="11.857982" lat="46.260527"><ele>2656.5</ele></trkpt>
   <trkpt lon="11.858072" lat="46.260279"><ele>2659.0</ele></trkpt>
   <trkpt lon="11.858409" lat="46.260279"><ele>2659.75</ele></trkpt>
   <trkpt lon="11.858698" lat="46.260287"><ele>2662.0</ele></trkpt>
   <trkpt lon="11.858990" lat="46.260269"><ele>2671.25</ele></trkpt>
   <trkpt lon="11.859097" lat="46.260376"><ele>2672.75</ele></trkpt>
   <trkpt lon="11.860028" lat="46.260415"><ele>2670.75</ele></trkpt>
   <trkpt lon="11.860465" lat="46.260366"><ele>2663.25</ele></trkpt>
   <trkpt lon="11.860957" lat="46.260244"><ele>2656.75</ele></trkpt>
   <trkpt lon="11.861173" lat="46.260095"><ele>2654.25</ele></trkpt>
   <trkpt lon="11.862262" lat="46.259749"><ele>2657.5</ele></trkpt>
   <trkpt lon="11.862501" lat="46.259610"><ele>2659.75</ele></trkpt>
   <trkpt lon="11.862909" lat="46.259436"><ele>2658.75</ele></trkpt>
   <trkpt lon="11.863068" lat="46.258956"><ele>2669.5</ele></trkpt>
   <trkpt lon="11.862969" lat="46.258888"><ele>2676.5</ele></trkpt>
   <trkpt lon="11.863032" lat="46.258793"><ele>2674.0</ele></trkpt>
   <trkpt lon="11.862945" lat="46.258594"><ele>2678.0</ele></trkpt>
   <trkpt lon="11.862977" lat="46.258523"><ele>2677.25</ele></trkpt>
   <trkpt lon="11.862933" lat="46.258459"><ele>2678.25</ele></trkpt>
   <trkpt lon="11.863076" lat="46.258344"><ele>2676.25</ele></trkpt>
   <trkpt lon="11.863151" lat="46.258209"><ele>2675.5</ele></trkpt>
   <trkpt lon="11.863771" lat="46.257995"><ele>2666.75</ele></trkpt>
   <trkpt lon="11.864030" lat="46.257980"><ele>2662.5</ele></trkpt>
   <trkpt lon="11.864257" lat="46.258071"><ele>2658.5</ele></trkpt>
   <trkpt lon="11.864455" lat="46.258082"><ele>2656.25</ele></trkpt>
   <trkpt lon="11.864464" lat="46.257984"><ele>2655.25</ele></trkpt>
   <trkpt lon="11.864427" lat="46.257893"><ele>2653.75</ele></trkpt>
   <trkpt lon="11.864377" lat="46.257818"><ele>2653.5</ele></trkpt>
   <trkpt lon="11.864329" lat="46.257783"><ele>2654.25</ele></trkpt>
   <trkpt lon="11.864320" lat="46.257707"><ele>2650.25</ele></trkpt>
   <trkpt lon="11.864360" lat="46.257708"><ele>2649.25</ele></trkpt>
   <trkpt lon="11.864434" lat="46.257727"><ele>2648.5</ele></trkpt>
   <trkpt lon="11.864473" lat="46.257675"><ele>2645.0</ele></trkpt>
   <trkpt lon="11.864460" lat="46.257631"><ele>2642.75</ele></trkpt>
   <trkpt lon="11.864412" lat="46.257611"><ele>2642.5</ele></trkpt>
   <trkpt lon="11.864369" lat="46.257556"><ele>2640.25</ele></trkpt>
   <trkpt lon="11.864315" lat="46.257503"><ele>2638.0</ele></trkpt>
   <trkpt lon="11.864368" lat="46.257515"><ele>2637.75</ele></trkpt>
   <trkpt lon="11.864396" lat="46.257498"><ele>2636.5</ele></trkpt>
   <trkpt lon="11.864441" lat="46.257483"><ele>2634.75</ele></trkpt>
   <trkpt lon="11.864469" lat="46.257462"><ele>2633.0</ele></trkpt>
   <trkpt lon="11.864485" lat="46.257431"><ele>2630.75</ele></trkpt>
   <trkpt lon="11.864629" lat="46.257490"><ele>2632.0</ele></trkpt>
   <trkpt lon="11.864620" lat="46.257417"><ele>2628.25</ele></trkpt>
   <trkpt lon="11.864571" lat="46.257390"><ele>2627.25</ele></trkpt>
   <trkpt lon="11.864567" lat="46.257358"><ele>2625.5</ele></trkpt>
   <trkpt lon="11.864612" lat="46.257354"><ele>2625.0</ele></trkpt>
   <trkpt lon="11.864599" lat="46.257338"><ele>2624.25</ele></trkpt>
   <trkpt lon="11.864605" lat="46.257293"><ele>2621.75</ele></trkpt>
   <trkpt lon="11.864558" lat="46.257315"><ele>2623.25</ele></trkpt>
   <trkpt lon="11.864551" lat="46.257286"><ele>2621.5</ele></trkpt>
   <trkpt lon="11.864529" lat="46.257256"><ele>2620.0</ele></trkpt>
   <trkpt lon="11.864622" lat="46.257176"><ele>2615.75</ele></trkpt>
   <trkpt lon="11.864726" lat="46.257129"><ele>2612.0</ele></trkpt>
   <trkpt lon="11.864727" lat="46.257098"><ele>2610.0</ele></trkpt>
   <trkpt lon="11.864755" lat="46.257098"><ele>2609.0</ele></trkpt>
   <trkpt lon="11.864803" lat="46.257070"><ele>2605.75</ele></trkpt>
   <trkpt lon="11.864803" lat="46.257020"><ele>2603.0</ele></trkpt>
   <trkpt lon="11.864827" lat="46.256978"><ele>2600.0</ele></trkpt>
   <trkpt lon="11.864853" lat="46.256978"><ele>2599.25</ele></trkpt>
   <trkpt lon="11.864891" lat="46.256952"><ele>2597.0</ele></trkpt>
   <trkpt lon="11.864902" lat="46.256919"><ele>2596.5</ele></trkpt>
   <trkpt lon="11.864957" lat="46.256939"><ele>2595.0</ele></trkpt>
   <trkpt lon="11.864970" lat="46.256929"><ele>2594.75</ele></trkpt>
   <trkpt lon="11.865000" lat="46.256853"><ele>2594.25</ele></trkpt>
   <trkpt lon="11.865139" lat="46.256852"><ele>2591.0</ele></trkpt>
   <trkpt lon="11.865212" lat="46.256899"><ele>2589.0</ele></trkpt>
   <trkpt lon="11.865415" lat="46.256826"><ele>2584.25</ele></trkpt>
   <trkpt lon="11.865592" lat="46.256802"><ele>2579.0</ele></trkpt>
   <trkpt lon="11.865694" lat="46.256666"><ele>2573.75</ele></trkpt>
   <trkpt lon="11.865735" lat="46.256631"><ele>2571.25</ele></trkpt>
   <trkpt lon="11.865777" lat="46.256618"><ele>2569.5</ele></trkpt>
   <trkpt lon="11.865783" lat="46.256578"><ele>2567.75</ele></trkpt>
   <trkpt lon="11.865888" lat="46.256472"><ele>2561.25</ele></trkpt>
   <trkpt lon="11.865930" lat="46.256415"><ele>2559.5</ele></trkpt>
   <trkpt lon="11.865891" lat="46.256374"><ele>2558.0</ele></trkpt>
   <trkpt lon="11.865781" lat="46.256316"><ele>2557.5</ele></trkpt>
   <trkpt lon="11.865677" lat="46.256234"><ele>2555.25</ele></trkpt>
   <trkpt lon="11.865399" lat="46.256153"><ele>2553.0</ele></trkpt>
   <trkpt lon="11.865350" lat="46.256104"><ele>2549.75</ele></trkpt>
   <trkpt lon="11.865328" lat="46.256069"><ele>2548.25</ele></trkpt>
   <trkpt lon="11.865263" lat="46.256040"><ele>2547.75</ele></trkpt>
   <trkpt lon="11.865220" lat="46.255999"><ele>2546.5</ele></trkpt>
   <trkpt lon="11.865210" lat="46.255938"><ele>2542.25</ele></trkpt>
   <trkpt lon="11.865143" lat="46.255864"><ele>2537.5</ele></trkpt>
   <trkpt lon="11.865133" lat="46.255832"><ele>2535.0</ele></trkpt>
   <trkpt lon="11.865079" lat="46.255802"><ele>2534.5</ele></trkpt>
   <trkpt lon="11.865017" lat="46.255811"><ele>2534.75</ele></trkpt>
   <trkpt lon="11.865022" lat="46.255787"><ele>2534.0</ele></trkpt>
   <trkpt lon="11.864959" lat="46.255744"><ele>2532.0</ele></trkpt>
   <trkpt lon="11.864844" lat="46.255686"><ele>2528.25</ele></trkpt>
   <trkpt lon="11.864846" lat="46.255650"><ele>2526.25</ele></trkpt>
   <trkpt lon="11.864854" lat="46.255643"><ele>2526.0</ele></trkpt>
   <trkpt lon="11.864836" lat="46.255610"><ele>2524.0</ele></trkpt>
   <trkpt lon="11.864787" lat="46.255575"><ele>2521.25</ele></trkpt>
   <trkpt lon="11.864715" lat="46.255603"><ele>2521.75</ele></trkpt>
   <trkpt lon="11.864619" lat="46.255584"><ele>2519.25</ele></trkpt>
   <trkpt lon="11.864629" lat="46.255533"><ele>2517.0</ele></trkpt>
   <trkpt lon="11.864656" lat="46.255505"><ele>2516.75</ele></trkpt>
   <trkpt lon="11.864672" lat="46.255452"><ele>2515.75</ele></trkpt>
   <trkpt lon="11.864586" lat="46.255425"><ele>2514.0</ele></trkpt>
   <trkpt lon="11.864545" lat="46.255369"><ele>2512.5</ele></trkpt>
   <trkpt lon="11.864406" lat="46.255271"><ele>2509.25</ele></trkpt>
   <trkpt lon="11.864383" lat="46.255222"><ele>2508.0</ele></trkpt>
   <trkpt lon="11.864249" lat="46.255124"><ele>2504.75</ele></trkpt>
   <trkpt lon="11.864236" lat="46.255101"><ele>2504.25</ele></trkpt>
   <trkpt lon="11.864130" lat="46.255075"><ele>2502.75</ele></trkpt>
   <trkpt lon="11.863983" lat="46.254992"><ele>2500.5</ele></trkpt>
   <trkpt lon="11.863967" lat="46.254902"><ele>2499.5</ele></trkpt>
   <trkpt lon="11.863923" lat="46.254816"><ele>2498.25</ele></trkpt>
   <trkpt lon="11.863857" lat="46.254794"><ele>2497.5</ele></trkpt>
   <trkpt lon="11.863833" lat="46.254714"><ele>2496.75</ele></trkpt>
   <trkpt lon="11.863858" lat="46.254604"><ele>2496.75</ele></trkpt>
   <trkpt lon="11.863793" lat="46.254515"><ele>2496.0</ele></trkpt>
   <trkpt lon="11.863734" lat="46.254394"><ele>2495.25</ele></trkpt>
   <trkpt lon="11.863623" lat="46.254300"><ele>2493.0</ele></trkpt>
   <trkpt lon="11.863566" lat="46.254272"><ele>2492.5</ele></trkpt>
   <trkpt lon="11.863473" lat="46.254176"><ele>2492.0</ele></trkpt>
   <trkpt lon="11.863357" lat="46.254104"><ele>2491.75</ele></trkpt>
   <trkpt lon="11.863253" lat="46.254017"><ele>2491.0</ele></trkpt>
   <trkpt lon="11.863177" lat="46.253944"><ele>2490.0</ele></trkpt>
   <trkpt lon="11.863136" lat="46.253877"><ele>2489.5</ele></trkpt>
   <trkpt lon="11.863049" lat="46.253825"><ele>2488.75</ele></trkpt>
   <trkpt lon="11.862855" lat="46.253750"><ele>2487.0</ele></trkpt>
   <trkpt lon="11.862892" lat="46.253678"><ele>2486.75</ele></trkpt>
   <trkpt lon="11.862925" lat="46.253578"><ele>2486.75</ele></trkpt>
   <trkpt lon="11.862885" lat="46.253550"><ele>2485.75</ele></trkpt>
   <trkpt lon="11.862815" lat="46.253448"><ele>2483.5</ele></trkpt>
   <trkpt lon="11.862822" lat="46.253431"><ele>2483.5</ele></trkpt>
   <trkpt lon="11.862794" lat="46.253325"><ele>2481.75</ele></trkpt>
   <trkpt lon="11.862774" lat="46.253322"><ele>2481.0</ele></trkpt>
   <trkpt lon="11.862804" lat="46.253247"><ele>2484.5</ele></trkpt>
   <trkpt lon="11.862757" lat="46.253216"><ele>2483.5</ele></trkpt>
   <trkpt lon="11.862666" lat="46.253134"><ele>2483.25</ele></trkpt>
   <trkpt lon="11.862611" lat="46.253130"><ele>2481.75</ele></trkpt>
   <trkpt lon="11.862523" lat="46.253142"><ele>2478.5</ele></trkpt>
   <trkpt lon="11.862502" lat="46.253078"><ele>2481.0</ele></trkpt>
   <trkpt lon="11.862390" lat="46.253050"><ele>2474.75</ele></trkpt>
   <trkpt lon="11.862395" lat="46.252952"><ele>2475.5</ele></trkpt>
   <trkpt lon="11.862350" lat="46.252891"><ele>2474.25</ele></trkpt>
   <trkpt lon="11.862332" lat="46.252794"><ele>2475.25</ele></trkpt>
   <trkpt lon="11.862367" lat="46.252738"><ele>2475.25</ele></trkpt>
   <trkpt lon="11.862373" lat="46.252701"><ele>2474.5</ele></trkpt>
   <trkpt lon="11.862333" lat="46.252691"><ele>2473.5</ele></trkpt>
   <trkpt lon="11.862306" lat="46.252672"><ele>2472.5</ele></trkpt>
   <trkpt lon="11.862272" lat="46.252661"><ele>2471.5</ele></trkpt>
   <trkpt lon="11.862232" lat="46.252637"><ele>2470.0</ele></trkpt>
   <trkpt lon="11.862140" lat="46.252626"><ele>2466.0</ele></trkpt>
   <trkpt lon="11.862156" lat="46.252500"><ele>2464.0</ele></trkpt>
   <trkpt lon="11.862154" lat="46.252469"><ele>2464.0</ele></trkpt>
   <trkpt lon="11.862128" lat="46.252432"><ele>2463.25</ele></trkpt>
   <trkpt lon="11.862150" lat="46.252382"><ele>2463.75</ele></trkpt>
   <trkpt lon="11.861992" lat="46.252317"><ele>2459.25</ele></trkpt>
   <trkpt lon="11.861899" lat="46.252319"><ele>2457.0</ele></trkpt>
   <trkpt lon="11.861748" lat="46.252239"><ele>2454.25</ele></trkpt>
   <trkpt lon="11.861720" lat="46.252197"><ele>2454.25</ele></trkpt>
   <trkpt lon="11.861620" lat="46.252165"><ele>2452.75</ele></trkpt>
   <trkpt lon="11.861512" lat="46.252107"><ele>2451.0</ele></trkpt>
   <trkpt lon="11.861422" lat="46.252068"><ele>2449.25</ele></trkpt>
   <trkpt lon="11.861323" lat="46.252042"><ele>2448.0</ele></trkpt>
   <trkpt lon="11.861278" lat="46.251978"><ele>2447.5</ele></trkpt>
   <trkpt lon="11.861228" lat="46.251944"><ele>2447.25</ele></trkpt>
   <trkpt lon="11.861126" lat="46.251922"><ele>2446.5</ele></trkpt>
   <trkpt lon="11.861073" lat="46.251882"><ele>2446.0</ele></trkpt>
   <trkpt lon="11.861057" lat="46.251850"><ele>2446.0</ele></trkpt>
   <trkpt lon="11.860985" lat="46.251797"><ele>2444.0</ele></trkpt>
   <trkpt lon="11.860912" lat="46.251770"><ele>2441.0</ele></trkpt>
   <trkpt lon="11.860940" lat="46.251680"><ele>2442.25</ele></trkpt>
   <trkpt lon="11.860890" lat="46.251599"><ele>2440.0</ele></trkpt>
   <trkpt lon="11.860826" lat="46.251548"><ele>2437.5</ele></trkpt>
   <trkpt lon="11.860758" lat="46.251562"><ele>2434.5</ele></trkpt>
   <trkpt lon="11.860742" lat="46.251585"><ele>2433.5</ele></trkpt>
   <trkpt lon="11.860714" lat="46.251580"><ele>2432.25</ele></trkpt>
   <trkpt lon="11.860688" lat="46.251556"><ele>2431.75</ele></trkpt>
   <trkpt lon="11.860663" lat="46.251547"><ele>2431.0</ele></trkpt>
   <trkpt lon="11.860640" lat="46.251546"><ele>2430.0</ele></trkpt>
   <trkpt lon="11.860612" lat="46.251534"><ele>2429.25</ele></trkpt>
   <trkpt lon="11.860581" lat="46.251534"><ele>2428.0</ele></trkpt>
   <trkpt lon="11.860581" lat="46.251542"><ele>2427.75</ele></trkpt>
   <trkpt lon="11.860549" lat="46.251563"><ele>2425.75</ele></trkpt>
   <trkpt lon="11.860552" lat="46.251594"><ele>2424.75</ele></trkpt>
   <trkpt lon="11.860538" lat="46.251617"><ele>2423.5</ele></trkpt>
   <trkpt lon="11.860506" lat="46.251626"><ele>2422.25</ele></trkpt>
   <trkpt lon="11.860447" lat="46.251562"><ele>2422.5</ele></trkpt>
   <trkpt lon="11.860395" lat="46.251542"><ele>2421.25</ele></trkpt>
   <trkpt lon="11.860355" lat="46.251569"><ele>2419.5</ele></trkpt>
   <trkpt lon="11.860309" lat="46.251570"><ele>2418.25</ele></trkpt>
   <trkpt lon="11.860294" lat="46.251503"><ele>2418.0</ele></trkpt>
   <trkpt lon="11.860256" lat="46.251506"><ele>2416.75</ele></trkpt>
   <trkpt lon="11.860240" lat="46.251477"><ele>2416.25</ele></trkpt>
   <trkpt lon="11.860132" lat="46.251361"><ele>2412.0</ele></trkpt>
   <trkpt lon="11.860085" lat="46.251281"><ele>2411.5</ele></trkpt>
   <trkpt lon="11.860039" lat="46.251224"><ele>2410.5</ele></trkpt>
   <trkpt lon="11.860009" lat="46.251225"><ele>2409.25</ele></trkpt>
   <trkpt lon="11.859964" lat="46.251239"><ele>2407.0</ele></trkpt>
   <trkpt lon="11.859927" lat="46.251210"><ele>2406.0</ele></trkpt>
   <trkpt lon="11.859888" lat="46.251194"><ele>2404.75</ele></trkpt>
   <trkpt lon="11.859853" lat="46.251250"><ele>2402.25</ele></trkpt>
   <trkpt lon="11.859776" lat="46.251237"><ele>2399.25</ele></trkpt>
   <trkpt lon="11.859684" lat="46.251249"><ele>2395.75</ele></trkpt>
   <trkpt lon="11.859652" lat="46.251224"><ele>2395.0</ele></trkpt>
   <trkpt lon="11.859641" lat="46.251185"><ele>2394.75</ele></trkpt>
   <trkpt lon="11.859608" lat="46.251192"><ele>2393.5</ele></trkpt>
   <trkpt lon="11.859574" lat="46.251172"><ele>2392.5</ele></trkpt>
   <trkpt lon="11.859472" lat="46.251144"><ele>2388.25</ele></trkpt>
   <trkpt lon="11.859467" lat="46.251136"><ele>2388.0</ele></trkpt>
   <trkpt lon="11.859436" lat="46.251158"><ele>2387.0</ele></trkpt>
   <trkpt lon="11.859415" lat="46.251162"><ele>2386.25</ele></trkpt>
   <trkpt lon="11.859404" lat="46.251122"><ele>2385.5</ele></trkpt>
   <trkpt lon="11.859421" lat="46.251102"><ele>2386.0</ele></trkpt>
   <trkpt lon="11.859356" lat="46.251099"><ele>2383.25</ele></trkpt>
   <trkpt lon="11.859350" lat="46.251076"><ele>2383.0</ele></trkpt>
   <trkpt lon="11.859234" lat="46.251032"><ele>2378.0</ele></trkpt>
   <trkpt lon="11.859215" lat="46.251048"><ele>2377.5</ele></trkpt>
   <trkpt lon="11.859213" lat="46.251030"><ele>2377.25</ele></trkpt>
   <trkpt lon="11.859201" lat="46.251019"><ele>2376.75</ele></trkpt>
   <trkpt lon="11.859172" lat="46.251036"><ele>2375.5</ele></trkpt>
   <trkpt lon="11.859113" lat="46.251050"><ele>2373.25</ele></trkpt>
   <trkpt lon="11.859085" lat="46.251081"><ele>2372.25</ele></trkpt>
   <trkpt lon="11.859053" lat="46.251078"><ele>2371.0</ele></trkpt>
   <trkpt lon="11.859032" lat="46.251059"><ele>2370.0</ele></trkpt>
   <trkpt lon="11.859025" lat="46.251000"><ele>2369.0</ele></trkpt>
   <trkpt lon="11.859003" lat="46.250970"><ele>2367.75</ele></trkpt>
   <trkpt lon="11.858997" lat="46.250895"><ele>2366.75</ele></trkpt>
   <trkpt lon="11.858972" lat="46.250833"><ele>2364.75</ele></trkpt>
   <trkpt lon="11.858986" lat="46.250818"><ele>2365.5</ele></trkpt>
   <trkpt lon="11.858990" lat="46.250792"><ele>2365.5</ele></trkpt>
   <trkpt lon="11.858963" lat="46.250730"><ele>2364.25</ele></trkpt>
   <trkpt lon="11.858906" lat="46.250670"><ele>2361.75</ele></trkpt>
   <trkpt lon="11.858887" lat="46.250611"><ele>2360.75</ele></trkpt>
   <trkpt lon="11.858843" lat="46.250604"><ele>2358.75</ele></trkpt>
   <trkpt lon="11.858806" lat="46.250588"><ele>2357.0</ele></trkpt>
   <trkpt lon="11.858822" lat="46.250499"><ele>2358.0</ele></trkpt>
   <trkpt lon="11.858798" lat="46.250474"><ele>2357.0</ele></trkpt>
   <trkpt lon="11.858754" lat="46.250456"><ele>2355.0</ele></trkpt>
   <trkpt lon="11.858711" lat="46.250405"><ele>2353.25</ele></trkpt>
   <trkpt lon="11.858676" lat="46.250382"><ele>2351.75</ele></trkpt>
   <trkpt lon="11.858649" lat="46.250384"><ele>2350.25</ele></trkpt>
   <trkpt lon="11.858602" lat="46.250375"><ele>2348.25</ele></trkpt>
   <trkpt lon="11.858536" lat="46.250390"><ele>2345.5</ele></trkpt>
   <trkpt lon="11.858504" lat="46.250385"><ele>2344.25</ele></trkpt>
   <trkpt lon="11.858481" lat="46.250395"><ele>2343.25</ele></trkpt>
   <trkpt lon="11.858383" lat="46.250401"><ele>2339.5</ele></trkpt>
   <trkpt lon="11.858384" lat="46.250385"><ele>2339.5</ele></trkpt>
   <trkpt lon="11.858292" lat="46.250369"><ele>2336.0</ele></trkpt>
   <trkpt lon="11.858265" lat="46.250346"><ele>2335.0</ele></trkpt>
   <trkpt lon="11.858219" lat="46.250369"><ele>2333.25</ele></trkpt>
   <trkpt lon="11.858180" lat="46.250359"><ele>2332.0</ele></trkpt>
   <trkpt lon="11.858140" lat="46.250377"><ele>2330.25</ele></trkpt>
   <trkpt lon="11.858087" lat="46.250361"><ele>2328.5</ele></trkpt>
   <trkpt lon="11.858056" lat="46.250320"><ele>2327.5</ele></trkpt>
   <trkpt lon="11.858002" lat="46.250296"><ele>2325.5</ele></trkpt>
   <trkpt lon="11.857958" lat="46.250302"><ele>2323.5</ele></trkpt>
   <trkpt lon="11.857939" lat="46.250316"><ele>2322.75</ele></trkpt>
   <trkpt lon="11.857845" lat="46.250292"><ele>2318.75</ele></trkpt>
   <trkpt lon="11.857851" lat="46.250256"><ele>2319.25</ele></trkpt>
   <trkpt lon="11.857814" lat="46.250253"><ele>2317.5</ele></trkpt>
   <trkpt lon="11.857761" lat="46.250196"><ele>2315.75</ele></trkpt>
   <trkpt lon="11.857707" lat="46.250239"><ele>2313.0</ele></trkpt>
   <trkpt lon="11.857640" lat="46.250170"><ele>2310.75</ele></trkpt>
   <trkpt lon="11.857579" lat="46.250122"><ele>2308.5</ele></trkpt>
   <trkpt lon="11.857525" lat="46.250113"><ele>2306.25</ele></trkpt>
   <trkpt lon="11.857412" lat="46.250007"><ele>2304.0</ele></trkpt>
   <trkpt lon="11.857309" lat="46.250032"><ele>2301.75</ele></trkpt>
   <trkpt lon="11.857261" lat="46.250082"><ele>2301.0</ele></trkpt>
   <trkpt lon="11.857147" lat="46.250023"><ele>2299.75</ele></trkpt>
   <trkpt lon="11.857068" lat="46.250057"><ele>2299.75</ele></trkpt>
   <trkpt lon="11.856962" lat="46.249954"><ele>2298.75</ele></trkpt>
   <trkpt lon="11.856880" lat="46.249921"><ele>2299.0</ele></trkpt>
   <trkpt lon="11.856800" lat="46.249869"><ele>2299.75</ele></trkpt>
   <trkpt lon="11.856734" lat="46.249807"><ele>2300.25</ele></trkpt>
   <trkpt lon="11.856689" lat="46.249648"><ele>2300.5</ele></trkpt>
   <trkpt lon="11.856572" lat="46.249612"><ele>2300.75</ele></trkpt>
   <trkpt lon="11.856546" lat="46.249548"><ele>2300.5</ele></trkpt>
   <trkpt lon="11.856499" lat="46.249524"><ele>2300.25</ele></trkpt>
   <trkpt lon="11.856445" lat="46.249438"><ele>2300.0</ele></trkpt>
   <trkpt lon="11.856394" lat="46.249268"><ele>2300.5</ele></trkpt>
   <trkpt lon="11.856357" lat="46.249234"><ele>2300.75</ele></trkpt>
   <trkpt lon="11.856302" lat="46.249221"><ele>2301.0</ele></trkpt>
   <trkpt lon="11.856238" lat="46.249197"><ele>2301.0</ele></trkpt>
   <trkpt lon="11.856214" lat="46.249113"><ele>2298.75</ele></trkpt>
   <trkpt lon="11.856192" lat="46.249113"><ele>2298.75</ele></trkpt>
   <trkpt lon="11.856174" lat="46.249126"><ele>2299.25</ele></trkpt>
   <trkpt lon="11.856150" lat="46.249115"><ele>2298.75</ele></trkpt>
   <trkpt lon="11.856098" lat="46.249119"><ele>2298.75</ele></trkpt>
   <trkpt lon="11.856091" lat="46.249092"><ele>2297.5</ele></trkpt>
   <trkpt lon="11.856095" lat="46.249036"><ele>2295.25</ele></trkpt>
   <trkpt lon="11.856126" lat="46.249023"><ele>2294.75</ele></trkpt>
   <trkpt lon="11.856125" lat="46.248997"><ele>2293.75</ele></trkpt>
   <trkpt lon="11.856204" lat="46.248961"><ele>2293.0</ele></trkpt>
   <trkpt lon="11.856260" lat="46.248916"><ele>2292.0</ele></trkpt>
   <trkpt lon="11.856243" lat="46.248852"><ele>2289.0</ele></trkpt>
   <trkpt lon="11.856192" lat="46.248793"><ele>2285.75</ele></trkpt>
   <trkpt lon="11.856081" lat="46.248701"><ele>2282.0</ele></trkpt>
   <trkpt lon="11.855976" lat="46.248582"><ele>2281.5</ele></trkpt>
   <trkpt lon="11.855884" lat="46.248519"><ele>2284.0</ele></trkpt>
   <trkpt lon="11.855921" lat="46.248422"><ele>2282.5</ele></trkpt>
   <trkpt lon="11.855910" lat="46.248361"><ele>2282.5</ele></trkpt>
   <trkpt lon="11.855931" lat="46.248304"><ele>2281.5</ele></trkpt>
   <trkpt lon="11.855910" lat="46.248159"><ele>2281.25</ele></trkpt>
   <trkpt lon="11.855937" lat="46.248089"><ele>2280.0</ele></trkpt>
   <trkpt lon="11.855900" lat="46.248024"><ele>2280.25</ele></trkpt>
   <trkpt lon="11.855933" lat="46.247998"><ele>2279.0</ele></trkpt>
   <trkpt lon="11.855999" lat="46.247905"><ele>2275.0</ele></trkpt>
   <trkpt lon="11.855985" lat="46.247828"><ele>2274.0</ele></trkpt>
   <trkpt lon="11.856015" lat="46.247784"><ele>2272.0</ele></trkpt>
   <trkpt lon="11.856006" lat="46.247712"><ele>2270.5</ele></trkpt>
   <trkpt lon="11.855957" lat="46.247697"><ele>2271.5</ele></trkpt>
   <trkpt lon="11.855998" lat="46.247593"><ele>2267.25</ele></trkpt>
   <trkpt lon="11.855973" lat="46.247552"><ele>2266.75</ele></trkpt>
   <trkpt lon="11.855984" lat="46.247487"><ele>2264.75</ele></trkpt>
   <trkpt lon="11.855992" lat="46.247330"><ele>2259.5</ele></trkpt>
   <trkpt lon="11.855916" lat="46.247207"><ele>2257.25</ele></trkpt>
   <trkpt lon="11.855910" lat="46.247148"><ele>2257.0</ele></trkpt>
   <trkpt lon="11.855852" lat="46.247077"><ele>2258.0</ele></trkpt>
   <trkpt lon="11.855876" lat="46.247058"><ele>2257.25</ele></trkpt>
   <trkpt lon="11.855906" lat="46.246966"><ele>2256.0</ele></trkpt>
   <trkpt lon="11.855986" lat="46.246875"><ele>2255.0</ele></trkpt>
   <trkpt lon="11.856065" lat="46.246826"><ele>2253.5</ele></trkpt>
   <trkpt lon="11.856023" lat="46.246774"><ele>2255.75</ele></trkpt>
   <trkpt lon="11.856017" lat="46.246705"><ele>2257.5</ele></trkpt>
   <trkpt lon="11.856035" lat="46.246558"><ele>2259.0</ele></trkpt>
   <trkpt lon="11.855978" lat="46.246417"><ele>2262.75</ele></trkpt>
   <trkpt lon="11.856040" lat="46.246374"><ele>2261.0</ele></trkpt>
   <trkpt lon="11.856059" lat="46.246230"><ele>2259.75</ele></trkpt>
   <trkpt lon="11.856014" lat="46.246186"><ele>2260.5</ele></trkpt>
   <trkpt lon="11.856025" lat="46.246121"><ele>2259.75</ele></trkpt>
   <trkpt lon="11.855971" lat="46.245989"><ele>2260.0</ele></trkpt>
   <trkpt lon="11.855967" lat="46.245906"><ele>2259.5</ele></trkpt>
   <trkpt lon="11.855916" lat="46.245820"><ele>2259.25</ele></trkpt>
   <trkpt lon="11.855877" lat="46.245781"><ele>2259.5</ele></trkpt>
   <trkpt lon="11.855841" lat="46.245701"><ele>2259.75</ele></trkpt>
   <trkpt lon="11.855780" lat="46.245658"><ele>2260.5</ele></trkpt>
   <trkpt lon="11.855715" lat="46.245625"><ele>2261.25</ele></trkpt>
   <trkpt lon="11.855566" lat="46.245533"><ele>2263.0</ele></trkpt>
   <trkpt lon="11.855468" lat="46.245484"><ele>2264.5</ele></trkpt>
   <trkpt lon="11.855392" lat="46.245411"><ele>2264.75</ele></trkpt>
   <trkpt lon="11.855371" lat="46.245376"><ele>2264.5</ele></trkpt>
   <trkpt lon="11.855387" lat="46.245349"><ele>2264.25</ele></trkpt>
   <trkpt lon="11.855387" lat="46.245314"><ele>2264.0</ele></trkpt>
   <trkpt lon="11.855325" lat="46.245224"><ele>2263.5</ele></trkpt>
   <trkpt lon="11.855289" lat="46.245140"><ele>2263.5</ele></trkpt>
   <trkpt lon="11.855234" lat="46.245072"><ele>2263.5</ele></trkpt>
   <trkpt lon="11.855156" lat="46.244939"><ele>2264.25</ele></trkpt>
   <trkpt lon="11.855099" lat="46.244875"><ele>2264.75</ele></trkpt>
   <trkpt lon="11.855037" lat="46.244733"><ele>2266.0</ele></trkpt>
   <trkpt lon="11.855000" lat="46.244696"><ele>2265.75</ele></trkpt>
   <trkpt lon="11.854964" lat="46.244553"><ele>2266.0</ele></trkpt>
   <trkpt lon="11.854886" lat="46.244535"><ele>2267.75</ele></trkpt>
   <trkpt lon="11.854768" lat="46.244473"><ele>2270.0</ele></trkpt>
   <trkpt lon="11.854699" lat="46.244446"><ele>2272.0</ele></trkpt>
   <trkpt lon="11.854507" lat="46.244289"><ele>2277.5</ele></trkpt>
   <trkpt lon="11.854465" lat="46.244270"><ele>2279.0</ele></trkpt>
   <trkpt lon="11.854433" lat="46.244219"><ele>2278.25</ele></trkpt>
   <trkpt lon="11.854375" lat="46.244198"><ele>2277.5</ele></trkpt>
   <trkpt lon="11.854304" lat="46.244182"><ele>2276.75</ele></trkpt>
   <trkpt lon="11.854266" lat="46.244193"><ele>2277.0</ele></trkpt>
   <trkpt lon="11.854220" lat="46.244223"><ele>2277.5</ele></trkpt>
   <trkpt lon="11.854188" lat="46.244253"><ele>2279.0</ele></trkpt>
  </trkseg>
 </trk>
</gpx>
