<?xml version="1.0" encoding="UTF-8"?>
<gpx version="1.1" creator="Dolomites 2026" xmlns="http://www.topografix.com/GPX/1/1">
  <metadata><name>День 6 · Dal Bianco → Val Contrin → Alba di Canazei</name></metadata>
  <wpt lat="46.429115" lon="11.845366"><ele>2730</ele><name>Bivacco Dal Bianco</name></wpt>
  <wpt lat="46.429705" lon="11.815758"><ele>2016</ele><name>Rifugio Contrin</name></wpt>
  <wpt lat="46.4679" lon="11.78067"><ele>1460</ele><name>Alba di Canazei</name></wpt>
  <trk><name>День 6 · Dal Bianco → Val Contrin → Alba di Canazei</name><trkseg>
      <trkpt lat="46.429115" lon="11.845366"><ele>2730</ele></trkpt>
      <trkpt lat="46.429084" lon="11.84532"><ele>2727.6</ele></trkpt>
      <trkpt lat="46.428918" lon="11.845298"><ele>2725.2</ele></trkpt>
      <trkpt lat="46.428853" lon="11.845259"><ele>2722.9</ele></trkpt>
      <trkpt lat="46.428649" lon="11.845001"><ele>2720.5</ele></trkpt>
      <trkpt lat="46.428451" lon="11.844922"><ele>2718.1</ele></trkpt>
      <trkpt lat="46.42833" lon="11.845168"><ele>2715.7</ele></trkpt>
      <trkpt lat="46.428252" lon="11.845175"><ele>2713.3</ele></trkpt>
      <trkpt lat="46.428153" lon="11.8451"><ele>2711</ele></trkpt>
      <trkpt lat="46.428132" lon="11.845198"><ele>2708.6</ele></trkpt>
      <trkpt lat="46.427985" lon="11.845183"><ele>2706.2</ele></trkpt>
      <trkpt lat="46.427875" lon="11.845524"><ele>2703.8</ele></trkpt>
      <trkpt lat="46.427751" lon="11.845514"><ele>2701.4</ele></trkpt>
      <trkpt lat="46.427704" lon="11.845404"><ele>2699.1</ele></trkpt>
      <trkpt lat="46.427484" lon="11.845136"><ele>2696.7</ele></trkpt>
      <trkpt lat="46.427176" lon="11.844804"><ele>2694.3</ele></trkpt>
      <trkpt lat="46.426684" lon="11.843779"><ele>2691.9</ele></trkpt>
      <trkpt lat="46.426536" lon="11.843643"><ele>2689.5</ele></trkpt>
      <trkpt lat="46.426513" lon="11.843605"><ele>2687.2</ele></trkpt>
      <trkpt lat="46.426486" lon="11.843535"><ele>2684.8</ele></trkpt>
      <trkpt lat="46.426541" lon="11.843393"><ele>2682.4</ele></trkpt>
      <trkpt lat="46.426544" lon="11.843321"><ele>2680</ele></trkpt>
      <trkpt lat="46.426425" lon="11.84325"><ele>2677.6</ele></trkpt>
      <trkpt lat="46.426323" lon="11.843258"><ele>2675.3</ele></trkpt>
      <trkpt lat="46.42632" lon="11.843282"><ele>2672.9</ele></trkpt>
      <trkpt lat="46.426261" lon="11.843283"><ele>2670.5</ele></trkpt>
      <trkpt lat="46.426168" lon="11.843219"><ele>2668.1</ele></trkpt>
      <trkpt lat="46.426162" lon="11.843144"><ele>2665.7</ele></trkpt>
      <trkpt lat="46.426106" lon="11.843124"><ele>2663.4</ele></trkpt>
      <trkpt lat="46.426017" lon="11.843039"><ele>2661</ele></trkpt>
      <trkpt lat="46.426061" lon="11.842912"><ele>2658.6</ele></trkpt>
      <trkpt lat="46.426054" lon="11.842858"><ele>2656.2</ele></trkpt>
      <trkpt lat="46.425966" lon="11.842826"><ele>2653.8</ele></trkpt>
      <trkpt lat="46.425947" lon="11.842798"><ele>2651.5</ele></trkpt>
      <trkpt lat="46.425885" lon="11.842764"><ele>2649.1</ele></trkpt>
      <trkpt lat="46.425869" lon="11.842665"><ele>2646.7</ele></trkpt>
      <trkpt lat="46.425867" lon="11.842599"><ele>2644.3</ele></trkpt>
      <trkpt lat="46.425837" lon="11.842575"><ele>2641.9</ele></trkpt>
      <trkpt lat="46.42549" lon="11.842783"><ele>2639.6</ele></trkpt>
      <trkpt lat="46.425442" lon="11.842725"><ele>2637.2</ele></trkpt>
      <trkpt lat="46.425344" lon="11.842851"><ele>2634.8</ele></trkpt>
      <trkpt lat="46.42529" lon="11.842959"><ele>2632.4</ele></trkpt>
      <trkpt lat="46.42523" lon="11.843529"><ele>2630</ele></trkpt>
      <trkpt lat="46.425108" lon="11.844116"><ele>2627.7</ele></trkpt>
      <trkpt lat="46.425085" lon="11.844459"><ele>2625.3</ele></trkpt>
      <trkpt lat="46.425137" lon="11.844919"><ele>2622.9</ele></trkpt>
      <trkpt lat="46.424923" lon="11.844805"><ele>2620.5</ele></trkpt>
      <trkpt lat="46.424704" lon="11.844629"><ele>2618.1</ele></trkpt>
      <trkpt lat="46.424615" lon="11.844397"><ele>2615.8</ele></trkpt>
      <trkpt lat="46.424544" lon="11.843863"><ele>2613.4</ele></trkpt>
      <trkpt lat="46.424466" lon="11.843257"><ele>2611</ele></trkpt>
      <trkpt lat="46.424371" lon="11.842986"><ele>2608.6</ele></trkpt>
      <trkpt lat="46.424301" lon="11.842395"><ele>2606.2</ele></trkpt>
      <trkpt lat="46.424271" lon="11.842339"><ele>2603.9</ele></trkpt>
      <trkpt lat="46.424275" lon="11.842248"><ele>2601.5</ele></trkpt>
      <trkpt lat="46.424295" lon="11.842181"><ele>2599.1</ele></trkpt>
      <trkpt lat="46.424284" lon="11.842025"><ele>2596.7</ele></trkpt>
      <trkpt lat="46.424247" lon="11.841891"><ele>2594.3</ele></trkpt>
      <trkpt lat="46.424181" lon="11.84177"><ele>2592</ele></trkpt>
      <trkpt lat="46.424168" lon="11.841693"><ele>2589.6</ele></trkpt>
      <trkpt lat="46.424061" lon="11.841453"><ele>2587.2</ele></trkpt>
      <trkpt lat="46.424011" lon="11.841423"><ele>2584.8</ele></trkpt>
      <trkpt lat="46.423905" lon="11.841381"><ele>2582.4</ele></trkpt>
      <trkpt lat="46.423854" lon="11.841238"><ele>2580.1</ele></trkpt>
      <trkpt lat="46.423659" lon="11.840982"><ele>2577.7</ele></trkpt>
      <trkpt lat="46.423509" lon="11.840919"><ele>2575.3</ele></trkpt>
      <trkpt lat="46.423417" lon="11.84074"><ele>2572.9</ele></trkpt>
      <trkpt lat="46.423423" lon="11.840484"><ele>2570.5</ele></trkpt>
      <trkpt lat="46.423369" lon="11.840242"><ele>2568.2</ele></trkpt>
      <trkpt lat="46.423422" lon="11.83983"><ele>2565.8</ele></trkpt>
      <trkpt lat="46.423375" lon="11.839557"><ele>2563.4</ele></trkpt>
      <trkpt lat="46.423259" lon="11.839224"><ele>2561</ele></trkpt>
      <trkpt lat="46.423241" lon="11.839029"><ele>2558.6</ele></trkpt>
      <trkpt lat="46.423265" lon="11.838962"><ele>2556.3</ele></trkpt>
      <trkpt lat="46.423249" lon="11.838823"><ele>2553.9</ele></trkpt>
      <trkpt lat="46.423175" lon="11.838632"><ele>2551.5</ele></trkpt>
      <trkpt lat="46.423125" lon="11.838533"><ele>2549.1</ele></trkpt>
      <trkpt lat="46.423112" lon="11.838418"><ele>2546.7</ele></trkpt>
      <trkpt lat="46.423191" lon="11.838179"><ele>2544.4</ele></trkpt>
      <trkpt lat="46.423214" lon="11.837869"><ele>2542</ele></trkpt>
      <trkpt lat="46.423163" lon="11.837507"><ele>2539.6</ele></trkpt>
      <trkpt lat="46.423181" lon="11.837303"><ele>2537.2</ele></trkpt>
      <trkpt lat="46.422976" lon="11.836848"><ele>2534.8</ele></trkpt>
      <trkpt lat="46.422814" lon="11.836419"><ele>2532.5</ele></trkpt>
      <trkpt lat="46.42267" lon="11.836253"><ele>2530.1</ele></trkpt>
      <trkpt lat="46.422575" lon="11.836176"><ele>2527.7</ele></trkpt>
      <trkpt lat="46.42249" lon="11.835966"><ele>2525.3</ele></trkpt>
      <trkpt lat="46.422489" lon="11.835864"><ele>2522.9</ele></trkpt>
      <trkpt lat="46.422431" lon="11.83583"><ele>2520.6</ele></trkpt>
      <trkpt lat="46.422461" lon="11.835719"><ele>2518.2</ele></trkpt>
      <trkpt lat="46.422327" lon="11.835606"><ele>2515.8</ele></trkpt>
      <trkpt lat="46.422222" lon="11.835548"><ele>2513.4</ele></trkpt>
      <trkpt lat="46.421996" lon="11.835627"><ele>2511</ele></trkpt>
      <trkpt lat="46.421876" lon="11.835492"><ele>2508.7</ele></trkpt>
      <trkpt lat="46.421731" lon="11.835305"><ele>2506.3</ele></trkpt>
      <trkpt lat="46.421475" lon="11.83518"><ele>2503.9</ele></trkpt>
      <trkpt lat="46.421357" lon="11.835149"><ele>2501.5</ele></trkpt>
      <trkpt lat="46.421131" lon="11.834902"><ele>2499.1</ele></trkpt>
      <trkpt lat="46.42091" lon="11.834534"><ele>2496.8</ele></trkpt>
      <trkpt lat="46.42081" lon="11.834516"><ele>2494.4</ele></trkpt>
      <trkpt lat="46.42044" lon="11.834269"><ele>2492</ele></trkpt>
      <trkpt lat="46.42035" lon="11.834107"><ele>2489.6</ele></trkpt>
      <trkpt lat="46.420133" lon="11.833869"><ele>2487.2</ele></trkpt>
      <trkpt lat="46.420103" lon="11.833762"><ele>2484.9</ele></trkpt>
      <trkpt lat="46.420073" lon="11.833692"><ele>2482.5</ele></trkpt>
      <trkpt lat="46.419914" lon="11.833562"><ele>2480.1</ele></trkpt>
      <trkpt lat="46.419795" lon="11.833573"><ele>2477.7</ele></trkpt>
      <trkpt lat="46.419665" lon="11.833462"><ele>2475.3</ele></trkpt>
      <trkpt lat="46.419556" lon="11.833209"><ele>2473</ele></trkpt>
      <trkpt lat="46.419493" lon="11.833179"><ele>2470.6</ele></trkpt>
      <trkpt lat="46.419408" lon="11.833171"><ele>2468.2</ele></trkpt>
      <trkpt lat="46.419283" lon="11.833122"><ele>2465.8</ele></trkpt>
      <trkpt lat="46.419214" lon="11.833129"><ele>2463.4</ele></trkpt>
      <trkpt lat="46.419178" lon="11.833112"><ele>2461.1</ele></trkpt>
      <trkpt lat="46.419155" lon="11.833089"><ele>2458.7</ele></trkpt>
      <trkpt lat="46.419111" lon="11.833026"><ele>2456.3</ele></trkpt>
      <trkpt lat="46.419136" lon="11.832896"><ele>2453.9</ele></trkpt>
      <trkpt lat="46.419184" lon="11.832883"><ele>2451.5</ele></trkpt>
      <trkpt lat="46.419177" lon="11.832682"><ele>2449.2</ele></trkpt>
      <trkpt lat="46.419134" lon="11.832426"><ele>2446.8</ele></trkpt>
      <trkpt lat="46.419126" lon="11.832329"><ele>2444.4</ele></trkpt>
      <trkpt lat="46.419081" lon="11.832239"><ele>2442</ele></trkpt>
      <trkpt lat="46.419011" lon="11.832226"><ele>2439.6</ele></trkpt>
      <trkpt lat="46.41897" lon="11.832266"><ele>2437.3</ele></trkpt>
      <trkpt lat="46.418917" lon="11.832265"><ele>2434.9</ele></trkpt>
      <trkpt lat="46.41886" lon="11.832336"><ele>2432.5</ele></trkpt>
      <trkpt lat="46.418817" lon="11.832371"><ele>2430.1</ele></trkpt>
      <trkpt lat="46.418779" lon="11.832384"><ele>2427.7</ele></trkpt>
      <trkpt lat="46.418691" lon="11.832503"><ele>2425.4</ele></trkpt>
      <trkpt lat="46.418601" lon="11.832738"><ele>2423</ele></trkpt>
      <trkpt lat="46.418557" lon="11.832803"><ele>2420.6</ele></trkpt>
      <trkpt lat="46.418426" lon="11.832949"><ele>2418.2</ele></trkpt>
      <trkpt lat="46.418433" lon="11.832978"><ele>2415.8</ele></trkpt>
      <trkpt lat="46.418395" lon="11.833001"><ele>2413.5</ele></trkpt>
      <trkpt lat="46.418379" lon="11.833037"><ele>2411.1</ele></trkpt>
      <trkpt lat="46.418318" lon="11.833025"><ele>2408.7</ele></trkpt>
      <trkpt lat="46.418285" lon="11.833061"><ele>2406.3</ele></trkpt>
      <trkpt lat="46.418188" lon="11.833047"><ele>2403.9</ele></trkpt>
      <trkpt lat="46.41815" lon="11.833076"><ele>2401.6</ele></trkpt>
      <trkpt lat="46.41794" lon="11.833024"><ele>2399.2</ele></trkpt>
      <trkpt lat="46.417923" lon="11.832965"><ele>2396.8</ele></trkpt>
      <trkpt lat="46.417851" lon="11.832896"><ele>2394.4</ele></trkpt>
      <trkpt lat="46.417799" lon="11.832874"><ele>2392</ele></trkpt>
      <trkpt lat="46.417735" lon="11.832726"><ele>2389.7</ele></trkpt>
      <trkpt lat="46.417549" lon="11.832463"><ele>2387.3</ele></trkpt>
      <trkpt lat="46.417455" lon="11.832448"><ele>2384.9</ele></trkpt>
      <trkpt lat="46.417423" lon="11.832355"><ele>2382.5</ele></trkpt>
      <trkpt lat="46.417378" lon="11.832308"><ele>2380.1</ele></trkpt>
      <trkpt lat="46.416962" lon="11.832313"><ele>2377.8</ele></trkpt>
      <trkpt lat="46.416876" lon="11.832222"><ele>2375.4</ele></trkpt>
      <trkpt lat="46.416877" lon="11.832105"><ele>2373</ele></trkpt>
      <trkpt lat="46.416846" lon="11.83188"><ele>2370.6</ele></trkpt>
      <trkpt lat="46.416867" lon="11.831716"><ele>2368.2</ele></trkpt>
      <trkpt lat="46.416831" lon="11.831495"><ele>2365.9</ele></trkpt>
      <trkpt lat="46.416807" lon="11.831456"><ele>2363.5</ele></trkpt>
      <trkpt lat="46.416732" lon="11.83142"><ele>2361.1</ele></trkpt>
      <trkpt lat="46.416629" lon="11.831318"><ele>2358.7</ele></trkpt>
      <trkpt lat="46.416246" lon="11.831181"><ele>2356.3</ele></trkpt>
      <trkpt lat="46.416078" lon="11.830919"><ele>2354</ele></trkpt>
      <trkpt lat="46.415998" lon="11.830219"><ele>2351.6</ele></trkpt>
      <trkpt lat="46.415991" lon="11.829577"><ele>2349.2</ele></trkpt>
      <trkpt lat="46.416027" lon="11.829476"><ele>2346.8</ele></trkpt>
      <trkpt lat="46.416115" lon="11.829538"><ele>2344.4</ele></trkpt>
      <trkpt lat="46.416442" lon="11.829292"><ele>2342.1</ele></trkpt>
      <trkpt lat="46.416468" lon="11.82935"><ele>2339.7</ele></trkpt>
      <trkpt lat="46.416564" lon="11.829411"><ele>2337.3</ele></trkpt>
      <trkpt lat="46.416604" lon="11.829469"><ele>2334.9</ele></trkpt>
      <trkpt lat="46.416609" lon="11.829593"><ele>2332.5</ele></trkpt>
      <trkpt lat="46.416627" lon="11.829662"><ele>2330.2</ele></trkpt>
      <trkpt lat="46.416694" lon="11.829705"><ele>2327.8</ele></trkpt>
      <trkpt lat="46.416748" lon="11.829806"><ele>2325.4</ele></trkpt>
      <trkpt lat="46.417136" lon="11.829983"><ele>2323</ele></trkpt>
      <trkpt lat="46.417245" lon="11.830001"><ele>2320.6</ele></trkpt>
      <trkpt lat="46.417495" lon="11.830168"><ele>2318.3</ele></trkpt>
      <trkpt lat="46.417718" lon="11.830489"><ele>2315.9</ele></trkpt>
      <trkpt lat="46.418012" lon="11.830621"><ele>2313.5</ele></trkpt>
      <trkpt lat="46.418109" lon="11.830638"><ele>2311.1</ele></trkpt>
      <trkpt lat="46.418454" lon="11.830515"><ele>2308.7</ele></trkpt>
      <trkpt lat="46.418623" lon="11.830138"><ele>2306.4</ele></trkpt>
      <trkpt lat="46.418623" lon="11.829971"><ele>2304</ele></trkpt>
      <trkpt lat="46.418582" lon="11.829816"><ele>2301.6</ele></trkpt>
      <trkpt lat="46.418588" lon="11.829376"><ele>2299.2</ele></trkpt>
      <trkpt lat="46.418921" lon="11.82904"><ele>2296.8</ele></trkpt>
      <trkpt lat="46.419146" lon="11.829108"><ele>2294.5</ele></trkpt>
      <trkpt lat="46.419369" lon="11.829031"><ele>2292.1</ele></trkpt>
      <trkpt lat="46.419865" lon="11.828338"><ele>2289.7</ele></trkpt>
      <trkpt lat="46.420025" lon="11.828133"><ele>2287.3</ele></trkpt>
      <trkpt lat="46.420089" lon="11.827879"><ele>2284.9</ele></trkpt>
      <trkpt lat="46.42018" lon="11.827642"><ele>2282.6</ele></trkpt>
      <trkpt lat="46.420602" lon="11.827177"><ele>2280.2</ele></trkpt>
      <trkpt lat="46.420661" lon="11.827112"><ele>2277.8</ele></trkpt>
      <trkpt lat="46.420818" lon="11.827127"><ele>2275.4</ele></trkpt>
      <trkpt lat="46.420916" lon="11.826963"><ele>2273</ele></trkpt>
      <trkpt lat="46.420969" lon="11.826961"><ele>2270.7</ele></trkpt>
      <trkpt lat="46.420973" lon="11.826821"><ele>2268.3</ele></trkpt>
      <trkpt lat="46.42132" lon="11.826816"><ele>2265.9</ele></trkpt>
      <trkpt lat="46.421485" lon="11.826668"><ele>2263.5</ele></trkpt>
      <trkpt lat="46.421894" lon="11.826537"><ele>2261.1</ele></trkpt>
      <trkpt lat="46.422091" lon="11.826532"><ele>2258.8</ele></trkpt>
      <trkpt lat="46.422367" lon="11.826352"><ele>2256.4</ele></trkpt>
      <trkpt lat="46.422343" lon="11.826255"><ele>2254</ele></trkpt>
      <trkpt lat="46.422395" lon="11.82622"><ele>2251.6</ele></trkpt>
      <trkpt lat="46.422348" lon="11.826111"><ele>2249.2</ele></trkpt>
      <trkpt lat="46.422518" lon="11.826001"><ele>2246.9</ele></trkpt>
      <trkpt lat="46.422548" lon="11.825883"><ele>2244.5</ele></trkpt>
      <trkpt lat="46.42269" lon="11.825507"><ele>2242.1</ele></trkpt>
      <trkpt lat="46.422887" lon="11.825332"><ele>2239.7</ele></trkpt>
      <trkpt lat="46.422964" lon="11.825091"><ele>2237.3</ele></trkpt>
      <trkpt lat="46.423046" lon="11.825146"><ele>2235</ele></trkpt>
      <trkpt lat="46.423482" lon="11.824787"><ele>2232.6</ele></trkpt>
      <trkpt lat="46.423728" lon="11.824535"><ele>2230.2</ele></trkpt>
      <trkpt lat="46.42385" lon="11.824301"><ele>2227.8</ele></trkpt>
      <trkpt lat="46.423914" lon="11.824095"><ele>2225.4</ele></trkpt>
      <trkpt lat="46.424005" lon="11.824009"><ele>2223.1</ele></trkpt>
      <trkpt lat="46.424051" lon="11.823754"><ele>2220.7</ele></trkpt>
      <trkpt lat="46.424163" lon="11.823418"><ele>2218.3</ele></trkpt>
      <trkpt lat="46.424156" lon="11.822904"><ele>2215.9</ele></trkpt>
      <trkpt lat="46.42426" lon="11.822858"><ele>2213.5</ele></trkpt>
      <trkpt lat="46.424295" lon="11.82277"><ele>2211.2</ele></trkpt>
      <trkpt lat="46.424269" lon="11.822665"><ele>2208.8</ele></trkpt>
      <trkpt lat="46.424489" lon="11.822303"><ele>2206.4</ele></trkpt>
      <trkpt lat="46.424558" lon="11.8223"><ele>2204</ele></trkpt>
      <trkpt lat="46.42458" lon="11.822214"><ele>2201.6</ele></trkpt>
      <trkpt lat="46.424661" lon="11.822177"><ele>2199.3</ele></trkpt>
      <trkpt lat="46.42471" lon="11.821946"><ele>2196.9</ele></trkpt>
      <trkpt lat="46.424921" lon="11.8219"><ele>2194.5</ele></trkpt>
      <trkpt lat="46.425035" lon="11.821938"><ele>2192.1</ele></trkpt>
      <trkpt lat="46.425159" lon="11.821885"><ele>2189.7</ele></trkpt>
      <trkpt lat="46.425207" lon="11.822032"><ele>2187.4</ele></trkpt>
      <trkpt lat="46.425321" lon="11.822021"><ele>2185</ele></trkpt>
      <trkpt lat="46.425425" lon="11.821799"><ele>2182.6</ele></trkpt>
      <trkpt lat="46.425687" lon="11.821559"><ele>2180.2</ele></trkpt>
      <trkpt lat="46.42573" lon="11.821393"><ele>2177.8</ele></trkpt>
      <trkpt lat="46.42578" lon="11.821414"><ele>2175.5</ele></trkpt>
      <trkpt lat="46.425858" lon="11.821284"><ele>2173.1</ele></trkpt>
      <trkpt lat="46.426011" lon="11.821125"><ele>2170.7</ele></trkpt>
      <trkpt lat="46.426151" lon="11.820804"><ele>2168.3</ele></trkpt>
      <trkpt lat="46.426113" lon="11.820667"><ele>2165.9</ele></trkpt>
      <trkpt lat="46.426048" lon="11.820605"><ele>2163.6</ele></trkpt>
      <trkpt lat="46.426105" lon="11.820484"><ele>2161.2</ele></trkpt>
      <trkpt lat="46.426114" lon="11.820415"><ele>2158.8</ele></trkpt>
      <trkpt lat="46.426231" lon="11.820307"><ele>2156.4</ele></trkpt>
      <trkpt lat="46.426253" lon="11.820136"><ele>2154</ele></trkpt>
      <trkpt lat="46.426249" lon="11.819986"><ele>2151.7</ele></trkpt>
      <trkpt lat="46.42615" lon="11.819795"><ele>2149.3</ele></trkpt>
      <trkpt lat="46.42621" lon="11.819758"><ele>2146.9</ele></trkpt>
      <trkpt lat="46.426283" lon="11.819803"><ele>2144.5</ele></trkpt>
      <trkpt lat="46.426388" lon="11.819755"><ele>2142.1</ele></trkpt>
      <trkpt lat="46.426457" lon="11.819833"><ele>2139.8</ele></trkpt>
      <trkpt lat="46.426573" lon="11.819841"><ele>2137.4</ele></trkpt>
      <trkpt lat="46.426636" lon="11.820039"><ele>2135</ele></trkpt>
      <trkpt lat="46.426833" lon="11.820308"><ele>2132.6</ele></trkpt>
      <trkpt lat="46.427118" lon="11.820412"><ele>2130.2</ele></trkpt>
      <trkpt lat="46.427255" lon="11.820535"><ele>2127.9</ele></trkpt>
      <trkpt lat="46.427368" lon="11.820686"><ele>2125.5</ele></trkpt>
      <trkpt lat="46.427453" lon="11.820777"><ele>2123.1</ele></trkpt>
      <trkpt lat="46.42757" lon="11.820785"><ele>2120.7</ele></trkpt>
      <trkpt lat="46.4277" lon="11.820908"><ele>2118.3</ele></trkpt>
      <trkpt lat="46.427723" lon="11.821053"><ele>2116</ele></trkpt>
      <trkpt lat="46.427793" lon="11.82112"><ele>2113.6</ele></trkpt>
      <trkpt lat="46.427834" lon="11.82119"><ele>2111.2</ele></trkpt>
      <trkpt lat="46.427773" lon="11.821321"><ele>2108.8</ele></trkpt>
      <trkpt lat="46.427812" lon="11.821403"><ele>2106.4</ele></trkpt>
      <trkpt lat="46.427937" lon="11.82137"><ele>2104.1</ele></trkpt>
      <trkpt lat="46.428071" lon="11.821284"><ele>2101.7</ele></trkpt>
      <trkpt lat="46.428205" lon="11.821252"><ele>2099.3</ele></trkpt>
      <trkpt lat="46.428327" lon="11.821288"><ele>2096.9</ele></trkpt>
      <trkpt lat="46.428425" lon="11.821171"><ele>2094.5</ele></trkpt>
      <trkpt lat="46.428625" lon="11.821142"><ele>2092.2</ele></trkpt>
      <trkpt lat="46.428715" lon="11.821112"><ele>2089.8</ele></trkpt>
      <trkpt lat="46.428775" lon="11.820943"><ele>2087.4</ele></trkpt>
      <trkpt lat="46.428879" lon="11.820786"><ele>2085</ele></trkpt>
      <trkpt lat="46.429005" lon="11.820686"><ele>2082.6</ele></trkpt>
      <trkpt lat="46.429079" lon="11.820483"><ele>2080.3</ele></trkpt>
      <trkpt lat="46.429129" lon="11.820367"><ele>2077.9</ele></trkpt>
      <trkpt lat="46.429168" lon="11.820212"><ele>2075.5</ele></trkpt>
      <trkpt lat="46.429193" lon="11.819777"><ele>2073.1</ele></trkpt>
      <trkpt lat="46.42927" lon="11.819656"><ele>2070.7</ele></trkpt>
      <trkpt lat="46.429294" lon="11.819452"><ele>2068.4</ele></trkpt>
      <trkpt lat="46.429271" lon="11.819277"><ele>2066</ele></trkpt>
      <trkpt lat="46.429257" lon="11.818762"><ele>2063.6</ele></trkpt>
      <trkpt lat="46.429327" lon="11.818563"><ele>2061.2</ele></trkpt>
      <trkpt lat="46.429473" lon="11.818466"><ele>2058.8</ele></trkpt>
      <trkpt lat="46.429578" lon="11.818499"><ele>2056.5</ele></trkpt>
      <trkpt lat="46.429643" lon="11.818577"><ele>2054.1</ele></trkpt>
      <trkpt lat="46.42969" lon="11.818591"><ele>2051.7</ele></trkpt>
      <trkpt lat="46.429714" lon="11.818585"><ele>2049.3</ele></trkpt>
      <trkpt lat="46.429745" lon="11.818578"><ele>2046.9</ele></trkpt>
      <trkpt lat="46.429874" lon="11.818391"><ele>2044.6</ele></trkpt>
      <trkpt lat="46.430032" lon="11.818236"><ele>2042.2</ele></trkpt>
      <trkpt lat="46.430111" lon="11.818051"><ele>2039.8</ele></trkpt>
      <trkpt lat="46.430172" lon="11.817815"><ele>2037.4</ele></trkpt>
      <trkpt lat="46.430193" lon="11.817493"><ele>2035</ele></trkpt>
      <trkpt lat="46.430156" lon="11.817199"><ele>2032.7</ele></trkpt>
      <trkpt lat="46.430103" lon="11.816957"><ele>2030.3</ele></trkpt>
      <trkpt lat="46.429953" lon="11.816652"><ele>2027.9</ele></trkpt>
      <trkpt lat="46.429743" lon="11.816231"><ele>2025.5</ele></trkpt>
      <trkpt lat="46.429656" lon="11.816189"><ele>2023.1</ele></trkpt>
      <trkpt lat="46.429616" lon="11.815886"><ele>2020.8</ele></trkpt>
      <trkpt lat="46.429615" lon="11.815838"><ele>2018.4</ele></trkpt>
      <trkpt lat="46.429705" lon="11.815758"><ele>2016</ele></trkpt>
      <trkpt lat="46.429835" lon="11.815645"><ele>2014.6</ele></trkpt>
      <trkpt lat="46.429837" lon="11.815509"><ele>2013.2</ele></trkpt>
      <trkpt lat="46.429821" lon="11.815444"><ele>2011.8</ele></trkpt>
      <trkpt lat="46.429798" lon="11.815391"><ele>2010.4</ele></trkpt>
      <trkpt lat="46.42977" lon="11.81538"><ele>2009</ele></trkpt>
      <trkpt lat="46.429699" lon="11.81543"><ele>2007.6</ele></trkpt>
      <trkpt lat="46.429664" lon="11.815435"><ele>2006.2</ele></trkpt>
      <trkpt lat="46.429635" lon="11.815418"><ele>2004.8</ele></trkpt>
      <trkpt lat="46.429617" lon="11.815396"><ele>2003.4</ele></trkpt>
      <trkpt lat="46.429666" lon="11.815208"><ele>2002</ele></trkpt>
      <trkpt lat="46.429694" lon="11.815005"><ele>2000.6</ele></trkpt>
      <trkpt lat="46.429723" lon="11.81488"><ele>1999.2</ele></trkpt>
      <trkpt lat="46.429764" lon="11.814842"><ele>1997.8</ele></trkpt>
      <trkpt lat="46.429839" lon="11.814841"><ele>1996.4</ele></trkpt>
      <trkpt lat="46.430102" lon="11.814887"><ele>1995</ele></trkpt>
      <trkpt lat="46.430284" lon="11.814946"><ele>1993.6</ele></trkpt>
      <trkpt lat="46.430318" lon="11.814928"><ele>1992.2</ele></trkpt>
      <trkpt lat="46.430336" lon="11.814905"><ele>1990.8</ele></trkpt>
      <trkpt lat="46.430341" lon="11.81474"><ele>1989.4</ele></trkpt>
      <trkpt lat="46.43038" lon="11.814701"><ele>1988</ele></trkpt>
      <trkpt lat="46.430411" lon="11.814622"><ele>1986.6</ele></trkpt>
      <trkpt lat="46.430413" lon="11.814518"><ele>1985.2</ele></trkpt>
      <trkpt lat="46.430423" lon="11.814416"><ele>1983.8</ele></trkpt>
      <trkpt lat="46.43044" lon="11.814331"><ele>1982.4</ele></trkpt>
      <trkpt lat="46.430478" lon="11.814298"><ele>1981</ele></trkpt>
      <trkpt lat="46.430512" lon="11.814309"><ele>1979.6</ele></trkpt>
      <trkpt lat="46.430647" lon="11.814424"><ele>1978.2</ele></trkpt>
      <trkpt lat="46.430789" lon="11.8145"><ele>1976.8</ele></trkpt>
      <trkpt lat="46.430823" lon="11.814471"><ele>1975.4</ele></trkpt>
      <trkpt lat="46.430881" lon="11.814465"><ele>1974</ele></trkpt>
      <trkpt lat="46.430924" lon="11.814413"><ele>1972.6</ele></trkpt>
      <trkpt lat="46.430958" lon="11.814348"><ele>1971.2</ele></trkpt>
      <trkpt lat="46.431022" lon="11.814172"><ele>1969.8</ele></trkpt>
      <trkpt lat="46.431039" lon="11.814097"><ele>1968.4</ele></trkpt>
      <trkpt lat="46.431042" lon="11.814001"><ele>1967</ele></trkpt>
      <trkpt lat="46.431052" lon="11.813905"><ele>1965.6</ele></trkpt>
      <trkpt lat="46.431035" lon="11.813885"><ele>1964.2</ele></trkpt>
      <trkpt lat="46.431028" lon="11.813824"><ele>1962.8</ele></trkpt>
      <trkpt lat="46.431034" lon="11.813759"><ele>1961.4</ele></trkpt>
      <trkpt lat="46.431078" lon="11.813636"><ele>1960</ele></trkpt>
      <trkpt lat="46.431362" lon="11.813"><ele>1958.6</ele></trkpt>
      <trkpt lat="46.431419" lon="11.812918"><ele>1957.2</ele></trkpt>
      <trkpt lat="46.431487" lon="11.8129"><ele>1955.8</ele></trkpt>
      <trkpt lat="46.431567" lon="11.812903"><ele>1954.4</ele></trkpt>
      <trkpt lat="46.431721" lon="11.812879"><ele>1953</ele></trkpt>
      <trkpt lat="46.431984" lon="11.812829"><ele>1951.6</ele></trkpt>
      <trkpt lat="46.43207" lon="11.812796"><ele>1950.2</ele></trkpt>
      <trkpt lat="46.432147" lon="11.812729"><ele>1948.8</ele></trkpt>
      <trkpt lat="46.432228" lon="11.812634"><ele>1947.4</ele></trkpt>
      <trkpt lat="46.43233" lon="11.812437"><ele>1946</ele></trkpt>
      <trkpt lat="46.432391" lon="11.812304"><ele>1944.6</ele></trkpt>
      <trkpt lat="46.432428" lon="11.812245"><ele>1943.2</ele></trkpt>
      <trkpt lat="46.43248" lon="11.812185"><ele>1941.8</ele></trkpt>
      <trkpt lat="46.432527" lon="11.812152"><ele>1940.4</ele></trkpt>
      <trkpt lat="46.43258" lon="11.812138"><ele>1939</ele></trkpt>
      <trkpt lat="46.432818" lon="11.812137"><ele>1937.6</ele></trkpt>
      <trkpt lat="46.432856" lon="11.81212"><ele>1936.2</ele></trkpt>
      <trkpt lat="46.432897" lon="11.812078"><ele>1934.8</ele></trkpt>
      <trkpt lat="46.432999" lon="11.811857"><ele>1933.4</ele></trkpt>
      <trkpt lat="46.433136" lon="11.811699"><ele>1932</ele></trkpt>
      <trkpt lat="46.433297" lon="11.811261"><ele>1930.6</ele></trkpt>
      <trkpt lat="46.433312" lon="11.811087"><ele>1929.2</ele></trkpt>
      <trkpt lat="46.433299" lon="11.810953"><ele>1927.8</ele></trkpt>
      <trkpt lat="46.433308" lon="11.810875"><ele>1926.4</ele></trkpt>
      <trkpt lat="46.433381" lon="11.810695"><ele>1925</ele></trkpt>
      <trkpt lat="46.433387" lon="11.810438"><ele>1923.6</ele></trkpt>
      <trkpt lat="46.43342" lon="11.810349"><ele>1922.2</ele></trkpt>
      <trkpt lat="46.433476" lon="11.810264"><ele>1920.8</ele></trkpt>
      <trkpt lat="46.433529" lon="11.810114"><ele>1919.4</ele></trkpt>
      <trkpt lat="46.433607" lon="11.809926"><ele>1918</ele></trkpt>
      <trkpt lat="46.433682" lon="11.809814"><ele>1916.6</ele></trkpt>
      <trkpt lat="46.433705" lon="11.809732"><ele>1915.2</ele></trkpt>
      <trkpt lat="46.433715" lon="11.809651"><ele>1913.8</ele></trkpt>
      <trkpt lat="46.433716" lon="11.809554"><ele>1912.4</ele></trkpt>
      <trkpt lat="46.433693" lon="11.8095"><ele>1911</ele></trkpt>
      <trkpt lat="46.433614" lon="11.809416"><ele>1909.6</ele></trkpt>
      <trkpt lat="46.433597" lon="11.809378"><ele>1908.2</ele></trkpt>
      <trkpt lat="46.433594" lon="11.80933"><ele>1906.8</ele></trkpt>
      <trkpt lat="46.433615" lon="11.809252"><ele>1905.4</ele></trkpt>
      <trkpt lat="46.433683" lon="11.809176"><ele>1904</ele></trkpt>
      <trkpt lat="46.433716" lon="11.80912"><ele>1902.6</ele></trkpt>
      <trkpt lat="46.433772" lon="11.808951"><ele>1901.2</ele></trkpt>
      <trkpt lat="46.433815" lon="11.808782"><ele>1899.8</ele></trkpt>
      <trkpt lat="46.433825" lon="11.808696"><ele>1898.4</ele></trkpt>
      <trkpt lat="46.433823" lon="11.808604"><ele>1897</ele></trkpt>
      <trkpt lat="46.433831" lon="11.808496"><ele>1895.6</ele></trkpt>
      <trkpt lat="46.433868" lon="11.808328"><ele>1894.2</ele></trkpt>
      <trkpt lat="46.433998" lon="11.807993"><ele>1892.8</ele></trkpt>
      <trkpt lat="46.434105" lon="11.807606"><ele>1891.4</ele></trkpt>
      <trkpt lat="46.434141" lon="11.807508"><ele>1890</ele></trkpt>
      <trkpt lat="46.434183" lon="11.807431"><ele>1888.6</ele></trkpt>
      <trkpt lat="46.434348" lon="11.807166"><ele>1887.2</ele></trkpt>
      <trkpt lat="46.434477" lon="11.806973"><ele>1885.8</ele></trkpt>
      <trkpt lat="46.434508" lon="11.806911"><ele>1884.4</ele></trkpt>
      <trkpt lat="46.434593" lon="11.80656"><ele>1883</ele></trkpt>
      <trkpt lat="46.434631" lon="11.806464"><ele>1881.6</ele></trkpt>
      <trkpt lat="46.434801" lon="11.80603"><ele>1880.2</ele></trkpt>
      <trkpt lat="46.434808" lon="11.806036"><ele>1878.8</ele></trkpt>
      <trkpt lat="46.434988" lon="11.805663"><ele>1877.4</ele></trkpt>
      <trkpt lat="46.4351" lon="11.805482"><ele>1875.9</ele></trkpt>
      <trkpt lat="46.435226" lon="11.805294"><ele>1874.5</ele></trkpt>
      <trkpt lat="46.435319" lon="11.805176"><ele>1873.1</ele></trkpt>
      <trkpt lat="46.435411" lon="11.805088"><ele>1871.7</ele></trkpt>
      <trkpt lat="46.435549" lon="11.804914"><ele>1870.3</ele></trkpt>
      <trkpt lat="46.435592" lon="11.804834"><ele>1868.9</ele></trkpt>
      <trkpt lat="46.435727" lon="11.804502"><ele>1867.5</ele></trkpt>
      <trkpt lat="46.435762" lon="11.804393"><ele>1866.1</ele></trkpt>
      <trkpt lat="46.435796" lon="11.80431"><ele>1864.7</ele></trkpt>
      <trkpt lat="46.435843" lon="11.804238"><ele>1863.3</ele></trkpt>
      <trkpt lat="46.435912" lon="11.804163"><ele>1861.9</ele></trkpt>
      <trkpt lat="46.435965" lon="11.804087"><ele>1860.5</ele></trkpt>
      <trkpt lat="46.436009" lon="11.803994"><ele>1859.1</ele></trkpt>
      <trkpt lat="46.436117" lon="11.803821"><ele>1857.7</ele></trkpt>
      <trkpt lat="46.43629" lon="11.803589"><ele>1856.3</ele></trkpt>
      <trkpt lat="46.436502" lon="11.803259"><ele>1854.9</ele></trkpt>
      <trkpt lat="46.436687" lon="11.802892"><ele>1853.5</ele></trkpt>
      <trkpt lat="46.436746" lon="11.80275"><ele>1852.1</ele></trkpt>
      <trkpt lat="46.436819" lon="11.80264"><ele>1850.7</ele></trkpt>
      <trkpt lat="46.436988" lon="11.802466"><ele>1849.3</ele></trkpt>
      <trkpt lat="46.437002" lon="11.802411"><ele>1847.9</ele></trkpt>
      <trkpt lat="46.436991" lon="11.802365"><ele>1846.5</ele></trkpt>
      <trkpt lat="46.436931" lon="11.80219"><ele>1845.1</ele></trkpt>
      <trkpt lat="46.436855" lon="11.802009"><ele>1843.7</ele></trkpt>
      <trkpt lat="46.436806" lon="11.801904"><ele>1842.3</ele></trkpt>
      <trkpt lat="46.436786" lon="11.801844"><ele>1840.9</ele></trkpt>
      <trkpt lat="46.436784" lon="11.801774"><ele>1839.5</ele></trkpt>
      <trkpt lat="46.436803" lon="11.801667"><ele>1838.1</ele></trkpt>
      <trkpt lat="46.436822" lon="11.801594"><ele>1836.7</ele></trkpt>
      <trkpt lat="46.436931" lon="11.801334"><ele>1835.3</ele></trkpt>
      <trkpt lat="46.436987" lon="11.801274"><ele>1833.9</ele></trkpt>
      <trkpt lat="46.437137" lon="11.801151"><ele>1832.5</ele></trkpt>
      <trkpt lat="46.437197" lon="11.801116"><ele>1831.1</ele></trkpt>
      <trkpt lat="46.437299" lon="11.801067"><ele>1829.7</ele></trkpt>
      <trkpt lat="46.437856" lon="11.800863"><ele>1828.3</ele></trkpt>
      <trkpt lat="46.43796" lon="11.80079"><ele>1826.9</ele></trkpt>
      <trkpt lat="46.438137" lon="11.800698"><ele>1825.5</ele></trkpt>
      <trkpt lat="46.438206" lon="11.80065"><ele>1824.1</ele></trkpt>
      <trkpt lat="46.438576" lon="11.800293"><ele>1822.7</ele></trkpt>
      <trkpt lat="46.438675" lon="11.800213"><ele>1821.3</ele></trkpt>
      <trkpt lat="46.438818" lon="11.800113"><ele>1819.9</ele></trkpt>
      <trkpt lat="46.438908" lon="11.800039"><ele>1818.5</ele></trkpt>
      <trkpt lat="46.438979" lon="11.799966"><ele>1817.1</ele></trkpt>
      <trkpt lat="46.439181" lon="11.799666"><ele>1815.7</ele></trkpt>
      <trkpt lat="46.439268" lon="11.799491"><ele>1814.3</ele></trkpt>
      <trkpt lat="46.439299" lon="11.799395"><ele>1812.9</ele></trkpt>
      <trkpt lat="46.439409" lon="11.798842"><ele>1811.5</ele></trkpt>
      <trkpt lat="46.439461" lon="11.798681"><ele>1810.1</ele></trkpt>
      <trkpt lat="46.439484" lon="11.798646"><ele>1808.7</ele></trkpt>
      <trkpt lat="46.439532" lon="11.798595"><ele>1807.3</ele></trkpt>
      <trkpt lat="46.439646" lon="11.798531"><ele>1805.9</ele></trkpt>
      <trkpt lat="46.439865" lon="11.798266"><ele>1804.5</ele></trkpt>
      <trkpt lat="46.440034" lon="11.798136"><ele>1803.1</ele></trkpt>
      <trkpt lat="46.440144" lon="11.798036"><ele>1801.7</ele></trkpt>
      <trkpt lat="46.440277" lon="11.797961"><ele>1800.3</ele></trkpt>
      <trkpt lat="46.440349" lon="11.797895"><ele>1798.9</ele></trkpt>
      <trkpt lat="46.440404" lon="11.79786"><ele>1797.5</ele></trkpt>
      <trkpt lat="46.440449" lon="11.797856"><ele>1796.1</ele></trkpt>
      <trkpt lat="46.440631" lon="11.797879"><ele>1794.7</ele></trkpt>
      <trkpt lat="46.44073" lon="11.797873"><ele>1793.3</ele></trkpt>
      <trkpt lat="46.440834" lon="11.797836"><ele>1791.9</ele></trkpt>
      <trkpt lat="46.441049" lon="11.797656"><ele>1790.5</ele></trkpt>
      <trkpt lat="46.441124" lon="11.797564"><ele>1789.1</ele></trkpt>
      <trkpt lat="46.441187" lon="11.797465"><ele>1787.7</ele></trkpt>
      <trkpt lat="46.441233" lon="11.797432"><ele>1786.3</ele></trkpt>
      <trkpt lat="46.441313" lon="11.797408"><ele>1784.9</ele></trkpt>
      <trkpt lat="46.441623" lon="11.797437"><ele>1783.5</ele></trkpt>
      <trkpt lat="46.441733" lon="11.797417"><ele>1782.1</ele></trkpt>
      <trkpt lat="46.441815" lon="11.797349"><ele>1780.7</ele></trkpt>
      <trkpt lat="46.442063" lon="11.797063"><ele>1779.3</ele></trkpt>
      <trkpt lat="46.442289" lon="11.796877"><ele>1777.9</ele></trkpt>
      <trkpt lat="46.442477" lon="11.796638"><ele>1776.5</ele></trkpt>
      <trkpt lat="46.442972" lon="11.7961"><ele>1775.1</ele></trkpt>
      <trkpt lat="46.443064" lon="11.796033"><ele>1773.7</ele></trkpt>
      <trkpt lat="46.44396" lon="11.79565"><ele>1772.3</ele></trkpt>
      <trkpt lat="46.444215" lon="11.795517"><ele>1770.9</ele></trkpt>
      <trkpt lat="46.444427" lon="11.795345"><ele>1769.5</ele></trkpt>
      <trkpt lat="46.444541" lon="11.795274"><ele>1768.1</ele></trkpt>
      <trkpt lat="46.444734" lon="11.795187"><ele>1766.7</ele></trkpt>
      <trkpt lat="46.44549" lon="11.794805"><ele>1765.3</ele></trkpt>
      <trkpt lat="46.445821" lon="11.794613"><ele>1763.9</ele></trkpt>
      <trkpt lat="46.446004" lon="11.794458"><ele>1762.5</ele></trkpt>
      <trkpt lat="46.446106" lon="11.794389"><ele>1761.1</ele></trkpt>
      <trkpt lat="46.446191" lon="11.794342"><ele>1759.7</ele></trkpt>
      <trkpt lat="46.446308" lon="11.794293"><ele>1758.3</ele></trkpt>
      <trkpt lat="46.446586" lon="11.794206"><ele>1756.9</ele></trkpt>
      <trkpt lat="46.446666" lon="11.794169"><ele>1755.5</ele></trkpt>
      <trkpt lat="46.446778" lon="11.794076"><ele>1754.1</ele></trkpt>
      <trkpt lat="46.447032" lon="11.793911"><ele>1752.7</ele></trkpt>
      <trkpt lat="46.44712" lon="11.793862"><ele>1751.3</ele></trkpt>
      <trkpt lat="46.447213" lon="11.793825"><ele>1749.9</ele></trkpt>
      <trkpt lat="46.447277" lon="11.793817"><ele>1748.5</ele></trkpt>
      <trkpt lat="46.447403" lon="11.793829"><ele>1747.1</ele></trkpt>
      <trkpt lat="46.447876" lon="11.793778"><ele>1745.7</ele></trkpt>
      <trkpt lat="46.447962" lon="11.79376"><ele>1744.3</ele></trkpt>
      <trkpt lat="46.448189" lon="11.79366"><ele>1742.9</ele></trkpt>
      <trkpt lat="46.448505" lon="11.79354"><ele>1741.5</ele></trkpt>
      <trkpt lat="46.448618" lon="11.793479"><ele>1740.1</ele></trkpt>
      <trkpt lat="46.448686" lon="11.793426"><ele>1738.7</ele></trkpt>
      <trkpt lat="46.448907" lon="11.793155"><ele>1737.3</ele></trkpt>
      <trkpt lat="46.449193" lon="11.792808"><ele>1735.9</ele></trkpt>
      <trkpt lat="46.449302" lon="11.792663"><ele>1734.5</ele></trkpt>
      <trkpt lat="46.449353" lon="11.792578"><ele>1733.1</ele></trkpt>
      <trkpt lat="46.449379" lon="11.792494"><ele>1731.7</ele></trkpt>
      <trkpt lat="46.44941" lon="11.792427"><ele>1730.3</ele></trkpt>
      <trkpt lat="46.449453" lon="11.792387"><ele>1728.9</ele></trkpt>
      <trkpt lat="46.449706" lon="11.792261"><ele>1727.5</ele></trkpt>
      <trkpt lat="46.449907" lon="11.792136"><ele>1726.1</ele></trkpt>
      <trkpt lat="46.449956" lon="11.792081"><ele>1724.7</ele></trkpt>
      <trkpt lat="46.449982" lon="11.792015"><ele>1723.3</ele></trkpt>
      <trkpt lat="46.450025" lon="11.79182"><ele>1721.9</ele></trkpt>
      <trkpt lat="46.450073" lon="11.791762"><ele>1720.5</ele></trkpt>
      <trkpt lat="46.450198" lon="11.791686"><ele>1719.1</ele></trkpt>
      <trkpt lat="46.45024" lon="11.791612"><ele>1717.7</ele></trkpt>
      <trkpt lat="46.450252" lon="11.791551"><ele>1716.3</ele></trkpt>
      <trkpt lat="46.450265" lon="11.79135"><ele>1714.9</ele></trkpt>
      <trkpt lat="46.45028" lon="11.791291"><ele>1713.5</ele></trkpt>
      <trkpt lat="46.450302" lon="11.791084"><ele>1712.1</ele></trkpt>
      <trkpt lat="46.450356" lon="11.790996"><ele>1710.7</ele></trkpt>
      <trkpt lat="46.450534" lon="11.790841"><ele>1709.3</ele></trkpt>
      <trkpt lat="46.450543" lon="11.790795"><ele>1707.9</ele></trkpt>
      <trkpt lat="46.450635" lon="11.79067"><ele>1706.5</ele></trkpt>
      <trkpt lat="46.450667" lon="11.790581"><ele>1705.1</ele></trkpt>
      <trkpt lat="46.450681" lon="11.790513"><ele>1703.7</ele></trkpt>
      <trkpt lat="46.450702" lon="11.790345"><ele>1702.3</ele></trkpt>
      <trkpt lat="46.450807" lon="11.790084"><ele>1700.9</ele></trkpt>
      <trkpt lat="46.450867" lon="11.78977"><ele>1699.5</ele></trkpt>
      <trkpt lat="46.45104" lon="11.789261"><ele>1698.1</ele></trkpt>
      <trkpt lat="46.45112" lon="11.789191"><ele>1696.7</ele></trkpt>
      <trkpt lat="46.451209" lon="11.789548"><ele>1695.3</ele></trkpt>
      <trkpt lat="46.451222" lon="11.789699"><ele>1693.9</ele></trkpt>
      <trkpt lat="46.451247" lon="11.789756"><ele>1692.5</ele></trkpt>
      <trkpt lat="46.451271" lon="11.789756"><ele>1691.1</ele></trkpt>
      <trkpt lat="46.451312" lon="11.789678"><ele>1689.7</ele></trkpt>
      <trkpt lat="46.451353" lon="11.789533"><ele>1688.3</ele></trkpt>
      <trkpt lat="46.451405" lon="11.789441"><ele>1686.9</ele></trkpt>
      <trkpt lat="46.451432" lon="11.789446"><ele>1685.5</ele></trkpt>
      <trkpt lat="46.451445" lon="11.789565"><ele>1684.1</ele></trkpt>
      <trkpt lat="46.451438" lon="11.789613"><ele>1682.7</ele></trkpt>
      <trkpt lat="46.451486" lon="11.789749"><ele>1681.3</ele></trkpt>
      <trkpt lat="46.451524" lon="11.789792"><ele>1679.9</ele></trkpt>
      <trkpt lat="46.451573" lon="11.789737"><ele>1678.5</ele></trkpt>
      <trkpt lat="46.451587" lon="11.789391"><ele>1677.1</ele></trkpt>
      <trkpt lat="46.451653" lon="11.789319"><ele>1675.7</ele></trkpt>
      <trkpt lat="46.451694" lon="11.789322"><ele>1674.3</ele></trkpt>
      <trkpt lat="46.451754" lon="11.789371"><ele>1672.9</ele></trkpt>
      <trkpt lat="46.45178" lon="11.789513"><ele>1671.5</ele></trkpt>
      <trkpt lat="46.451807" lon="11.789579"><ele>1670.1</ele></trkpt>
      <trkpt lat="46.451839" lon="11.789616"><ele>1668.7</ele></trkpt>
      <trkpt lat="46.45189" lon="11.789543"><ele>1667.3</ele></trkpt>
      <trkpt lat="46.45195" lon="11.789421"><ele>1665.9</ele></trkpt>
      <trkpt lat="46.45193" lon="11.789271"><ele>1664.5</ele></trkpt>
      <trkpt lat="46.451984" lon="11.789145"><ele>1663.1</ele></trkpt>
      <trkpt lat="46.452023" lon="11.789025"><ele>1661.7</ele></trkpt>
      <trkpt lat="46.452103" lon="11.788866"><ele>1660.3</ele></trkpt>
      <trkpt lat="46.452208" lon="11.788786"><ele>1658.9</ele></trkpt>
      <trkpt lat="46.452203" lon="11.789173"><ele>1657.5</ele></trkpt>
      <trkpt lat="46.452222" lon="11.789221"><ele>1656.1</ele></trkpt>
      <trkpt lat="46.452255" lon="11.789248"><ele>1654.7</ele></trkpt>
      <trkpt lat="46.452276" lon="11.789248"><ele>1653.3</ele></trkpt>
      <trkpt lat="46.45231" lon="11.789208"><ele>1651.9</ele></trkpt>
      <trkpt lat="46.452336" lon="11.789155"><ele>1650.5</ele></trkpt>
      <trkpt lat="46.452365" lon="11.788983"><ele>1649.1</ele></trkpt>
      <trkpt lat="46.452502" lon="11.788867"><ele>1647.7</ele></trkpt>
      <trkpt lat="46.45257" lon="11.788863"><ele>1646.3</ele></trkpt>
      <trkpt lat="46.452742" lon="11.788864"><ele>1644.9</ele></trkpt>
      <trkpt lat="46.452835" lon="11.788851"><ele>1643.5</ele></trkpt>
      <trkpt lat="46.452921" lon="11.788784"><ele>1642.1</ele></trkpt>
      <trkpt lat="46.453" lon="11.788666"><ele>1640.7</ele></trkpt>
      <trkpt lat="46.453062" lon="11.788603"><ele>1639.3</ele></trkpt>
      <trkpt lat="46.453104" lon="11.788566"><ele>1637.9</ele></trkpt>
      <trkpt lat="46.453157" lon="11.788538"><ele>1636.5</ele></trkpt>
      <trkpt lat="46.453229" lon="11.788506"><ele>1635.1</ele></trkpt>
      <trkpt lat="46.453326" lon="11.78849"><ele>1633.7</ele></trkpt>
      <trkpt lat="46.453607" lon="11.788521"><ele>1632.3</ele></trkpt>
      <trkpt lat="46.453631" lon="11.788507"><ele>1630.9</ele></trkpt>
      <trkpt lat="46.453861" lon="11.788255"><ele>1629.5</ele></trkpt>
      <trkpt lat="46.45398" lon="11.788218"><ele>1628.1</ele></trkpt>
      <trkpt lat="46.4541" lon="11.788195"><ele>1626.7</ele></trkpt>
      <trkpt lat="46.454154" lon="11.788148"><ele>1625.3</ele></trkpt>
      <trkpt lat="46.454175" lon="11.788152"><ele>1623.9</ele></trkpt>
      <trkpt lat="46.454189" lon="11.788179"><ele>1622.5</ele></trkpt>
      <trkpt lat="46.454184" lon="11.788283"><ele>1621.1</ele></trkpt>
      <trkpt lat="46.454162" lon="11.788359"><ele>1619.7</ele></trkpt>
      <trkpt lat="46.454113" lon="11.78843"><ele>1618.3</ele></trkpt>
      <trkpt lat="46.454055" lon="11.788479"><ele>1616.9</ele></trkpt>
      <trkpt lat="46.453966" lon="11.788609"><ele>1615.5</ele></trkpt>
      <trkpt lat="46.453942" lon="11.788684"><ele>1614.1</ele></trkpt>
      <trkpt lat="46.453947" lon="11.788718"><ele>1612.7</ele></trkpt>
      <trkpt lat="46.453979" lon="11.788741"><ele>1611.3</ele></trkpt>
      <trkpt lat="46.454002" lon="11.788746"><ele>1609.9</ele></trkpt>
      <trkpt lat="46.454022" lon="11.788737"><ele>1608.5</ele></trkpt>
      <trkpt lat="46.454085" lon="11.788654"><ele>1607.1</ele></trkpt>
      <trkpt lat="46.454156" lon="11.788575"><ele>1605.7</ele></trkpt>
      <trkpt lat="46.45429" lon="11.788474"><ele>1604.3</ele></trkpt>
      <trkpt lat="46.454368" lon="11.78843"><ele>1602.9</ele></trkpt>
      <trkpt lat="46.454426" lon="11.788369"><ele>1601.5</ele></trkpt>
      <trkpt lat="46.454454" lon="11.788322"><ele>1600.1</ele></trkpt>
      <trkpt lat="46.454459" lon="11.788377"><ele>1598.6</ele></trkpt>
      <trkpt lat="46.454456" lon="11.788452"><ele>1597.2</ele></trkpt>
      <trkpt lat="46.454424" lon="11.788548"><ele>1595.8</ele></trkpt>
      <trkpt lat="46.454397" lon="11.788605"><ele>1594.4</ele></trkpt>
      <trkpt lat="46.45435" lon="11.788764"><ele>1593</ele></trkpt>
      <trkpt lat="46.454368" lon="11.788784"><ele>1591.6</ele></trkpt>
      <trkpt lat="46.454405" lon="11.788768"><ele>1590.2</ele></trkpt>
      <trkpt lat="46.454506" lon="11.788653"><ele>1588.8</ele></trkpt>
      <trkpt lat="46.454546" lon="11.788632"><ele>1587.4</ele></trkpt>
      <trkpt lat="46.454665" lon="11.788488"><ele>1586</ele></trkpt>
      <trkpt lat="46.454758" lon="11.788325"><ele>1584.6</ele></trkpt>
      <trkpt lat="46.454724" lon="11.788574"><ele>1583.2</ele></trkpt>
      <trkpt lat="46.454667" lon="11.78892"><ele>1581.8</ele></trkpt>
      <trkpt lat="46.454674" lon="11.788992"><ele>1580.4</ele></trkpt>
      <trkpt lat="46.454729" lon="11.789019"><ele>1579</ele></trkpt>
      <trkpt lat="46.454757" lon="11.789003"><ele>1577.6</ele></trkpt>
      <trkpt lat="46.454813" lon="11.788931"><ele>1576.2</ele></trkpt>
      <trkpt lat="46.454929" lon="11.788764"><ele>1574.8</ele></trkpt>
      <trkpt lat="46.455069" lon="11.788714"><ele>1573.4</ele></trkpt>
      <trkpt lat="46.455304" lon="11.788646"><ele>1572</ele></trkpt>
      <trkpt lat="46.455426" lon="11.788606"><ele>1570.6</ele></trkpt>
      <trkpt lat="46.455444" lon="11.788603"><ele>1569.2</ele></trkpt>
      <trkpt lat="46.455589" lon="11.788574"><ele>1567.8</ele></trkpt>
      <trkpt lat="46.455656" lon="11.788593"><ele>1566.4</ele></trkpt>
      <trkpt lat="46.455759" lon="11.788687"><ele>1565</ele></trkpt>
      <trkpt lat="46.455895" lon="11.788905"><ele>1563.6</ele></trkpt>
      <trkpt lat="46.455948" lon="11.788939"><ele>1562.2</ele></trkpt>
      <trkpt lat="46.455997" lon="11.788939"><ele>1560.8</ele></trkpt>
      <trkpt lat="46.456145" lon="11.788889"><ele>1559.4</ele></trkpt>
      <trkpt lat="46.456301" lon="11.788751"><ele>1558</ele></trkpt>
      <trkpt lat="46.456585" lon="11.788578"><ele>1556.6</ele></trkpt>
      <trkpt lat="46.45678" lon="11.788342"><ele>1555.2</ele></trkpt>
      <trkpt lat="46.456901" lon="11.788043"><ele>1553.8</ele></trkpt>
      <trkpt lat="46.457042" lon="11.787926"><ele>1552.4</ele></trkpt>
      <trkpt lat="46.457174" lon="11.787855"><ele>1551</ele></trkpt>
      <trkpt lat="46.457227" lon="11.787821"><ele>1549.6</ele></trkpt>
      <trkpt lat="46.457778" lon="11.787433"><ele>1548.2</ele></trkpt>
      <trkpt lat="46.458" lon="11.787321"><ele>1546.8</ele></trkpt>
      <trkpt lat="46.458531" lon="11.787075"><ele>1545.4</ele></trkpt>
      <trkpt lat="46.458724" lon="11.786943"><ele>1544</ele></trkpt>
      <trkpt lat="46.458844" lon="11.786845"><ele>1542.6</ele></trkpt>
      <trkpt lat="46.458955" lon="11.786818"><ele>1541.2</ele></trkpt>
      <trkpt lat="46.459075" lon="11.786765"><ele>1539.8</ele></trkpt>
      <trkpt lat="46.459095" lon="11.786757"><ele>1538.4</ele></trkpt>
      <trkpt lat="46.459111" lon="11.78675"><ele>1537</ele></trkpt>
      <trkpt lat="46.459153" lon="11.786626"><ele>1535.6</ele></trkpt>
      <trkpt lat="46.459237" lon="11.786396"><ele>1534.2</ele></trkpt>
      <trkpt lat="46.45931" lon="11.786228"><ele>1532.8</ele></trkpt>
      <trkpt lat="46.459419" lon="11.785978"><ele>1531.4</ele></trkpt>
      <trkpt lat="46.459528" lon="11.785702"><ele>1530</ele></trkpt>
      <trkpt lat="46.459598" lon="11.785548"><ele>1528.6</ele></trkpt>
      <trkpt lat="46.45978" lon="11.78509"><ele>1527.2</ele></trkpt>
      <trkpt lat="46.459914" lon="11.784817"><ele>1525.8</ele></trkpt>
      <trkpt lat="46.460052" lon="11.784608"><ele>1524.4</ele></trkpt>
      <trkpt lat="46.460068" lon="11.784583"><ele>1523</ele></trkpt>
      <trkpt lat="46.460579" lon="11.783997"><ele>1521.6</ele></trkpt>
      <trkpt lat="46.46085" lon="11.783698"><ele>1520.2</ele></trkpt>
      <trkpt lat="46.460919" lon="11.783593"><ele>1518.8</ele></trkpt>
      <trkpt lat="46.461003" lon="11.783498"><ele>1517.4</ele></trkpt>
      <trkpt lat="46.461361" lon="11.783124"><ele>1516</ele></trkpt>
      <trkpt lat="46.46156" lon="11.783"><ele>1514.6</ele></trkpt>
      <trkpt lat="46.461589" lon="11.783024"><ele>1513.2</ele></trkpt>
      <trkpt lat="46.461626" lon="11.783027"><ele>1511.8</ele></trkpt>
      <trkpt lat="46.461712" lon="11.782996"><ele>1510.4</ele></trkpt>
      <trkpt lat="46.461836" lon="11.782945"><ele>1509</ele></trkpt>
      <trkpt lat="46.461927" lon="11.782749"><ele>1507.6</ele></trkpt>
      <trkpt lat="46.461959" lon="11.782775"><ele>1506.2</ele></trkpt>
      <trkpt lat="46.461996" lon="11.782806"><ele>1504.8</ele></trkpt>
      <trkpt lat="46.461983" lon="11.78284"><ele>1503.4</ele></trkpt>
      <trkpt lat="46.461983" lon="11.782865"><ele>1502</ele></trkpt>
      <trkpt lat="46.462008" lon="11.782894"><ele>1500.6</ele></trkpt>
      <trkpt lat="46.462032" lon="11.782901"><ele>1499.2</ele></trkpt>
      <trkpt lat="46.46213" lon="11.782889"><ele>1497.8</ele></trkpt>
      <trkpt lat="46.462131" lon="11.78295"><ele>1496.4</ele></trkpt>
      <trkpt lat="46.462131" lon="11.782985"><ele>1495</ele></trkpt>
      <trkpt lat="46.463195" lon="11.782882"><ele>1493.6</ele></trkpt>
      <trkpt lat="46.463514" lon="11.782854"><ele>1492.2</ele></trkpt>
      <trkpt lat="46.463791" lon="11.782815"><ele>1490.8</ele></trkpt>
      <trkpt lat="46.464001" lon="11.782751"><ele>1489.4</ele></trkpt>
      <trkpt lat="46.464062" lon="11.782729"><ele>1488</ele></trkpt>
      <trkpt lat="46.464331" lon="11.782531"><ele>1486.6</ele></trkpt>
      <trkpt lat="46.465588" lon="11.781573"><ele>1485.2</ele></trkpt>
      <trkpt lat="46.465857" lon="11.781365"><ele>1483.8</ele></trkpt>
      <trkpt lat="46.466032" lon="11.781229"><ele>1482.4</ele></trkpt>
      <trkpt lat="46.466136" lon="11.781148"><ele>1481</ele></trkpt>
      <trkpt lat="46.466268" lon="11.781055"><ele>1479.6</ele></trkpt>
      <trkpt lat="46.466342" lon="11.780999"><ele>1478.2</ele></trkpt>
      <trkpt lat="46.466383" lon="11.780967"><ele>1476.8</ele></trkpt>
      <trkpt lat="46.466241" lon="11.78127"><ele>1475.4</ele></trkpt>
      <trkpt lat="46.466219" lon="11.781495"><ele>1474</ele></trkpt>
      <trkpt lat="46.466308" lon="11.781753"><ele>1472.6</ele></trkpt>
      <trkpt lat="46.466367" lon="11.782043"><ele>1471.2</ele></trkpt>
      <trkpt lat="46.466397" lon="11.782311"><ele>1469.8</ele></trkpt>
      <trkpt lat="46.466424" lon="11.782341"><ele>1468.4</ele></trkpt>
      <trkpt lat="46.466511" lon="11.782437"><ele>1467</ele></trkpt>
      <trkpt lat="46.466569" lon="11.7825"><ele>1465.6</ele></trkpt>
      <trkpt lat="46.46686" lon="11.78208"><ele>1464.2</ele></trkpt>
      <trkpt lat="46.46741" lon="11.781567"><ele>1462.8</ele></trkpt>
      <trkpt lat="46.467644" lon="11.781278"><ele>1461.4</ele></trkpt>
      <trkpt lat="46.4679" lon="11.78067"><ele>1460</ele></trkpt>
  </trkseg></trk>
</gpx>
