<?xml version="1.0" encoding="UTF-8"?>
<gpx version="1.1" creator="Dolomites 2026" xmlns="http://www.topografix.com/GPX/1/1">
  <metadata><name>День 1 · Fronza → Santner → Vajolet</name></metadata>
  <wpt lat="46.442597" lon="11.612253"><ele>2341.5</ele><name>Rifugio Fronza</name></wpt>
  <wpt lat="46.456243" lon="11.618519"><ele>2722.3</ele><name>Passo Santner</name></wpt>
  <wpt lat="46.459501" lon="11.62289"><ele>2608.7</ele><name>Rifugio Re Alberto</name></wpt>
  <wpt lat="46.458607" lon="11.63288"><ele>2242.8</ele><name>Rifugio Vajolet</name></wpt>
  <trk><name>День 1 · Fronza → Santner → Vajolet</name><trkseg>
      <trkpt lat="46.442597" lon="11.612253"><ele>2341.5</ele></trkpt>
      <trkpt lat="46.442354" lon="11.613131"><ele>2409.6</ele></trkpt>
      <trkpt lat="46.442583" lon="11.61397"><ele>2449.5</ele></trkpt>
      <trkpt lat="46.443854" lon="11.61515"><ele>2458.4</ele></trkpt>
      <trkpt lat="46.444564" lon="11.616352"><ele>2462.7</ele></trkpt>
      <trkpt lat="46.445229" lon="11.616802"><ele>2452</ele></trkpt>
      <trkpt lat="46.445628" lon="11.617274"><ele>2458</ele></trkpt>
      <trkpt lat="46.446087" lon="11.617253"><ele>2455.8</ele></trkpt>
      <trkpt lat="46.447063" lon="11.617939"><ele>2437.8</ele></trkpt>
      <trkpt lat="46.448038" lon="11.618068"><ele>2418.5</ele></trkpt>
      <trkpt lat="46.44826" lon="11.618519"><ele>2453.3</ele></trkpt>
      <trkpt lat="46.448674" lon="11.618519"><ele>2454.8</ele></trkpt>
      <trkpt lat="46.450005" lon="11.619098"><ele>2525.1</ele></trkpt>
      <trkpt lat="46.450345" lon="11.619441"><ele>2542.4</ele></trkpt>
      <trkpt lat="46.450862" lon="11.619399"><ele>2530.9</ele></trkpt>
      <trkpt lat="46.45138" lon="11.619635"><ele>2544</ele></trkpt>
      <trkpt lat="46.45237" lon="11.619699"><ele>2606.7</ele></trkpt>
      <trkpt lat="46.452902" lon="11.619356"><ele>2623.6</ele></trkpt>
      <trkpt lat="46.453656" lon="11.61912"><ele>2655</ele></trkpt>
      <trkpt lat="46.45444" lon="11.619313"><ele>2684.7</ele></trkpt>
      <trkpt lat="46.454883" lon="11.619291"><ele>2721.3</ele></trkpt>
      <trkpt lat="46.455194" lon="11.619463"><ele>2746.2</ele></trkpt>
      <trkpt lat="46.45546" lon="11.619248"><ele>2739.9</ele></trkpt>
      <trkpt lat="46.455933" lon="11.619162"><ele>2736.2</ele></trkpt>
      <trkpt lat="46.456243" lon="11.618519"><ele>2722.3</ele></trkpt>
      <trkpt lat="46.456595" lon="11.618524"><ele>2725.8</ele></trkpt>
      <trkpt lat="46.456965" lon="11.618755"><ele>2710.8</ele></trkpt>
      <trkpt lat="46.457346" lon="11.618993"><ele>2697.1</ele></trkpt>
      <trkpt lat="46.457728" lon="11.61923"><ele>2683.6</ele></trkpt>
      <trkpt lat="46.457947" lon="11.619424"><ele>2671.9</ele></trkpt>
      <trkpt lat="46.458166" lon="11.619617"><ele>2663</ele></trkpt>
      <trkpt lat="46.458515" lon="11.620018"><ele>2656</ele></trkpt>
      <trkpt lat="46.458679" lon="11.620284"><ele>2650.4</ele></trkpt>
      <trkpt lat="46.458842" lon="11.62055"><ele>2645.2</ele></trkpt>
      <trkpt lat="46.458997" lon="11.620678"><ele>2642.4</ele></trkpt>
      <trkpt lat="46.459216" lon="11.620781"><ele>2645.6</ele></trkpt>
      <trkpt lat="46.459364" lon="11.621033"><ele>2643.8</ele></trkpt>
      <trkpt lat="46.459395" lon="11.621186"><ele>2639</ele></trkpt>
      <trkpt lat="46.459487" lon="11.621671"><ele>2626.6</ele></trkpt>
      <trkpt lat="46.459482" lon="11.621959"><ele>2617.7</ele></trkpt>
      <trkpt lat="46.459478" lon="11.622106"><ele>2613.8</ele></trkpt>
      <trkpt lat="46.459469" lon="11.622273"><ele>2609.3</ele></trkpt>
      <trkpt lat="46.459472" lon="11.622522"><ele>2609</ele></trkpt>
      <trkpt lat="46.459501" lon="11.62289"><ele>2608.7</ele></trkpt>
      <trkpt lat="46.459515" lon="11.623062"><ele>2607.3</ele></trkpt>
      <trkpt lat="46.459554" lon="11.623359"><ele>2605.3</ele></trkpt>
      <trkpt lat="46.459585" lon="11.623492"><ele>2602.4</ele></trkpt>
      <trkpt lat="46.459633" lon="11.623636"><ele>2601.4</ele></trkpt>
      <trkpt lat="46.459671" lon="11.623716"><ele>2600.4</ele></trkpt>
      <trkpt lat="46.459682" lon="11.623786"><ele>2599.3</ele></trkpt>
      <trkpt lat="46.45967" lon="11.623831"><ele>2597.3</ele></trkpt>
      <trkpt lat="46.459569" lon="11.623863"><ele>2590.4</ele></trkpt>
      <trkpt lat="46.459545" lon="11.623928"><ele>2587.5</ele></trkpt>
      <trkpt lat="46.459513" lon="11.624064"><ele>2581.9</ele></trkpt>
      <trkpt lat="46.459484" lon="11.624117"><ele>2579</ele></trkpt>
      <trkpt lat="46.459456" lon="11.624165"><ele>2576.8</ele></trkpt>
      <trkpt lat="46.459457" lon="11.624445"><ele>2568.4</ele></trkpt>
      <trkpt lat="46.459516" lon="11.624887"><ele>2560.4</ele></trkpt>
      <trkpt lat="46.459575" lon="11.625329"><ele>2554.7</ele></trkpt>
      <trkpt lat="46.459588" lon="11.625764"><ele>2540.1</ele></trkpt>
      <trkpt lat="46.459563" lon="11.62624"><ele>2521.5</ele></trkpt>
      <trkpt lat="46.459468" lon="11.626587"><ele>2502.4</ele></trkpt>
      <trkpt lat="46.459152" lon="11.626967"><ele>2465</ele></trkpt>
      <trkpt lat="46.459092" lon="11.62716"><ele>2459.7</ele></trkpt>
      <trkpt lat="46.459111" lon="11.627348"><ele>2452.4</ele></trkpt>
      <trkpt lat="46.459253" lon="11.627738"><ele>2427.9</ele></trkpt>
      <trkpt lat="46.459365" lon="11.627958"><ele>2423.9</ele></trkpt>
      <trkpt lat="46.459369" lon="11.62811"><ele>2419.3</ele></trkpt>
      <trkpt lat="46.459336" lon="11.62832"><ele>2407.1</ele></trkpt>
      <trkpt lat="46.459121" lon="11.628561"><ele>2390.2</ele></trkpt>
      <trkpt lat="46.459027" lon="11.628719"><ele>2384.2</ele></trkpt>
      <trkpt lat="46.45894" lon="11.628866"><ele>2374.1</ele></trkpt>
      <trkpt lat="46.458759" lon="11.629171"><ele>2361.4</ele></trkpt>
      <trkpt lat="46.45873" lon="11.629514"><ele>2335.9</ele></trkpt>
      <trkpt lat="46.458764" lon="11.629797"><ele>2320</ele></trkpt>
      <trkpt lat="46.45849" lon="11.630125"><ele>2291.9</ele></trkpt>
      <trkpt lat="46.458216" lon="11.630453"><ele>2264.7</ele></trkpt>
      <trkpt lat="46.457942" lon="11.630781"><ele>2210.2</ele></trkpt>
      <trkpt lat="46.457668" lon="11.63111"><ele>2199.4</ele></trkpt>
      <trkpt lat="46.457657" lon="11.631177"><ele>2199</ele></trkpt>
      <trkpt lat="46.457739" lon="11.631202"><ele>2202.3</ele></trkpt>
      <trkpt lat="46.457906" lon="11.631323"><ele>2207</ele></trkpt>
      <trkpt lat="46.457962" lon="11.631455"><ele>2208.5</ele></trkpt>
      <trkpt lat="46.457994" lon="11.631769"><ele>2213</ele></trkpt>
      <trkpt lat="46.458097" lon="11.631817"><ele>2219.5</ele></trkpt>
      <trkpt lat="46.458203" lon="11.631732"><ele>2223</ele></trkpt>
      <trkpt lat="46.458287" lon="11.631504"><ele>2226</ele></trkpt>
      <trkpt lat="46.458289" lon="11.631394"><ele>2226.3</ele></trkpt>
      <trkpt lat="46.458302" lon="11.631337"><ele>2227.5</ele></trkpt>
      <trkpt lat="46.458329" lon="11.631298"><ele>2229.3</ele></trkpt>
      <trkpt lat="46.458378" lon="11.631316"><ele>2231.8</ele></trkpt>
      <trkpt lat="46.458512" lon="11.631655"><ele>2235.8</ele></trkpt>
      <trkpt lat="46.458559" lon="11.631872"><ele>2240.8</ele></trkpt>
      <trkpt lat="46.458521" lon="11.63198"><ele>2241.5</ele></trkpt>
      <trkpt lat="46.458396" lon="11.63217"><ele>2243.3</ele></trkpt>
      <trkpt lat="46.458305" lon="11.632244"><ele>2243.5</ele></trkpt>
      <trkpt lat="46.458392" lon="11.632438"><ele>2243.8</ele></trkpt>
      <trkpt lat="46.458407" lon="11.632546"><ele>2243.3</ele></trkpt>
      <trkpt lat="46.458404" lon="11.632737"><ele>2241.8</ele></trkpt>
      <trkpt lat="46.458426" lon="11.632835"><ele>2240.8</ele></trkpt>
      <trkpt lat="46.458452" lon="11.632878"><ele>2240.3</ele></trkpt>
      <trkpt lat="46.458492" lon="11.632896"><ele>2240.3</ele></trkpt>
      <trkpt lat="46.458607" lon="11.63288"><ele>2242.8</ele></trkpt>
  </trkseg></trk>
</gpx>
