{
  "type": "FeatureCollection",
  "features": [
    {
      "type": "Feature",
      "properties": {
        "kind": "route",
        "name": "День 1 · Fronza → Santner → Vajolet",
        "distance_km": 3.45,
        "ascent_m": 520,
        "descent_m": 619,
        "source": "Official Carezza / Outdooractive Santner GPX + BRouter / OpenStreetMap"
      },
      "geometry": {
        "type": "LineString",
        "coordinates": [
          [
            11.612253,
            46.442597,
            2341.5
          ],
          [
            11.613131,
            46.442354,
            2409.6
          ],
          [
            11.61397,
            46.442583,
            2449.5
          ],
          [
            11.61515,
            46.443854,
            2458.4
          ],
          [
            11.616352,
            46.444564,
            2462.7
          ],
          [
            11.616802,
            46.445229,
            2452
          ],
          [
            11.617274,
            46.445628,
            2458
          ],
          [
            11.617253,
            46.446087,
            2455.8
          ],
          [
            11.617939,
            46.447063,
            2437.8
          ],
          [
            11.618068,
            46.448038,
            2418.5
          ],
          [
            11.618519,
            46.44826,
            2453.3
          ],
          [
            11.618519,
            46.448674,
            2454.8
          ],
          [
            11.619098,
            46.450005,
            2525.1
          ],
          [
            11.619441,
            46.450345,
            2542.4
          ],
          [
            11.619399,
            46.450862,
            2530.9
          ],
          [
            11.619635,
            46.45138,
            2544
          ],
          [
            11.619699,
            46.45237,
            2606.7
          ],
          [
            11.619356,
            46.452902,
            2623.6
          ],
          [
            11.61912,
            46.453656,
            2655
          ],
          [
            11.619313,
            46.45444,
            2684.7
          ],
          [
            11.619291,
            46.454883,
            2721.3
          ],
          [
            11.619463,
            46.455194,
            2746.2
          ],
          [
            11.619248,
            46.45546,
            2739.9
          ],
          [
            11.619162,
            46.455933,
            2736.2
          ],
          [
            11.618519,
            46.456243,
            2722.3
          ],
          [
            11.618524,
            46.456595,
            2725.8
          ],
          [
            11.618755,
            46.456965,
            2710.8
          ],
          [
            11.618993,
            46.457346,
            2697.1
          ],
          [
            11.61923,
            46.457728,
            2683.6
          ],
          [
            11.619424,
            46.457947,
            2671.9
          ],
          [
            11.619617,
            46.458166,
            2663
          ],
          [
            11.620018,
            46.458515,
            2656
          ],
          [
            11.620284,
            46.458679,
            2650.4
          ],
          [
            11.62055,
            46.458842,
            2645.2
          ],
          [
            11.620678,
            46.458997,
            2642.4
          ],
          [
            11.620781,
            46.459216,
            2645.6
          ],
          [
            11.621033,
            46.459364,
            2643.8
          ],
          [
            11.621186,
            46.459395,
            2639
          ],
          [
            11.621671,
            46.459487,
            2626.6
          ],
          [
            11.621959,
            46.459482,
            2617.7
          ],
          [
            11.622106,
            46.459478,
            2613.8
          ],
          [
            11.622273,
            46.459469,
            2609.3
          ],
          [
            11.622522,
            46.459472,
            2609
          ],
          [
            11.62289,
            46.459501,
            2608.7
          ],
          [
            11.623062,
            46.459515,
            2607.3
          ],
          [
            11.623359,
            46.459554,
            2605.3
          ],
          [
            11.623492,
            46.459585,
            2602.4
          ],
          [
            11.623636,
            46.459633,
            2601.4
          ],
          [
            11.623716,
            46.459671,
            2600.4
          ],
          [
            11.623786,
            46.459682,
            2599.3
          ],
          [
            11.623831,
            46.45967,
            2597.3
          ],
          [
            11.623863,
            46.459569,
            2590.4
          ],
          [
            11.623928,
            46.459545,
            2587.5
          ],
          [
            11.624064,
            46.459513,
            2581.9
          ],
          [
            11.624117,
            46.459484,
            2579
          ],
          [
            11.624165,
            46.459456,
            2576.8
          ],
          [
            11.624445,
            46.459457,
            2568.4
          ],
          [
            11.624887,
            46.459516,
            2560.4
          ],
          [
            11.625329,
            46.459575,
            2554.7
          ],
          [
            11.625764,
            46.459588,
            2540.1
          ],
          [
            11.62624,
            46.459563,
            2521.5
          ],
          [
            11.626587,
            46.459468,
            2502.4
          ],
          [
            11.626967,
            46.459152,
            2465
          ],
          [
            11.62716,
            46.459092,
            2459.7
          ],
          [
            11.627348,
            46.459111,
            2452.4
          ],
          [
            11.627738,
            46.459253,
            2427.9
          ],
          [
            11.627958,
            46.459365,
            2423.9
          ],
          [
            11.62811,
            46.459369,
            2419.3
          ],
          [
            11.62832,
            46.459336,
            2407.1
          ],
          [
            11.628561,
            46.459121,
            2390.2
          ],
          [
            11.628719,
            46.459027,
            2384.2
          ],
          [
            11.628866,
            46.45894,
            2374.1
          ],
          [
            11.629171,
            46.458759,
            2361.4
          ],
          [
            11.629514,
            46.45873,
            2335.9
          ],
          [
            11.629797,
            46.458764,
            2320
          ],
          [
            11.630125,
            46.45849,
            2291.9
          ],
          [
            11.630453,
            46.458216,
            2264.7
          ],
          [
            11.630781,
            46.457942,
            2210.2
          ],
          [
            11.63111,
            46.457668,
            2199.4
          ],
          [
            11.631177,
            46.457657,
            2199
          ],
          [
            11.631202,
            46.457739,
            2202.3
          ],
          [
            11.631323,
            46.457906,
            2207
          ],
          [
            11.631455,
            46.457962,
            2208.5
          ],
          [
            11.631769,
            46.457994,
            2213
          ],
          [
            11.631817,
            46.458097,
            2219.5
          ],
          [
            11.631732,
            46.458203,
            2223
          ],
          [
            11.631504,
            46.458287,
            2226
          ],
          [
            11.631394,
            46.458289,
            2226.3
          ],
          [
            11.631337,
            46.458302,
            2227.5
          ],
          [
            11.631298,
            46.458329,
            2229.3
          ],
          [
            11.631316,
            46.458378,
            2231.8
          ],
          [
            11.631655,
            46.458512,
            2235.8
          ],
          [
            11.631872,
            46.458559,
            2240.8
          ],
          [
            11.63198,
            46.458521,
            2241.5
          ],
          [
            11.63217,
            46.458396,
            2243.3
          ],
          [
            11.632244,
            46.458305,
            2243.5
          ],
          [
            11.632438,
            46.458392,
            2243.8
          ],
          [
            11.632546,
            46.458407,
            2243.3
          ],
          [
            11.632737,
            46.458404,
            2241.8
          ],
          [
            11.632835,
            46.458426,
            2240.8
          ],
          [
            11.632878,
            46.458452,
            2240.3
          ],
          [
            11.632896,
            46.458492,
            2240.3
          ],
          [
            11.63288,
            46.458607,
            2242.8
          ]
        ]
      }
    },
    {
      "type": "Feature",
      "properties": {
        "kind": "waypoint",
        "name": "Rifugio Fronza",
        "show_label": true
      },
      "geometry": {
        "type": "Point",
        "coordinates": [
          11.612253,
          46.442597,
          2341.5
        ]
      }
    },
    {
      "type": "Feature",
      "properties": {
        "kind": "waypoint",
        "name": "Passo Santner",
        "show_label": true
      },
      "geometry": {
        "type": "Point",
        "coordinates": [
          11.618519,
          46.456243,
          2722.3
        ]
      }
    },
    {
      "type": "Feature",
      "properties": {
        "kind": "waypoint",
        "name": "Rifugio Re Alberto",
        "show_label": false
      },
      "geometry": {
        "type": "Point",
        "coordinates": [
          11.62289,
          46.459501,
          2608.7
        ]
      }
    },
    {
      "type": "Feature",
      "properties": {
        "kind": "waypoint",
        "name": "Rifugio Vajolet",
        "show_label": true
      },
      "geometry": {
        "type": "Point",
        "coordinates": [
          11.63288,
          46.458607,
          2242.8
        ]
      }
    }
  ]
}
