<?xml version="1.0" encoding="UTF-8"?>
<gpx version="1.1" creator="Dolomites 2026" xmlns="http://www.topografix.com/GPX/1/1">
  <metadata><name>День 5 · Bontadini → Forcella Marmolada → Dal Bianco</name></metadata>
  <wpt lat="46.463584" lon="11.888313"><ele>2546</ele><name>Bivacco Bontadini</name></wpt>
  <wpt lat="46.464363" lon="11.875528"><ele>2240</ele><name>Lago di Fedaia · північний бік</name></wpt>
  <wpt lat="46.464024" lon="11.86259"><ele>2057</ele><name>Passo Fedaia</name></wpt>
  <wpt lat="46.43878" lon="11.84018"><ele>2885</ele><name>Forcella Marmolada</name></wpt>
  <wpt lat="46.430449" lon="11.84642"><ele>2704.5</ele><name>Passo Ombretta</name></wpt>
  <wpt lat="46.429119" lon="11.845371"><ele>2725</ele><name>Bivacco Dal Bianco</name></wpt>
  <trk><name>День 5 · Bontadini → Forcella Marmolada → Dal Bianco</name><trkseg>
      <trkpt lat="46.463584" lon="11.888313"><ele>2546</ele></trkpt>
      <trkpt lat="46.463605" lon="11.888398"><ele>2542.8</ele></trkpt>
      <trkpt lat="46.463568" lon="11.888454"><ele>2539.6</ele></trkpt>
      <trkpt lat="46.463457" lon="11.888472"><ele>2536.4</ele></trkpt>
      <trkpt lat="46.463402" lon="11.888527"><ele>2533.3</ele></trkpt>
      <trkpt lat="46.463353" lon="11.88862"><ele>2530.1</ele></trkpt>
      <trkpt lat="46.463371" lon="11.888724"><ele>2526.9</ele></trkpt>
      <trkpt lat="46.463445" lon="11.888804"><ele>2523.7</ele></trkpt>
      <trkpt lat="46.463537" lon="11.888964"><ele>2520.5</ele></trkpt>
      <trkpt lat="46.463285" lon="11.88897"><ele>2517.3</ele></trkpt>
      <trkpt lat="46.463076" lon="11.88897"><ele>2514.1</ele></trkpt>
      <trkpt lat="46.462923" lon="11.88897"><ele>2510.9</ele></trkpt>
      <trkpt lat="46.462949" lon="11.88901"><ele>2507.8</ele></trkpt>
      <trkpt lat="46.463066" lon="11.889062"><ele>2504.6</ele></trkpt>
      <trkpt lat="46.463227" lon="11.889235"><ele>2501.4</ele></trkpt>
      <trkpt lat="46.463" lon="11.889216"><ele>2498.2</ele></trkpt>
      <trkpt lat="46.462757" lon="11.889222"><ele>2495</ele></trkpt>
      <trkpt lat="46.462805" lon="11.889331"><ele>2491.8</ele></trkpt>
      <trkpt lat="46.46296" lon="11.889496"><ele>2488.6</ele></trkpt>
      <trkpt lat="46.463096" lon="11.889612"><ele>2485.4</ele></trkpt>
      <trkpt lat="46.463001" lon="11.889637"><ele>2482.3</ele></trkpt>
      <trkpt lat="46.463155" lon="11.889809"><ele>2479.1</ele></trkpt>
      <trkpt lat="46.463231" lon="11.889854"><ele>2475.9</ele></trkpt>
      <trkpt lat="46.463482" lon="11.889938"><ele>2472.7</ele></trkpt>
      <trkpt lat="46.463549" lon="11.890039"><ele>2469.5</ele></trkpt>
      <trkpt lat="46.463484" lon="11.890047"><ele>2466.3</ele></trkpt>
      <trkpt lat="46.463468" lon="11.890086"><ele>2463.1</ele></trkpt>
      <trkpt lat="46.463533" lon="11.890198"><ele>2459.9</ele></trkpt>
      <trkpt lat="46.463397" lon="11.890274"><ele>2456.8</ele></trkpt>
      <trkpt lat="46.463466" lon="11.890471"><ele>2453.6</ele></trkpt>
      <trkpt lat="46.463507" lon="11.890792"><ele>2450.4</ele></trkpt>
      <trkpt lat="46.463432" lon="11.890893"><ele>2447.2</ele></trkpt>
      <trkpt lat="46.463261" lon="11.89098"><ele>2444</ele></trkpt>
      <trkpt lat="46.463101" lon="11.89111"><ele>2440.8</ele></trkpt>
      <trkpt lat="46.463028" lon="11.891137"><ele>2437.6</ele></trkpt>
      <trkpt lat="46.462974" lon="11.891135"><ele>2434.4</ele></trkpt>
      <trkpt lat="46.46287" lon="11.890911"><ele>2431.3</ele></trkpt>
      <trkpt lat="46.462782" lon="11.890843"><ele>2428.1</ele></trkpt>
      <trkpt lat="46.462618" lon="11.890766"><ele>2424.9</ele></trkpt>
      <trkpt lat="46.462523" lon="11.890776"><ele>2421.7</ele></trkpt>
      <trkpt lat="46.462457" lon="11.890778"><ele>2418.5</ele></trkpt>
      <trkpt lat="46.46238" lon="11.890699"><ele>2415.3</ele></trkpt>
      <trkpt lat="46.462271" lon="11.890795"><ele>2412.1</ele></trkpt>
      <trkpt lat="46.46207" lon="11.890779"><ele>2408.9</ele></trkpt>
      <trkpt lat="46.461915" lon="11.890638"><ele>2405.8</ele></trkpt>
      <trkpt lat="46.461829" lon="11.890553"><ele>2402.6</ele></trkpt>
      <trkpt lat="46.461703" lon="11.890522"><ele>2399.4</ele></trkpt>
      <trkpt lat="46.46151" lon="11.890405"><ele>2396.2</ele></trkpt>
      <trkpt lat="46.461355" lon="11.890003"><ele>2393</ele></trkpt>
      <trkpt lat="46.461345" lon="11.889901"><ele>2389.8</ele></trkpt>
      <trkpt lat="46.46144" lon="11.889542"><ele>2386.6</ele></trkpt>
      <trkpt lat="46.461577" lon="11.889405"><ele>2383.4</ele></trkpt>
      <trkpt lat="46.461668" lon="11.889266"><ele>2380.3</ele></trkpt>
      <trkpt lat="46.461672" lon="11.889117"><ele>2377.1</ele></trkpt>
      <trkpt lat="46.461632" lon="11.888879"><ele>2373.9</ele></trkpt>
      <trkpt lat="46.461555" lon="11.888808"><ele>2370.7</ele></trkpt>
      <trkpt lat="46.461474" lon="11.888791"><ele>2367.5</ele></trkpt>
      <trkpt lat="46.46139" lon="11.888377"><ele>2364.3</ele></trkpt>
      <trkpt lat="46.461327" lon="11.888018"><ele>2361.1</ele></trkpt>
      <trkpt lat="46.461246" lon="11.887891"><ele>2357.9</ele></trkpt>
      <trkpt lat="46.461218" lon="11.887654"><ele>2354.8</ele></trkpt>
      <trkpt lat="46.461145" lon="11.887514"><ele>2351.6</ele></trkpt>
      <trkpt lat="46.461036" lon="11.887416"><ele>2348.4</ele></trkpt>
      <trkpt lat="46.460965" lon="11.887266"><ele>2345.2</ele></trkpt>
      <trkpt lat="46.460984" lon="11.886957"><ele>2342</ele></trkpt>
      <trkpt lat="46.461256" lon="11.885886"><ele>2338.8</ele></trkpt>
      <trkpt lat="46.461409" lon="11.885365"><ele>2335.6</ele></trkpt>
      <trkpt lat="46.461664" lon="11.884908"><ele>2332.4</ele></trkpt>
      <trkpt lat="46.46167" lon="11.884634"><ele>2329.3</ele></trkpt>
      <trkpt lat="46.461744" lon="11.884439"><ele>2326.1</ele></trkpt>
      <trkpt lat="46.461872" lon="11.884109"><ele>2322.9</ele></trkpt>
      <trkpt lat="46.462062" lon="11.883938"><ele>2319.7</ele></trkpt>
      <trkpt lat="46.462161" lon="11.883741"><ele>2316.5</ele></trkpt>
      <trkpt lat="46.46229" lon="11.883367"><ele>2313.3</ele></trkpt>
      <trkpt lat="46.462351" lon="11.883121"><ele>2310.1</ele></trkpt>
      <trkpt lat="46.462346" lon="11.88301"><ele>2306.9</ele></trkpt>
      <trkpt lat="46.462339" lon="11.882869"><ele>2303.8</ele></trkpt>
      <trkpt lat="46.462394" lon="11.882439"><ele>2300.6</ele></trkpt>
      <trkpt lat="46.462459" lon="11.882364"><ele>2297.4</ele></trkpt>
      <trkpt lat="46.462675" lon="11.881588"><ele>2294.2</ele></trkpt>
      <trkpt lat="46.463031" lon="11.881081"><ele>2291</ele></trkpt>
      <trkpt lat="46.463271" lon="11.880422"><ele>2287.8</ele></trkpt>
      <trkpt lat="46.46354" lon="11.880095"><ele>2284.6</ele></trkpt>
      <trkpt lat="46.463671" lon="11.879298"><ele>2281.4</ele></trkpt>
      <trkpt lat="46.463751" lon="11.878776"><ele>2278.3</ele></trkpt>
      <trkpt lat="46.464107" lon="11.878354"><ele>2275.1</ele></trkpt>
      <trkpt lat="46.464361" lon="11.878349"><ele>2271.9</ele></trkpt>
      <trkpt lat="46.464369" lon="11.878309"><ele>2268.7</ele></trkpt>
      <trkpt lat="46.464514" lon="11.877594"><ele>2265.5</ele></trkpt>
      <trkpt lat="46.464648" lon="11.877289"><ele>2262.3</ele></trkpt>
      <trkpt lat="46.46494" lon="11.876778"><ele>2259.1</ele></trkpt>
      <trkpt lat="46.465136" lon="11.876434"><ele>2255.9</ele></trkpt>
      <trkpt lat="46.465005" lon="11.876311"><ele>2252.8</ele></trkpt>
      <trkpt lat="46.464751" lon="11.876181"><ele>2249.6</ele></trkpt>
      <trkpt lat="46.464608" lon="11.87596"><ele>2246.4</ele></trkpt>
      <trkpt lat="46.464498" lon="11.875962"><ele>2243.2</ele></trkpt>
      <trkpt lat="46.464363" lon="11.875528"><ele>2240</ele></trkpt>
      <trkpt lat="46.464371" lon="11.87526"><ele>2235.7</ele></trkpt>
      <trkpt lat="46.464188" lon="11.874674"><ele>2231.5</ele></trkpt>
      <trkpt lat="46.464424" lon="11.873387"><ele>2227.2</ele></trkpt>
      <trkpt lat="46.464227" lon="11.872767"><ele>2223</ele></trkpt>
      <trkpt lat="46.464268" lon="11.872324"><ele>2218.7</ele></trkpt>
      <trkpt lat="46.464177" lon="11.871937"><ele>2214.5</ele></trkpt>
      <trkpt lat="46.464196" lon="11.871674"><ele>2210.2</ele></trkpt>
      <trkpt lat="46.464105" lon="11.871492"><ele>2206</ele></trkpt>
      <trkpt lat="46.464117" lon="11.871309"><ele>2201.7</ele></trkpt>
      <trkpt lat="46.463869" lon="11.871047"><ele>2197.4</ele></trkpt>
      <trkpt lat="46.463762" lon="11.870697"><ele>2193.2</ele></trkpt>
      <trkpt lat="46.463756" lon="11.870284"><ele>2188.9</ele></trkpt>
      <trkpt lat="46.463837" lon="11.869879"><ele>2184.7</ele></trkpt>
      <trkpt lat="46.463844" lon="11.869347"><ele>2180.4</ele></trkpt>
      <trkpt lat="46.463954" lon="11.869161"><ele>2176.2</ele></trkpt>
      <trkpt lat="46.463991" lon="11.868899"><ele>2171.9</ele></trkpt>
      <trkpt lat="46.463943" lon="11.868576"><ele>2167.7</ele></trkpt>
      <trkpt lat="46.464046" lon="11.86811"><ele>2163.4</ele></trkpt>
      <trkpt lat="46.464047" lon="11.86767"><ele>2159.1</ele></trkpt>
      <trkpt lat="46.464171" lon="11.867143"><ele>2154.9</ele></trkpt>
      <trkpt lat="46.464178" lon="11.866666"><ele>2150.6</ele></trkpt>
      <trkpt lat="46.464114" lon="11.865902"><ele>2146.4</ele></trkpt>
      <trkpt lat="46.464127" lon="11.86539"><ele>2142.1</ele></trkpt>
      <trkpt lat="46.464124" lon="11.864961"><ele>2137.9</ele></trkpt>
      <trkpt lat="46.46417" lon="11.864642"><ele>2133.6</ele></trkpt>
      <trkpt lat="46.464171" lon="11.864532"><ele>2129.3</ele></trkpt>
      <trkpt lat="46.464139" lon="11.864521"><ele>2125.1</ele></trkpt>
      <trkpt lat="46.464014" lon="11.864528"><ele>2120.8</ele></trkpt>
      <trkpt lat="46.464013" lon="11.864427"><ele>2116.6</ele></trkpt>
      <trkpt lat="46.464056" lon="11.864296"><ele>2112.3</ele></trkpt>
      <trkpt lat="46.464082" lon="11.864243"><ele>2108.1</ele></trkpt>
      <trkpt lat="46.464105" lon="11.864166"><ele>2103.8</ele></trkpt>
      <trkpt lat="46.464179" lon="11.863777"><ele>2099.6</ele></trkpt>
      <trkpt lat="46.464212" lon="11.863626"><ele>2095.3</ele></trkpt>
      <trkpt lat="46.464236" lon="11.863549"><ele>2091</ele></trkpt>
      <trkpt lat="46.464254" lon="11.863417"><ele>2086.8</ele></trkpt>
      <trkpt lat="46.464218" lon="11.862941"><ele>2082.5</ele></trkpt>
      <trkpt lat="46.464153" lon="11.862752"><ele>2078.3</ele></trkpt>
      <trkpt lat="46.4641" lon="11.86254"><ele>2074</ele></trkpt>
      <trkpt lat="46.464057" lon="11.862361"><ele>2069.8</ele></trkpt>
      <trkpt lat="46.46404" lon="11.862336"><ele>2065.5</ele></trkpt>
      <trkpt lat="46.463981" lon="11.862356"><ele>2061.3</ele></trkpt>
      <trkpt lat="46.464024" lon="11.86259"><ele>2057</ele></trkpt>
      <trkpt lat="46.463981" lon="11.862356"><ele>2056.8</ele></trkpt>
      <trkpt lat="46.463939" lon="11.862371"><ele>2056.7</ele></trkpt>
      <trkpt lat="46.463893" lon="11.862386"><ele>2056.5</ele></trkpt>
      <trkpt lat="46.463603" lon="11.862497"><ele>2056.3</ele></trkpt>
      <trkpt lat="46.463239" lon="11.862651"><ele>2056.1</ele></trkpt>
      <trkpt lat="46.463115" lon="11.862688"><ele>2056</ele></trkpt>
      <trkpt lat="46.462946" lon="11.862653"><ele>2055.8</ele></trkpt>
      <trkpt lat="46.462607" lon="11.862535"><ele>2055.6</ele></trkpt>
      <trkpt lat="46.462411" lon="11.86246"><ele>2055.4</ele></trkpt>
      <trkpt lat="46.462281" lon="11.862412"><ele>2055.3</ele></trkpt>
      <trkpt lat="46.46216" lon="11.862404"><ele>2055.1</ele></trkpt>
      <trkpt lat="46.462089" lon="11.862418"><ele>2054.9</ele></trkpt>
      <trkpt lat="46.461963" lon="11.862549"><ele>2054.7</ele></trkpt>
      <trkpt lat="46.461733" lon="11.862828"><ele>2054.6</ele></trkpt>
      <trkpt lat="46.46141" lon="11.863222"><ele>2054.4</ele></trkpt>
      <trkpt lat="46.461137" lon="11.86355"><ele>2054.2</ele></trkpt>
      <trkpt lat="46.460949" lon="11.863809"><ele>2054</ele></trkpt>
      <trkpt lat="46.460791" lon="11.863965"><ele>2053.9</ele></trkpt>
      <trkpt lat="46.460632" lon="11.864128"><ele>2053.7</ele></trkpt>
      <trkpt lat="46.460464" lon="11.86425"><ele>2053.5</ele></trkpt>
      <trkpt lat="46.460158" lon="11.864344"><ele>2053.3</ele></trkpt>
      <trkpt lat="46.459998" lon="11.86437"><ele>2053.2</ele></trkpt>
      <trkpt lat="46.459791" lon="11.864343"><ele>2053</ele></trkpt>
      <trkpt lat="46.459566" lon="11.864263"><ele>2052.8</ele></trkpt>
      <trkpt lat="46.459234" lon="11.864066"><ele>2052.6</ele></trkpt>
      <trkpt lat="46.459036" lon="11.863965"><ele>2052.5</ele></trkpt>
      <trkpt lat="46.458992" lon="11.863931"><ele>2052.3</ele></trkpt>
      <trkpt lat="46.459029" lon="11.863918"><ele>2052.1</ele></trkpt>
      <trkpt lat="46.459071" lon="11.863857"><ele>2051.9</ele></trkpt>
      <trkpt lat="46.459272" lon="11.863396"><ele>2051.8</ele></trkpt>
      <trkpt lat="46.459331" lon="11.863242"><ele>2051.6</ele></trkpt>
      <trkpt lat="46.459341" lon="11.863128"><ele>2051.4</ele></trkpt>
      <trkpt lat="46.459352" lon="11.863037"><ele>2051.2</ele></trkpt>
      <trkpt lat="46.45936" lon="11.862949"><ele>2051.1</ele></trkpt>
      <trkpt lat="46.459401" lon="11.862952"><ele>2050.9</ele></trkpt>
      <trkpt lat="46.459387" lon="11.86284"><ele>2050.7</ele></trkpt>
      <trkpt lat="46.459386" lon="11.862775"><ele>2050.5</ele></trkpt>
      <trkpt lat="46.459389" lon="11.862716"><ele>2050.4</ele></trkpt>
      <trkpt lat="46.459425" lon="11.86267"><ele>2050.2</ele></trkpt>
      <trkpt lat="46.459469" lon="11.862636"><ele>2050</ele></trkpt>
      <trkpt lat="46.459425" lon="11.86267"><ele>2052.5</ele></trkpt>
      <trkpt lat="46.459389" lon="11.862716"><ele>2055</ele></trkpt>
      <trkpt lat="46.459386" lon="11.862775"><ele>2057.5</ele></trkpt>
      <trkpt lat="46.459387" lon="11.86284"><ele>2060</ele></trkpt>
      <trkpt lat="46.459401" lon="11.862952"><ele>2062.5</ele></trkpt>
      <trkpt lat="46.459373" lon="11.86294"><ele>2065</ele></trkpt>
      <trkpt lat="46.459352" lon="11.863037"><ele>2067.5</ele></trkpt>
      <trkpt lat="46.459341" lon="11.863128"><ele>2070</ele></trkpt>
      <trkpt lat="46.459331" lon="11.863242"><ele>2072.5</ele></trkpt>
      <trkpt lat="46.459272" lon="11.863396"><ele>2075</ele></trkpt>
      <trkpt lat="46.459071" lon="11.863857"><ele>2077.5</ele></trkpt>
      <trkpt lat="46.459029" lon="11.863918"><ele>2080</ele></trkpt>
      <trkpt lat="46.458992" lon="11.863931"><ele>2082.5</ele></trkpt>
      <trkpt lat="46.458954" lon="11.863815"><ele>2085</ele></trkpt>
      <trkpt lat="46.458994" lon="11.863582"><ele>2087.5</ele></trkpt>
      <trkpt lat="46.458981" lon="11.863415"><ele>2090</ele></trkpt>
      <trkpt lat="46.458965" lon="11.86327"><ele>2092.5</ele></trkpt>
      <trkpt lat="46.458938" lon="11.86318"><ele>2095</ele></trkpt>
      <trkpt lat="46.458894" lon="11.863073"><ele>2097.5</ele></trkpt>
      <trkpt lat="46.458875" lon="11.863034"><ele>2100</ele></trkpt>
      <trkpt lat="46.45885" lon="11.863006"><ele>2102.5</ele></trkpt>
      <trkpt lat="46.458827" lon="11.862992"><ele>2105</ele></trkpt>
      <trkpt lat="46.458798" lon="11.862985"><ele>2107.5</ele></trkpt>
      <trkpt lat="46.458766" lon="11.862992"><ele>2110</ele></trkpt>
      <trkpt lat="46.458741" lon="11.863012"><ele>2112.5</ele></trkpt>
      <trkpt lat="46.458731" lon="11.86304"><ele>2115</ele></trkpt>
      <trkpt lat="46.458726" lon="11.863073"><ele>2117.5</ele></trkpt>
      <trkpt lat="46.458728" lon="11.863101"><ele>2120</ele></trkpt>
      <trkpt lat="46.458743" lon="11.863128"><ele>2122.5</ele></trkpt>
      <trkpt lat="46.458819" lon="11.863222"><ele>2125</ele></trkpt>
      <trkpt lat="46.45883" lon="11.86331"><ele>2127.5</ele></trkpt>
      <trkpt lat="46.458764" lon="11.863551"><ele>2130</ele></trkpt>
      <trkpt lat="46.458641" lon="11.863906"><ele>2132.5</ele></trkpt>
      <trkpt lat="46.458576" lon="11.863965"><ele>2135</ele></trkpt>
      <trkpt lat="46.458501" lon="11.863947"><ele>2137.5</ele></trkpt>
      <trkpt lat="46.458459" lon="11.863896"><ele>2140</ele></trkpt>
      <trkpt lat="46.458379" lon="11.863766"><ele>2142.5</ele></trkpt>
      <trkpt lat="46.458274" lon="11.863553"><ele>2145</ele></trkpt>
      <trkpt lat="46.458237" lon="11.863524"><ele>2147.5</ele></trkpt>
      <trkpt lat="46.458206" lon="11.863519"><ele>2150</ele></trkpt>
      <trkpt lat="46.458171" lon="11.863552"><ele>2152.5</ele></trkpt>
      <trkpt lat="46.458087" lon="11.863719"><ele>2155</ele></trkpt>
      <trkpt lat="46.458026" lon="11.86379"><ele>2157.5</ele></trkpt>
      <trkpt lat="46.457866" lon="11.863925"><ele>2160</ele></trkpt>
      <trkpt lat="46.457805" lon="11.864018"><ele>2162.5</ele></trkpt>
      <trkpt lat="46.457735" lon="11.864207"><ele>2165</ele></trkpt>
      <trkpt lat="46.457667" lon="11.864329"><ele>2167.5</ele></trkpt>
      <trkpt lat="46.4576" lon="11.864422"><ele>2170</ele></trkpt>
      <trkpt lat="46.457422" lon="11.864765"><ele>2172.5</ele></trkpt>
      <trkpt lat="46.457258" lon="11.864642"><ele>2175</ele></trkpt>
      <trkpt lat="46.457238" lon="11.864613"><ele>2177.5</ele></trkpt>
      <trkpt lat="46.457234" lon="11.86455"><ele>2180</ele></trkpt>
      <trkpt lat="46.457246" lon="11.864471"><ele>2182.5</ele></trkpt>
      <trkpt lat="46.457273" lon="11.864375"><ele>2185</ele></trkpt>
      <trkpt lat="46.45723" lon="11.864327"><ele>2187.5</ele></trkpt>
      <trkpt lat="46.457159" lon="11.864305"><ele>2190</ele></trkpt>
      <trkpt lat="46.457124" lon="11.864269"><ele>2192.5</ele></trkpt>
      <trkpt lat="46.457111" lon="11.864221"><ele>2195</ele></trkpt>
      <trkpt lat="46.457087" lon="11.864243"><ele>2197.5</ele></trkpt>
      <trkpt lat="46.457068" lon="11.864243"><ele>2200</ele></trkpt>
      <trkpt lat="46.457003" lon="11.864107"><ele>2202.5</ele></trkpt>
      <trkpt lat="46.456985" lon="11.863906"><ele>2205</ele></trkpt>
      <trkpt lat="46.456963" lon="11.86385"><ele>2207.5</ele></trkpt>
      <trkpt lat="46.456931" lon="11.86382"><ele>2210</ele></trkpt>
      <trkpt lat="46.456927" lon="11.863791"><ele>2212.5</ele></trkpt>
      <trkpt lat="46.45696" lon="11.863767"><ele>2215</ele></trkpt>
      <trkpt lat="46.456971" lon="11.863723"><ele>2217.5</ele></trkpt>
      <trkpt lat="46.456933" lon="11.8635"><ele>2220</ele></trkpt>
      <trkpt lat="46.456882" lon="11.863382"><ele>2222.5</ele></trkpt>
      <trkpt lat="46.45684" lon="11.863364"><ele>2225</ele></trkpt>
      <trkpt lat="46.456771" lon="11.863376"><ele>2227.5</ele></trkpt>
      <trkpt lat="46.456707" lon="11.863364"><ele>2230</ele></trkpt>
      <trkpt lat="46.456676" lon="11.863409"><ele>2232.5</ele></trkpt>
      <trkpt lat="46.45666" lon="11.863444"><ele>2235</ele></trkpt>
      <trkpt lat="46.456644" lon="11.863398"><ele>2237.5</ele></trkpt>
      <trkpt lat="46.456603" lon="11.863386"><ele>2240</ele></trkpt>
      <trkpt lat="46.456551" lon="11.863436"><ele>2242.5</ele></trkpt>
      <trkpt lat="46.456525" lon="11.863518"><ele>2245</ele></trkpt>
      <trkpt lat="46.456457" lon="11.863563"><ele>2247.5</ele></trkpt>
      <trkpt lat="46.456408" lon="11.863626"><ele>2250</ele></trkpt>
      <trkpt lat="46.456355" lon="11.863659"><ele>2252.5</ele></trkpt>
      <trkpt lat="46.456291" lon="11.863671"><ele>2255</ele></trkpt>
      <trkpt lat="46.456266" lon="11.863732"><ele>2257.5</ele></trkpt>
      <trkpt lat="46.456211" lon="11.863754"><ele>2260</ele></trkpt>
      <trkpt lat="46.456117" lon="11.863874"><ele>2262.5</ele></trkpt>
      <trkpt lat="46.456079" lon="11.863895"><ele>2265</ele></trkpt>
      <trkpt lat="46.456065" lon="11.863932"><ele>2267.5</ele></trkpt>
      <trkpt lat="46.456014" lon="11.864002"><ele>2270</ele></trkpt>
      <trkpt lat="46.455989" lon="11.864064"><ele>2272.5</ele></trkpt>
      <trkpt lat="46.455936" lon="11.864088"><ele>2275</ele></trkpt>
      <trkpt lat="46.455925" lon="11.864023"><ele>2277.5</ele></trkpt>
      <trkpt lat="46.455944" lon="11.863976"><ele>2280</ele></trkpt>
      <trkpt lat="46.455899" lon="11.863982"><ele>2282.5</ele></trkpt>
      <trkpt lat="46.455812" lon="11.864072"><ele>2285</ele></trkpt>
      <trkpt lat="46.455671" lon="11.864167"><ele>2287.5</ele></trkpt>
      <trkpt lat="46.455622" lon="11.864198"><ele>2290</ele></trkpt>
      <trkpt lat="46.45551" lon="11.864265"><ele>2292.5</ele></trkpt>
      <trkpt lat="46.455472" lon="11.864318"><ele>2295</ele></trkpt>
      <trkpt lat="46.455453" lon="11.864379"><ele>2297.5</ele></trkpt>
      <trkpt lat="46.455462" lon="11.864435"><ele>2300</ele></trkpt>
      <trkpt lat="46.455447" lon="11.864456"><ele>2302.5</ele></trkpt>
      <trkpt lat="46.45542" lon="11.864376"><ele>2305</ele></trkpt>
      <trkpt lat="46.455452" lon="11.864183"><ele>2307.5</ele></trkpt>
      <trkpt lat="46.455426" lon="11.864153"><ele>2310</ele></trkpt>
      <trkpt lat="46.455397" lon="11.864198"><ele>2312.5</ele></trkpt>
      <trkpt lat="46.455377" lon="11.864218"><ele>2315</ele></trkpt>
      <trkpt lat="46.455356" lon="11.864215"><ele>2317.5</ele></trkpt>
      <trkpt lat="46.455344" lon="11.864117"><ele>2320</ele></trkpt>
      <trkpt lat="46.455324" lon="11.86405"><ele>2322.5</ele></trkpt>
      <trkpt lat="46.455277" lon="11.864094"><ele>2325</ele></trkpt>
      <trkpt lat="46.455241" lon="11.864198"><ele>2327.5</ele></trkpt>
      <trkpt lat="46.455192" lon="11.864267"><ele>2330</ele></trkpt>
      <trkpt lat="46.455168" lon="11.864251"><ele>2332.5</ele></trkpt>
      <trkpt lat="46.455148" lon="11.86417"><ele>2335</ele></trkpt>
      <trkpt lat="46.455163" lon="11.863926"><ele>2337.5</ele></trkpt>
      <trkpt lat="46.455148" lon="11.863818"><ele>2340</ele></trkpt>
      <trkpt lat="46.45506" lon="11.86368"><ele>2342.5</ele></trkpt>
      <trkpt lat="46.455016" lon="11.863629"><ele>2345</ele></trkpt>
      <trkpt lat="46.454828" lon="11.863685"><ele>2347.5</ele></trkpt>
      <trkpt lat="46.454838" lon="11.863586"><ele>2350</ele></trkpt>
      <trkpt lat="46.454816" lon="11.863546"><ele>2352.5</ele></trkpt>
      <trkpt lat="46.454839" lon="11.863405"><ele>2355</ele></trkpt>
      <trkpt lat="46.454863" lon="11.863349"><ele>2357.5</ele></trkpt>
      <trkpt lat="46.454881" lon="11.863153"><ele>2360</ele></trkpt>
      <trkpt lat="46.454907" lon="11.862989"><ele>2362.5</ele></trkpt>
      <trkpt lat="46.454865" lon="11.862945"><ele>2365</ele></trkpt>
      <trkpt lat="46.454764" lon="11.862996"><ele>2367.5</ele></trkpt>
      <trkpt lat="46.45442" lon="11.863124"><ele>2370</ele></trkpt>
      <trkpt lat="46.454341" lon="11.863109"><ele>2372.5</ele></trkpt>
      <trkpt lat="46.454303" lon="11.863069"><ele>2375</ele></trkpt>
      <trkpt lat="46.454308" lon="11.863014"><ele>2377.5</ele></trkpt>
      <trkpt lat="46.454396" lon="11.862812"><ele>2380</ele></trkpt>
      <trkpt lat="46.454447" lon="11.862732"><ele>2382.5</ele></trkpt>
      <trkpt lat="46.45447" lon="11.862599"><ele>2385</ele></trkpt>
      <trkpt lat="46.454522" lon="11.862505"><ele>2387.5</ele></trkpt>
      <trkpt lat="46.454582" lon="11.862427"><ele>2390</ele></trkpt>
      <trkpt lat="46.454579" lon="11.862395"><ele>2392.5</ele></trkpt>
      <trkpt lat="46.454592" lon="11.862375"><ele>2395</ele></trkpt>
      <trkpt lat="46.454611" lon="11.862346"><ele>2397.5</ele></trkpt>
      <trkpt lat="46.45464" lon="11.862293"><ele>2400</ele></trkpt>
      <trkpt lat="46.454638" lon="11.862246"><ele>2402.5</ele></trkpt>
      <trkpt lat="46.454715" lon="11.862157"><ele>2405</ele></trkpt>
      <trkpt lat="46.454735" lon="11.862125"><ele>2407.5</ele></trkpt>
      <trkpt lat="46.45468" lon="11.8621"><ele>2410</ele></trkpt>
      <trkpt lat="46.454655" lon="11.862116"><ele>2412.5</ele></trkpt>
      <trkpt lat="46.454606" lon="11.8621"><ele>2415</ele></trkpt>
      <trkpt lat="46.454566" lon="11.862087"><ele>2417.5</ele></trkpt>
      <trkpt lat="46.454562" lon="11.862043"><ele>2420</ele></trkpt>
      <trkpt lat="46.454601" lon="11.861962"><ele>2422.5</ele></trkpt>
      <trkpt lat="46.454581" lon="11.861917"><ele>2425</ele></trkpt>
      <trkpt lat="46.454522" lon="11.861923"><ele>2427.5</ele></trkpt>
      <trkpt lat="46.454492" lon="11.861886"><ele>2430</ele></trkpt>
      <trkpt lat="46.454466" lon="11.861883"><ele>2432.5</ele></trkpt>
      <trkpt lat="46.454438" lon="11.861817"><ele>2435</ele></trkpt>
      <trkpt lat="46.45445" lon="11.86178"><ele>2437.5</ele></trkpt>
      <trkpt lat="46.454452" lon="11.861735"><ele>2440</ele></trkpt>
      <trkpt lat="46.454474" lon="11.861701"><ele>2442.5</ele></trkpt>
      <trkpt lat="46.454478" lon="11.861674"><ele>2445</ele></trkpt>
      <trkpt lat="46.454458" lon="11.861648"><ele>2447.5</ele></trkpt>
      <trkpt lat="46.454434" lon="11.861655"><ele>2450</ele></trkpt>
      <trkpt lat="46.454413" lon="11.861648"><ele>2452.5</ele></trkpt>
      <trkpt lat="46.454337" lon="11.861648"><ele>2455</ele></trkpt>
      <trkpt lat="46.454133" lon="11.861668"><ele>2457.5</ele></trkpt>
      <trkpt lat="46.45409" lon="11.861659"><ele>2460</ele></trkpt>
      <trkpt lat="46.454035" lon="11.861615"><ele>2462.5</ele></trkpt>
      <trkpt lat="46.453947" lon="11.861564"><ele>2465</ele></trkpt>
      <trkpt lat="46.453828" lon="11.861477"><ele>2467.5</ele></trkpt>
      <trkpt lat="46.453563" lon="11.861224"><ele>2470</ele></trkpt>
      <trkpt lat="46.453529" lon="11.861188"><ele>2472.5</ele></trkpt>
      <trkpt lat="46.453512" lon="11.861123"><ele>2475</ele></trkpt>
      <trkpt lat="46.453522" lon="11.861031"><ele>2477.5</ele></trkpt>
      <trkpt lat="46.453501" lon="11.86094"><ele>2480</ele></trkpt>
      <trkpt lat="46.453478" lon="11.860773"><ele>2482.5</ele></trkpt>
      <trkpt lat="46.453445" lon="11.860734"><ele>2485</ele></trkpt>
      <trkpt lat="46.453325" lon="11.860675"><ele>2487.5</ele></trkpt>
      <trkpt lat="46.453227" lon="11.86066"><ele>2490</ele></trkpt>
      <trkpt lat="46.453135" lon="11.860628"><ele>2492.5</ele></trkpt>
      <trkpt lat="46.453065" lon="11.860569"><ele>2495</ele></trkpt>
      <trkpt lat="46.452953" lon="11.8605"><ele>2497.5</ele></trkpt>
      <trkpt lat="46.452856" lon="11.860531"><ele>2500</ele></trkpt>
      <trkpt lat="46.45274" lon="11.860539"><ele>2502.5</ele></trkpt>
      <trkpt lat="46.452666" lon="11.86059"><ele>2505</ele></trkpt>
      <trkpt lat="46.452588" lon="11.860676"><ele>2507.5</ele></trkpt>
      <trkpt lat="46.452564" lon="11.860715"><ele>2510</ele></trkpt>
      <trkpt lat="46.452544" lon="11.860723"><ele>2512.5</ele></trkpt>
      <trkpt lat="46.452526" lon="11.860679"><ele>2515</ele></trkpt>
      <trkpt lat="46.452507" lon="11.860639"><ele>2517.5</ele></trkpt>
      <trkpt lat="46.452495" lon="11.860557"><ele>2520</ele></trkpt>
      <trkpt lat="46.452512" lon="11.860471"><ele>2522.5</ele></trkpt>
      <trkpt lat="46.452522" lon="11.860388"><ele>2525</ele></trkpt>
      <trkpt lat="46.452549" lon="11.860329"><ele>2527.5</ele></trkpt>
      <trkpt lat="46.452598" lon="11.860274"><ele>2530</ele></trkpt>
      <trkpt lat="46.452574" lon="11.860256"><ele>2532.5</ele></trkpt>
      <trkpt lat="46.452333" lon="11.860299"><ele>2535</ele></trkpt>
      <trkpt lat="46.452243" lon="11.860338"><ele>2537.5</ele></trkpt>
      <trkpt lat="46.452169" lon="11.860388"><ele>2540</ele></trkpt>
      <trkpt lat="46.45217" lon="11.860327"><ele>2542.5</ele></trkpt>
      <trkpt lat="46.452212" lon="11.860223"><ele>2545</ele></trkpt>
      <trkpt lat="46.452272" lon="11.860133"><ele>2547.5</ele></trkpt>
      <trkpt lat="46.452289" lon="11.86007"><ele>2550</ele></trkpt>
      <trkpt lat="46.452277" lon="11.860036"><ele>2552.5</ele></trkpt>
      <trkpt lat="46.452221" lon="11.860048"><ele>2555</ele></trkpt>
      <trkpt lat="46.452182" lon="11.86002"><ele>2557.5</ele></trkpt>
      <trkpt lat="46.452027" lon="11.860026"><ele>2560</ele></trkpt>
      <trkpt lat="46.451992" lon="11.860037"><ele>2562.5</ele></trkpt>
      <trkpt lat="46.451942" lon="11.860065"><ele>2565</ele></trkpt>
      <trkpt lat="46.451943" lon="11.86003"><ele>2567.5</ele></trkpt>
      <trkpt lat="46.451969" lon="11.859949"><ele>2570</ele></trkpt>
      <trkpt lat="46.452011" lon="11.859865"><ele>2572.5</ele></trkpt>
      <trkpt lat="46.45199" lon="11.859832"><ele>2575</ele></trkpt>
      <trkpt lat="46.451961" lon="11.859845"><ele>2577.5</ele></trkpt>
      <trkpt lat="46.451917" lon="11.85983"><ele>2580</ele></trkpt>
      <trkpt lat="46.451904" lon="11.859803"><ele>2582.5</ele></trkpt>
      <trkpt lat="46.451849" lon="11.859792"><ele>2585</ele></trkpt>
      <trkpt lat="46.451807" lon="11.859757"><ele>2587.5</ele></trkpt>
      <trkpt lat="46.45177" lon="11.859737"><ele>2590</ele></trkpt>
      <trkpt lat="46.451736" lon="11.85974"><ele>2592.5</ele></trkpt>
      <trkpt lat="46.451709" lon="11.859744"><ele>2595</ele></trkpt>
      <trkpt lat="46.451706" lon="11.859688"><ele>2597.5</ele></trkpt>
      <trkpt lat="46.451686" lon="11.859677"><ele>2600</ele></trkpt>
      <trkpt lat="46.451662" lon="11.85968"><ele>2602.5</ele></trkpt>
      <trkpt lat="46.451643" lon="11.859682"><ele>2605</ele></trkpt>
      <trkpt lat="46.451591" lon="11.859664"><ele>2607.5</ele></trkpt>
      <trkpt lat="46.451604" lon="11.859608"><ele>2610</ele></trkpt>
      <trkpt lat="46.451587" lon="11.85956"><ele>2612.5</ele></trkpt>
      <trkpt lat="46.45157" lon="11.859525"><ele>2615</ele></trkpt>
      <trkpt lat="46.451544" lon="11.859541"><ele>2617.5</ele></trkpt>
      <trkpt lat="46.451486" lon="11.859519"><ele>2620</ele></trkpt>
      <trkpt lat="46.451337" lon="11.859536"><ele>2622.5</ele></trkpt>
      <trkpt lat="46.451301" lon="11.859413"><ele>2625</ele></trkpt>
      <trkpt lat="46.45116" lon="11.859331"><ele>2627.5</ele></trkpt>
      <trkpt lat="46.451047" lon="11.859217"><ele>2630</ele></trkpt>
      <trkpt lat="46.450898" lon="11.859055"><ele>2632.5</ele></trkpt>
      <trkpt lat="46.450802" lon="11.858876"><ele>2635</ele></trkpt>
      <trkpt lat="46.450768" lon="11.858719"><ele>2637.5</ele></trkpt>
      <trkpt lat="46.450756" lon="11.858561"><ele>2640</ele></trkpt>
      <trkpt lat="46.450647" lon="11.85832"><ele>2642.5</ele></trkpt>
      <trkpt lat="46.450489" lon="11.858207"><ele>2645</ele></trkpt>
      <trkpt lat="46.450396" lon="11.858016"><ele>2647.5</ele></trkpt>
      <trkpt lat="46.450321" lon="11.857925"><ele>2650</ele></trkpt>
      <trkpt lat="46.450244" lon="11.857941"><ele>2652.5</ele></trkpt>
      <trkpt lat="46.45019" lon="11.857869"><ele>2655</ele></trkpt>
      <trkpt lat="46.450136" lon="11.857716"><ele>2657.5</ele></trkpt>
      <trkpt lat="46.450022" lon="11.857585"><ele>2660</ele></trkpt>
      <trkpt lat="46.449905" lon="11.857569"><ele>2662.5</ele></trkpt>
      <trkpt lat="46.449856" lon="11.857461"><ele>2665</ele></trkpt>
      <trkpt lat="46.449697" lon="11.857443"><ele>2667.5</ele></trkpt>
      <trkpt lat="46.449615" lon="11.857266"><ele>2670</ele></trkpt>
      <trkpt lat="46.44946" lon="11.857121"><ele>2672.5</ele></trkpt>
      <trkpt lat="46.449216" lon="11.856649"><ele>2675</ele></trkpt>
      <trkpt lat="46.448956" lon="11.856201"><ele>2677.5</ele></trkpt>
      <trkpt lat="46.448882" lon="11.856067"><ele>2680</ele></trkpt>
      <trkpt lat="46.448789" lon="11.855997"><ele>2682.5</ele></trkpt>
      <trkpt lat="46.447986" lon="11.853767"><ele>2685</ele></trkpt>
      <trkpt lat="46.447831" lon="11.853422"><ele>2687.5</ele></trkpt>
      <trkpt lat="46.447494" lon="11.852905"><ele>2690</ele></trkpt>
      <trkpt lat="46.447298" lon="11.852655"><ele>2692.5</ele></trkpt>
      <trkpt lat="46.447058" lon="11.85262"><ele>2695</ele></trkpt>
      <trkpt lat="46.447008" lon="11.852569"><ele>2697.5</ele></trkpt>
      <trkpt lat="46.446951" lon="11.852437"><ele>2700</ele></trkpt>
      <trkpt lat="46.446884" lon="11.852282"><ele>2702.5</ele></trkpt>
      <trkpt lat="46.446808" lon="11.852051"><ele>2705</ele></trkpt>
      <trkpt lat="46.446779" lon="11.851869"><ele>2707.5</ele></trkpt>
      <trkpt lat="46.446657" lon="11.851617"><ele>2710</ele></trkpt>
      <trkpt lat="46.446638" lon="11.851429"><ele>2712.5</ele></trkpt>
      <trkpt lat="46.446666" lon="11.851319"><ele>2715</ele></trkpt>
      <trkpt lat="46.446662" lon="11.851147"><ele>2717.5</ele></trkpt>
      <trkpt lat="46.446713" lon="11.85073"><ele>2720</ele></trkpt>
      <trkpt lat="46.446774" lon="11.850168"><ele>2722.5</ele></trkpt>
      <trkpt lat="46.446743" lon="11.84993"><ele>2725</ele></trkpt>
      <trkpt lat="46.446584" lon="11.849482"><ele>2727.5</ele></trkpt>
      <trkpt lat="46.446596" lon="11.849133"><ele>2730</ele></trkpt>
      <trkpt lat="46.44671" lon="11.848645"><ele>2732.5</ele></trkpt>
      <trkpt lat="46.446786" lon="11.848272"><ele>2735</ele></trkpt>
      <trkpt lat="46.446687" lon="11.847894"><ele>2737.5</ele></trkpt>
      <trkpt lat="46.446673" lon="11.847744"><ele>2740</ele></trkpt>
      <trkpt lat="46.446671" lon="11.847589"><ele>2742.5</ele></trkpt>
      <trkpt lat="46.44667" lon="11.847518"><ele>2745</ele></trkpt>
      <trkpt lat="46.446636" lon="11.847454"><ele>2747.5</ele></trkpt>
      <trkpt lat="46.446396" lon="11.847417"><ele>2750</ele></trkpt>
      <trkpt lat="46.446165" lon="11.847171"><ele>2752.5</ele></trkpt>
      <trkpt lat="46.446015" lon="11.847138"><ele>2755</ele></trkpt>
      <trkpt lat="46.445592" lon="11.847151"><ele>2757.5</ele></trkpt>
      <trkpt lat="46.445391" lon="11.847111"><ele>2760</ele></trkpt>
      <trkpt lat="46.445047" lon="11.846979"><ele>2762.5</ele></trkpt>
      <trkpt lat="46.444923" lon="11.846834"><ele>2765</ele></trkpt>
      <trkpt lat="46.444722" lon="11.84669"><ele>2767.5</ele></trkpt>
      <trkpt lat="46.444624" lon="11.846491"><ele>2770</ele></trkpt>
      <trkpt lat="46.444423" lon="11.846284"><ele>2772.5</ele></trkpt>
      <trkpt lat="46.444296" lon="11.846228"><ele>2775</ele></trkpt>
      <trkpt lat="46.444156" lon="11.846094"><ele>2777.5</ele></trkpt>
      <trkpt lat="46.444093" lon="11.845939"><ele>2780</ele></trkpt>
      <trkpt lat="46.443925" lon="11.845737"><ele>2782.5</ele></trkpt>
      <trkpt lat="46.443761" lon="11.845499"><ele>2785</ele></trkpt>
      <trkpt lat="46.44329" lon="11.845099"><ele>2787.5</ele></trkpt>
      <trkpt lat="46.443208" lon="11.844926"><ele>2790</ele></trkpt>
      <trkpt lat="46.443139" lon="11.844729"><ele>2792.5</ele></trkpt>
      <trkpt lat="46.443053" lon="11.844699"><ele>2795</ele></trkpt>
      <trkpt lat="46.442855" lon="11.844475"><ele>2797.5</ele></trkpt>
      <trkpt lat="46.442583" lon="11.844171"><ele>2800</ele></trkpt>
      <trkpt lat="46.442417" lon="11.843914"><ele>2802.5</ele></trkpt>
      <trkpt lat="46.442343" lon="11.843715"><ele>2805</ele></trkpt>
      <trkpt lat="46.441914" lon="11.843538"><ele>2807.5</ele></trkpt>
      <trkpt lat="46.441707" lon="11.843318"><ele>2810</ele></trkpt>
      <trkpt lat="46.44146" lon="11.842994"><ele>2812.5</ele></trkpt>
      <trkpt lat="46.441293" lon="11.842693"><ele>2815</ele></trkpt>
      <trkpt lat="46.440932" lon="11.842226"><ele>2817.5</ele></trkpt>
      <trkpt lat="46.440439" lon="11.841603"><ele>2820</ele></trkpt>
      <trkpt lat="46.44019" lon="11.841493"><ele>2822.5</ele></trkpt>
      <trkpt lat="46.440045" lon="11.84113"><ele>2825</ele></trkpt>
      <trkpt lat="46.439979" lon="11.840953"><ele>2827.5</ele></trkpt>
      <trkpt lat="46.439893" lon="11.840841"><ele>2830</ele></trkpt>
      <trkpt lat="46.439809" lon="11.84068"><ele>2832.5</ele></trkpt>
      <trkpt lat="46.439717" lon="11.84046"><ele>2835</ele></trkpt>
      <trkpt lat="46.43963" lon="11.840245"><ele>2837.5</ele></trkpt>
      <trkpt lat="46.439655" lon="11.840077"><ele>2840</ele></trkpt>
      <trkpt lat="46.439584" lon="11.840061"><ele>2842.5</ele></trkpt>
      <trkpt lat="46.439566" lon="11.840082"><ele>2845</ele></trkpt>
      <trkpt lat="46.439533" lon="11.84002"><ele>2847.5</ele></trkpt>
      <trkpt lat="46.439484" lon="11.840042"><ele>2850</ele></trkpt>
      <trkpt lat="46.439476" lon="11.840094"><ele>2852.5</ele></trkpt>
      <trkpt lat="46.439434" lon="11.840069"><ele>2855</ele></trkpt>
      <trkpt lat="46.439327" lon="11.840122"><ele>2857.5</ele></trkpt>
      <trkpt lat="46.439256" lon="11.840123"><ele>2860</ele></trkpt>
      <trkpt lat="46.439178" lon="11.840086"><ele>2862.5</ele></trkpt>
      <trkpt lat="46.439107" lon="11.840034"><ele>2865</ele></trkpt>
      <trkpt lat="46.439073" lon="11.84005"><ele>2867.5</ele></trkpt>
      <trkpt lat="46.439033" lon="11.840113"><ele>2870</ele></trkpt>
      <trkpt lat="46.438991" lon="11.84014"><ele>2872.5</ele></trkpt>
      <trkpt lat="46.438939" lon="11.840142"><ele>2875</ele></trkpt>
      <trkpt lat="46.438879" lon="11.840204"><ele>2877.5</ele></trkpt>
      <trkpt lat="46.43883" lon="11.840208"><ele>2880</ele></trkpt>
      <trkpt lat="46.438799" lon="11.840197"><ele>2882.5</ele></trkpt>
      <trkpt lat="46.43878" lon="11.84018"><ele>2885</ele></trkpt>
      <trkpt lat="46.438707" lon="11.840043"><ele>2888.3</ele></trkpt>
      <trkpt lat="46.438595" lon="11.839892"><ele>2865.5</ele></trkpt>
      <trkpt lat="46.438334" lon="11.839488"><ele>2826.5</ele></trkpt>
      <trkpt lat="46.438282" lon="11.839407"><ele>2821.3</ele></trkpt>
      <trkpt lat="46.438406" lon="11.839233"><ele>2817</ele></trkpt>
      <trkpt lat="46.438465" lon="11.839066"><ele>2811.3</ele></trkpt>
      <trkpt lat="46.438577" lon="11.838853"><ele>2800.8</ele></trkpt>
      <trkpt lat="46.438488" lon="11.838834"><ele>2796.5</ele></trkpt>
      <trkpt lat="46.438522" lon="11.838744"><ele>2793.3</ele></trkpt>
      <trkpt lat="46.438477" lon="11.838731"><ele>2790.8</ele></trkpt>
      <trkpt lat="46.43867" lon="11.838499"><ele>2820</ele></trkpt>
      <trkpt lat="46.438765" lon="11.838115"><ele>2878.3</ele></trkpt>
      <trkpt lat="46.438742" lon="11.837698"><ele>2870.5</ele></trkpt>
      <trkpt lat="46.438662" lon="11.83758"><ele>2801</ele></trkpt>
      <trkpt lat="46.438545" lon="11.837726"><ele>2752.8</ele></trkpt>
      <trkpt lat="46.438466" lon="11.837774"><ele>2748.5</ele></trkpt>
      <trkpt lat="46.438357" lon="11.83776"><ele>2741</ele></trkpt>
      <trkpt lat="46.438317" lon="11.837722"><ele>2737.5</ele></trkpt>
      <trkpt lat="46.43834" lon="11.837411"><ele>2730.8</ele></trkpt>
      <trkpt lat="46.438132" lon="11.837292"><ele>2715</ele></trkpt>
      <trkpt lat="46.438108" lon="11.837254"><ele>2712.5</ele></trkpt>
      <trkpt lat="46.438058" lon="11.837109"><ele>2706</ele></trkpt>
      <trkpt lat="46.437951" lon="11.836722"><ele>2693</ele></trkpt>
      <trkpt lat="46.437899" lon="11.836558"><ele>2688.3</ele></trkpt>
      <trkpt lat="46.437874" lon="11.836521"><ele>2686</ele></trkpt>
      <trkpt lat="46.437846" lon="11.836542"><ele>2684</ele></trkpt>
      <trkpt lat="46.437771" lon="11.836669"><ele>2679.5</ele></trkpt>
      <trkpt lat="46.437735" lon="11.83669"><ele>2678</ele></trkpt>
      <trkpt lat="46.437687" lon="11.836685"><ele>2675</ele></trkpt>
      <trkpt lat="46.437609" lon="11.836562"><ele>2668.8</ele></trkpt>
      <trkpt lat="46.437526" lon="11.836556"><ele>2663.5</ele></trkpt>
      <trkpt lat="46.43743" lon="11.836653"><ele>2660.5</ele></trkpt>
      <trkpt lat="46.437276" lon="11.836668"><ele>2654.3</ele></trkpt>
      <trkpt lat="46.43705" lon="11.836799"><ele>2646</ele></trkpt>
      <trkpt lat="46.43687" lon="11.836875"><ele>2640.3</ele></trkpt>
      <trkpt lat="46.436688" lon="11.836892"><ele>2634.8</ele></trkpt>
      <trkpt lat="46.436559" lon="11.836796"><ele>2628.8</ele></trkpt>
      <trkpt lat="46.436465" lon="11.836629"><ele>2621</ele></trkpt>
      <trkpt lat="46.436268" lon="11.8365"><ele>2614.3</ele></trkpt>
      <trkpt lat="46.436149" lon="11.836322"><ele>2606.8</ele></trkpt>
      <trkpt lat="46.435881" lon="11.836072"><ele>2595.8</ele></trkpt>
      <trkpt lat="46.435799" lon="11.835891"><ele>2588.5</ele></trkpt>
      <trkpt lat="46.43574" lon="11.835831"><ele>2585.5</ele></trkpt>
      <trkpt lat="46.435597" lon="11.835788"><ele>2582.3</ele></trkpt>
      <trkpt lat="46.435542" lon="11.835751"><ele>2580.3</ele></trkpt>
      <trkpt lat="46.435491" lon="11.835617"><ele>2575.8</ele></trkpt>
      <trkpt lat="46.435414" lon="11.835502"><ele>2572.3</ele></trkpt>
      <trkpt lat="46.435309" lon="11.835419"><ele>2569.8</ele></trkpt>
      <trkpt lat="46.435273" lon="11.835345"><ele>2568</ele></trkpt>
      <trkpt lat="46.435241" lon="11.835096"><ele>2562.5</ele></trkpt>
      <trkpt lat="46.435298" lon="11.834844"><ele>2558.3</ele></trkpt>
      <trkpt lat="46.435253" lon="11.834726"><ele>2553.8</ele></trkpt>
      <trkpt lat="46.435188" lon="11.834464"><ele>2542</ele></trkpt>
      <trkpt lat="46.435055" lon="11.834191"><ele>2530.5</ele></trkpt>
      <trkpt lat="46.435024" lon="11.834001"><ele>2524.5</ele></trkpt>
      <trkpt lat="46.434978" lon="11.833967"><ele>2522</ele></trkpt>
      <trkpt lat="46.434956" lon="11.833913"><ele>2519.8</ele></trkpt>
      <trkpt lat="46.434877" lon="11.833887"><ele>2516</ele></trkpt>
      <trkpt lat="46.43486" lon="11.833796"><ele>2513.3</ele></trkpt>
      <trkpt lat="46.434823" lon="11.833791"><ele>2512</ele></trkpt>
      <trkpt lat="46.434814" lon="11.833744"><ele>2510.8</ele></trkpt>
      <trkpt lat="46.43482" lon="11.833661"><ele>2509.3</ele></trkpt>
      <trkpt lat="46.434747" lon="11.833252"><ele>2502</ele></trkpt>
      <trkpt lat="46.434696" lon="11.83321"><ele>2500</ele></trkpt>
      <trkpt lat="46.434695" lon="11.833108"><ele>2498.3</ele></trkpt>
      <trkpt lat="46.434654" lon="11.833017"><ele>2495.5</ele></trkpt>
      <trkpt lat="46.434656" lon="11.832958"><ele>2494.5</ele></trkpt>
      <trkpt lat="46.434636" lon="11.832859"><ele>2492</ele></trkpt>
      <trkpt lat="46.434538" lon="11.832704"><ele>2487</ele></trkpt>
      <trkpt lat="46.434498" lon="11.832623"><ele>2484.3</ele></trkpt>
      <trkpt lat="46.434434" lon="11.832554"><ele>2480.8</ele></trkpt>
      <trkpt lat="46.434421" lon="11.832438"><ele>2477</ele></trkpt>
      <trkpt lat="46.434429" lon="11.832283"><ele>2473</ele></trkpt>
      <trkpt lat="46.434361" lon="11.83229"><ele>2470</ele></trkpt>
      <trkpt lat="46.434166" lon="11.83243"><ele>2464.8</ele></trkpt>
      <trkpt lat="46.434016" lon="11.832611"><ele>2457</ele></trkpt>
      <trkpt lat="46.433994" lon="11.832403"><ele>2451.8</ele></trkpt>
      <trkpt lat="46.434002" lon="11.832124"><ele>2445.3</ele></trkpt>
      <trkpt lat="46.433967" lon="11.832096"><ele>2442</ele></trkpt>
      <trkpt lat="46.433791" lon="11.832259"><ele>2434.5</ele></trkpt>
      <trkpt lat="46.433569" lon="11.832581"><ele>2426</ele></trkpt>
      <trkpt lat="46.433547" lon="11.83257"><ele>2424.5</ele></trkpt>
      <trkpt lat="46.433544" lon="11.832388"><ele>2420.3</ele></trkpt>
      <trkpt lat="46.433453" lon="11.832466"><ele>2416</ele></trkpt>
      <trkpt lat="46.433442" lon="11.832444"><ele>2414.8</ele></trkpt>
      <trkpt lat="46.433446" lon="11.832344"><ele>2413.3</ele></trkpt>
      <trkpt lat="46.433411" lon="11.832353"><ele>2411</ele></trkpt>
      <trkpt lat="46.433396" lon="11.832313"><ele>2409.5</ele></trkpt>
      <trkpt lat="46.433364" lon="11.832313"><ele>2407.5</ele></trkpt>
      <trkpt lat="46.433373" lon="11.832206"><ele>2405.8</ele></trkpt>
      <trkpt lat="46.433352" lon="11.832174"><ele>2403.8</ele></trkpt>
      <trkpt lat="46.433299" lon="11.8322"><ele>2401.3</ele></trkpt>
      <trkpt lat="46.433283" lon="11.832156"><ele>2399</ele></trkpt>
      <trkpt lat="46.433317" lon="11.832035"><ele>2397.5</ele></trkpt>
      <trkpt lat="46.433272" lon="11.832038"><ele>2394.8</ele></trkpt>
      <trkpt lat="46.433235" lon="11.832012"><ele>2391.5</ele></trkpt>
      <trkpt lat="46.433272" lon="11.831967"><ele>2392.5</ele></trkpt>
      <trkpt lat="46.43326" lon="11.831853"><ele>2388.8</ele></trkpt>
      <trkpt lat="46.43326" lon="11.831748"><ele>2386.3</ele></trkpt>
      <trkpt lat="46.433173" lon="11.831806"><ele>2382.3</ele></trkpt>
      <trkpt lat="46.43313" lon="11.831805"><ele>2379.8</ele></trkpt>
      <trkpt lat="46.43313" lon="11.8317"><ele>2378.3</ele></trkpt>
      <trkpt lat="46.433053" lon="11.831703"><ele>2374.3</ele></trkpt>
      <trkpt lat="46.433129" lon="11.831475"><ele>2372.3</ele></trkpt>
      <trkpt lat="46.433108" lon="11.831436"><ele>2370.3</ele></trkpt>
      <trkpt lat="46.433011" lon="11.831431"><ele>2366</ele></trkpt>
      <trkpt lat="46.432964" lon="11.831559"><ele>2367</ele></trkpt>
      <trkpt lat="46.432951" lon="11.831696"><ele>2369.3</ele></trkpt>
      <trkpt lat="46.432945" lon="11.831846"><ele>2371.8</ele></trkpt>
      <trkpt lat="46.432873" lon="11.831921"><ele>2371</ele></trkpt>
      <trkpt lat="46.432814" lon="11.831999"><ele>2372.3</ele></trkpt>
      <trkpt lat="46.432724" lon="11.832165"><ele>2376</ele></trkpt>
      <trkpt lat="46.432696" lon="11.832246"><ele>2377.3</ele></trkpt>
      <trkpt lat="46.432659" lon="11.832388"><ele>2378.3</ele></trkpt>
      <trkpt lat="46.432607" lon="11.832911"><ele>2393.5</ele></trkpt>
      <trkpt lat="46.432563" lon="11.833088"><ele>2399.3</ele></trkpt>
      <trkpt lat="46.432518" lon="11.833195"><ele>2397.8</ele></trkpt>
      <trkpt lat="46.432457" lon="11.833268"><ele>2395.5</ele></trkpt>
      <trkpt lat="46.432439" lon="11.83345"><ele>2401.3</ele></trkpt>
      <trkpt lat="46.432404" lon="11.833694"><ele>2406.5</ele></trkpt>
      <trkpt lat="46.432385" lon="11.833968"><ele>2412.8</ele></trkpt>
      <trkpt lat="46.432443" lon="11.833963"><ele>2416.5</ele></trkpt>
      <trkpt lat="46.43248" lon="11.833987"><ele>2419.8</ele></trkpt>
      <trkpt lat="46.432483" lon="11.834046"><ele>2421.8</ele></trkpt>
      <trkpt lat="46.432473" lon="11.834388"><ele>2430</ele></trkpt>
      <trkpt lat="46.432526" lon="11.834617"><ele>2442.3</ele></trkpt>
      <trkpt lat="46.432506" lon="11.835003"><ele>2449</ele></trkpt>
      <trkpt lat="46.432494" lon="11.835416"><ele>2460</ele></trkpt>
      <trkpt lat="46.432561" lon="11.835725"><ele>2490</ele></trkpt>
      <trkpt lat="46.432553" lon="11.835947"><ele>2495.5</ele></trkpt>
      <trkpt lat="46.432508" lon="11.836213"><ele>2486.5</ele></trkpt>
      <trkpt lat="46.432425" lon="11.836422"><ele>2488.3</ele></trkpt>
      <trkpt lat="46.432326" lon="11.836588"><ele>2489.5</ele></trkpt>
      <trkpt lat="46.432293" lon="11.836729"><ele>2493.5</ele></trkpt>
      <trkpt lat="46.432223" lon="11.837147"><ele>2497</ele></trkpt>
      <trkpt lat="46.432158" lon="11.837356"><ele>2505.3</ele></trkpt>
      <trkpt lat="46.432117" lon="11.837578"><ele>2515.3</ele></trkpt>
      <trkpt lat="46.432075" lon="11.837659"><ele>2516.3</ele></trkpt>
      <trkpt lat="46.43206" lon="11.837782"><ele>2520.3</ele></trkpt>
      <trkpt lat="46.432081" lon="11.837841"><ele>2523.5</ele></trkpt>
      <trkpt lat="46.432141" lon="11.837873"><ele>2529.3</ele></trkpt>
      <trkpt lat="46.432117" lon="11.838053"><ele>2532.3</ele></trkpt>
      <trkpt lat="46.43211" lon="11.838289"><ele>2532</ele></trkpt>
      <trkpt lat="46.432123" lon="11.83845"><ele>2532.3</ele></trkpt>
      <trkpt lat="46.432095" lon="11.838537"><ele>2529.3</ele></trkpt>
      <trkpt lat="46.432112" lon="11.838772"><ele>2528.8</ele></trkpt>
      <trkpt lat="46.432099" lon="11.838895"><ele>2526.8</ele></trkpt>
      <trkpt lat="46.432139" lon="11.839"><ele>2528</ele></trkpt>
      <trkpt lat="46.43216" lon="11.839086"><ele>2528</ele></trkpt>
      <trkpt lat="46.432147" lon="11.839216"><ele>2527</ele></trkpt>
      <trkpt lat="46.432189" lon="11.839303"><ele>2530</ele></trkpt>
      <trkpt lat="46.432185" lon="11.839405"><ele>2531</ele></trkpt>
      <trkpt lat="46.432147" lon="11.839545"><ele>2532.3</ele></trkpt>
      <trkpt lat="46.432131" lon="11.839796"><ele>2536.3</ele></trkpt>
      <trkpt lat="46.432155" lon="11.839959"><ele>2540</ele></trkpt>
      <trkpt lat="46.432176" lon="11.840158"><ele>2544</ele></trkpt>
      <trkpt lat="46.432165" lon="11.840437"><ele>2548.3</ele></trkpt>
      <trkpt lat="46.43216" lon="11.840859"><ele>2555.5</ele></trkpt>
      <trkpt lat="46.432183" lon="11.840942"><ele>2557.8</ele></trkpt>
      <trkpt lat="46.432201" lon="11.841055"><ele>2560.3</ele></trkpt>
      <trkpt lat="46.432139" lon="11.841332"><ele>2563.3</ele></trkpt>
      <trkpt lat="46.432139" lon="11.841615"><ele>2569.5</ele></trkpt>
      <trkpt lat="46.432066" lon="11.842282"><ele>2578.5</ele></trkpt>
      <trkpt lat="46.432069" lon="11.842661"><ele>2585.8</ele></trkpt>
      <trkpt lat="46.432062" lon="11.842862"><ele>2588.3</ele></trkpt>
      <trkpt lat="46.432026" lon="11.842982"><ele>2588.5</ele></trkpt>
      <trkpt lat="46.431944" lon="11.843148"><ele>2589.3</ele></trkpt>
      <trkpt lat="46.431878" lon="11.843323"><ele>2593.5</ele></trkpt>
      <trkpt lat="46.431783" lon="11.843511"><ele>2597.3</ele></trkpt>
      <trkpt lat="46.431711" lon="11.843603"><ele>2598</ele></trkpt>
      <trkpt lat="46.431558" lon="11.843772"><ele>2600.5</ele></trkpt>
      <trkpt lat="46.431428" lon="11.84394"><ele>2605.5</ele></trkpt>
      <trkpt lat="46.431333" lon="11.843978"><ele>2607.5</ele></trkpt>
      <trkpt lat="46.431278" lon="11.844037"><ele>2610.3</ele></trkpt>
      <trkpt lat="46.431206" lon="11.84404"><ele>2611.5</ele></trkpt>
      <trkpt lat="46.431022" lon="11.844151"><ele>2618</ele></trkpt>
      <trkpt lat="46.431036" lon="11.84419"><ele>2619.5</ele></trkpt>
      <trkpt lat="46.431093" lon="11.844276"><ele>2623</ele></trkpt>
      <trkpt lat="46.431154" lon="11.844329"><ele>2624.5</ele></trkpt>
      <trkpt lat="46.431128" lon="11.844383"><ele>2627.5</ele></trkpt>
      <trkpt lat="46.431025" lon="11.844445"><ele>2631</ele></trkpt>
      <trkpt lat="46.430899" lon="11.844549"><ele>2636</ele></trkpt>
      <trkpt lat="46.430707" lon="11.844656"><ele>2641.8</ele></trkpt>
      <trkpt lat="46.430668" lon="11.844769"><ele>2646.3</ele></trkpt>
      <trkpt lat="46.430711" lon="11.844826"><ele>2649.3</ele></trkpt>
      <trkpt lat="46.430738" lon="11.84497"><ele>2656</ele></trkpt>
      <trkpt lat="46.430792" lon="11.845032"><ele>2659.3</ele></trkpt>
      <trkpt lat="46.430907" lon="11.845101"><ele>2661</ele></trkpt>
      <trkpt lat="46.430805" lon="11.845317"><ele>2669.3</ele></trkpt>
      <trkpt lat="46.430929" lon="11.84544"><ele>2677.8</ele></trkpt>
      <trkpt lat="46.430912" lon="11.845491"><ele>2680.3</ele></trkpt>
      <trkpt lat="46.430832" lon="11.845515"><ele>2677.3</ele></trkpt>
      <trkpt lat="46.430781" lon="11.84559"><ele>2680</ele></trkpt>
      <trkpt lat="46.430816" lon="11.845641"><ele>2682.5</ele></trkpt>
      <trkpt lat="46.430629" lon="11.845896"><ele>2691</ele></trkpt>
      <trkpt lat="46.430513" lon="11.846124"><ele>2698.5</ele></trkpt>
      <trkpt lat="46.430539" lon="11.846185"><ele>2699.5</ele></trkpt>
      <trkpt lat="46.430548" lon="11.84625"><ele>2701.5</ele></trkpt>
      <trkpt lat="46.430472" lon="11.846359"><ele>2704.8</ele></trkpt>
      <trkpt lat="46.430449" lon="11.84642"><ele>2704.5</ele></trkpt>
      <trkpt lat="46.430274" lon="11.846142"><ele>2704.8</ele></trkpt>
      <trkpt lat="46.430132" lon="11.846074"><ele>2706</ele></trkpt>
      <trkpt lat="46.430071" lon="11.846083"><ele>2707.5</ele></trkpt>
      <trkpt lat="46.43002" lon="11.846109"><ele>2709.5</ele></trkpt>
      <trkpt lat="46.429922" lon="11.846201"><ele>2701.3</ele></trkpt>
      <trkpt lat="46.429884" lon="11.84621"><ele>2699.5</ele></trkpt>
      <trkpt lat="46.429847" lon="11.846183"><ele>2699.5</ele></trkpt>
      <trkpt lat="46.429802" lon="11.846117"><ele>2701</ele></trkpt>
      <trkpt lat="46.429759" lon="11.846023"><ele>2701.8</ele></trkpt>
      <trkpt lat="46.429756" lon="11.845892"><ele>2705.3</ele></trkpt>
      <trkpt lat="46.429735" lon="11.845838"><ele>2707.3</ele></trkpt>
      <trkpt lat="46.429691" lon="11.84576"><ele>2706</ele></trkpt>
      <trkpt lat="46.429637" lon="11.845723"><ele>2705.5</ele></trkpt>
      <trkpt lat="46.429515" lon="11.845684"><ele>2706.5</ele></trkpt>
      <trkpt lat="46.429367" lon="11.845579"><ele>2712.5</ele></trkpt>
      <trkpt lat="46.429272" lon="11.845523"><ele>2716</ele></trkpt>
      <trkpt lat="46.429193" lon="11.845487"><ele>2719</ele></trkpt>
      <trkpt lat="46.429165" lon="11.845463"><ele>2720.5</ele></trkpt>
      <trkpt lat="46.429119" lon="11.845371"><ele>2725</ele></trkpt>
  </trkseg></trk>
</gpx>
