<?xml version="1.0" encoding="UTF-8"?>
<gpx version="1.1" creator="Dolomites 2026" xmlns="http://www.topografix.com/GPX/1/1">
  <metadata><name>День 2 · Vajolet → Passo Molignon → Langkofelhütte</name></metadata>
  <wpt lat="46.458607" lon="11.63288"><ele>2241.5</ele><name>Rifugio Vajolet</name></wpt>
  <wpt lat="46.474082" lon="11.638945"><ele>2598.3</ele><name>Passo Principe</name></wpt>
  <wpt lat="46.489197" lon="11.639733"><ele>2596.8</ele><name>Passo Molignon</name></wpt>
  <wpt lat="46.497511" lon="11.653599"><ele>2185.3</ele><name>Passo Duron</name></wpt>
  <wpt lat="46.504683" lon="11.700915"><ele>2304.5</ele><name>Rifugio Sasso Piatto</name></wpt>
  <wpt lat="46.519898" lon="11.723838"><ele>2257.5</ele><name>Langkofelhütte</name></wpt>
  <trk><name>День 2 · Vajolet → Passo Molignon → Langkofelhütte</name><trkseg>
      <trkpt lat="46.458607" lon="11.63288"><ele>2241.5</ele></trkpt>
      <trkpt lat="46.45869" lon="11.63287"><ele>2242.8</ele></trkpt>
      <trkpt lat="46.458787" lon="11.632885"><ele>2244.3</ele></trkpt>
      <trkpt lat="46.458847" lon="11.632848"><ele>2245.8</ele></trkpt>
      <trkpt lat="46.458911" lon="11.632792"><ele>2247</ele></trkpt>
      <trkpt lat="46.459233" lon="11.632722"><ele>2249.5</ele></trkpt>
      <trkpt lat="46.459233" lon="11.632616"><ele>2250.8</ele></trkpt>
      <trkpt lat="46.459179" lon="11.632465"><ele>2252.5</ele></trkpt>
      <trkpt lat="46.459108" lon="11.632111"><ele>2255.3</ele></trkpt>
      <trkpt lat="46.459208" lon="11.632063"><ele>2257.3</ele></trkpt>
      <trkpt lat="46.459664" lon="11.632017"><ele>2266.5</ele></trkpt>
      <trkpt lat="46.459816" lon="11.632002"><ele>2268.5</ele></trkpt>
      <trkpt lat="46.459942" lon="11.631971"><ele>2270.5</ele></trkpt>
      <trkpt lat="46.460069" lon="11.631965"><ele>2272.8</ele></trkpt>
      <trkpt lat="46.460189" lon="11.632004"><ele>2273.8</ele></trkpt>
      <trkpt lat="46.46038" lon="11.63199"><ele>2276.8</ele></trkpt>
      <trkpt lat="46.460547" lon="11.631941"><ele>2279</ele></trkpt>
      <trkpt lat="46.460726" lon="11.631825"><ele>2282</ele></trkpt>
      <trkpt lat="46.46084" lon="11.631711"><ele>2286.5</ele></trkpt>
      <trkpt lat="46.460889" lon="11.631684"><ele>2288.5</ele></trkpt>
      <trkpt lat="46.461021" lon="11.63169"><ele>2290</ele></trkpt>
      <trkpt lat="46.461079" lon="11.631748"><ele>2289.3</ele></trkpt>
      <trkpt lat="46.461113" lon="11.631819"><ele>2288</ele></trkpt>
      <trkpt lat="46.461149" lon="11.631738"><ele>2291.8</ele></trkpt>
      <trkpt lat="46.461171" lon="11.631732"><ele>2293</ele></trkpt>
      <trkpt lat="46.461189" lon="11.631786"><ele>2292</ele></trkpt>
      <trkpt lat="46.46123" lon="11.631741"><ele>2295.3</ele></trkpt>
      <trkpt lat="46.461678" lon="11.631888"><ele>2303.8</ele></trkpt>
      <trkpt lat="46.461798" lon="11.631872"><ele>2306</ele></trkpt>
      <trkpt lat="46.461864" lon="11.631834"><ele>2308.3</ele></trkpt>
      <trkpt lat="46.461918" lon="11.631831"><ele>2309</ele></trkpt>
      <trkpt lat="46.46197" lon="11.631791"><ele>2311.8</ele></trkpt>
      <trkpt lat="46.46205" lon="11.631776"><ele>2314.3</ele></trkpt>
      <trkpt lat="46.462193" lon="11.631767"><ele>2318.3</ele></trkpt>
      <trkpt lat="46.462263" lon="11.631811"><ele>2319.3</ele></trkpt>
      <trkpt lat="46.462286" lon="11.631874"><ele>2318.3</ele></trkpt>
      <trkpt lat="46.462356" lon="11.631939"><ele>2318.8</ele></trkpt>
      <trkpt lat="46.462602" lon="11.63192"><ele>2326.5</ele></trkpt>
      <trkpt lat="46.46278" lon="11.631948"><ele>2328.8</ele></trkpt>
      <trkpt lat="46.462962" lon="11.632006"><ele>2332</ele></trkpt>
      <trkpt lat="46.463167" lon="11.632008"><ele>2337.5</ele></trkpt>
      <trkpt lat="46.46332" lon="11.632024"><ele>2340.8</ele></trkpt>
      <trkpt lat="46.463418" lon="11.632048"><ele>2343.3</ele></trkpt>
      <trkpt lat="46.463572" lon="11.632156"><ele>2345.5</ele></trkpt>
      <trkpt lat="46.463659" lon="11.632199"><ele>2347.3</ele></trkpt>
      <trkpt lat="46.463812" lon="11.632231"><ele>2351.3</ele></trkpt>
      <trkpt lat="46.464" lon="11.632306"><ele>2356.5</ele></trkpt>
      <trkpt lat="46.464035" lon="11.632346"><ele>2357</ele></trkpt>
      <trkpt lat="46.464074" lon="11.632475"><ele>2356.5</ele></trkpt>
      <trkpt lat="46.464162" lon="11.632426"><ele>2359.8</ele></trkpt>
      <trkpt lat="46.464351" lon="11.632518"><ele>2363</ele></trkpt>
      <trkpt lat="46.464617" lon="11.632555"><ele>2370</ele></trkpt>
      <trkpt lat="46.464871" lon="11.632621"><ele>2374</ele></trkpt>
      <trkpt lat="46.464961" lon="11.63266"><ele>2375.5</ele></trkpt>
      <trkpt lat="46.465063" lon="11.632665"><ele>2377.5</ele></trkpt>
      <trkpt lat="46.465216" lon="11.632537"><ele>2379.8</ele></trkpt>
      <trkpt lat="46.465349" lon="11.632467"><ele>2379.5</ele></trkpt>
      <trkpt lat="46.465488" lon="11.632373"><ele>2379.5</ele></trkpt>
      <trkpt lat="46.465666" lon="11.632172"><ele>2380</ele></trkpt>
      <trkpt lat="46.465809" lon="11.632057"><ele>2381.8</ele></trkpt>
      <trkpt lat="46.466376" lon="11.631957"><ele>2387.3</ele></trkpt>
      <trkpt lat="46.466775" lon="11.631909"><ele>2391.5</ele></trkpt>
      <trkpt lat="46.467004" lon="11.631941"><ele>2393.8</ele></trkpt>
      <trkpt lat="46.467135" lon="11.632081"><ele>2396.8</ele></trkpt>
      <trkpt lat="46.467178" lon="11.632201"><ele>2396.5</ele></trkpt>
      <trkpt lat="46.467265" lon="11.632266"><ele>2399.5</ele></trkpt>
      <trkpt lat="46.467409" lon="11.632405"><ele>2404</ele></trkpt>
      <trkpt lat="46.467564" lon="11.632625"><ele>2407</ele></trkpt>
      <trkpt lat="46.467601" lon="11.632743"><ele>2409.3</ele></trkpt>
      <trkpt lat="46.467701" lon="11.632891"><ele>2410</ele></trkpt>
      <trkpt lat="46.467911" lon="11.633143"><ele>2410.8</ele></trkpt>
      <trkpt lat="46.46804" lon="11.633233"><ele>2412</ele></trkpt>
      <trkpt lat="46.468236" lon="11.633284"><ele>2412.5</ele></trkpt>
      <trkpt lat="46.468411" lon="11.633258"><ele>2413.3</ele></trkpt>
      <trkpt lat="46.468518" lon="11.633222"><ele>2414.3</ele></trkpt>
      <trkpt lat="46.468665" lon="11.633214"><ele>2415</ele></trkpt>
      <trkpt lat="46.468876" lon="11.633271"><ele>2415.3</ele></trkpt>
      <trkpt lat="46.468949" lon="11.633178"><ele>2418.3</ele></trkpt>
      <trkpt lat="46.469066" lon="11.633149"><ele>2419.8</ele></trkpt>
      <trkpt lat="46.469142" lon="11.633192"><ele>2419.3</ele></trkpt>
      <trkpt lat="46.469456" lon="11.633529"><ele>2425.3</ele></trkpt>
      <trkpt lat="46.469544" lon="11.633599"><ele>2428</ele></trkpt>
      <trkpt lat="46.46964" lon="11.633746"><ele>2431</ele></trkpt>
      <trkpt lat="46.469752" lon="11.633848"><ele>2433.5</ele></trkpt>
      <trkpt lat="46.469883" lon="11.63391"><ele>2437.3</ele></trkpt>
      <trkpt lat="46.47006" lon="11.634094"><ele>2441.5</ele></trkpt>
      <trkpt lat="46.470197" lon="11.6342"><ele>2445.8</ele></trkpt>
      <trkpt lat="46.470246" lon="11.634339"><ele>2448.3</ele></trkpt>
      <trkpt lat="46.470193" lon="11.634454"><ele>2446.8</ele></trkpt>
      <trkpt lat="46.470179" lon="11.634552"><ele>2447.8</ele></trkpt>
      <trkpt lat="46.470256" lon="11.634674"><ele>2451.8</ele></trkpt>
      <trkpt lat="46.470414" lon="11.634849"><ele>2458</ele></trkpt>
      <trkpt lat="46.470505" lon="11.634918"><ele>2460.8</ele></trkpt>
      <trkpt lat="46.470568" lon="11.6349"><ele>2462.3</ele></trkpt>
      <trkpt lat="46.470727" lon="11.634894"><ele>2466.5</ele></trkpt>
      <trkpt lat="46.470815" lon="11.634875"><ele>2469</ele></trkpt>
      <trkpt lat="46.47087" lon="11.635028"><ele>2471.5</ele></trkpt>
      <trkpt lat="46.470926" lon="11.635084"><ele>2474</ele></trkpt>
      <trkpt lat="46.471024" lon="11.635291"><ele>2478.3</ele></trkpt>
      <trkpt lat="46.471052" lon="11.635428"><ele>2478.5</ele></trkpt>
      <trkpt lat="46.471255" lon="11.635895"><ele>2484.3</ele></trkpt>
      <trkpt lat="46.471283" lon="11.636081"><ele>2485</ele></trkpt>
      <trkpt lat="46.471302" lon="11.636144"><ele>2484</ele></trkpt>
      <trkpt lat="46.471353" lon="11.636142"><ele>2484.5</ele></trkpt>
      <trkpt lat="46.471401" lon="11.636108"><ele>2486.5</ele></trkpt>
      <trkpt lat="46.471525" lon="11.636146"><ele>2491</ele></trkpt>
      <trkpt lat="46.471655" lon="11.636231"><ele>2494</ele></trkpt>
      <trkpt lat="46.471726" lon="11.636253"><ele>2496.5</ele></trkpt>
      <trkpt lat="46.471877" lon="11.636321"><ele>2501.5</ele></trkpt>
      <trkpt lat="46.471932" lon="11.636418"><ele>2502.3</ele></trkpt>
      <trkpt lat="46.471989" lon="11.636545"><ele>2505.3</ele></trkpt>
      <trkpt lat="46.472058" lon="11.636657"><ele>2508.5</ele></trkpt>
      <trkpt lat="46.472081" lon="11.636803"><ele>2511</ele></trkpt>
      <trkpt lat="46.472064" lon="11.636871"><ele>2511</ele></trkpt>
      <trkpt lat="46.472025" lon="11.636925"><ele>2510.3</ele></trkpt>
      <trkpt lat="46.472007" lon="11.636988"><ele>2511.3</ele></trkpt>
      <trkpt lat="46.471953" lon="11.637109"><ele>2513.5</ele></trkpt>
      <trkpt lat="46.471914" lon="11.637163"><ele>2514.3</ele></trkpt>
      <trkpt lat="46.471905" lon="11.637246"><ele>2516.3</ele></trkpt>
      <trkpt lat="46.472042" lon="11.637441"><ele>2520</ele></trkpt>
      <trkpt lat="46.472109" lon="11.637589"><ele>2522.5</ele></trkpt>
      <trkpt lat="46.472179" lon="11.637646"><ele>2524.5</ele></trkpt>
      <trkpt lat="46.472223" lon="11.637693"><ele>2525.5</ele></trkpt>
      <trkpt lat="46.472245" lon="11.637728"><ele>2526.3</ele></trkpt>
      <trkpt lat="46.472286" lon="11.637735"><ele>2528</ele></trkpt>
      <trkpt lat="46.472311" lon="11.637612"><ele>2529.8</ele></trkpt>
      <trkpt lat="46.472392" lon="11.637343"><ele>2531.8</ele></trkpt>
      <trkpt lat="46.472489" lon="11.637436"><ele>2536.3</ele></trkpt>
      <trkpt lat="46.472573" lon="11.637486"><ele>2540</ele></trkpt>
      <trkpt lat="46.472643" lon="11.637497"><ele>2542.5</ele></trkpt>
      <trkpt lat="46.472713" lon="11.637588"><ele>2545</ele></trkpt>
      <trkpt lat="46.472761" lon="11.637667"><ele>2546.8</ele></trkpt>
      <trkpt lat="46.472824" lon="11.637819"><ele>2549.8</ele></trkpt>
      <trkpt lat="46.473007" lon="11.638145"><ele>2554.5</ele></trkpt>
      <trkpt lat="46.473082" lon="11.638225"><ele>2556.8</ele></trkpt>
      <trkpt lat="46.473168" lon="11.638333"><ele>2559.3</ele></trkpt>
      <trkpt lat="46.473308" lon="11.638465"><ele>2563.3</ele></trkpt>
      <trkpt lat="46.473601" lon="11.638873"><ele>2576</ele></trkpt>
      <trkpt lat="46.473712" lon="11.639058"><ele>2582</ele></trkpt>
      <trkpt lat="46.473719" lon="11.639179"><ele>2583</ele></trkpt>
      <trkpt lat="46.473635" lon="11.639375"><ele>2585.5</ele></trkpt>
      <trkpt lat="46.473656" lon="11.639446"><ele>2588.8</ele></trkpt>
      <trkpt lat="46.473777" lon="11.639414"><ele>2592.5</ele></trkpt>
      <trkpt lat="46.473909" lon="11.639324"><ele>2595.3</ele></trkpt>
      <trkpt lat="46.473976" lon="11.639233"><ele>2594.8</ele></trkpt>
      <trkpt lat="46.474031" lon="11.639144"><ele>2594.8</ele></trkpt>
      <trkpt lat="46.474103" lon="11.639153"><ele>2597</ele></trkpt>
      <trkpt lat="46.474134" lon="11.639056"><ele>2599</ele></trkpt>
      <trkpt lat="46.474082" lon="11.638945"><ele>2598.3</ele></trkpt>
      <trkpt lat="46.474134" lon="11.639056"><ele>2599</ele></trkpt>
      <trkpt lat="46.474103" lon="11.639153"><ele>2597</ele></trkpt>
      <trkpt lat="46.474305" lon="11.639162"><ele>2595.5</ele></trkpt>
      <trkpt lat="46.474414" lon="11.639143"><ele>2593.3</ele></trkpt>
      <trkpt lat="46.474474" lon="11.639177"><ele>2591.3</ele></trkpt>
      <trkpt lat="46.47454" lon="11.639132"><ele>2589.8</ele></trkpt>
      <trkpt lat="46.474605" lon="11.639064"><ele>2589.5</ele></trkpt>
      <trkpt lat="46.474659" lon="11.638988"><ele>2589.5</ele></trkpt>
      <trkpt lat="46.474748" lon="11.638907"><ele>2588.8</ele></trkpt>
      <trkpt lat="46.474968" lon="11.638875"><ele>2582.5</ele></trkpt>
      <trkpt lat="46.475152" lon="11.638925"><ele>2579.8</ele></trkpt>
      <trkpt lat="46.475374" lon="11.638854"><ele>2576.5</ele></trkpt>
      <trkpt lat="46.475434" lon="11.638858"><ele>2574.3</ele></trkpt>
      <trkpt lat="46.475519" lon="11.638834"><ele>2572</ele></trkpt>
      <trkpt lat="46.475656" lon="11.638903"><ele>2563.8</ele></trkpt>
      <trkpt lat="46.475631" lon="11.639062"><ele>2563.8</ele></trkpt>
      <trkpt lat="46.47569" lon="11.639141"><ele>2560.3</ele></trkpt>
      <trkpt lat="46.475753" lon="11.639167"><ele>2557</ele></trkpt>
      <trkpt lat="46.475824" lon="11.63925"><ele>2555.5</ele></trkpt>
      <trkpt lat="46.475921" lon="11.63933"><ele>2551.5</ele></trkpt>
      <trkpt lat="46.475966" lon="11.63931"><ele>2548.3</ele></trkpt>
      <trkpt lat="46.476033" lon="11.639171"><ele>2541.5</ele></trkpt>
      <trkpt lat="46.47621" lon="11.639369"><ele>2534.5</ele></trkpt>
      <trkpt lat="46.476381" lon="11.639223"><ele>2521.3</ele></trkpt>
      <trkpt lat="46.476548" lon="11.639339"><ele>2513</ele></trkpt>
      <trkpt lat="46.476625" lon="11.639444"><ele>2509.5</ele></trkpt>
      <trkpt lat="46.476723" lon="11.639525"><ele>2505</ele></trkpt>
      <trkpt lat="46.476751" lon="11.639511"><ele>2503.3</ele></trkpt>
      <trkpt lat="46.476731" lon="11.639456"><ele>2503.5</ele></trkpt>
      <trkpt lat="46.476738" lon="11.639346"><ele>2502.3</ele></trkpt>
      <trkpt lat="46.476756" lon="11.639232"><ele>2500.3</ele></trkpt>
      <trkpt lat="46.476796" lon="11.639136"><ele>2497.8</ele></trkpt>
      <trkpt lat="46.476908" lon="11.639033"><ele>2491.8</ele></trkpt>
      <trkpt lat="46.477" lon="11.639094"><ele>2487.5</ele></trkpt>
      <trkpt lat="46.477108" lon="11.639195"><ele>2482.3</ele></trkpt>
      <trkpt lat="46.477162" lon="11.639179"><ele>2479.3</ele></trkpt>
      <trkpt lat="46.477233" lon="11.639056"><ele>2475</ele></trkpt>
      <trkpt lat="46.47732" lon="11.638949"><ele>2470.8</ele></trkpt>
      <trkpt lat="46.477373" lon="11.639004"><ele>2468.3</ele></trkpt>
      <trkpt lat="46.477651" lon="11.639461"><ele>2455.8</ele></trkpt>
      <trkpt lat="46.477762" lon="11.639575"><ele>2450.8</ele></trkpt>
      <trkpt lat="46.477795" lon="11.63962"><ele>2449</ele></trkpt>
      <trkpt lat="46.477838" lon="11.639616"><ele>2447</ele></trkpt>
      <trkpt lat="46.477868" lon="11.639697"><ele>2446</ele></trkpt>
      <trkpt lat="46.477958" lon="11.639785"><ele>2443.5</ele></trkpt>
      <trkpt lat="46.478036" lon="11.639829"><ele>2441.8</ele></trkpt>
      <trkpt lat="46.478182" lon="11.639771"><ele>2435.5</ele></trkpt>
      <trkpt lat="46.478573" lon="11.639838"><ele>2423.8</ele></trkpt>
      <trkpt lat="46.478626" lon="11.639898"><ele>2423</ele></trkpt>
      <trkpt lat="46.478632" lon="11.64003"><ele>2425.8</ele></trkpt>
      <trkpt lat="46.478892" lon="11.640142"><ele>2416.8</ele></trkpt>
      <trkpt lat="46.478993" lon="11.640297"><ele>2414.3</ele></trkpt>
      <trkpt lat="46.47908" lon="11.640382"><ele>2411.8</ele></trkpt>
      <trkpt lat="46.479276" lon="11.640504"><ele>2408.3</ele></trkpt>
      <trkpt lat="46.4795" lon="11.640697"><ele>2409.3</ele></trkpt>
      <trkpt lat="46.479918" lon="11.640972"><ele>2410.3</ele></trkpt>
      <trkpt lat="46.480041" lon="11.641011"><ele>2409.5</ele></trkpt>
      <trkpt lat="46.480262" lon="11.641017"><ele>2411</ele></trkpt>
      <trkpt lat="46.480553" lon="11.641264"><ele>2415</ele></trkpt>
      <trkpt lat="46.480836" lon="11.641146"><ele>2411.8</ele></trkpt>
      <trkpt lat="46.481113" lon="11.641173"><ele>2407.3</ele></trkpt>
      <trkpt lat="46.481386" lon="11.641288"><ele>2402</ele></trkpt>
      <trkpt lat="46.481364" lon="11.641172"><ele>2399.5</ele></trkpt>
      <trkpt lat="46.481396" lon="11.641126"><ele>2397</ele></trkpt>
      <trkpt lat="46.481471" lon="11.641167"><ele>2395.5</ele></trkpt>
      <trkpt lat="46.48148" lon="11.641121"><ele>2393.5</ele></trkpt>
      <trkpt lat="46.48179" lon="11.641165"><ele>2384</ele></trkpt>
      <trkpt lat="46.48182" lon="11.641134"><ele>2381.8</ele></trkpt>
      <trkpt lat="46.481751" lon="11.640995"><ele>2379.8</ele></trkpt>
      <trkpt lat="46.481983" lon="11.640975"><ele>2369.5</ele></trkpt>
      <trkpt lat="46.482149" lon="11.641098"><ele>2370.5</ele></trkpt>
      <trkpt lat="46.482301" lon="11.64111"><ele>2365.3</ele></trkpt>
      <trkpt lat="46.482504" lon="11.641426"><ele>2363.3</ele></trkpt>
      <trkpt lat="46.482604" lon="11.641508"><ele>2363.5</ele></trkpt>
      <trkpt lat="46.482842" lon="11.641612"><ele>2359.8</ele></trkpt>
      <trkpt lat="46.483085" lon="11.641825"><ele>2358.5</ele></trkpt>
      <trkpt lat="46.483409" lon="11.642055"><ele>2354.5</ele></trkpt>
      <trkpt lat="46.483695" lon="11.642378"><ele>2353.8</ele></trkpt>
      <trkpt lat="46.483902" lon="11.642551"><ele>2350.3</ele></trkpt>
      <trkpt lat="46.483975" lon="11.642623"><ele>2352.5</ele></trkpt>
      <trkpt lat="46.484128" lon="11.642594"><ele>2351.8</ele></trkpt>
      <trkpt lat="46.484229" lon="11.642725"><ele>2356.3</ele></trkpt>
      <trkpt lat="46.484361" lon="11.642831"><ele>2360.3</ele></trkpt>
      <trkpt lat="46.484443" lon="11.64247"><ele>2348</ele></trkpt>
      <trkpt lat="46.484551" lon="11.642523"><ele>2350</ele></trkpt>
      <trkpt lat="46.485026" lon="11.642473"><ele>2352.3</ele></trkpt>
      <trkpt lat="46.48511" lon="11.642509"><ele>2357</ele></trkpt>
      <trkpt lat="46.485183" lon="11.642476"><ele>2359</ele></trkpt>
      <trkpt lat="46.485614" lon="11.641848"><ele>2364</ele></trkpt>
      <trkpt lat="46.485719" lon="11.641809"><ele>2371</ele></trkpt>
      <trkpt lat="46.485753" lon="11.641686"><ele>2370.3</ele></trkpt>
      <trkpt lat="46.485816" lon="11.641639"><ele>2373.8</ele></trkpt>
      <trkpt lat="46.485847" lon="11.641496"><ele>2376.5</ele></trkpt>
      <trkpt lat="46.48602" lon="11.641235"><ele>2387.5</ele></trkpt>
      <trkpt lat="46.486181" lon="11.640879"><ele>2403</ele></trkpt>
      <trkpt lat="46.486199" lon="11.640771"><ele>2404.8</ele></trkpt>
      <trkpt lat="46.486286" lon="11.640667"><ele>2413.3</ele></trkpt>
      <trkpt lat="46.486326" lon="11.64036"><ele>2411.5</ele></trkpt>
      <trkpt lat="46.48634" lon="11.640285"><ele>2412.8</ele></trkpt>
      <trkpt lat="46.486398" lon="11.640145"><ele>2417.8</ele></trkpt>
      <trkpt lat="46.48638" lon="11.639729"><ele>2428</ele></trkpt>
      <trkpt lat="46.486349" lon="11.639497"><ele>2434.5</ele></trkpt>
      <trkpt lat="46.486294" lon="11.639344"><ele>2434.8</ele></trkpt>
      <trkpt lat="46.486535" lon="11.63941"><ele>2448.3</ele></trkpt>
      <trkpt lat="46.486648" lon="11.639502"><ele>2451.5</ele></trkpt>
      <trkpt lat="46.486683" lon="11.639465"><ele>2455.5</ele></trkpt>
      <trkpt lat="46.486771" lon="11.639541"><ele>2459.5</ele></trkpt>
      <trkpt lat="46.486895" lon="11.639481"><ele>2473.5</ele></trkpt>
      <trkpt lat="46.487087" lon="11.63959"><ele>2476.8</ele></trkpt>
      <trkpt lat="46.487189" lon="11.639558"><ele>2484</ele></trkpt>
      <trkpt lat="46.487375" lon="11.639615"><ele>2498.3</ele></trkpt>
      <trkpt lat="46.487329" lon="11.63968"><ele>2487</ele></trkpt>
      <trkpt lat="46.487426" lon="11.639711"><ele>2489.5</ele></trkpt>
      <trkpt lat="46.487488" lon="11.639704"><ele>2494.5</ele></trkpt>
      <trkpt lat="46.487577" lon="11.639661"><ele>2507</ele></trkpt>
      <trkpt lat="46.487638" lon="11.639743"><ele>2500.3</ele></trkpt>
      <trkpt lat="46.487675" lon="11.639701"><ele>2506.3</ele></trkpt>
      <trkpt lat="46.487677" lon="11.639596"><ele>2521.5</ele></trkpt>
      <trkpt lat="46.487772" lon="11.639593"><ele>2525.5</ele></trkpt>
      <trkpt lat="46.487883" lon="11.639744"><ele>2515.8</ele></trkpt>
      <trkpt lat="46.48805" lon="11.639856"><ele>2523.8</ele></trkpt>
      <trkpt lat="46.488061" lon="11.639646"><ele>2529.8</ele></trkpt>
      <trkpt lat="46.488018" lon="11.639513"><ele>2534</ele></trkpt>
      <trkpt lat="46.48806" lon="11.639461"><ele>2535.8</ele></trkpt>
      <trkpt lat="46.48814" lon="11.639487"><ele>2540.3</ele></trkpt>
      <trkpt lat="46.488223" lon="11.639386"><ele>2552</ele></trkpt>
      <trkpt lat="46.488375" lon="11.639475"><ele>2556.5</ele></trkpt>
      <trkpt lat="46.488405" lon="11.639256"><ele>2568.3</ele></trkpt>
      <trkpt lat="46.488466" lon="11.639248"><ele>2573.3</ele></trkpt>
      <trkpt lat="46.488594" lon="11.639542"><ele>2568</ele></trkpt>
      <trkpt lat="46.488604" lon="11.63928"><ele>2581.8</ele></trkpt>
      <trkpt lat="46.488665" lon="11.639355"><ele>2581.5</ele></trkpt>
      <trkpt lat="46.488711" lon="11.639584"><ele>2574.5</ele></trkpt>
      <trkpt lat="46.488831" lon="11.639718"><ele>2577</ele></trkpt>
      <trkpt lat="46.488916" lon="11.639774"><ele>2582.8</ele></trkpt>
      <trkpt lat="46.488982" lon="11.639977"><ele>2587.8</ele></trkpt>
      <trkpt lat="46.489082" lon="11.639778"><ele>2593</ele></trkpt>
      <trkpt lat="46.489119" lon="11.639882"><ele>2596</ele></trkpt>
      <trkpt lat="46.489197" lon="11.639733"><ele>2596.8</ele></trkpt>
      <trkpt lat="46.489312" lon="11.639862"><ele>2595.3</ele></trkpt>
      <trkpt lat="46.48968" lon="11.640064"><ele>2593.5</ele></trkpt>
      <trkpt lat="46.489812" lon="11.640114"><ele>2593.5</ele></trkpt>
      <trkpt lat="46.489924" lon="11.640112"><ele>2592.5</ele></trkpt>
      <trkpt lat="46.490204" lon="11.640046"><ele>2590.8</ele></trkpt>
      <trkpt lat="46.490331" lon="11.640064"><ele>2593</ele></trkpt>
      <trkpt lat="46.490432" lon="11.640052"><ele>2593.3</ele></trkpt>
      <trkpt lat="46.490585" lon="11.639987"><ele>2592.3</ele></trkpt>
      <trkpt lat="46.490719" lon="11.639905"><ele>2594.5</ele></trkpt>
      <trkpt lat="46.490838" lon="11.639868"><ele>2598</ele></trkpt>
      <trkpt lat="46.490817" lon="11.639763"><ele>2596.5</ele></trkpt>
      <trkpt lat="46.490829" lon="11.63972"><ele>2596.8</ele></trkpt>
      <trkpt lat="46.490853" lon="11.639676"><ele>2596.3</ele></trkpt>
      <trkpt lat="46.490894" lon="11.639681"><ele>2596.3</ele></trkpt>
      <trkpt lat="46.490926" lon="11.639639"><ele>2596.8</ele></trkpt>
      <trkpt lat="46.490977" lon="11.639627"><ele>2597.8</ele></trkpt>
      <trkpt lat="46.491054" lon="11.639547"><ele>2602.5</ele></trkpt>
      <trkpt lat="46.491186" lon="11.639268"><ele>2609.5</ele></trkpt>
      <trkpt lat="46.491308" lon="11.639238"><ele>2612.3</ele></trkpt>
      <trkpt lat="46.491595" lon="11.638802"><ele>2605.3</ele></trkpt>
      <trkpt lat="46.491695" lon="11.638638"><ele>2604.3</ele></trkpt>
      <trkpt lat="46.491746" lon="11.638531"><ele>2600</ele></trkpt>
      <trkpt lat="46.491783" lon="11.638495"><ele>2597.8</ele></trkpt>
      <trkpt lat="46.491816" lon="11.638375"><ele>2596.5</ele></trkpt>
      <trkpt lat="46.491846" lon="11.638057"><ele>2592.5</ele></trkpt>
      <trkpt lat="46.491878" lon="11.637999"><ele>2589.3</ele></trkpt>
      <trkpt lat="46.491882" lon="11.637902"><ele>2585.5</ele></trkpt>
      <trkpt lat="46.491935" lon="11.637916"><ele>2585</ele></trkpt>
      <trkpt lat="46.491998" lon="11.637885"><ele>2583.3</ele></trkpt>
      <trkpt lat="46.492079" lon="11.637655"><ele>2574.3</ele></trkpt>
      <trkpt lat="46.492114" lon="11.637592"><ele>2571.3</ele></trkpt>
      <trkpt lat="46.492125" lon="11.637506"><ele>2567.5</ele></trkpt>
      <trkpt lat="46.4921" lon="11.637432"><ele>2567</ele></trkpt>
      <trkpt lat="46.492051" lon="11.637353"><ele>2567.3</ele></trkpt>
      <trkpt lat="46.49208" lon="11.637274"><ele>2565.3</ele></trkpt>
      <trkpt lat="46.492161" lon="11.637163"><ele>2563</ele></trkpt>
      <trkpt lat="46.49252" lon="11.636798"><ele>2558.8</ele></trkpt>
      <trkpt lat="46.492747" lon="11.636154"><ele>2560.5</ele></trkpt>
      <trkpt lat="46.493015" lon="11.635654"><ele>2556</ele></trkpt>
      <trkpt lat="46.493211" lon="11.635436"><ele>2553.5</ele></trkpt>
      <trkpt lat="46.493242" lon="11.635176"><ele>2552.3</ele></trkpt>
      <trkpt lat="46.493405" lon="11.634895"><ele>2545.8</ele></trkpt>
      <trkpt lat="46.493489" lon="11.634867"><ele>2542.5</ele></trkpt>
      <trkpt lat="46.493578" lon="11.63469"><ele>2539.3</ele></trkpt>
      <trkpt lat="46.49359" lon="11.634598"><ele>2538.8</ele></trkpt>
      <trkpt lat="46.493663" lon="11.634523"><ele>2535.8</ele></trkpt>
      <trkpt lat="46.493712" lon="11.634366"><ele>2532.3</ele></trkpt>
      <trkpt lat="46.493766" lon="11.634301"><ele>2529.8</ele></trkpt>
      <trkpt lat="46.493761" lon="11.634024"><ele>2527</ele></trkpt>
      <trkpt lat="46.493776" lon="11.633945"><ele>2526.5</ele></trkpt>
      <trkpt lat="46.493829" lon="11.633884"><ele>2525.5</ele></trkpt>
      <trkpt lat="46.493993" lon="11.633792"><ele>2522.8</ele></trkpt>
      <trkpt lat="46.49411" lon="11.633636"><ele>2523.3</ele></trkpt>
      <trkpt lat="46.494227" lon="11.633361"><ele>2522.5</ele></trkpt>
      <trkpt lat="46.494478" lon="11.633127"><ele>2517.8</ele></trkpt>
      <trkpt lat="46.494511" lon="11.633072"><ele>2516.3</ele></trkpt>
      <trkpt lat="46.494601" lon="11.633016"><ele>2512.3</ele></trkpt>
      <trkpt lat="46.494635" lon="11.632941"><ele>2510.3</ele></trkpt>
      <trkpt lat="46.494652" lon="11.632791"><ele>2508.8</ele></trkpt>
      <trkpt lat="46.494647" lon="11.632683"><ele>2508</ele></trkpt>
      <trkpt lat="46.494737" lon="11.632251"><ele>2503.5</ele></trkpt>
      <trkpt lat="46.494764" lon="11.632189"><ele>2501.3</ele></trkpt>
      <trkpt lat="46.494825" lon="11.632149"><ele>2498.3</ele></trkpt>
      <trkpt lat="46.494834" lon="11.632087"><ele>2497</ele></trkpt>
      <trkpt lat="46.494881" lon="11.632048"><ele>2495.3</ele></trkpt>
      <trkpt lat="46.494879" lon="11.631943"><ele>2494</ele></trkpt>
      <trkpt lat="46.494935" lon="11.631916"><ele>2492.8</ele></trkpt>
      <trkpt lat="46.494988" lon="11.631917"><ele>2491.8</ele></trkpt>
      <trkpt lat="46.495075" lon="11.631961"><ele>2487.3</ele></trkpt>
      <trkpt lat="46.495161" lon="11.632189"><ele>2483</ele></trkpt>
      <trkpt lat="46.495197" lon="11.632241"><ele>2481</ele></trkpt>
      <trkpt lat="46.495256" lon="11.632804"><ele>2465</ele></trkpt>
      <trkpt lat="46.495285" lon="11.633163"><ele>2452.3</ele></trkpt>
      <trkpt lat="46.495336" lon="11.633169"><ele>2449.8</ele></trkpt>
      <trkpt lat="46.495363" lon="11.63339"><ele>2445.3</ele></trkpt>
      <trkpt lat="46.495439" lon="11.633422"><ele>2442.8</ele></trkpt>
      <trkpt lat="46.495635" lon="11.633592"><ele>2438</ele></trkpt>
      <trkpt lat="46.495819" lon="11.633722"><ele>2436.3</ele></trkpt>
      <trkpt lat="46.495951" lon="11.633798"><ele>2437.3</ele></trkpt>
      <trkpt lat="46.496256" lon="11.633858"><ele>2439</ele></trkpt>
      <trkpt lat="46.496365" lon="11.633902"><ele>2439.8</ele></trkpt>
      <trkpt lat="46.496522" lon="11.633927"><ele>2441.8</ele></trkpt>
      <trkpt lat="46.496511" lon="11.634187"><ele>2440.8</ele></trkpt>
      <trkpt lat="46.496422" lon="11.63431"><ele>2439</ele></trkpt>
      <trkpt lat="46.496378" lon="11.634404"><ele>2438.3</ele></trkpt>
      <trkpt lat="46.496359" lon="11.634499"><ele>2436.8</ele></trkpt>
      <trkpt lat="46.496352" lon="11.634804"><ele>2431</ele></trkpt>
      <trkpt lat="46.496333" lon="11.635111"><ele>2426.3</ele></trkpt>
      <trkpt lat="46.496385" lon="11.635383"><ele>2421.8</ele></trkpt>
      <trkpt lat="46.496376" lon="11.635487"><ele>2420.5</ele></trkpt>
      <trkpt lat="46.49634" lon="11.63554"><ele>2419.5</ele></trkpt>
      <trkpt lat="46.496262" lon="11.635581"><ele>2417.5</ele></trkpt>
      <trkpt lat="46.496188" lon="11.635583"><ele>2416.8</ele></trkpt>
      <trkpt lat="46.496097" lon="11.635605"><ele>2415.3</ele></trkpt>
      <trkpt lat="46.49603" lon="11.635674"><ele>2411.5</ele></trkpt>
      <trkpt lat="46.495999" lon="11.635763"><ele>2407.8</ele></trkpt>
      <trkpt lat="46.496005" lon="11.63585"><ele>2405</ele></trkpt>
      <trkpt lat="46.496145" lon="11.636349"><ele>2395.8</ele></trkpt>
      <trkpt lat="46.496199" lon="11.636468"><ele>2391.8</ele></trkpt>
      <trkpt lat="46.496324" lon="11.63651"><ele>2390.5</ele></trkpt>
      <trkpt lat="46.496625" lon="11.636441"><ele>2387.3</ele></trkpt>
      <trkpt lat="46.496785" lon="11.636467"><ele>2383.3</ele></trkpt>
      <trkpt lat="46.496962" lon="11.63645"><ele>2380.5</ele></trkpt>
      <trkpt lat="46.497075" lon="11.636474"><ele>2381.5</ele></trkpt>
      <trkpt lat="46.49726" lon="11.636678"><ele>2374.8</ele></trkpt>
      <trkpt lat="46.49733" lon="11.636831"><ele>2371.8</ele></trkpt>
      <trkpt lat="46.497365" lon="11.63701"><ele>2366.8</ele></trkpt>
      <trkpt lat="46.49745" lon="11.637117"><ele>2365.3</ele></trkpt>
      <trkpt lat="46.497602" lon="11.637287"><ele>2363.5</ele></trkpt>
      <trkpt lat="46.497657" lon="11.637432"><ele>2361.5</ele></trkpt>
      <trkpt lat="46.497739" lon="11.637739"><ele>2356</ele></trkpt>
      <trkpt lat="46.497807" lon="11.638278"><ele>2346.8</ele></trkpt>
      <trkpt lat="46.497845" lon="11.638739"><ele>2338.3</ele></trkpt>
      <trkpt lat="46.497909" lon="11.639047"><ele>2331.8</ele></trkpt>
      <trkpt lat="46.498032" lon="11.639362"><ele>2328.5</ele></trkpt>
      <trkpt lat="46.498052" lon="11.639484"><ele>2327.3</ele></trkpt>
      <trkpt lat="46.498069" lon="11.640325"><ele>2313.3</ele></trkpt>
      <trkpt lat="46.49803" lon="11.640486"><ele>2309.5</ele></trkpt>
      <trkpt lat="46.497932" lon="11.640758"><ele>2303.3</ele></trkpt>
      <trkpt lat="46.497763" lon="11.641085"><ele>2294.8</ele></trkpt>
      <trkpt lat="46.497727" lon="11.641245"><ele>2290.8</ele></trkpt>
      <trkpt lat="46.497708" lon="11.641541"><ele>2285.8</ele></trkpt>
      <trkpt lat="46.497676" lon="11.641697"><ele>2282.5</ele></trkpt>
      <trkpt lat="46.497581" lon="11.641917"><ele>2277.3</ele></trkpt>
      <trkpt lat="46.49746" lon="11.642474"><ele>2272.5</ele></trkpt>
      <trkpt lat="46.497383" lon="11.642791"><ele>2270.8</ele></trkpt>
      <trkpt lat="46.49732" lon="11.64296"><ele>2269.5</ele></trkpt>
      <trkpt lat="46.497238" lon="11.643321"><ele>2267</ele></trkpt>
      <trkpt lat="46.497047" lon="11.643808"><ele>2260.8</ele></trkpt>
      <trkpt lat="46.49702" lon="11.643938"><ele>2260</ele></trkpt>
      <trkpt lat="46.497006" lon="11.644102"><ele>2260</ele></trkpt>
      <trkpt lat="46.496966" lon="11.644214"><ele>2258.3</ele></trkpt>
      <trkpt lat="46.496895" lon="11.644338"><ele>2257.5</ele></trkpt>
      <trkpt lat="46.49667" lon="11.644921"><ele>2255.3</ele></trkpt>
      <trkpt lat="46.496679" lon="11.645495"><ele>2252</ele></trkpt>
      <trkpt lat="46.49673" lon="11.646049"><ele>2246.3</ele></trkpt>
      <trkpt lat="46.496806" lon="11.646468"><ele>2241.5</ele></trkpt>
      <trkpt lat="46.497002" lon="11.647061"><ele>2237.5</ele></trkpt>
      <trkpt lat="46.497332" lon="11.647853"><ele>2230.8</ele></trkpt>
      <trkpt lat="46.497473" lon="11.648625"><ele>2219</ele></trkpt>
      <trkpt lat="46.497487" lon="11.64893"><ele>2213.3</ele></trkpt>
      <trkpt lat="46.497483" lon="11.649115"><ele>2210.5</ele></trkpt>
      <trkpt lat="46.497393" lon="11.649405"><ele>2209</ele></trkpt>
      <trkpt lat="46.497279" lon="11.649817"><ele>2208</ele></trkpt>
      <trkpt lat="46.497192" lon="11.649893"><ele>2206.3</ele></trkpt>
      <trkpt lat="46.497096" lon="11.650062"><ele>2205.3</ele></trkpt>
      <trkpt lat="46.496967" lon="11.650234"><ele>2202</ele></trkpt>
      <trkpt lat="46.496944" lon="11.650381"><ele>2200</ele></trkpt>
      <trkpt lat="46.496927" lon="11.650902"><ele>2196</ele></trkpt>
      <trkpt lat="46.49683" lon="11.651182"><ele>2194.3</ele></trkpt>
      <trkpt lat="46.496795" lon="11.651583"><ele>2192.3</ele></trkpt>
      <trkpt lat="46.496786" lon="11.651825"><ele>2190</ele></trkpt>
      <trkpt lat="46.496835" lon="11.652062"><ele>2189.3</ele></trkpt>
      <trkpt lat="46.496866" lon="11.652285"><ele>2188.3</ele></trkpt>
      <trkpt lat="46.496915" lon="11.652491"><ele>2187</ele></trkpt>
      <trkpt lat="46.496969" lon="11.652855"><ele>2186.5</ele></trkpt>
      <trkpt lat="46.497033" lon="11.65287"><ele>2188.8</ele></trkpt>
      <trkpt lat="46.497158" lon="11.653043"><ele>2188.5</ele></trkpt>
      <trkpt lat="46.49729" lon="11.653245"><ele>2186</ele></trkpt>
      <trkpt lat="46.497388" lon="11.653341"><ele>2186.8</ele></trkpt>
      <trkpt lat="46.497464" lon="11.653561"><ele>2184.8</ele></trkpt>
      <trkpt lat="46.497511" lon="11.653599"><ele>2185.3</ele></trkpt>
      <trkpt lat="46.497445" lon="11.653879"><ele>2185.5</ele></trkpt>
      <trkpt lat="46.497358" lon="11.654089"><ele>2183.5</ele></trkpt>
      <trkpt lat="46.497342" lon="11.654217"><ele>2183</ele></trkpt>
      <trkpt lat="46.497349" lon="11.654427"><ele>2182.3</ele></trkpt>
      <trkpt lat="46.497272" lon="11.654986"><ele>2182.3</ele></trkpt>
      <trkpt lat="46.497297" lon="11.655129"><ele>2182.5</ele></trkpt>
      <trkpt lat="46.497442" lon="11.655508"><ele>2181.3</ele></trkpt>
      <trkpt lat="46.497586" lon="11.655957"><ele>2179</ele></trkpt>
      <trkpt lat="46.497608" lon="11.656168"><ele>2176.8</ele></trkpt>
      <trkpt lat="46.497749" lon="11.656528"><ele>2175</ele></trkpt>
      <trkpt lat="46.497792" lon="11.656729"><ele>2175.8</ele></trkpt>
      <trkpt lat="46.4978" lon="11.656967"><ele>2177.3</ele></trkpt>
      <trkpt lat="46.497876" lon="11.657276"><ele>2179</ele></trkpt>
      <trkpt lat="46.497705" lon="11.657792"><ele>2181.5</ele></trkpt>
      <trkpt lat="46.497079" lon="11.658848"><ele>2188</ele></trkpt>
      <trkpt lat="46.496954" lon="11.659192"><ele>2189.3</ele></trkpt>
      <trkpt lat="46.496867" lon="11.660233"><ele>2190</ele></trkpt>
      <trkpt lat="46.4968" lon="11.6605"><ele>2190.5</ele></trkpt>
      <trkpt lat="46.496833" lon="11.660867"><ele>2192.5</ele></trkpt>
      <trkpt lat="46.496767" lon="11.661217"><ele>2195.8</ele></trkpt>
      <trkpt lat="46.496723" lon="11.661382"><ele>2195</ele></trkpt>
      <trkpt lat="46.496649" lon="11.661524"><ele>2192.5</ele></trkpt>
      <trkpt lat="46.49661" lon="11.661716"><ele>2192</ele></trkpt>
      <trkpt lat="46.496554" lon="11.661948"><ele>2192.3</ele></trkpt>
      <trkpt lat="46.49655" lon="11.662733"><ele>2194.3</ele></trkpt>
      <trkpt lat="46.496677" lon="11.662905"><ele>2196.8</ele></trkpt>
      <trkpt lat="46.496744" lon="11.663072"><ele>2197.5</ele></trkpt>
      <trkpt lat="46.496783" lon="11.663333"><ele>2197.5</ele></trkpt>
      <trkpt lat="46.49685" lon="11.664217"><ele>2197</ele></trkpt>
      <trkpt lat="46.49685" lon="11.664567"><ele>2194.5</ele></trkpt>
      <trkpt lat="46.4969" lon="11.664867"><ele>2194.8</ele></trkpt>
      <trkpt lat="46.496983" lon="11.665283"><ele>2194.3</ele></trkpt>
      <trkpt lat="46.497164" lon="11.666095"><ele>2192.3</ele></trkpt>
      <trkpt lat="46.497315" lon="11.666583"><ele>2191.5</ele></trkpt>
      <trkpt lat="46.497383" lon="11.666698"><ele>2192.8</ele></trkpt>
      <trkpt lat="46.497767" lon="11.666923"><ele>2197.8</ele></trkpt>
      <trkpt lat="46.497782" lon="11.66702"><ele>2198.5</ele></trkpt>
      <trkpt lat="46.4978" lon="11.667133"><ele>2199.3</ele></trkpt>
      <trkpt lat="46.49776" lon="11.6674"><ele>2203</ele></trkpt>
      <trkpt lat="46.497731" lon="11.667663"><ele>2206.3</ele></trkpt>
      <trkpt lat="46.497833" lon="11.668017"><ele>2211</ele></trkpt>
      <trkpt lat="46.498117" lon="11.668217"><ele>2217.5</ele></trkpt>
      <trkpt lat="46.498343" lon="11.668499"><ele>2223.8</ele></trkpt>
      <trkpt lat="46.49848" lon="11.668882"><ele>2227.5</ele></trkpt>
      <trkpt lat="46.498544" lon="11.669364"><ele>2232.3</ele></trkpt>
      <trkpt lat="46.498717" lon="11.669933"><ele>2238.3</ele></trkpt>
      <trkpt lat="46.498633" lon="11.670233"><ele>2237</ele></trkpt>
      <trkpt lat="46.498667" lon="11.670952"><ele>2243.3</ele></trkpt>
      <trkpt lat="46.498874" lon="11.671388"><ele>2245.3</ele></trkpt>
      <trkpt lat="46.498917" lon="11.672083"><ele>2246.5</ele></trkpt>
      <trkpt lat="46.498917" lon="11.672383"><ele>2248.8</ele></trkpt>
      <trkpt lat="46.498817" lon="11.672756"><ele>2251.5</ele></trkpt>
      <trkpt lat="46.498841" lon="11.673185"><ele>2255</ele></trkpt>
      <trkpt lat="46.498853" lon="11.67352"><ele>2255</ele></trkpt>
      <trkpt lat="46.498904" lon="11.673737"><ele>2255</ele></trkpt>
      <trkpt lat="46.498966" lon="11.673811"><ele>2253.5</ele></trkpt>
      <trkpt lat="46.499164" lon="11.673849"><ele>2250.8</ele></trkpt>
      <trkpt lat="46.499349" lon="11.674064"><ele>2246.5</ele></trkpt>
      <trkpt lat="46.4997" lon="11.67445"><ele>2241.3</ele></trkpt>
      <trkpt lat="46.49985" lon="11.674683"><ele>2238.3</ele></trkpt>
      <trkpt lat="46.49995" lon="11.674883"><ele>2235.5</ele></trkpt>
      <trkpt lat="46.500072" lon="11.675056"><ele>2235.5</ele></trkpt>
      <trkpt lat="46.500161" lon="11.675361"><ele>2231.8</ele></trkpt>
      <trkpt lat="46.500231" lon="11.675534"><ele>2230.5</ele></trkpt>
      <trkpt lat="46.500267" lon="11.675817"><ele>2226.8</ele></trkpt>
      <trkpt lat="46.500283" lon="11.67615"><ele>2224.8</ele></trkpt>
      <trkpt lat="46.500267" lon="11.676567"><ele>2220.5</ele></trkpt>
      <trkpt lat="46.500333" lon="11.676883"><ele>2217.3</ele></trkpt>
      <trkpt lat="46.5005" lon="11.67735"><ele>2210.5</ele></trkpt>
      <trkpt lat="46.500667" lon="11.67765"><ele>2205</ele></trkpt>
      <trkpt lat="46.500683" lon="11.67785"><ele>2206.5</ele></trkpt>
      <trkpt lat="46.50073" lon="11.678248"><ele>2210.8</ele></trkpt>
      <trkpt lat="46.50078" lon="11.678577"><ele>2210.5</ele></trkpt>
      <trkpt lat="46.500785" lon="11.678695"><ele>2209.8</ele></trkpt>
      <trkpt lat="46.500715" lon="11.678984"><ele>2208.5</ele></trkpt>
      <trkpt lat="46.50055" lon="11.679483"><ele>2211.8</ele></trkpt>
      <trkpt lat="46.500471" lon="11.679612"><ele>2214</ele></trkpt>
      <trkpt lat="46.500426" lon="11.679674"><ele>2215.3</ele></trkpt>
      <trkpt lat="46.5002" lon="11.6797"><ele>2216.3</ele></trkpt>
      <trkpt lat="46.500062" lon="11.679738"><ele>2219.3</ele></trkpt>
      <trkpt lat="46.500016" lon="11.679786"><ele>2220.8</ele></trkpt>
      <trkpt lat="46.499953" lon="11.679879"><ele>2221.3</ele></trkpt>
      <trkpt lat="46.499875" lon="11.680108"><ele>2223.8</ele></trkpt>
      <trkpt lat="46.49965" lon="11.6807"><ele>2229.8</ele></trkpt>
      <trkpt lat="46.499367" lon="11.68125"><ele>2236.8</ele></trkpt>
      <trkpt lat="46.499217" lon="11.681483"><ele>2241.3</ele></trkpt>
      <trkpt lat="46.499067" lon="11.681598"><ele>2242.3</ele></trkpt>
      <trkpt lat="46.499001" lon="11.681711"><ele>2243.8</ele></trkpt>
      <trkpt lat="46.499" lon="11.68185"><ele>2245.5</ele></trkpt>
      <trkpt lat="46.499134" lon="11.682352"><ele>2248.3</ele></trkpt>
      <trkpt lat="46.499155" lon="11.682432"><ele>2248.3</ele></trkpt>
      <trkpt lat="46.499204" lon="11.682555"><ele>2249.3</ele></trkpt>
      <trkpt lat="46.499247" lon="11.682894"><ele>2248</ele></trkpt>
      <trkpt lat="46.499298" lon="11.682983"><ele>2249.8</ele></trkpt>
      <trkpt lat="46.499261" lon="11.683168"><ele>2248.5</ele></trkpt>
      <trkpt lat="46.499189" lon="11.683369"><ele>2249.3</ele></trkpt>
      <trkpt lat="46.498829" lon="11.68388"><ele>2249.3</ele></trkpt>
      <trkpt lat="46.4988" lon="11.683983"><ele>2248</ele></trkpt>
      <trkpt lat="46.4989" lon="11.684733"><ele>2247.8</ele></trkpt>
      <trkpt lat="46.498867" lon="11.68505"><ele>2249.5</ele></trkpt>
      <trkpt lat="46.498919" lon="11.685529"><ele>2251</ele></trkpt>
      <trkpt lat="46.498908" lon="11.68593"><ele>2252</ele></trkpt>
      <trkpt lat="46.498867" lon="11.6863"><ele>2252.3</ele></trkpt>
      <trkpt lat="46.498867" lon="11.686567"><ele>2253</ele></trkpt>
      <trkpt lat="46.499136" lon="11.687087"><ele>2257</ele></trkpt>
      <trkpt lat="46.49927" lon="11.68745"><ele>2259</ele></trkpt>
      <trkpt lat="46.499371" lon="11.687688"><ele>2259.5</ele></trkpt>
      <trkpt lat="46.499512" lon="11.687742"><ele>2262</ele></trkpt>
      <trkpt lat="46.499664" lon="11.687858"><ele>2259.5</ele></trkpt>
      <trkpt lat="46.499766" lon="11.687733"><ele>2263</ele></trkpt>
      <trkpt lat="46.49988" lon="11.687509"><ele>2263.8</ele></trkpt>
      <trkpt lat="46.499994" lon="11.687396"><ele>2261.8</ele></trkpt>
      <trkpt lat="46.500083" lon="11.687326"><ele>2261</ele></trkpt>
      <trkpt lat="46.5003" lon="11.687133"><ele>2260.3</ele></trkpt>
      <trkpt lat="46.5005" lon="11.687033"><ele>2260.8</ele></trkpt>
      <trkpt lat="46.500567" lon="11.687038"><ele>2259.8</ele></trkpt>
      <trkpt lat="46.50075" lon="11.686933"><ele>2260.5</ele></trkpt>
      <trkpt lat="46.500894" lon="11.68696"><ele>2257.8</ele></trkpt>
      <trkpt lat="46.50105" lon="11.686917"><ele>2257.3</ele></trkpt>
      <trkpt lat="46.501202" lon="11.686784"><ele>2261</ele></trkpt>
      <trkpt lat="46.501317" lon="11.686767"><ele>2262</ele></trkpt>
      <trkpt lat="46.501417" lon="11.68695"><ele>2260.8</ele></trkpt>
      <trkpt lat="46.5015" lon="11.687267"><ele>2259.3</ele></trkpt>
      <trkpt lat="46.50155" lon="11.687433"><ele>2258.3</ele></trkpt>
      <trkpt lat="46.501617" lon="11.687646"><ele>2256.8</ele></trkpt>
      <trkpt lat="46.501717" lon="11.687817"><ele>2256</ele></trkpt>
      <trkpt lat="46.501867" lon="11.687983"><ele>2255</ele></trkpt>
      <trkpt lat="46.502133" lon="11.688233"><ele>2254.5</ele></trkpt>
      <trkpt lat="46.502563" lon="11.68848"><ele>2249.3</ele></trkpt>
      <trkpt lat="46.502725" lon="11.688671"><ele>2248.8</ele></trkpt>
      <trkpt lat="46.502988" lon="11.689023"><ele>2248.8</ele></trkpt>
      <trkpt lat="46.50313" lon="11.689193"><ele>2249.3</ele></trkpt>
      <trkpt lat="46.503267" lon="11.689517"><ele>2251</ele></trkpt>
      <trkpt lat="46.503333" lon="11.689817"><ele>2255.3</ele></trkpt>
      <trkpt lat="46.503367" lon="11.690183"><ele>2254.8</ele></trkpt>
      <trkpt lat="46.503383" lon="11.690433"><ele>2255.8</ele></trkpt>
      <trkpt lat="46.503364" lon="11.690846"><ele>2259.8</ele></trkpt>
      <trkpt lat="46.503283" lon="11.69133"><ele>2264</ele></trkpt>
      <trkpt lat="46.503217" lon="11.6918"><ele>2267.5</ele></trkpt>
      <trkpt lat="46.503117" lon="11.692217"><ele>2270.5</ele></trkpt>
      <trkpt lat="46.503083" lon="11.692533"><ele>2274.5</ele></trkpt>
      <trkpt lat="46.502983" lon="11.6931"><ele>2278.5</ele></trkpt>
      <trkpt lat="46.502917" lon="11.693767"><ele>2287</ele></trkpt>
      <trkpt lat="46.5029" lon="11.69405"><ele>2290.3</ele></trkpt>
      <trkpt lat="46.50295" lon="11.694217"><ele>2292.8</ele></trkpt>
      <trkpt lat="46.503183" lon="11.694583"><ele>2292.5</ele></trkpt>
      <trkpt lat="46.50335" lon="11.694883"><ele>2291.3</ele></trkpt>
      <trkpt lat="46.50355" lon="11.69515"><ele>2289.5</ele></trkpt>
      <trkpt lat="46.50375" lon="11.695533"><ele>2291.5</ele></trkpt>
      <trkpt lat="46.503933" lon="11.696283"><ele>2299.5</ele></trkpt>
      <trkpt lat="46.504047" lon="11.696914"><ele>2306.5</ele></trkpt>
      <trkpt lat="46.504094" lon="11.697112"><ele>2308.3</ele></trkpt>
      <trkpt lat="46.504197" lon="11.697906"><ele>2312.8</ele></trkpt>
      <trkpt lat="46.504349" lon="11.699116"><ele>2308.3</ele></trkpt>
      <trkpt lat="46.504358" lon="11.699226"><ele>2308</ele></trkpt>
      <trkpt lat="46.504358" lon="11.699345"><ele>2308</ele></trkpt>
      <trkpt lat="46.504346" lon="11.699442"><ele>2308.3</ele></trkpt>
      <trkpt lat="46.504233" lon="11.699951"><ele>2305.8</ele></trkpt>
      <trkpt lat="46.504231" lon="11.699994"><ele>2305.3</ele></trkpt>
      <trkpt lat="46.504253" lon="11.700087"><ele>2305.3</ele></trkpt>
      <trkpt lat="46.504319" lon="11.700193"><ele>2304.5</ele></trkpt>
      <trkpt lat="46.504343" lon="11.700246"><ele>2304.3</ele></trkpt>
      <trkpt lat="46.504457" lon="11.700445"><ele>2304</ele></trkpt>
      <trkpt lat="46.504694" lon="11.700539"><ele>2303</ele></trkpt>
      <trkpt lat="46.504721" lon="11.700592"><ele>2303.3</ele></trkpt>
      <trkpt lat="46.50472" lon="11.700691"><ele>2303.8</ele></trkpt>
      <trkpt lat="46.504686" lon="11.700823"><ele>2305</ele></trkpt>
      <trkpt lat="46.504683" lon="11.700915"><ele>2304.5</ele></trkpt>
      <trkpt lat="46.504686" lon="11.700823"><ele>2305</ele></trkpt>
      <trkpt lat="46.50472" lon="11.700691"><ele>2303.8</ele></trkpt>
      <trkpt lat="46.504769" lon="11.700559"><ele>2304</ele></trkpt>
      <trkpt lat="46.504831" lon="11.700473"><ele>2304.3</ele></trkpt>
      <trkpt lat="46.504967" lon="11.700241"><ele>2303.3</ele></trkpt>
      <trkpt lat="46.505033" lon="11.700084"><ele>2302.5</ele></trkpt>
      <trkpt lat="46.505265" lon="11.69961"><ele>2298.3</ele></trkpt>
      <trkpt lat="46.505322" lon="11.699462"><ele>2296.3</ele></trkpt>
      <trkpt lat="46.505722" lon="11.698847"><ele>2283</ele></trkpt>
      <trkpt lat="46.505812" lon="11.698723"><ele>2277.8</ele></trkpt>
      <trkpt lat="46.505883" lon="11.698697"><ele>2276.5</ele></trkpt>
      <trkpt lat="46.505967" lon="11.698643"><ele>2275.3</ele></trkpt>
      <trkpt lat="46.506037" lon="11.698583"><ele>2273.3</ele></trkpt>
      <trkpt lat="46.506244" lon="11.698351"><ele>2261.8</ele></trkpt>
      <trkpt lat="46.506289" lon="11.698327"><ele>2260.3</ele></trkpt>
      <trkpt lat="46.506464" lon="11.698354"><ele>2260.8</ele></trkpt>
      <trkpt lat="46.506514" lon="11.698333"><ele>2259.5</ele></trkpt>
      <trkpt lat="46.506611" lon="11.698218"><ele>2255.5</ele></trkpt>
      <trkpt lat="46.506642" lon="11.698224"><ele>2255.5</ele></trkpt>
      <trkpt lat="46.506724" lon="11.698184"><ele>2254.5</ele></trkpt>
      <trkpt lat="46.506922" lon="11.698142"><ele>2254</ele></trkpt>
      <trkpt lat="46.507119" lon="11.697999"><ele>2251</ele></trkpt>
      <trkpt lat="46.507266" lon="11.697937"><ele>2249.8</ele></trkpt>
      <trkpt lat="46.507433" lon="11.69793"><ele>2250.3</ele></trkpt>
      <trkpt lat="46.507524" lon="11.697883"><ele>2248.8</ele></trkpt>
      <trkpt lat="46.507704" lon="11.697721"><ele>2246</ele></trkpt>
      <trkpt lat="46.507798" lon="11.697699"><ele>2246.8</ele></trkpt>
      <trkpt lat="46.507941" lon="11.697683"><ele>2244.5</ele></trkpt>
      <trkpt lat="46.508011" lon="11.697696"><ele>2244.5</ele></trkpt>
      <trkpt lat="46.508062" lon="11.697745"><ele>2245.3</ele></trkpt>
      <trkpt lat="46.508156" lon="11.697929"><ele>2243</ele></trkpt>
      <trkpt lat="46.508166" lon="11.69796"><ele>2242.8</ele></trkpt>
      <trkpt lat="46.508166" lon="11.697997"><ele>2243.3</ele></trkpt>
      <trkpt lat="46.508152" lon="11.698082"><ele>2244.5</ele></trkpt>
      <trkpt lat="46.508164" lon="11.698159"><ele>2242.8</ele></trkpt>
      <trkpt lat="46.508155" lon="11.698468"><ele>2240.5</ele></trkpt>
      <trkpt lat="46.508212" lon="11.698602"><ele>2236.8</ele></trkpt>
      <trkpt lat="46.50822" lon="11.698679"><ele>2237.8</ele></trkpt>
      <trkpt lat="46.508268" lon="11.698746"><ele>2237</ele></trkpt>
      <trkpt lat="46.508283" lon="11.698809"><ele>2237.8</ele></trkpt>
      <trkpt lat="46.508348" lon="11.698798"><ele>2235.3</ele></trkpt>
      <trkpt lat="46.508489" lon="11.698849"><ele>2236.3</ele></trkpt>
      <trkpt lat="46.508629" lon="11.698799"><ele>2233</ele></trkpt>
      <trkpt lat="46.508659" lon="11.69882"><ele>2233.3</ele></trkpt>
      <trkpt lat="46.508724" lon="11.698829"><ele>2232</ele></trkpt>
      <trkpt lat="46.508746" lon="11.698842"><ele>2231.8</ele></trkpt>
      <trkpt lat="46.508766" lon="11.698837"><ele>2231</ele></trkpt>
      <trkpt lat="46.508787" lon="11.698848"><ele>2230.8</ele></trkpt>
      <trkpt lat="46.508835" lon="11.698943"><ele>2231.3</ele></trkpt>
      <trkpt lat="46.508851" lon="11.699028"><ele>2231.3</ele></trkpt>
      <trkpt lat="46.508913" lon="11.699207"><ele>2229.3</ele></trkpt>
      <trkpt lat="46.50897" lon="11.699309"><ele>2227.8</ele></trkpt>
      <trkpt lat="46.509017" lon="11.699375"><ele>2226</ele></trkpt>
      <trkpt lat="46.509017" lon="11.699436"><ele>2226.8</ele></trkpt>
      <trkpt lat="46.509032" lon="11.699495"><ele>2227</ele></trkpt>
      <trkpt lat="46.509126" lon="11.69963"><ele>2224.8</ele></trkpt>
      <trkpt lat="46.509134" lon="11.699657"><ele>2225</ele></trkpt>
      <trkpt lat="46.50922" lon="11.699756"><ele>2223.5</ele></trkpt>
      <trkpt lat="46.509292" lon="11.699815"><ele>2222.3</ele></trkpt>
      <trkpt lat="46.509342" lon="11.69991"><ele>2222.8</ele></trkpt>
      <trkpt lat="46.509416" lon="11.699953"><ele>2220.8</ele></trkpt>
      <trkpt lat="46.509457" lon="11.700006"><ele>2220.8</ele></trkpt>
      <trkpt lat="46.50955" lon="11.700039"><ele>2218.8</ele></trkpt>
      <trkpt lat="46.509583" lon="11.700021"><ele>2217</ele></trkpt>
      <trkpt lat="46.509604" lon="11.700021"><ele>2216.5</ele></trkpt>
      <trkpt lat="46.509627" lon="11.700042"><ele>2216.3</ele></trkpt>
      <trkpt lat="46.509658" lon="11.700144"><ele>2218.3</ele></trkpt>
      <trkpt lat="46.509671" lon="11.700251"><ele>2220.8</ele></trkpt>
      <trkpt lat="46.509698" lon="11.700269"><ele>2219.8</ele></trkpt>
      <trkpt lat="46.509734" lon="11.700237"><ele>2217.8</ele></trkpt>
      <trkpt lat="46.509779" lon="11.700213"><ele>2216.3</ele></trkpt>
      <trkpt lat="46.509974" lon="11.700161"><ele>2211</ele></trkpt>
      <trkpt lat="46.510083" lon="11.700248"><ele>2213.5</ele></trkpt>
      <trkpt lat="46.510217" lon="11.700286"><ele>2214</ele></trkpt>
      <trkpt lat="46.510265" lon="11.700258"><ele>2212</ele></trkpt>
      <trkpt lat="46.51033" lon="11.700172"><ele>2207</ele></trkpt>
      <trkpt lat="46.510395" lon="11.700144"><ele>2205</ele></trkpt>
      <trkpt lat="46.51053" lon="11.70024"><ele>2205.5</ele></trkpt>
      <trkpt lat="46.51064" lon="11.700391"><ele>2209</ele></trkpt>
      <trkpt lat="46.510712" lon="11.700385"><ele>2208.8</ele></trkpt>
      <trkpt lat="46.510792" lon="11.700273"><ele>2204</ele></trkpt>
      <trkpt lat="46.510835" lon="11.700255"><ele>2203</ele></trkpt>
      <trkpt lat="46.51088" lon="11.70028"><ele>2202.5</ele></trkpt>
      <trkpt lat="46.510933" lon="11.700274"><ele>2200.8</ele></trkpt>
      <trkpt lat="46.510957" lon="11.700261"><ele>2199.8</ele></trkpt>
      <trkpt lat="46.511003" lon="11.700306"><ele>2200</ele></trkpt>
      <trkpt lat="46.511076" lon="11.700296"><ele>2197.5</ele></trkpt>
      <trkpt lat="46.511186" lon="11.700454"><ele>2198.8</ele></trkpt>
      <trkpt lat="46.511298" lon="11.700525"><ele>2197.5</ele></trkpt>
      <trkpt lat="46.511419" lon="11.700529"><ele>2194.3</ele></trkpt>
      <trkpt lat="46.511535" lon="11.700517"><ele>2191.8</ele></trkpt>
      <trkpt lat="46.511593" lon="11.700523"><ele>2191</ele></trkpt>
      <trkpt lat="46.511652" lon="11.700563"><ele>2191.5</ele></trkpt>
      <trkpt lat="46.511666" lon="11.700598"><ele>2192.5</ele></trkpt>
      <trkpt lat="46.51179" lon="11.700622"><ele>2191</ele></trkpt>
      <trkpt lat="46.511885" lon="11.700676"><ele>2191</ele></trkpt>
      <trkpt lat="46.512105" lon="11.700734"><ele>2188.8</ele></trkpt>
      <trkpt lat="46.512519" lon="11.700815"><ele>2183.5</ele></trkpt>
      <trkpt lat="46.512782" lon="11.700953"><ele>2180.8</ele></trkpt>
      <trkpt lat="46.513022" lon="11.701038"><ele>2178.5</ele></trkpt>
      <trkpt lat="46.513222" lon="11.701058"><ele>2176</ele></trkpt>
      <trkpt lat="46.51356" lon="11.701001"><ele>2172.5</ele></trkpt>
      <trkpt lat="46.513637" lon="11.700933"><ele>2170.3</ele></trkpt>
      <trkpt lat="46.513741" lon="11.700889"><ele>2171.8</ele></trkpt>
      <trkpt lat="46.513827" lon="11.700693"><ele>2169</ele></trkpt>
      <trkpt lat="46.5139" lon="11.700593"><ele>2169</ele></trkpt>
      <trkpt lat="46.513948" lon="11.700585"><ele>2169.3</ele></trkpt>
      <trkpt lat="46.514043" lon="11.700465"><ele>2167</ele></trkpt>
      <trkpt lat="46.514078" lon="11.700479"><ele>2167.8</ele></trkpt>
      <trkpt lat="46.514232" lon="11.700337"><ele>2166</ele></trkpt>
      <trkpt lat="46.514424" lon="11.700206"><ele>2163.8</ele></trkpt>
      <trkpt lat="46.514613" lon="11.700026"><ele>2161.3</ele></trkpt>
      <trkpt lat="46.514796" lon="11.69988"><ele>2158</ele></trkpt>
      <trkpt lat="46.515041" lon="11.699783"><ele>2158</ele></trkpt>
      <trkpt lat="46.51536" lon="11.699479"><ele>2153.3</ele></trkpt>
      <trkpt lat="46.515843" lon="11.699219"><ele>2148.8</ele></trkpt>
      <trkpt lat="46.516106" lon="11.699392"><ele>2147</ele></trkpt>
      <trkpt lat="46.516167" lon="11.699415"><ele>2147</ele></trkpt>
      <trkpt lat="46.516456" lon="11.699387"><ele>2142.8</ele></trkpt>
      <trkpt lat="46.516513" lon="11.699414"><ele>2143.5</ele></trkpt>
      <trkpt lat="46.516565" lon="11.699401"><ele>2143</ele></trkpt>
      <trkpt lat="46.516611" lon="11.699355"><ele>2141.5</ele></trkpt>
      <trkpt lat="46.516785" lon="11.699274"><ele>2139.5</ele></trkpt>
      <trkpt lat="46.516827" lon="11.699232"><ele>2138.8</ele></trkpt>
      <trkpt lat="46.516885" lon="11.699244"><ele>2139.3</ele></trkpt>
      <trkpt lat="46.516931" lon="11.699234"><ele>2139.3</ele></trkpt>
      <trkpt lat="46.516971" lon="11.699251"><ele>2139.8</ele></trkpt>
      <trkpt lat="46.51699" lon="11.699243"><ele>2139.8</ele></trkpt>
      <trkpt lat="46.517056" lon="11.69914"><ele>2138.3</ele></trkpt>
      <trkpt lat="46.517238" lon="11.698975"><ele>2134.8</ele></trkpt>
      <trkpt lat="46.517655" lon="11.69893"><ele>2127.5</ele></trkpt>
      <trkpt lat="46.517708" lon="11.698959"><ele>2128.3</ele></trkpt>
      <trkpt lat="46.517806" lon="11.698959"><ele>2128</ele></trkpt>
      <trkpt lat="46.517896" lon="11.698937"><ele>2126.8</ele></trkpt>
      <trkpt lat="46.517931" lon="11.698888"><ele>2125.8</ele></trkpt>
      <trkpt lat="46.517993" lon="11.698882"><ele>2125.5</ele></trkpt>
      <trkpt lat="46.518086" lon="11.698894"><ele>2124.5</ele></trkpt>
      <trkpt lat="46.518184" lon="11.698866"><ele>2123.8</ele></trkpt>
      <trkpt lat="46.518494" lon="11.698805"><ele>2123</ele></trkpt>
      <trkpt lat="46.518775" lon="11.698809"><ele>2123.5</ele></trkpt>
      <trkpt lat="46.518842" lon="11.698846"><ele>2123.8</ele></trkpt>
      <trkpt lat="46.518909" lon="11.698858"><ele>2124.3</ele></trkpt>
      <trkpt lat="46.519033" lon="11.698773"><ele>2125</ele></trkpt>
      <trkpt lat="46.519121" lon="11.698755"><ele>2125.3</ele></trkpt>
      <trkpt lat="46.519163" lon="11.698794"><ele>2126.3</ele></trkpt>
      <trkpt lat="46.51938" lon="11.69881"><ele>2124.5</ele></trkpt>
      <trkpt lat="46.519411" lon="11.698868"><ele>2125</ele></trkpt>
      <trkpt lat="46.519437" lon="11.698945"><ele>2124.8</ele></trkpt>
      <trkpt lat="46.519556" lon="11.699111"><ele>2121.5</ele></trkpt>
      <trkpt lat="46.519549" lon="11.699172"><ele>2121</ele></trkpt>
      <trkpt lat="46.519562" lon="11.699198"><ele>2120</ele></trkpt>
      <trkpt lat="46.519875" lon="11.699061"><ele>2114.5</ele></trkpt>
      <trkpt lat="46.520242" lon="11.699115"><ele>2107.5</ele></trkpt>
      <trkpt lat="46.520401" lon="11.699236"><ele>2101.5</ele></trkpt>
      <trkpt lat="46.520701" lon="11.699329"><ele>2096</ele></trkpt>
      <trkpt lat="46.520645" lon="11.699395"><ele>2093.5</ele></trkpt>
      <trkpt lat="46.520825" lon="11.699484"><ele>2089.3</ele></trkpt>
      <trkpt lat="46.52089" lon="11.699563"><ele>2085.3</ele></trkpt>
      <trkpt lat="46.520889" lon="11.699602"><ele>2083.5</ele></trkpt>
      <trkpt lat="46.520793" lon="11.699671"><ele>2081.3</ele></trkpt>
      <trkpt lat="46.520657" lon="11.699727"><ele>2080</ele></trkpt>
      <trkpt lat="46.520558" lon="11.699833"><ele>2076.8</ele></trkpt>
      <trkpt lat="46.520524" lon="11.699961"><ele>2072.5</ele></trkpt>
      <trkpt lat="46.520411" lon="11.700056"><ele>2070</ele></trkpt>
      <trkpt lat="46.520355" lon="11.700113"><ele>2068.5</ele></trkpt>
      <trkpt lat="46.520224" lon="11.70019"><ele>2068.3</ele></trkpt>
      <trkpt lat="46.520206" lon="11.700207"><ele>2068.3</ele></trkpt>
      <trkpt lat="46.520183" lon="11.700272"><ele>2067</ele></trkpt>
      <trkpt lat="46.520171" lon="11.700361"><ele>2066.8</ele></trkpt>
      <trkpt lat="46.520172" lon="11.700457"><ele>2066</ele></trkpt>
      <trkpt lat="46.520179" lon="11.700492"><ele>2065.5</ele></trkpt>
      <trkpt lat="46.520194" lon="11.700513"><ele>2065</ele></trkpt>
      <trkpt lat="46.520236" lon="11.700528"><ele>2064</ele></trkpt>
      <trkpt lat="46.520284" lon="11.700573"><ele>2063</ele></trkpt>
      <trkpt lat="46.520447" lon="11.700797"><ele>2060.8</ele></trkpt>
      <trkpt lat="46.520542" lon="11.70096"><ele>2058.3</ele></trkpt>
      <trkpt lat="46.520601" lon="11.701091"><ele>2056.8</ele></trkpt>
      <trkpt lat="46.520653" lon="11.701126"><ele>2055.5</ele></trkpt>
      <trkpt lat="46.520685" lon="11.70117"><ele>2054.5</ele></trkpt>
      <trkpt lat="46.520716" lon="11.701269"><ele>2053.5</ele></trkpt>
      <trkpt lat="46.520747" lon="11.70131"><ele>2052.5</ele></trkpt>
      <trkpt lat="46.520842" lon="11.701341"><ele>2049.8</ele></trkpt>
      <trkpt lat="46.520888" lon="11.70141"><ele>2048.3</ele></trkpt>
      <trkpt lat="46.520942" lon="11.701407"><ele>2046.8</ele></trkpt>
      <trkpt lat="46.521096" lon="11.70156"><ele>2042.3</ele></trkpt>
      <trkpt lat="46.521294" lon="11.701577"><ele>2036.8</ele></trkpt>
      <trkpt lat="46.5214" lon="11.701623"><ele>2033.8</ele></trkpt>
      <trkpt lat="46.521641" lon="11.701929"><ele>2025.8</ele></trkpt>
      <trkpt lat="46.521821" lon="11.702377"><ele>2019.3</ele></trkpt>
      <trkpt lat="46.521848" lon="11.702484"><ele>2016.5</ele></trkpt>
      <trkpt lat="46.521822" lon="11.702589"><ele>2015</ele></trkpt>
      <trkpt lat="46.521747" lon="11.702724"><ele>2013.8</ele></trkpt>
      <trkpt lat="46.521675" lon="11.702822"><ele>2013</ele></trkpt>
      <trkpt lat="46.521659" lon="11.70296"><ele>2011</ele></trkpt>
      <trkpt lat="46.521643" lon="11.703016"><ele>2010.8</ele></trkpt>
      <trkpt lat="46.521604" lon="11.703302"><ele>2008.8</ele></trkpt>
      <trkpt lat="46.521638" lon="11.703427"><ele>2006.8</ele></trkpt>
      <trkpt lat="46.521645" lon="11.70348"><ele>2006.3</ele></trkpt>
      <trkpt lat="46.521618" lon="11.703621"><ele>2006.5</ele></trkpt>
      <trkpt lat="46.521681" lon="11.703773"><ele>2003.8</ele></trkpt>
      <trkpt lat="46.52169" lon="11.703871"><ele>2003.3</ele></trkpt>
      <trkpt lat="46.521742" lon="11.704039"><ele>2000.8</ele></trkpt>
      <trkpt lat="46.521763" lon="11.704085"><ele>1999.8</ele></trkpt>
      <trkpt lat="46.521736" lon="11.704197"><ele>2000.5</ele></trkpt>
      <trkpt lat="46.521749" lon="11.704253"><ele>2000.3</ele></trkpt>
      <trkpt lat="46.52179" lon="11.704414"><ele>1998.8</ele></trkpt>
      <trkpt lat="46.521858" lon="11.704542"><ele>1995.5</ele></trkpt>
      <trkpt lat="46.521887" lon="11.704641"><ele>1994.3</ele></trkpt>
      <trkpt lat="46.52193" lon="11.704726"><ele>1992</ele></trkpt>
      <trkpt lat="46.521975" lon="11.704854"><ele>1991.8</ele></trkpt>
      <trkpt lat="46.522018" lon="11.704881"><ele>1990.3</ele></trkpt>
      <trkpt lat="46.522048" lon="11.704933"><ele>1989.3</ele></trkpt>
      <trkpt lat="46.522066" lon="11.705084"><ele>1990</ele></trkpt>
      <trkpt lat="46.522127" lon="11.705177"><ele>1987.8</ele></trkpt>
      <trkpt lat="46.522195" lon="11.705331"><ele>1985.5</ele></trkpt>
      <trkpt lat="46.52222" lon="11.705463"><ele>1985.8</ele></trkpt>
      <trkpt lat="46.522265" lon="11.705568"><ele>1984.3</ele></trkpt>
      <trkpt lat="46.522304" lon="11.705693"><ele>1982.5</ele></trkpt>
      <trkpt lat="46.522308" lon="11.705759"><ele>1982.8</ele></trkpt>
      <trkpt lat="46.522306" lon="11.70614"><ele>1985</ele></trkpt>
      <trkpt lat="46.522349" lon="11.706209"><ele>1983.8</ele></trkpt>
      <trkpt lat="46.522374" lon="11.706216"><ele>1982.8</ele></trkpt>
      <trkpt lat="46.522455" lon="11.706183"><ele>1978.5</ele></trkpt>
      <trkpt lat="46.522573" lon="11.706248"><ele>1975.5</ele></trkpt>
      <trkpt lat="46.522715" lon="11.70639"><ele>1973.3</ele></trkpt>
      <trkpt lat="46.522801" lon="11.706495"><ele>1970.8</ele></trkpt>
      <trkpt lat="46.522903" lon="11.70666"><ele>1968</ele></trkpt>
      <trkpt lat="46.52294" lon="11.706856"><ele>1967.5</ele></trkpt>
      <trkpt lat="46.522926" lon="11.706942"><ele>1968.5</ele></trkpt>
      <trkpt lat="46.522938" lon="11.707022"><ele>1968.3</ele></trkpt>
      <trkpt lat="46.523004" lon="11.707737"><ele>1964.5</ele></trkpt>
      <trkpt lat="46.523004" lon="11.708012"><ele>1964.3</ele></trkpt>
      <trkpt lat="46.523026" lon="11.70876"><ele>1961.3</ele></trkpt>
      <trkpt lat="46.522977" lon="11.70961"><ele>1958.3</ele></trkpt>
      <trkpt lat="46.522813" lon="11.709949"><ele>1957</ele></trkpt>
      <trkpt lat="46.522754" lon="11.710156"><ele>1958</ele></trkpt>
      <trkpt lat="46.522694" lon="11.710558"><ele>1964.3</ele></trkpt>
      <trkpt lat="46.522719" lon="11.710923"><ele>1954.8</ele></trkpt>
      <trkpt lat="46.522655" lon="11.711329"><ele>1969.3</ele></trkpt>
      <trkpt lat="46.522773" lon="11.711973"><ele>1962</ele></trkpt>
      <trkpt lat="46.522828" lon="11.712206"><ele>1967.3</ele></trkpt>
      <trkpt lat="46.522832" lon="11.712518"><ele>1973.8</ele></trkpt>
      <trkpt lat="46.522935" lon="11.712821"><ele>1974.3</ele></trkpt>
      <trkpt lat="46.522966" lon="11.713438"><ele>1985.5</ele></trkpt>
      <trkpt lat="46.522962" lon="11.714125"><ele>1996.3</ele></trkpt>
      <trkpt lat="46.522939" lon="11.714399"><ele>1998.5</ele></trkpt>
      <trkpt lat="46.522899" lon="11.714488"><ele>2000.8</ele></trkpt>
      <trkpt lat="46.522771" lon="11.715008"><ele>2006.3</ele></trkpt>
      <trkpt lat="46.522752" lon="11.71523"><ele>2009.8</ele></trkpt>
      <trkpt lat="46.522784" lon="11.715542"><ele>2015.3</ele></trkpt>
      <trkpt lat="46.522904" lon="11.71609"><ele>2023.8</ele></trkpt>
      <trkpt lat="46.522911" lon="11.716685"><ele>2032</ele></trkpt>
      <trkpt lat="46.522563" lon="11.717418"><ele>2042.3</ele></trkpt>
      <trkpt lat="46.522305" lon="11.717916"><ele>2048.8</ele></trkpt>
      <trkpt lat="46.522161" lon="11.718448"><ele>2055.5</ele></trkpt>
      <trkpt lat="46.522266" lon="11.718785"><ele>2054.5</ele></trkpt>
      <trkpt lat="46.52233" lon="11.718897"><ele>2057.3</ele></trkpt>
      <trkpt lat="46.522239" lon="11.718943"><ele>2059.3</ele></trkpt>
      <trkpt lat="46.522208" lon="11.719001"><ele>2061.8</ele></trkpt>
      <trkpt lat="46.522248" lon="11.71907"><ele>2063</ele></trkpt>
      <trkpt lat="46.522456" lon="11.71918"><ele>2066.3</ele></trkpt>
      <trkpt lat="46.52302" lon="11.719354"><ele>2080.3</ele></trkpt>
      <trkpt lat="46.523082" lon="11.719391"><ele>2082.3</ele></trkpt>
      <trkpt lat="46.523062" lon="11.719436"><ele>2084.5</ele></trkpt>
      <trkpt lat="46.522993" lon="11.719464"><ele>2084.5</ele></trkpt>
      <trkpt lat="46.522842" lon="11.71965"><ele>2089.8</ele></trkpt>
      <trkpt lat="46.522635" lon="11.719996"><ele>2101.8</ele></trkpt>
      <trkpt lat="46.522473" lon="11.720071"><ele>2103.5</ele></trkpt>
      <trkpt lat="46.522367" lon="11.720132"><ele>2106</ele></trkpt>
      <trkpt lat="46.522273" lon="11.720229"><ele>2110</ele></trkpt>
      <trkpt lat="46.522083" lon="11.720462"><ele>2115.3</ele></trkpt>
      <trkpt lat="46.521977" lon="11.720755"><ele>2123.8</ele></trkpt>
      <trkpt lat="46.521853" lon="11.720952"><ele>2130.8</ele></trkpt>
      <trkpt lat="46.521372" lon="11.721244"><ele>2143</ele></trkpt>
      <trkpt lat="46.521226" lon="11.721147"><ele>2143.8</ele></trkpt>
      <trkpt lat="46.521094" lon="11.721189"><ele>2147.8</ele></trkpt>
      <trkpt lat="46.520904" lon="11.72149"><ele>2155</ele></trkpt>
      <trkpt lat="46.520852" lon="11.721718"><ele>2160</ele></trkpt>
      <trkpt lat="46.520714" lon="11.721994"><ele>2167</ele></trkpt>
      <trkpt lat="46.520657" lon="11.722143"><ele>2170</ele></trkpt>
      <trkpt lat="46.520649" lon="11.722256"><ele>2172.5</ele></trkpt>
      <trkpt lat="46.520669" lon="11.722332"><ele>2174.3</ele></trkpt>
      <trkpt lat="46.520665" lon="11.722422"><ele>2176.5</ele></trkpt>
      <trkpt lat="46.520589" lon="11.722528"><ele>2179.3</ele></trkpt>
      <trkpt lat="46.520699" lon="11.722659"><ele>2181.3</ele></trkpt>
      <trkpt lat="46.520717" lon="11.722813"><ele>2184.8</ele></trkpt>
      <trkpt lat="46.520698" lon="11.722928"><ele>2190.8</ele></trkpt>
      <trkpt lat="46.520657" lon="11.723025"><ele>2197.8</ele></trkpt>
      <trkpt lat="46.520604" lon="11.723093"><ele>2203.5</ele></trkpt>
      <trkpt lat="46.520584" lon="11.723169"><ele>2207</ele></trkpt>
      <trkpt lat="46.520547" lon="11.723176"><ele>2209</ele></trkpt>
      <trkpt lat="46.520508" lon="11.72313"><ele>2208.3</ele></trkpt>
      <trkpt lat="46.520466" lon="11.723154"><ele>2210.3</ele></trkpt>
      <trkpt lat="46.520493" lon="11.72327"><ele>2214</ele></trkpt>
      <trkpt lat="46.520471" lon="11.723307"><ele>2216.5</ele></trkpt>
      <trkpt lat="46.52049" lon="11.723338"><ele>2217</ele></trkpt>
      <trkpt lat="46.520417" lon="11.723368"><ele>2221.3</ele></trkpt>
      <trkpt lat="46.520448" lon="11.723435"><ele>2222.8</ele></trkpt>
      <trkpt lat="46.520428" lon="11.723532"><ele>2227.3</ele></trkpt>
      <trkpt lat="46.520454" lon="11.723594"><ele>2229</ele></trkpt>
      <trkpt lat="46.520435" lon="11.72364"><ele>2231</ele></trkpt>
      <trkpt lat="46.520462" lon="11.723692"><ele>2231.3</ele></trkpt>
      <trkpt lat="46.520415" lon="11.723753"><ele>2234.3</ele></trkpt>
      <trkpt lat="46.52042" lon="11.723818"><ele>2235.5</ele></trkpt>
      <trkpt lat="46.520262" lon="11.723843"><ele>2242.3</ele></trkpt>
      <trkpt lat="46.520281" lon="11.723945"><ele>2243.8</ele></trkpt>
      <trkpt lat="46.520226" lon="11.72399"><ele>2247</ele></trkpt>
      <trkpt lat="46.520221" lon="11.724103"><ele>2249.3</ele></trkpt>
      <trkpt lat="46.520011" lon="11.723906"><ele>2254.8</ele></trkpt>
      <trkpt lat="46.519898" lon="11.723838"><ele>2257.5</ele></trkpt>
  </trkseg></trk>
</gpx>
