{
  "type": "FeatureCollection",
  "features": [
    {
      "type": "Feature",
      "properties": {
        "kind": "route",
        "name": "День 3 · Langkofelhütte → Toni-Demetz → Val Lasties → Boè",
        "distance_km": 12.07,
        "ascent_m": 1609,
        "descent_m": 998,
        "source": "BRouter / OpenStreetMap + official Val Gardena Mesules GPX"
      },
      "geometry": {
        "type": "LineString",
        "coordinates": [
          [
            11.723838,
            46.519898,
            2257.5
          ],
          [
            11.723906,
            46.520011,
            2254.8
          ],
          [
            11.723968,
            46.520008,
            2256.3
          ],
          [
            11.72407,
            46.52004,
            2257
          ],
          [
            11.724199,
            46.520067,
            2258.3
          ],
          [
            11.72441,
            46.520077,
            2261.8
          ],
          [
            11.724525,
            46.520065,
            2263.8
          ],
          [
            11.72471,
            46.520002,
            2268.8
          ],
          [
            11.724997,
            46.519983,
            2271
          ],
          [
            11.725191,
            46.51995,
            2274.5
          ],
          [
            11.725321,
            46.519971,
            2274.5
          ],
          [
            11.725489,
            46.519949,
            2278.5
          ],
          [
            11.725646,
            46.519958,
            2281.3
          ],
          [
            11.725849,
            46.519994,
            2284.5
          ],
          [
            11.726134,
            46.520013,
            2292.3
          ],
          [
            11.726268,
            46.520055,
            2295
          ],
          [
            11.726387,
            46.520078,
            2297.8
          ],
          [
            11.726643,
            46.520148,
            2303
          ],
          [
            11.726829,
            46.520149,
            2307.3
          ],
          [
            11.727012,
            46.520165,
            2311
          ],
          [
            11.727112,
            46.5202,
            2313
          ],
          [
            11.727162,
            46.520278,
            2314.3
          ],
          [
            11.727232,
            46.520342,
            2316.8
          ],
          [
            11.727298,
            46.520268,
            2318.3
          ],
          [
            11.727383,
            46.520267,
            2321
          ],
          [
            11.727478,
            46.520168,
            2322.8
          ],
          [
            11.727595,
            46.520119,
            2325.3
          ],
          [
            11.727737,
            46.520127,
            2329.3
          ],
          [
            11.727781,
            46.520184,
            2331
          ],
          [
            11.727853,
            46.520313,
            2333.3
          ],
          [
            11.728047,
            46.520362,
            2337.3
          ],
          [
            11.728101,
            46.52041,
            2339.3
          ],
          [
            11.728192,
            46.520429,
            2341.3
          ],
          [
            11.728304,
            46.520418,
            2343.3
          ],
          [
            11.728401,
            46.520352,
            2344.5
          ],
          [
            11.728499,
            46.520337,
            2346.3
          ],
          [
            11.728511,
            46.520235,
            2345.5
          ],
          [
            11.728648,
            46.520166,
            2348.3
          ],
          [
            11.72874,
            46.520129,
            2350.3
          ],
          [
            11.728984,
            46.520012,
            2355
          ],
          [
            11.729144,
            46.52002,
            2358.8
          ],
          [
            11.729469,
            46.519909,
            2363.8
          ],
          [
            11.729671,
            46.519885,
            2365.3
          ],
          [
            11.729835,
            46.519831,
            2365.5
          ],
          [
            11.730069,
            46.51983,
            2366.5
          ],
          [
            11.730452,
            46.519787,
            2367.3
          ],
          [
            11.730544,
            46.519761,
            2366.8
          ],
          [
            11.730813,
            46.519745,
            2366.5
          ],
          [
            11.731007,
            46.519638,
            2367.3
          ],
          [
            11.731115,
            46.519561,
            2368
          ],
          [
            11.731194,
            46.519466,
            2369.3
          ],
          [
            11.731328,
            46.519393,
            2371
          ],
          [
            11.731562,
            46.51916,
            2374.5
          ],
          [
            11.73168,
            46.519109,
            2376.5
          ],
          [
            11.731873,
            46.518794,
            2381.5
          ],
          [
            11.731989,
            46.518774,
            2383.3
          ],
          [
            11.73213,
            46.518689,
            2386.3
          ],
          [
            11.732348,
            46.518615,
            2390.5
          ],
          [
            11.732381,
            46.518506,
            2392.3
          ],
          [
            11.732455,
            46.518472,
            2394
          ],
          [
            11.732595,
            46.518454,
            2396.5
          ],
          [
            11.732803,
            46.518193,
            2402
          ],
          [
            11.732684,
            46.518089,
            2402.3
          ],
          [
            11.732706,
            46.518033,
            2404.3
          ],
          [
            11.732685,
            46.517995,
            2405.8
          ],
          [
            11.732711,
            46.517963,
            2407.5
          ],
          [
            11.732748,
            46.517965,
            2407.5
          ],
          [
            11.732774,
            46.517927,
            2409.5
          ],
          [
            11.732882,
            46.517893,
            2411.3
          ],
          [
            11.732995,
            46.517838,
            2414
          ],
          [
            11.733024,
            46.517801,
            2415.8
          ],
          [
            11.733,
            46.517773,
            2417
          ],
          [
            11.733054,
            46.517727,
            2419.3
          ],
          [
            11.733138,
            46.517738,
            2419.3
          ],
          [
            11.733177,
            46.51771,
            2421
          ],
          [
            11.733408,
            46.517704,
            2423.5
          ],
          [
            11.733592,
            46.517734,
            2425.3
          ],
          [
            11.73367,
            46.517716,
            2426.3
          ],
          [
            11.733636,
            46.517668,
            2428.3
          ],
          [
            11.733678,
            46.517612,
            2430.5
          ],
          [
            11.733766,
            46.517595,
            2431.5
          ],
          [
            11.733802,
            46.517559,
            2433
          ],
          [
            11.73385,
            46.517414,
            2439.5
          ],
          [
            11.733939,
            46.517378,
            2441.3
          ],
          [
            11.733931,
            46.517265,
            2446.3
          ],
          [
            11.733798,
            46.51721,
            2447.8
          ],
          [
            11.733766,
            46.51717,
            2449.5
          ],
          [
            11.73384,
            46.517171,
            2450
          ],
          [
            11.733839,
            46.517118,
            2452.8
          ],
          [
            11.733921,
            46.5171,
            2454.3
          ],
          [
            11.734042,
            46.517051,
            2457.5
          ],
          [
            11.734066,
            46.517034,
            2458.8
          ],
          [
            11.734098,
            46.51698,
            2461.5
          ],
          [
            11.734164,
            46.516957,
            2463.3
          ],
          [
            11.734294,
            46.516927,
            2466.5
          ],
          [
            11.734367,
            46.516936,
            2466.5
          ],
          [
            11.734757,
            46.516901,
            2472.5
          ],
          [
            11.734774,
            46.516879,
            2473.8
          ],
          [
            11.734919,
            46.516841,
            2476
          ],
          [
            11.734951,
            46.516773,
            2479.8
          ],
          [
            11.735,
            46.516723,
            2482.8
          ],
          [
            11.735057,
            46.516686,
            2485.5
          ],
          [
            11.735096,
            46.516635,
            2489
          ],
          [
            11.735138,
            46.51665,
            2488.5
          ],
          [
            11.735208,
            46.516636,
            2490
          ],
          [
            11.735198,
            46.516608,
            2491.8
          ],
          [
            11.735236,
            46.516598,
            2492.5
          ],
          [
            11.73538,
            46.516633,
            2493.8
          ],
          [
            11.735488,
            46.516626,
            2497.3
          ],
          [
            11.735617,
            46.516677,
            2499.5
          ],
          [
            11.735729,
            46.516697,
            2502.5
          ],
          [
            11.735861,
            46.516732,
            2505
          ],
          [
            11.735876,
            46.516655,
            2509.5
          ],
          [
            11.735903,
            46.516592,
            2512.8
          ],
          [
            11.735889,
            46.516537,
            2514.8
          ],
          [
            11.736023,
            46.516493,
            2522.3
          ],
          [
            11.736197,
            46.516508,
            2527.5
          ],
          [
            11.736223,
            46.516497,
            2529
          ],
          [
            11.736162,
            46.516445,
            2530.5
          ],
          [
            11.736301,
            46.51639,
            2537.5
          ],
          [
            11.736386,
            46.516397,
            2539.3
          ],
          [
            11.736384,
            46.516351,
            2542.3
          ],
          [
            11.736176,
            46.516148,
            2553
          ],
          [
            11.736195,
            46.516104,
            2557.5
          ],
          [
            11.736266,
            46.5161,
            2558.8
          ],
          [
            11.736369,
            46.516068,
            2562.5
          ],
          [
            11.736498,
            46.516078,
            2564.8
          ],
          [
            11.736527,
            46.516069,
            2566.5
          ],
          [
            11.736598,
            46.516072,
            2568.5
          ],
          [
            11.736676,
            46.51609,
            2569.5
          ],
          [
            11.736918,
            46.516113,
            2576
          ],
          [
            11.736952,
            46.516099,
            2578
          ],
          [
            11.7371,
            46.51612,
            2581.3
          ],
          [
            11.737186,
            46.516149,
            2582.3
          ],
          [
            11.737234,
            46.516152,
            2583.8
          ],
          [
            11.737265,
            46.516149,
            2585.3
          ],
          [
            11.737286,
            46.516104,
            2588.8
          ],
          [
            11.737359,
            46.516081,
            2592.8
          ],
          [
            11.73743,
            46.516098,
            2594.8
          ],
          [
            11.737453,
            46.516016,
            2599.8
          ],
          [
            11.737509,
            46.516007,
            2602.3
          ],
          [
            11.737485,
            46.515941,
            2604.3
          ],
          [
            11.73752,
            46.515936,
            2606
          ],
          [
            11.737614,
            46.516002,
            2607
          ],
          [
            11.737732,
            46.516002,
            2612
          ],
          [
            11.737792,
            46.515935,
            2618
          ],
          [
            11.737817,
            46.515872,
            2622.5
          ],
          [
            11.737811,
            46.515807,
            2625.3
          ],
          [
            11.737832,
            46.515728,
            2630.3
          ],
          [
            11.737871,
            46.515673,
            2634.8
          ],
          [
            11.738038,
            46.515685,
            2643.3
          ],
          [
            11.738143,
            46.515668,
            2648
          ],
          [
            11.738086,
            46.515606,
            2647.5
          ],
          [
            11.738033,
            46.515569,
            2646.5
          ],
          [
            11.738174,
            46.515519,
            2653
          ],
          [
            11.738324,
            46.515478,
            2658.5
          ],
          [
            11.738374,
            46.515448,
            2661
          ],
          [
            11.738448,
            46.515416,
            2663.5
          ],
          [
            11.738384,
            46.515272,
            2666.3
          ],
          [
            11.738517,
            46.5152,
            2668.8
          ],
          [
            11.738545,
            46.515121,
            2670.8
          ],
          [
            11.738645,
            46.515039,
            2672.3
          ],
          [
            11.738725,
            46.515029,
            2673
          ],
          [
            11.738844,
            46.515052,
            2673.8
          ],
          [
            11.738919,
            46.514986,
            2674.8
          ],
          [
            11.738933,
            46.514913,
            2677.8
          ],
          [
            11.73911,
            46.514802,
            2682
          ],
          [
            11.739253,
            46.514721,
            2683.3
          ],
          [
            11.739372,
            46.514606,
            2685.5
          ],
          [
            11.739527,
            46.514541,
            2682
          ],
          [
            11.739614,
            46.514505,
            2678.5
          ],
          [
            11.739691,
            46.514584,
            2681.8
          ],
          [
            11.739614,
            46.514505,
            2678.5
          ],
          [
            11.739527,
            46.514541,
            2682
          ],
          [
            11.739372,
            46.514606,
            2685.5
          ],
          [
            11.739299,
            46.5146,
            2687.5
          ],
          [
            11.73923,
            46.514575,
            2690.5
          ],
          [
            11.739201,
            46.514562,
            2692
          ],
          [
            11.739197,
            46.514534,
            2693.5
          ],
          [
            11.739158,
            46.514528,
            2695.3
          ],
          [
            11.739134,
            46.51446,
            2699.3
          ],
          [
            11.739082,
            46.514438,
            2700.8
          ],
          [
            11.73911,
            46.514427,
            2700.3
          ],
          [
            11.739074,
            46.514411,
            2701
          ],
          [
            11.739153,
            46.514384,
            2698.8
          ],
          [
            11.739206,
            46.51434,
            2695.3
          ],
          [
            11.739201,
            46.51432,
            2695
          ],
          [
            11.739233,
            46.514284,
            2692.3
          ],
          [
            11.73927,
            46.514225,
            2688.5
          ],
          [
            11.739276,
            46.514163,
            2686.5
          ],
          [
            11.739357,
            46.514169,
            2682
          ],
          [
            11.73935,
            46.51414,
            2681.5
          ],
          [
            11.739402,
            46.514087,
            2677
          ],
          [
            11.73948,
            46.513976,
            2669.3
          ],
          [
            11.739501,
            46.513911,
            2666
          ],
          [
            11.739497,
            46.513827,
            2661
          ],
          [
            11.739472,
            46.513747,
            2655.3
          ],
          [
            11.739524,
            46.513711,
            2652
          ],
          [
            11.739561,
            46.51373,
            2653
          ],
          [
            11.739651,
            46.513671,
            2651
          ],
          [
            11.739643,
            46.51363,
            2649.8
          ],
          [
            11.739596,
            46.513567,
            2643.3
          ],
          [
            11.739582,
            46.513532,
            2639.5
          ],
          [
            11.73977,
            46.5135,
            2637
          ],
          [
            11.739897,
            46.513537,
            2637.3
          ],
          [
            11.740071,
            46.513535,
            2627.8
          ],
          [
            11.740202,
            46.513459,
            2617.8
          ],
          [
            11.740246,
            46.513368,
            2619.3
          ],
          [
            11.740312,
            46.513371,
            2613.8
          ],
          [
            11.740385,
            46.513212,
            2587
          ],
          [
            11.740386,
            46.513129,
            2576
          ],
          [
            11.740406,
            46.513071,
            2567
          ],
          [
            11.740394,
            46.512991,
            2562.5
          ],
          [
            11.740365,
            46.512981,
            2563.5
          ],
          [
            11.740343,
            46.51296,
            2563.8
          ],
          [
            11.740338,
            46.512932,
            2562.5
          ],
          [
            11.740383,
            46.512922,
            2559.5
          ],
          [
            11.740429,
            46.512955,
            2558.5
          ],
          [
            11.740501,
            46.513032,
            2558.3
          ],
          [
            11.740901,
            46.513126,
            2548.3
          ],
          [
            11.741174,
            46.513199,
            2544.3
          ],
          [
            11.741424,
            46.513244,
            2539.5
          ],
          [
            11.741529,
            46.513308,
            2541.3
          ],
          [
            11.74171,
            46.513232,
            2532
          ],
          [
            11.741813,
            46.513228,
            2529.8
          ],
          [
            11.742099,
            46.513247,
            2524.5
          ],
          [
            11.742148,
            46.51324,
            2523
          ],
          [
            11.742004,
            46.513135,
            2519.5
          ],
          [
            11.7419,
            46.513025,
            2514.8
          ],
          [
            11.742242,
            46.513065,
            2508
          ],
          [
            11.742255,
            46.513049,
            2506.8
          ],
          [
            11.742119,
            46.512882,
            2500.8
          ],
          [
            11.742464,
            46.512935,
            2494.5
          ],
          [
            11.742504,
            46.512934,
            2493.3
          ],
          [
            11.74251,
            46.512906,
            2491.5
          ],
          [
            11.742373,
            46.512729,
            2485.3
          ],
          [
            11.742569,
            46.512762,
            2481.5
          ],
          [
            11.742398,
            46.512551,
            2474.3
          ],
          [
            11.742442,
            46.512543,
            2472.8
          ],
          [
            11.742772,
            46.512572,
            2465.5
          ],
          [
            11.742795,
            46.512552,
            2463.8
          ],
          [
            11.742729,
            46.512404,
            2457.5
          ],
          [
            11.74273,
            46.512385,
            2456.5
          ],
          [
            11.742925,
            46.512421,
            2453
          ],
          [
            11.743254,
            46.512414,
            2445.5
          ],
          [
            11.743436,
            46.512447,
            2443.5
          ],
          [
            11.743674,
            46.512474,
            2439
          ],
          [
            11.743862,
            46.512464,
            2435
          ],
          [
            11.744108,
            46.512488,
            2431.5
          ],
          [
            11.744178,
            46.512507,
            2430.8
          ],
          [
            11.744211,
            46.512501,
            2429.5
          ],
          [
            11.744255,
            46.512473,
            2426.5
          ],
          [
            11.744324,
            46.512494,
            2425.5
          ],
          [
            11.744361,
            46.512466,
            2422.8
          ],
          [
            11.74436,
            46.512424,
            2420.5
          ],
          [
            11.74441,
            46.512402,
            2418
          ],
          [
            11.744361,
            46.512363,
            2417.3
          ],
          [
            11.74433,
            46.512318,
            2415.5
          ],
          [
            11.744288,
            46.512316,
            2416.5
          ],
          [
            11.744209,
            46.512271,
            2415.8
          ],
          [
            11.744211,
            46.512234,
            2413.5
          ],
          [
            11.744414,
            46.512232,
            2409
          ],
          [
            11.744628,
            46.512195,
            2403.3
          ],
          [
            11.744813,
            46.512179,
            2398.5
          ],
          [
            11.744988,
            46.512209,
            2395.5
          ],
          [
            11.745032,
            46.512159,
            2391.3
          ],
          [
            11.745009,
            46.512117,
            2390.3
          ],
          [
            11.74496,
            46.512077,
            2389.3
          ],
          [
            11.745029,
            46.512062,
            2386.8
          ],
          [
            11.745049,
            46.512039,
            2385
          ],
          [
            11.745173,
            46.51205,
            2381.3
          ],
          [
            11.745224,
            46.512091,
            2380.5
          ],
          [
            11.745302,
            46.51212,
            2378
          ],
          [
            11.745305,
            46.512024,
            2376.3
          ],
          [
            11.745371,
            46.512055,
            2374.5
          ],
          [
            11.745393,
            46.512031,
            2373.3
          ],
          [
            11.745377,
            46.511964,
            2373.3
          ],
          [
            11.745391,
            46.511946,
            2372.8
          ],
          [
            11.745448,
            46.511939,
            2370.8
          ],
          [
            11.745468,
            46.511917,
            2369.3
          ],
          [
            11.745413,
            46.511898,
            2369.5
          ],
          [
            11.745424,
            46.511857,
            2367.3
          ],
          [
            11.745456,
            46.511823,
            2365
          ],
          [
            11.74539,
            46.511799,
            2365
          ],
          [
            11.745395,
            46.511781,
            2364
          ],
          [
            11.745443,
            46.511743,
            2361.5
          ],
          [
            11.745483,
            46.511721,
            2360.3
          ],
          [
            11.745337,
            46.511671,
            2358.3
          ],
          [
            11.745368,
            46.511642,
            2356.8
          ],
          [
            11.745368,
            46.511613,
            2355.5
          ],
          [
            11.745441,
            46.511593,
            2354.5
          ],
          [
            11.745466,
            46.511554,
            2352.5
          ],
          [
            11.74548,
            46.511491,
            2349.3
          ],
          [
            11.745475,
            46.511407,
            2345.3
          ],
          [
            11.74544,
            46.511374,
            2343.8
          ],
          [
            11.7454,
            46.511352,
            2343
          ],
          [
            11.745386,
            46.511302,
            2340.3
          ],
          [
            11.745356,
            46.511256,
            2338.3
          ],
          [
            11.74532,
            46.511231,
            2337.8
          ],
          [
            11.74549,
            46.51123,
            2334.3
          ],
          [
            11.745553,
            46.511212,
            2331.8
          ],
          [
            11.745644,
            46.511227,
            2331.8
          ],
          [
            11.745753,
            46.511228,
            2330.5
          ],
          [
            11.745857,
            46.511194,
            2327
          ],
          [
            11.745924,
            46.511188,
            2326
          ],
          [
            11.745997,
            46.511167,
            2324
          ],
          [
            11.7461,
            46.51117,
            2323.3
          ],
          [
            11.746224,
            46.511184,
            2323.3
          ],
          [
            11.74632,
            46.511167,
            2321.8
          ],
          [
            11.746386,
            46.511122,
            2318.5
          ],
          [
            11.746338,
            46.511092,
            2317.3
          ],
          [
            11.746248,
            46.511067,
            2316.5
          ],
          [
            11.746233,
            46.511041,
            2315.3
          ],
          [
            11.746377,
            46.510953,
            2310.5
          ],
          [
            11.746405,
            46.510912,
            2308.8
          ],
          [
            11.746468,
            46.510895,
            2308.3
          ],
          [
            11.746469,
            46.510856,
            2306.3
          ],
          [
            11.746492,
            46.510831,
            2305.3
          ],
          [
            11.746546,
            46.510831,
            2305.3
          ],
          [
            11.746546,
            46.510796,
            2303.8
          ],
          [
            11.74658,
            46.510791,
            2303.5
          ],
          [
            11.746588,
            46.510766,
            2302.5
          ],
          [
            11.746622,
            46.510761,
            2302.3
          ],
          [
            11.746646,
            46.510748,
            2301.8
          ],
          [
            11.746775,
            46.510663,
            2299
          ],
          [
            11.746888,
            46.510538,
            2293.5
          ],
          [
            11.747027,
            46.510467,
            2289.5
          ],
          [
            11.747118,
            46.510444,
            2288
          ],
          [
            11.747348,
            46.510419,
            2285
          ],
          [
            11.747276,
            46.510364,
            2282.5
          ],
          [
            11.747333,
            46.510361,
            2281.8
          ],
          [
            11.747404,
            46.510345,
            2280.3
          ],
          [
            11.747427,
            46.510328,
            2279
          ],
          [
            11.74747,
            46.510353,
            2280
          ],
          [
            11.747497,
            46.510314,
            2277.8
          ],
          [
            11.747584,
            46.510282,
            2276.3
          ],
          [
            11.747648,
            46.510214,
            2274.5
          ],
          [
            11.747753,
            46.510158,
            2274
          ],
          [
            11.747828,
            46.510142,
            2274
          ],
          [
            11.747943,
            46.510169,
            2274.8
          ],
          [
            11.747979,
            46.510185,
            2274.8
          ],
          [
            11.748036,
            46.510182,
            2274.8
          ],
          [
            11.748131,
            46.510193,
            2274
          ],
          [
            11.748192,
            46.510144,
            2272.5
          ],
          [
            11.74824,
            46.510152,
            2272
          ],
          [
            11.748308,
            46.510134,
            2270.8
          ],
          [
            11.748336,
            46.510084,
            2269.3
          ],
          [
            11.748434,
            46.510046,
            2266.5
          ],
          [
            11.748534,
            46.510023,
            2264
          ],
          [
            11.748644,
            46.510046,
            2262.5
          ],
          [
            11.748836,
            46.509982,
            2261.5
          ],
          [
            11.749028,
            46.509896,
            2258.8
          ],
          [
            11.749079,
            46.509846,
            2257.5
          ],
          [
            11.749225,
            46.509804,
            2256.3
          ],
          [
            11.749297,
            46.509768,
            2255.5
          ],
          [
            11.74935,
            46.509771,
            2255.5
          ],
          [
            11.749428,
            46.509717,
            2254.8
          ],
          [
            11.749506,
            46.509732,
            2254.3
          ],
          [
            11.749654,
            46.509694,
            2252.3
          ],
          [
            11.749926,
            46.509579,
            2248.3
          ],
          [
            11.750192,
            46.509438,
            2246.8
          ],
          [
            11.75032,
            46.509304,
            2242.5
          ],
          [
            11.750453,
            46.509259,
            2240.8
          ],
          [
            11.750628,
            46.509245,
            2239
          ],
          [
            11.750786,
            46.509259,
            2236.5
          ],
          [
            11.751157,
            46.509144,
            2235
          ],
          [
            11.751409,
            46.509091,
            2235.5
          ],
          [
            11.751512,
            46.509084,
            2235.3
          ],
          [
            11.751595,
            46.509106,
            2235
          ],
          [
            11.751667,
            46.509146,
            2234.8
          ],
          [
            11.751725,
            46.509149,
            2233.8
          ],
          [
            11.751837,
            46.509122,
            2232
          ],
          [
            11.751933,
            46.50912,
            2230.5
          ],
          [
            11.752154,
            46.509065,
            2225.5
          ],
          [
            11.752349,
            46.508911,
            2220.5
          ],
          [
            11.752417,
            46.508825,
            2218.8
          ],
          [
            11.752649,
            46.508778,
            2213.5
          ],
          [
            11.752799,
            46.508721,
            2210.5
          ],
          [
            11.753007,
            46.508734,
            2207.5
          ],
          [
            11.753366,
            46.508729,
            2204
          ],
          [
            11.753443,
            46.508738,
            2203
          ],
          [
            11.753748,
            46.508832,
            2199.5
          ],
          [
            11.753976,
            46.508861,
            2197.5
          ],
          [
            11.754092,
            46.508858,
            2196.3
          ],
          [
            11.754144,
            46.508871,
            2195.5
          ],
          [
            11.754224,
            46.508844,
            2195.3
          ],
          [
            11.754399,
            46.508736,
            2195.5
          ],
          [
            11.754537,
            46.508668,
            2196
          ],
          [
            11.754639,
            46.508652,
            2196
          ],
          [
            11.754729,
            46.508626,
            2196.5
          ],
          [
            11.754831,
            46.508569,
            2197.3
          ],
          [
            11.754968,
            46.508512,
            2198
          ],
          [
            11.755122,
            46.508435,
            2199
          ],
          [
            11.755234,
            46.50834,
            2200.5
          ],
          [
            11.755287,
            46.508314,
            2201.3
          ],
          [
            11.755335,
            46.508291,
            2201.5
          ],
          [
            11.755476,
            46.508183,
            2203.5
          ],
          [
            11.755596,
            46.508163,
            2203.8
          ],
          [
            11.755703,
            46.508112,
            2204.3
          ],
          [
            11.755906,
            46.507932,
            2206.5
          ],
          [
            11.756053,
            46.50772,
            2207.5
          ],
          [
            11.756257,
            46.507585,
            2206.8
          ],
          [
            11.756296,
            46.507539,
            2207.3
          ],
          [
            11.756716,
            46.50721,
            2208.8
          ],
          [
            11.757051,
            46.50691,
            2212.5
          ],
          [
            11.757046,
            46.506763,
            2214
          ],
          [
            11.756968,
            46.506613,
            2215.5
          ],
          [
            11.757073,
            46.5066,
            2214.8
          ],
          [
            11.757195,
            46.506605,
            2213.8
          ],
          [
            11.75747,
            46.506627,
            2216.3
          ],
          [
            11.757886,
            46.506675,
            2222.3
          ],
          [
            11.758124,
            46.506687,
            2227
          ],
          [
            11.7587,
            46.506694,
            2238
          ],
          [
            11.758826,
            46.506664,
            2242
          ],
          [
            11.759182,
            46.506546,
            2251
          ],
          [
            11.759348,
            46.506526,
            2254.3
          ],
          [
            11.759559,
            46.50653,
            2256.8
          ],
          [
            11.759708,
            46.506555,
            2257.5
          ],
          [
            11.759964,
            46.506636,
            2256.3
          ],
          [
            11.760139,
            46.506641,
            2255.3
          ],
          [
            11.760195,
            46.506651,
            2254.8
          ],
          [
            11.760496,
            46.506795,
            2253.8
          ],
          [
            11.760624,
            46.506822,
            2253.8
          ],
          [
            11.760834,
            46.50682,
            2254.5
          ],
          [
            11.760919,
            46.5068,
            2254.3
          ],
          [
            11.76106,
            46.506737,
            2255
          ],
          [
            11.761338,
            46.506695,
            2253.5
          ],
          [
            11.761424,
            46.506708,
            2252.5
          ],
          [
            11.761512,
            46.50671,
            2252.5
          ],
          [
            11.761581,
            46.506687,
            2252.8
          ],
          [
            11.761808,
            46.506668,
            2253.3
          ],
          [
            11.761912,
            46.506671,
            2253.8
          ],
          [
            11.761953,
            46.506667,
            2253.8
          ],
          [
            11.762144,
            46.506943,
            2256.5
          ],
          [
            11.762268,
            46.507028,
            2259.3
          ],
          [
            11.76237,
            46.507118,
            2262.3
          ],
          [
            11.762421,
            46.507223,
            2267.5
          ],
          [
            11.762404,
            46.507276,
            2267.8
          ],
          [
            11.76242,
            46.507298,
            2268.3
          ],
          [
            11.762476,
            46.507334,
            2270
          ],
          [
            11.762561,
            46.507349,
            2270
          ],
          [
            11.762722,
            46.507351,
            2268.3
          ],
          [
            11.763095,
            46.507442,
            2263
          ],
          [
            11.763918,
            46.50779,
            2249.8
          ],
          [
            11.764154,
            46.507845,
            2242
          ],
          [
            11.764465,
            46.507883,
            2232
          ],
          [
            11.764886,
            46.507888,
            2231
          ],
          [
            11.765069,
            46.507932,
            2230.3
          ],
          [
            11.765128,
            46.507966,
            2229.8
          ],
          [
            11.765256,
            46.508016,
            2230
          ],
          [
            11.7653,
            46.5081,
            2229.8
          ],
          [
            11.765314,
            46.508189,
            2229.5
          ],
          [
            11.76533,
            46.508233,
            2229.5
          ],
          [
            11.765548,
            46.508374,
            2230.5
          ],
          [
            11.76573,
            46.508478,
            2229.8
          ],
          [
            11.765851,
            46.508523,
            2231.8
          ],
          [
            11.766018,
            46.508556,
            2235
          ],
          [
            11.766109,
            46.50856,
            2236
          ],
          [
            11.766506,
            46.508537,
            2237.8
          ],
          [
            11.766633,
            46.50854,
            2239.5
          ],
          [
            11.767024,
            46.508329,
            2243.8
          ],
          [
            11.767144,
            46.508251,
            2243.8
          ],
          [
            11.767196,
            46.508213,
            2244
          ],
          [
            11.767327,
            46.508069,
            2243
          ],
          [
            11.767349,
            46.508047,
            2242.5
          ],
          [
            11.767447,
            46.508011,
            2244
          ],
          [
            11.768087,
            46.507953,
            2241.1
          ],
          [
            11.767949,
            46.50813,
            2242.1
          ],
          [
            11.768654,
            46.508094,
            2253.5
          ],
          [
            11.768998,
            46.508172,
            2259.6
          ],
          [
            11.76922,
            46.508283,
            2260.7
          ],
          [
            11.769396,
            46.508274,
            2264.6
          ],
          [
            11.770489,
            46.507937,
            2282.2
          ],
          [
            11.770647,
            46.507807,
            2281.3
          ],
          [
            11.770821,
            46.507737,
            2281.8
          ],
          [
            11.771174,
            46.507695,
            2285
          ],
          [
            11.771782,
            46.507548,
            2290.4
          ],
          [
            11.772156,
            46.507686,
            2291.4
          ],
          [
            11.772431,
            46.507736,
            2292.8
          ],
          [
            11.772601,
            46.50782,
            2290.5
          ],
          [
            11.772717,
            46.508055,
            2288.8
          ],
          [
            11.77296,
            46.508043,
            2289.1
          ],
          [
            11.773435,
            46.508106,
            2286.8
          ],
          [
            11.773872,
            46.508087,
            2285.5
          ],
          [
            11.774084,
            46.508153,
            2288
          ],
          [
            11.774922,
            46.508094,
            2295
          ],
          [
            11.775162,
            46.50812,
            2294.9
          ],
          [
            11.775362,
            46.508206,
            2295.8
          ],
          [
            11.775599,
            46.508244,
            2295.5
          ],
          [
            11.77587,
            46.508218,
            2289.8
          ],
          [
            11.77688,
            46.507828,
            2266.2
          ],
          [
            11.777628,
            46.507709,
            2253.5
          ],
          [
            11.777817,
            46.507778,
            2255.6
          ],
          [
            11.7782,
            46.507741,
            2246.3
          ],
          [
            11.778538,
            46.507794,
            2241.3
          ],
          [
            11.778942,
            46.507892,
            2235.5
          ],
          [
            11.779024,
            46.507944,
            2236
          ],
          [
            11.779226,
            46.507958,
            2229.2
          ],
          [
            11.779463,
            46.50803,
            2225.5
          ],
          [
            11.780295,
            46.508062,
            2202.9
          ],
          [
            11.780376,
            46.50802,
            2199.3
          ],
          [
            11.780408,
            46.507864,
            2193.5
          ],
          [
            11.780448,
            46.507869,
            2192.9
          ],
          [
            11.780514,
            46.50773,
            2188
          ],
          [
            11.780623,
            46.507642,
            2184.3
          ],
          [
            11.780842,
            46.50762,
            2180.2
          ],
          [
            11.781241,
            46.50769,
            2174.6
          ],
          [
            11.781386,
            46.507647,
            2171.1
          ],
          [
            11.781438,
            46.507575,
            2166.7
          ],
          [
            11.781741,
            46.50749,
            2156
          ],
          [
            11.781738,
            46.507448,
            2153.3
          ],
          [
            11.781949,
            46.50743,
            2148.5
          ],
          [
            11.782058,
            46.507081,
            2131
          ],
          [
            11.782236,
            46.506896,
            2122.6
          ],
          [
            11.782237,
            46.506797,
            2119.6
          ],
          [
            11.782362,
            46.506739,
            2116.1
          ],
          [
            11.782568,
            46.506534,
            2106.3
          ],
          [
            11.782613,
            46.506381,
            2100.3
          ],
          [
            11.78282,
            46.506286,
            2093.6
          ],
          [
            11.782929,
            46.506282,
            2091.8
          ],
          [
            11.782927,
            46.506217,
            2089.5
          ],
          [
            11.783649,
            46.506409,
            2086.1
          ],
          [
            11.784746,
            46.506612,
            2080.3
          ],
          [
            11.786133,
            46.506638,
            2072.2
          ],
          [
            11.786988,
            46.506787,
            2066
          ],
          [
            11.788424,
            46.506842,
            2058.5
          ],
          [
            11.788635,
            46.506789,
            2058
          ],
          [
            11.788817,
            46.506687,
            2055.2
          ],
          [
            11.789052,
            46.506723,
            2059
          ],
          [
            11.789231,
            46.506801,
            2058.5
          ],
          [
            11.789244,
            46.506863,
            2060.7
          ],
          [
            11.789411,
            46.506954,
            2058
          ],
          [
            11.789532,
            46.506982,
            2057.6
          ],
          [
            11.790314,
            46.506848,
            2052.6
          ],
          [
            11.791153,
            46.506863,
            2028.5
          ],
          [
            11.791499,
            46.506909,
            2017.3
          ],
          [
            11.791612,
            46.506789,
            2009
          ],
          [
            11.791741,
            46.506822,
            2005
          ],
          [
            11.791801,
            46.506768,
            1999.5
          ],
          [
            11.792351,
            46.506762,
            1980.5
          ],
          [
            11.792674,
            46.506693,
            1979.1
          ],
          [
            11.792675,
            46.506733,
            1983.9
          ],
          [
            11.792997,
            46.506728,
            1993.2
          ],
          [
            11.793281,
            46.506851,
            2005.9
          ],
          [
            11.793321,
            46.506931,
            2015.3
          ],
          [
            11.793538,
            46.50701,
            2019.3
          ],
          [
            11.794082,
            46.507119,
            2030.1
          ],
          [
            11.794575,
            46.507378,
            2037.7
          ],
          [
            11.794608,
            46.507445,
            2051.4
          ],
          [
            11.794995,
            46.507501,
            2059.2
          ],
          [
            11.795515,
            46.50772,
            2064.6
          ],
          [
            11.795776,
            46.507757,
            2069.7
          ],
          [
            11.79589,
            46.507831,
            2075.6
          ],
          [
            11.796307,
            46.507931,
            2082.1
          ],
          [
            11.796536,
            46.508027,
            2089
          ],
          [
            11.796602,
            46.507905,
            2087.6
          ],
          [
            11.796711,
            46.507961,
            2091.7
          ],
          [
            11.796756,
            46.508069,
            2094.6
          ],
          [
            11.796984,
            46.508113,
            2101.5
          ],
          [
            11.796902,
            46.508222,
            2104.2
          ],
          [
            11.797115,
            46.508238,
            2111.5
          ],
          [
            11.797093,
            46.508386,
            2115.5
          ],
          [
            11.797365,
            46.508356,
            2127.3
          ],
          [
            11.797396,
            46.50848,
            2130.9
          ],
          [
            11.797521,
            46.508435,
            2134.5
          ],
          [
            11.797725,
            46.508215,
            2142.6
          ],
          [
            11.797986,
            46.508144,
            2152.9
          ],
          [
            11.79811,
            46.508224,
            2161.6
          ],
          [
            11.798128,
            46.508319,
            2165.4
          ],
          [
            11.798302,
            46.508425,
            2179.5
          ],
          [
            11.798472,
            46.508301,
            2183.8
          ],
          [
            11.798593,
            46.508265,
            2186.7
          ],
          [
            11.798518,
            46.508412,
            2190.3
          ],
          [
            11.798593,
            46.508533,
            2196.6
          ],
          [
            11.798751,
            46.50854,
            2202
          ],
          [
            11.798876,
            46.508699,
            2207
          ],
          [
            11.799016,
            46.508719,
            2208.6
          ],
          [
            11.799214,
            46.508663,
            2209.1
          ],
          [
            11.799298,
            46.508682,
            2209.1
          ],
          [
            11.799949,
            46.508493,
            2219.1
          ],
          [
            11.800024,
            46.50865,
            2223.5
          ],
          [
            11.800206,
            46.508656,
            2229.8
          ],
          [
            11.800533,
            46.508548,
            2239.7
          ],
          [
            11.800483,
            46.5087,
            2240
          ],
          [
            11.800517,
            46.508742,
            2240.7
          ],
          [
            11.800825,
            46.508803,
            2248.3
          ],
          [
            11.800791,
            46.508711,
            2250.3
          ],
          [
            11.801036,
            46.508764,
            2257.4
          ],
          [
            11.801051,
            46.508719,
            2258.7
          ],
          [
            11.80138,
            46.509005,
            2269.5
          ],
          [
            11.801465,
            46.508789,
            2275.9
          ],
          [
            11.801727,
            46.508648,
            2282
          ],
          [
            11.801846,
            46.508639,
            2283
          ],
          [
            11.801942,
            46.508681,
            2284.4
          ],
          [
            11.802151,
            46.508852,
            2289.2
          ],
          [
            11.802227,
            46.508765,
            2291.3
          ],
          [
            11.802661,
            46.508758,
            2296.2
          ],
          [
            11.802758,
            46.508892,
            2299.2
          ],
          [
            11.802977,
            46.50895,
            2301.6
          ],
          [
            11.8031,
            46.509042,
            2303.6
          ],
          [
            11.803413,
            46.509148,
            2310.9
          ],
          [
            11.803503,
            46.509129,
            2312.3
          ],
          [
            11.803674,
            46.509223,
            2316.6
          ],
          [
            11.804959,
            46.509481,
            2326
          ],
          [
            11.805602,
            46.509702,
            2325.3
          ],
          [
            11.80586,
            46.509909,
            2327.9
          ],
          [
            11.806012,
            46.509936,
            2328.8
          ],
          [
            11.806238,
            46.510064,
            2330.3
          ],
          [
            11.806507,
            46.510404,
            2334.3
          ],
          [
            11.806701,
            46.510455,
            2335
          ],
          [
            11.806878,
            46.510448,
            2335.2
          ],
          [
            11.80714,
            46.510742,
            2340.6
          ],
          [
            11.80732,
            46.510821,
            2341.2
          ],
          [
            11.807471,
            46.511013,
            2344.3
          ],
          [
            11.80757,
            46.51118,
            2346.9
          ],
          [
            11.80803,
            46.51146,
            2360.8
          ],
          [
            11.80794,
            46.51164,
            2366.2
          ],
          [
            11.80812,
            46.51168,
            2370.6
          ],
          [
            11.80808,
            46.5118,
            2374
          ],
          [
            11.80844,
            46.51217,
            2391.9
          ],
          [
            11.80859,
            46.51226,
            2397.9
          ],
          [
            11.80884,
            46.51216,
            2402
          ],
          [
            11.80977,
            46.51222,
            2426.1
          ],
          [
            11.80983,
            46.51238,
            2433.9
          ],
          [
            11.80981,
            46.51259,
            2439
          ],
          [
            11.81028,
            46.51282,
            2455.6
          ],
          [
            11.81041,
            46.51304,
            2461.5
          ],
          [
            11.81068,
            46.51324,
            2465.4
          ],
          [
            11.8109,
            46.5139,
            2466.9
          ],
          [
            11.8109,
            46.51449,
            2467.1
          ],
          [
            11.81129,
            46.5148,
            2469
          ],
          [
            11.8114,
            46.51501,
            2470.3
          ],
          [
            11.81178,
            46.51521,
            2472.6
          ],
          [
            11.812,
            46.51541,
            2475.3
          ],
          [
            11.81185,
            46.51591,
            2489.2
          ],
          [
            11.81157,
            46.51613,
            2504.7
          ],
          [
            11.8117,
            46.51666,
            2536.5
          ],
          [
            11.81168,
            46.51682,
            2543.1
          ],
          [
            11.81153,
            46.51699,
            2551.9
          ],
          [
            11.81148,
            46.51727,
            2562.8
          ],
          [
            11.81185,
            46.51756,
            2561.8
          ],
          [
            11.81191,
            46.51777,
            2564.3
          ],
          [
            11.81187,
            46.518,
            2571.6
          ],
          [
            11.81165,
            46.51846,
            2595.2
          ],
          [
            11.81172,
            46.51891,
            2617.2
          ],
          [
            11.81146,
            46.51905,
            2641.2
          ],
          [
            11.81138,
            46.51944,
            2649.1
          ],
          [
            11.81123,
            46.5196,
            2655.7
          ],
          [
            11.81127,
            46.51992,
            2661.7
          ],
          [
            11.81161,
            46.51986,
            2661.7
          ],
          [
            11.81198,
            46.51992,
            2662.9
          ],
          [
            11.81283,
            46.51978,
            2682.4
          ],
          [
            11.81311,
            46.52007,
            2694.2
          ],
          [
            11.81376,
            46.52006,
            2712.7
          ],
          [
            11.81369,
            46.51976,
            2713.5
          ],
          [
            11.81406,
            46.51985,
            2723
          ],
          [
            11.81423,
            46.51973,
            2727
          ],
          [
            11.81472,
            46.51992,
            2740.9
          ],
          [
            11.81487,
            46.52004,
            2746.5
          ],
          [
            11.81515,
            46.51997,
            2761.8
          ],
          [
            11.8153,
            46.52009,
            2766.2
          ],
          [
            11.81573,
            46.51979,
            2783
          ],
          [
            11.81683,
            46.52032,
            2805.6
          ],
          [
            11.817,
            46.52054,
            2810.3
          ],
          [
            11.81738,
            46.52053,
            2812.6
          ],
          [
            11.81773,
            46.52065,
            2810.6
          ],
          [
            11.81831,
            46.52063,
            2808.4
          ],
          [
            11.81895,
            46.52066,
            2811.1
          ],
          [
            11.81966,
            46.52075,
            2827.4
          ],
          [
            11.82045,
            46.52107,
            2834.7
          ],
          [
            11.82097,
            46.52122,
            2834.8
          ],
          [
            11.82131,
            46.52144,
            2836.4
          ],
          [
            11.821333,
            46.521396,
            2836.5
          ],
          [
            11.821441,
            46.521425,
            2837
          ],
          [
            11.821525,
            46.521473,
            2836.8
          ],
          [
            11.821619,
            46.52147,
            2836.5
          ],
          [
            11.821753,
            46.521496,
            2836.3
          ],
          [
            11.821788,
            46.521493,
            2836
          ],
          [
            11.821785,
            46.521459,
            2836
          ],
          [
            11.821822,
            46.521402,
            2836
          ],
          [
            11.821985,
            46.521332,
            2835
          ],
          [
            11.822186,
            46.521274,
            2833.8
          ],
          [
            11.822404,
            46.521169,
            2832.3
          ],
          [
            11.822468,
            46.521149,
            2832.5
          ],
          [
            11.822647,
            46.521032,
            2833.8
          ],
          [
            11.822726,
            46.521035,
            2834.3
          ],
          [
            11.822803,
            46.521025,
            2833.8
          ],
          [
            11.822861,
            46.520999,
            2832.5
          ],
          [
            11.822904,
            46.52095,
            2832.5
          ],
          [
            11.822967,
            46.520928,
            2832
          ],
          [
            11.823001,
            46.520925,
            2831.5
          ],
          [
            11.823022,
            46.520902,
            2832
          ],
          [
            11.823022,
            46.520853,
            2834.3
          ],
          [
            11.823037,
            46.520782,
            2837.5
          ],
          [
            11.823033,
            46.520692,
            2841.8
          ],
          [
            11.82299,
            46.520649,
            2843.5
          ],
          [
            11.822948,
            46.520593,
            2845.3
          ],
          [
            11.822997,
            46.520588,
            2846.3
          ],
          [
            11.823019,
            46.520551,
            2848.3
          ],
          [
            11.822975,
            46.520515,
            2848.8
          ],
          [
            11.82298,
            46.520461,
            2850.5
          ],
          [
            11.823016,
            46.520459,
            2851.3
          ],
          [
            11.823081,
            46.5205,
            2851.3
          ],
          [
            11.823111,
            46.520421,
            2854.5
          ],
          [
            11.823091,
            46.52029,
            2858.3
          ],
          [
            11.823106,
            46.520172,
            2863.5
          ],
          [
            11.823137,
            46.520171,
            2864.3
          ],
          [
            11.823175,
            46.520198,
            2864
          ],
          [
            11.823229,
            46.520194,
            2865.3
          ],
          [
            11.823227,
            46.52016,
            2866.5
          ],
          [
            11.823276,
            46.52015,
            2867.8
          ],
          [
            11.823128,
            46.519985,
            2871.5
          ],
          [
            11.823152,
            46.519956,
            2873
          ],
          [
            11.82314,
            46.519885,
            2876
          ],
          [
            11.823103,
            46.519865,
            2876
          ],
          [
            11.82318,
            46.519822,
            2879.3
          ],
          [
            11.82317,
            46.519796,
            2880.3
          ],
          [
            11.823207,
            46.519772,
            2882
          ],
          [
            11.823212,
            46.519729,
            2884
          ],
          [
            11.823325,
            46.519734,
            2886.3
          ],
          [
            11.823343,
            46.519689,
            2888.8
          ],
          [
            11.823385,
            46.5197,
            2888.5
          ],
          [
            11.823361,
            46.51966,
            2890.3
          ],
          [
            11.823279,
            46.519614,
            2891
          ],
          [
            11.823194,
            46.519527,
            2892.8
          ],
          [
            11.823199,
            46.519506,
            2893.8
          ],
          [
            11.823326,
            46.51953,
            2896.3
          ],
          [
            11.823369,
            46.51956,
            2895.5
          ],
          [
            11.823401,
            46.519568,
            2895.5
          ],
          [
            11.823489,
            46.519575,
            2896.3
          ],
          [
            11.823489,
            46.519548,
            2897.8
          ],
          [
            11.823422,
            46.519505,
            2899.3
          ],
          [
            11.823596,
            46.519512,
            2901.5
          ],
          [
            11.82366,
            46.51951,
            2899.3
          ],
          [
            11.823674,
            46.519473,
            2901.3
          ],
          [
            11.823572,
            46.519421,
            2905
          ],
          [
            11.823548,
            46.519374,
            2904.5
          ],
          [
            11.823616,
            46.519237,
            2904.3
          ],
          [
            11.823566,
            46.519158,
            2903.3
          ],
          [
            11.823618,
            46.519092,
            2902.3
          ],
          [
            11.823635,
            46.518998,
            2900.3
          ],
          [
            11.823696,
            46.51891,
            2898.3
          ],
          [
            11.823743,
            46.518879,
            2897.5
          ],
          [
            11.823751,
            46.518835,
            2896.5
          ],
          [
            11.823808,
            46.51881,
            2895.8
          ],
          [
            11.823825,
            46.518776,
            2894.8
          ],
          [
            11.823902,
            46.518723,
            2893
          ],
          [
            11.823921,
            46.518684,
            2892
          ],
          [
            11.823894,
            46.518624,
            2890.3
          ],
          [
            11.823852,
            46.518567,
            2888.5
          ],
          [
            11.823721,
            46.51849,
            2886
          ],
          [
            11.823836,
            46.51845,
            2884.3
          ],
          [
            11.824002,
            46.518431,
            2882.8
          ],
          [
            11.824134,
            46.518399,
            2881
          ],
          [
            11.824191,
            46.518376,
            2879.5
          ],
          [
            11.82419,
            46.518358,
            2878.8
          ],
          [
            11.824226,
            46.518335,
            2877.8
          ],
          [
            11.824231,
            46.518307,
            2877
          ],
          [
            11.82414,
            46.51823,
            2875.5
          ],
          [
            11.824151,
            46.518197,
            2874.5
          ],
          [
            11.824211,
            46.518169,
            2873.8
          ],
          [
            11.824245,
            46.518123,
            2872.5
          ],
          [
            11.824282,
            46.518099,
            2872
          ],
          [
            11.824292,
            46.518063,
            2871
          ],
          [
            11.824254,
            46.518029,
            2870.3
          ],
          [
            11.824278,
            46.517959,
            2868.5
          ],
          [
            11.824229,
            46.517927,
            2867.8
          ],
          [
            11.824203,
            46.517893,
            2866.8
          ],
          [
            11.824201,
            46.517854,
            2865.8
          ],
          [
            11.824162,
            46.517812,
            2864.8
          ],
          [
            11.824168,
            46.51777,
            2863.8
          ],
          [
            11.824219,
            46.517725,
            2863.3
          ],
          [
            11.824248,
            46.51769,
            2862.8
          ],
          [
            11.82427,
            46.517638,
            2862.3
          ],
          [
            11.824364,
            46.51754,
            2860.8
          ],
          [
            11.824371,
            46.517455,
            2859.5
          ],
          [
            11.824309,
            46.517361,
            2858.3
          ],
          [
            11.824276,
            46.517229,
            2856.3
          ],
          [
            11.824218,
            46.517128,
            2855
          ],
          [
            11.824199,
            46.516997,
            2853.8
          ],
          [
            11.824205,
            46.516938,
            2853.3
          ],
          [
            11.824262,
            46.516837,
            2853.3
          ],
          [
            11.824288,
            46.516724,
            2853
          ],
          [
            11.824331,
            46.516634,
            2853
          ],
          [
            11.824303,
            46.516595,
            2853.5
          ],
          [
            11.824188,
            46.516504,
            2854
          ],
          [
            11.824025,
            46.516427,
            2855.3
          ],
          [
            11.823889,
            46.516418,
            2856.3
          ],
          [
            11.823629,
            46.516344,
            2860.3
          ],
          [
            11.823585,
            46.516313,
            2860.3
          ],
          [
            11.823525,
            46.516286,
            2858
          ],
          [
            11.823482,
            46.516251,
            2856.8
          ],
          [
            11.823467,
            46.516177,
            2858
          ],
          [
            11.823513,
            46.516033,
            2865.5
          ],
          [
            11.823588,
            46.515938,
            2869.8
          ],
          [
            11.823697,
            46.515834,
            2870.5
          ],
          [
            11.823731,
            46.51577,
            2870.3
          ],
          [
            11.823729,
            46.515735,
            2870.3
          ],
          [
            11.8237,
            46.515676,
            2870.3
          ],
          [
            11.823645,
            46.515598,
            2870.5
          ],
          [
            11.823608,
            46.515538,
            2870.8
          ],
          [
            11.82359,
            46.515483,
            2870.5
          ],
          [
            11.823537,
            46.515437,
            2871.3
          ],
          [
            11.823506,
            46.515367,
            2870.5
          ],
          [
            11.823322,
            46.515203,
            2870.5
          ],
          [
            11.823293,
            46.515156,
            2870.5
          ],
          [
            11.823131,
            46.515,
            2868.8
          ],
          [
            11.823107,
            46.514964,
            2868.8
          ],
          [
            11.823107,
            46.514918,
            2868.8
          ],
          [
            11.823178,
            46.514738,
            2869.3
          ],
          [
            11.823167,
            46.514696,
            2869
          ]
        ]
      }
    },
    {
      "type": "Feature",
      "properties": {
        "kind": "waypoint",
        "name": "Langkofelhütte",
        "show_label": true
      },
      "geometry": {
        "type": "Point",
        "coordinates": [
          11.723838,
          46.519898,
          2257.5
        ]
      }
    },
    {
      "type": "Feature",
      "properties": {
        "kind": "waypoint",
        "name": "Toni-Demetz-Hütte",
        "show_label": true
      },
      "geometry": {
        "type": "Point",
        "coordinates": [
          11.739691,
          46.514584,
          2681.8
        ]
      }
    },
    {
      "type": "Feature",
      "properties": {
        "kind": "waypoint",
        "name": "Passo Sella",
        "show_label": true
      },
      "geometry": {
        "type": "Point",
        "coordinates": [
          11.767327,
          46.508069,
          2243
        ]
      }
    },
    {
      "type": "Feature",
      "properties": {
        "kind": "waypoint",
        "name": "Val Lasties",
        "show_label": false
      },
      "geometry": {
        "type": "Point",
        "coordinates": [
          11.792674,
          46.506693,
          1979.1
        ]
      }
    },
    {
      "type": "Feature",
      "properties": {
        "kind": "waypoint",
        "name": "Forcella d'Antersass",
        "show_label": false
      },
      "geometry": {
        "type": "Point",
        "coordinates": [
          11.821619,
          46.52147,
          2836.5
        ]
      }
    },
    {
      "type": "Feature",
      "properties": {
        "kind": "waypoint",
        "name": "l'Antersass",
        "show_label": false
      },
      "geometry": {
        "type": "Point",
        "coordinates": [
          11.823674,
          46.519473,
          2901.3
        ]
      }
    },
    {
      "type": "Feature",
      "properties": {
        "kind": "waypoint",
        "name": "Rifugio Boè",
        "show_label": true
      },
      "geometry": {
        "type": "Point",
        "coordinates": [
          11.823167,
          46.514696,
          2869
        ]
      }
    }
  ]
}
