{
  "type": "FeatureCollection",
  "features": [
    {
      "type": "Feature",
      "properties": {
        "kind": "route",
        "name": "День 6 · Dal Bianco → Val Contrin → Alba di Canazei",
        "distance_km": 11.58,
        "ascent_m": 0,
        "descent_m": 1270,
        "source": "BRouter / OpenStreetMap"
      },
      "geometry": {
        "type": "LineString",
        "coordinates": [
          [
            11.845366,
            46.429115,
            2730
          ],
          [
            11.84532,
            46.429084,
            2727.6
          ],
          [
            11.845298,
            46.428918,
            2725.2
          ],
          [
            11.845259,
            46.428853,
            2722.9
          ],
          [
            11.845001,
            46.428649,
            2720.5
          ],
          [
            11.844922,
            46.428451,
            2718.1
          ],
          [
            11.845168,
            46.42833,
            2715.7
          ],
          [
            11.845175,
            46.428252,
            2713.3
          ],
          [
            11.8451,
            46.428153,
            2711
          ],
          [
            11.845198,
            46.428132,
            2708.6
          ],
          [
            11.845183,
            46.427985,
            2706.2
          ],
          [
            11.845524,
            46.427875,
            2703.8
          ],
          [
            11.845514,
            46.427751,
            2701.4
          ],
          [
            11.845404,
            46.427704,
            2699.1
          ],
          [
            11.845136,
            46.427484,
            2696.7
          ],
          [
            11.844804,
            46.427176,
            2694.3
          ],
          [
            11.843779,
            46.426684,
            2691.9
          ],
          [
            11.843643,
            46.426536,
            2689.5
          ],
          [
            11.843605,
            46.426513,
            2687.2
          ],
          [
            11.843535,
            46.426486,
            2684.8
          ],
          [
            11.843393,
            46.426541,
            2682.4
          ],
          [
            11.843321,
            46.426544,
            2680
          ],
          [
            11.84325,
            46.426425,
            2677.6
          ],
          [
            11.843258,
            46.426323,
            2675.3
          ],
          [
            11.843282,
            46.42632,
            2672.9
          ],
          [
            11.843283,
            46.426261,
            2670.5
          ],
          [
            11.843219,
            46.426168,
            2668.1
          ],
          [
            11.843144,
            46.426162,
            2665.7
          ],
          [
            11.843124,
            46.426106,
            2663.4
          ],
          [
            11.843039,
            46.426017,
            2661
          ],
          [
            11.842912,
            46.426061,
            2658.6
          ],
          [
            11.842858,
            46.426054,
            2656.2
          ],
          [
            11.842826,
            46.425966,
            2653.8
          ],
          [
            11.842798,
            46.425947,
            2651.5
          ],
          [
            11.842764,
            46.425885,
            2649.1
          ],
          [
            11.842665,
            46.425869,
            2646.7
          ],
          [
            11.842599,
            46.425867,
            2644.3
          ],
          [
            11.842575,
            46.425837,
            2641.9
          ],
          [
            11.842783,
            46.42549,
            2639.6
          ],
          [
            11.842725,
            46.425442,
            2637.2
          ],
          [
            11.842851,
            46.425344,
            2634.8
          ],
          [
            11.842959,
            46.42529,
            2632.4
          ],
          [
            11.843529,
            46.42523,
            2630
          ],
          [
            11.844116,
            46.425108,
            2627.7
          ],
          [
            11.844459,
            46.425085,
            2625.3
          ],
          [
            11.844919,
            46.425137,
            2622.9
          ],
          [
            11.844805,
            46.424923,
            2620.5
          ],
          [
            11.844629,
            46.424704,
            2618.1
          ],
          [
            11.844397,
            46.424615,
            2615.8
          ],
          [
            11.843863,
            46.424544,
            2613.4
          ],
          [
            11.843257,
            46.424466,
            2611
          ],
          [
            11.842986,
            46.424371,
            2608.6
          ],
          [
            11.842395,
            46.424301,
            2606.2
          ],
          [
            11.842339,
            46.424271,
            2603.9
          ],
          [
            11.842248,
            46.424275,
            2601.5
          ],
          [
            11.842181,
            46.424295,
            2599.1
          ],
          [
            11.842025,
            46.424284,
            2596.7
          ],
          [
            11.841891,
            46.424247,
            2594.3
          ],
          [
            11.84177,
            46.424181,
            2592
          ],
          [
            11.841693,
            46.424168,
            2589.6
          ],
          [
            11.841453,
            46.424061,
            2587.2
          ],
          [
            11.841423,
            46.424011,
            2584.8
          ],
          [
            11.841381,
            46.423905,
            2582.4
          ],
          [
            11.841238,
            46.423854,
            2580.1
          ],
          [
            11.840982,
            46.423659,
            2577.7
          ],
          [
            11.840919,
            46.423509,
            2575.3
          ],
          [
            11.84074,
            46.423417,
            2572.9
          ],
          [
            11.840484,
            46.423423,
            2570.5
          ],
          [
            11.840242,
            46.423369,
            2568.2
          ],
          [
            11.83983,
            46.423422,
            2565.8
          ],
          [
            11.839557,
            46.423375,
            2563.4
          ],
          [
            11.839224,
            46.423259,
            2561
          ],
          [
            11.839029,
            46.423241,
            2558.6
          ],
          [
            11.838962,
            46.423265,
            2556.3
          ],
          [
            11.838823,
            46.423249,
            2553.9
          ],
          [
            11.838632,
            46.423175,
            2551.5
          ],
          [
            11.838533,
            46.423125,
            2549.1
          ],
          [
            11.838418,
            46.423112,
            2546.7
          ],
          [
            11.838179,
            46.423191,
            2544.4
          ],
          [
            11.837869,
            46.423214,
            2542
          ],
          [
            11.837507,
            46.423163,
            2539.6
          ],
          [
            11.837303,
            46.423181,
            2537.2
          ],
          [
            11.836848,
            46.422976,
            2534.8
          ],
          [
            11.836419,
            46.422814,
            2532.5
          ],
          [
            11.836253,
            46.42267,
            2530.1
          ],
          [
            11.836176,
            46.422575,
            2527.7
          ],
          [
            11.835966,
            46.42249,
            2525.3
          ],
          [
            11.835864,
            46.422489,
            2522.9
          ],
          [
            11.83583,
            46.422431,
            2520.6
          ],
          [
            11.835719,
            46.422461,
            2518.2
          ],
          [
            11.835606,
            46.422327,
            2515.8
          ],
          [
            11.835548,
            46.422222,
            2513.4
          ],
          [
            11.835627,
            46.421996,
            2511
          ],
          [
            11.835492,
            46.421876,
            2508.7
          ],
          [
            11.835305,
            46.421731,
            2506.3
          ],
          [
            11.83518,
            46.421475,
            2503.9
          ],
          [
            11.835149,
            46.421357,
            2501.5
          ],
          [
            11.834902,
            46.421131,
            2499.1
          ],
          [
            11.834534,
            46.42091,
            2496.8
          ],
          [
            11.834516,
            46.42081,
            2494.4
          ],
          [
            11.834269,
            46.42044,
            2492
          ],
          [
            11.834107,
            46.42035,
            2489.6
          ],
          [
            11.833869,
            46.420133,
            2487.2
          ],
          [
            11.833762,
            46.420103,
            2484.9
          ],
          [
            11.833692,
            46.420073,
            2482.5
          ],
          [
            11.833562,
            46.419914,
            2480.1
          ],
          [
            11.833573,
            46.419795,
            2477.7
          ],
          [
            11.833462,
            46.419665,
            2475.3
          ],
          [
            11.833209,
            46.419556,
            2473
          ],
          [
            11.833179,
            46.419493,
            2470.6
          ],
          [
            11.833171,
            46.419408,
            2468.2
          ],
          [
            11.833122,
            46.419283,
            2465.8
          ],
          [
            11.833129,
            46.419214,
            2463.4
          ],
          [
            11.833112,
            46.419178,
            2461.1
          ],
          [
            11.833089,
            46.419155,
            2458.7
          ],
          [
            11.833026,
            46.419111,
            2456.3
          ],
          [
            11.832896,
            46.419136,
            2453.9
          ],
          [
            11.832883,
            46.419184,
            2451.5
          ],
          [
            11.832682,
            46.419177,
            2449.2
          ],
          [
            11.832426,
            46.419134,
            2446.8
          ],
          [
            11.832329,
            46.419126,
            2444.4
          ],
          [
            11.832239,
            46.419081,
            2442
          ],
          [
            11.832226,
            46.419011,
            2439.6
          ],
          [
            11.832266,
            46.41897,
            2437.3
          ],
          [
            11.832265,
            46.418917,
            2434.9
          ],
          [
            11.832336,
            46.41886,
            2432.5
          ],
          [
            11.832371,
            46.418817,
            2430.1
          ],
          [
            11.832384,
            46.418779,
            2427.7
          ],
          [
            11.832503,
            46.418691,
            2425.4
          ],
          [
            11.832738,
            46.418601,
            2423
          ],
          [
            11.832803,
            46.418557,
            2420.6
          ],
          [
            11.832949,
            46.418426,
            2418.2
          ],
          [
            11.832978,
            46.418433,
            2415.8
          ],
          [
            11.833001,
            46.418395,
            2413.5
          ],
          [
            11.833037,
            46.418379,
            2411.1
          ],
          [
            11.833025,
            46.418318,
            2408.7
          ],
          [
            11.833061,
            46.418285,
            2406.3
          ],
          [
            11.833047,
            46.418188,
            2403.9
          ],
          [
            11.833076,
            46.41815,
            2401.6
          ],
          [
            11.833024,
            46.41794,
            2399.2
          ],
          [
            11.832965,
            46.417923,
            2396.8
          ],
          [
            11.832896,
            46.417851,
            2394.4
          ],
          [
            11.832874,
            46.417799,
            2392
          ],
          [
            11.832726,
            46.417735,
            2389.7
          ],
          [
            11.832463,
            46.417549,
            2387.3
          ],
          [
            11.832448,
            46.417455,
            2384.9
          ],
          [
            11.832355,
            46.417423,
            2382.5
          ],
          [
            11.832308,
            46.417378,
            2380.1
          ],
          [
            11.832313,
            46.416962,
            2377.8
          ],
          [
            11.832222,
            46.416876,
            2375.4
          ],
          [
            11.832105,
            46.416877,
            2373
          ],
          [
            11.83188,
            46.416846,
            2370.6
          ],
          [
            11.831716,
            46.416867,
            2368.2
          ],
          [
            11.831495,
            46.416831,
            2365.9
          ],
          [
            11.831456,
            46.416807,
            2363.5
          ],
          [
            11.83142,
            46.416732,
            2361.1
          ],
          [
            11.831318,
            46.416629,
            2358.7
          ],
          [
            11.831181,
            46.416246,
            2356.3
          ],
          [
            11.830919,
            46.416078,
            2354
          ],
          [
            11.830219,
            46.415998,
            2351.6
          ],
          [
            11.829577,
            46.415991,
            2349.2
          ],
          [
            11.829476,
            46.416027,
            2346.8
          ],
          [
            11.829538,
            46.416115,
            2344.4
          ],
          [
            11.829292,
            46.416442,
            2342.1
          ],
          [
            11.82935,
            46.416468,
            2339.7
          ],
          [
            11.829411,
            46.416564,
            2337.3
          ],
          [
            11.829469,
            46.416604,
            2334.9
          ],
          [
            11.829593,
            46.416609,
            2332.5
          ],
          [
            11.829662,
            46.416627,
            2330.2
          ],
          [
            11.829705,
            46.416694,
            2327.8
          ],
          [
            11.829806,
            46.416748,
            2325.4
          ],
          [
            11.829983,
            46.417136,
            2323
          ],
          [
            11.830001,
            46.417245,
            2320.6
          ],
          [
            11.830168,
            46.417495,
            2318.3
          ],
          [
            11.830489,
            46.417718,
            2315.9
          ],
          [
            11.830621,
            46.418012,
            2313.5
          ],
          [
            11.830638,
            46.418109,
            2311.1
          ],
          [
            11.830515,
            46.418454,
            2308.7
          ],
          [
            11.830138,
            46.418623,
            2306.4
          ],
          [
            11.829971,
            46.418623,
            2304
          ],
          [
            11.829816,
            46.418582,
            2301.6
          ],
          [
            11.829376,
            46.418588,
            2299.2
          ],
          [
            11.82904,
            46.418921,
            2296.8
          ],
          [
            11.829108,
            46.419146,
            2294.5
          ],
          [
            11.829031,
            46.419369,
            2292.1
          ],
          [
            11.828338,
            46.419865,
            2289.7
          ],
          [
            11.828133,
            46.420025,
            2287.3
          ],
          [
            11.827879,
            46.420089,
            2284.9
          ],
          [
            11.827642,
            46.42018,
            2282.6
          ],
          [
            11.827177,
            46.420602,
            2280.2
          ],
          [
            11.827112,
            46.420661,
            2277.8
          ],
          [
            11.827127,
            46.420818,
            2275.4
          ],
          [
            11.826963,
            46.420916,
            2273
          ],
          [
            11.826961,
            46.420969,
            2270.7
          ],
          [
            11.826821,
            46.420973,
            2268.3
          ],
          [
            11.826816,
            46.42132,
            2265.9
          ],
          [
            11.826668,
            46.421485,
            2263.5
          ],
          [
            11.826537,
            46.421894,
            2261.1
          ],
          [
            11.826532,
            46.422091,
            2258.8
          ],
          [
            11.826352,
            46.422367,
            2256.4
          ],
          [
            11.826255,
            46.422343,
            2254
          ],
          [
            11.82622,
            46.422395,
            2251.6
          ],
          [
            11.826111,
            46.422348,
            2249.2
          ],
          [
            11.826001,
            46.422518,
            2246.9
          ],
          [
            11.825883,
            46.422548,
            2244.5
          ],
          [
            11.825507,
            46.42269,
            2242.1
          ],
          [
            11.825332,
            46.422887,
            2239.7
          ],
          [
            11.825091,
            46.422964,
            2237.3
          ],
          [
            11.825146,
            46.423046,
            2235
          ],
          [
            11.824787,
            46.423482,
            2232.6
          ],
          [
            11.824535,
            46.423728,
            2230.2
          ],
          [
            11.824301,
            46.42385,
            2227.8
          ],
          [
            11.824095,
            46.423914,
            2225.4
          ],
          [
            11.824009,
            46.424005,
            2223.1
          ],
          [
            11.823754,
            46.424051,
            2220.7
          ],
          [
            11.823418,
            46.424163,
            2218.3
          ],
          [
            11.822904,
            46.424156,
            2215.9
          ],
          [
            11.822858,
            46.42426,
            2213.5
          ],
          [
            11.82277,
            46.424295,
            2211.2
          ],
          [
            11.822665,
            46.424269,
            2208.8
          ],
          [
            11.822303,
            46.424489,
            2206.4
          ],
          [
            11.8223,
            46.424558,
            2204
          ],
          [
            11.822214,
            46.42458,
            2201.6
          ],
          [
            11.822177,
            46.424661,
            2199.3
          ],
          [
            11.821946,
            46.42471,
            2196.9
          ],
          [
            11.8219,
            46.424921,
            2194.5
          ],
          [
            11.821938,
            46.425035,
            2192.1
          ],
          [
            11.821885,
            46.425159,
            2189.7
          ],
          [
            11.822032,
            46.425207,
            2187.4
          ],
          [
            11.822021,
            46.425321,
            2185
          ],
          [
            11.821799,
            46.425425,
            2182.6
          ],
          [
            11.821559,
            46.425687,
            2180.2
          ],
          [
            11.821393,
            46.42573,
            2177.8
          ],
          [
            11.821414,
            46.42578,
            2175.5
          ],
          [
            11.821284,
            46.425858,
            2173.1
          ],
          [
            11.821125,
            46.426011,
            2170.7
          ],
          [
            11.820804,
            46.426151,
            2168.3
          ],
          [
            11.820667,
            46.426113,
            2165.9
          ],
          [
            11.820605,
            46.426048,
            2163.6
          ],
          [
            11.820484,
            46.426105,
            2161.2
          ],
          [
            11.820415,
            46.426114,
            2158.8
          ],
          [
            11.820307,
            46.426231,
            2156.4
          ],
          [
            11.820136,
            46.426253,
            2154
          ],
          [
            11.819986,
            46.426249,
            2151.7
          ],
          [
            11.819795,
            46.42615,
            2149.3
          ],
          [
            11.819758,
            46.42621,
            2146.9
          ],
          [
            11.819803,
            46.426283,
            2144.5
          ],
          [
            11.819755,
            46.426388,
            2142.1
          ],
          [
            11.819833,
            46.426457,
            2139.8
          ],
          [
            11.819841,
            46.426573,
            2137.4
          ],
          [
            11.820039,
            46.426636,
            2135
          ],
          [
            11.820308,
            46.426833,
            2132.6
          ],
          [
            11.820412,
            46.427118,
            2130.2
          ],
          [
            11.820535,
            46.427255,
            2127.9
          ],
          [
            11.820686,
            46.427368,
            2125.5
          ],
          [
            11.820777,
            46.427453,
            2123.1
          ],
          [
            11.820785,
            46.42757,
            2120.7
          ],
          [
            11.820908,
            46.4277,
            2118.3
          ],
          [
            11.821053,
            46.427723,
            2116
          ],
          [
            11.82112,
            46.427793,
            2113.6
          ],
          [
            11.82119,
            46.427834,
            2111.2
          ],
          [
            11.821321,
            46.427773,
            2108.8
          ],
          [
            11.821403,
            46.427812,
            2106.4
          ],
          [
            11.82137,
            46.427937,
            2104.1
          ],
          [
            11.821284,
            46.428071,
            2101.7
          ],
          [
            11.821252,
            46.428205,
            2099.3
          ],
          [
            11.821288,
            46.428327,
            2096.9
          ],
          [
            11.821171,
            46.428425,
            2094.5
          ],
          [
            11.821142,
            46.428625,
            2092.2
          ],
          [
            11.821112,
            46.428715,
            2089.8
          ],
          [
            11.820943,
            46.428775,
            2087.4
          ],
          [
            11.820786,
            46.428879,
            2085
          ],
          [
            11.820686,
            46.429005,
            2082.6
          ],
          [
            11.820483,
            46.429079,
            2080.3
          ],
          [
            11.820367,
            46.429129,
            2077.9
          ],
          [
            11.820212,
            46.429168,
            2075.5
          ],
          [
            11.819777,
            46.429193,
            2073.1
          ],
          [
            11.819656,
            46.42927,
            2070.7
          ],
          [
            11.819452,
            46.429294,
            2068.4
          ],
          [
            11.819277,
            46.429271,
            2066
          ],
          [
            11.818762,
            46.429257,
            2063.6
          ],
          [
            11.818563,
            46.429327,
            2061.2
          ],
          [
            11.818466,
            46.429473,
            2058.8
          ],
          [
            11.818499,
            46.429578,
            2056.5
          ],
          [
            11.818577,
            46.429643,
            2054.1
          ],
          [
            11.818591,
            46.42969,
            2051.7
          ],
          [
            11.818585,
            46.429714,
            2049.3
          ],
          [
            11.818578,
            46.429745,
            2046.9
          ],
          [
            11.818391,
            46.429874,
            2044.6
          ],
          [
            11.818236,
            46.430032,
            2042.2
          ],
          [
            11.818051,
            46.430111,
            2039.8
          ],
          [
            11.817815,
            46.430172,
            2037.4
          ],
          [
            11.817493,
            46.430193,
            2035
          ],
          [
            11.817199,
            46.430156,
            2032.7
          ],
          [
            11.816957,
            46.430103,
            2030.3
          ],
          [
            11.816652,
            46.429953,
            2027.9
          ],
          [
            11.816231,
            46.429743,
            2025.5
          ],
          [
            11.816189,
            46.429656,
            2023.1
          ],
          [
            11.815886,
            46.429616,
            2020.8
          ],
          [
            11.815838,
            46.429615,
            2018.4
          ],
          [
            11.815758,
            46.429705,
            2016
          ],
          [
            11.815645,
            46.429835,
            2014.6
          ],
          [
            11.815509,
            46.429837,
            2013.2
          ],
          [
            11.815444,
            46.429821,
            2011.8
          ],
          [
            11.815391,
            46.429798,
            2010.4
          ],
          [
            11.81538,
            46.42977,
            2009
          ],
          [
            11.81543,
            46.429699,
            2007.6
          ],
          [
            11.815435,
            46.429664,
            2006.2
          ],
          [
            11.815418,
            46.429635,
            2004.8
          ],
          [
            11.815396,
            46.429617,
            2003.4
          ],
          [
            11.815208,
            46.429666,
            2002
          ],
          [
            11.815005,
            46.429694,
            2000.6
          ],
          [
            11.81488,
            46.429723,
            1999.2
          ],
          [
            11.814842,
            46.429764,
            1997.8
          ],
          [
            11.814841,
            46.429839,
            1996.4
          ],
          [
            11.814887,
            46.430102,
            1995
          ],
          [
            11.814946,
            46.430284,
            1993.6
          ],
          [
            11.814928,
            46.430318,
            1992.2
          ],
          [
            11.814905,
            46.430336,
            1990.8
          ],
          [
            11.81474,
            46.430341,
            1989.4
          ],
          [
            11.814701,
            46.43038,
            1988
          ],
          [
            11.814622,
            46.430411,
            1986.6
          ],
          [
            11.814518,
            46.430413,
            1985.2
          ],
          [
            11.814416,
            46.430423,
            1983.8
          ],
          [
            11.814331,
            46.43044,
            1982.4
          ],
          [
            11.814298,
            46.430478,
            1981
          ],
          [
            11.814309,
            46.430512,
            1979.6
          ],
          [
            11.814424,
            46.430647,
            1978.2
          ],
          [
            11.8145,
            46.430789,
            1976.8
          ],
          [
            11.814471,
            46.430823,
            1975.4
          ],
          [
            11.814465,
            46.430881,
            1974
          ],
          [
            11.814413,
            46.430924,
            1972.6
          ],
          [
            11.814348,
            46.430958,
            1971.2
          ],
          [
            11.814172,
            46.431022,
            1969.8
          ],
          [
            11.814097,
            46.431039,
            1968.4
          ],
          [
            11.814001,
            46.431042,
            1967
          ],
          [
            11.813905,
            46.431052,
            1965.6
          ],
          [
            11.813885,
            46.431035,
            1964.2
          ],
          [
            11.813824,
            46.431028,
            1962.8
          ],
          [
            11.813759,
            46.431034,
            1961.4
          ],
          [
            11.813636,
            46.431078,
            1960
          ],
          [
            11.813,
            46.431362,
            1958.6
          ],
          [
            11.812918,
            46.431419,
            1957.2
          ],
          [
            11.8129,
            46.431487,
            1955.8
          ],
          [
            11.812903,
            46.431567,
            1954.4
          ],
          [
            11.812879,
            46.431721,
            1953
          ],
          [
            11.812829,
            46.431984,
            1951.6
          ],
          [
            11.812796,
            46.43207,
            1950.2
          ],
          [
            11.812729,
            46.432147,
            1948.8
          ],
          [
            11.812634,
            46.432228,
            1947.4
          ],
          [
            11.812437,
            46.43233,
            1946
          ],
          [
            11.812304,
            46.432391,
            1944.6
          ],
          [
            11.812245,
            46.432428,
            1943.2
          ],
          [
            11.812185,
            46.43248,
            1941.8
          ],
          [
            11.812152,
            46.432527,
            1940.4
          ],
          [
            11.812138,
            46.43258,
            1939
          ],
          [
            11.812137,
            46.432818,
            1937.6
          ],
          [
            11.81212,
            46.432856,
            1936.2
          ],
          [
            11.812078,
            46.432897,
            1934.8
          ],
          [
            11.811857,
            46.432999,
            1933.4
          ],
          [
            11.811699,
            46.433136,
            1932
          ],
          [
            11.811261,
            46.433297,
            1930.6
          ],
          [
            11.811087,
            46.433312,
            1929.2
          ],
          [
            11.810953,
            46.433299,
            1927.8
          ],
          [
            11.810875,
            46.433308,
            1926.4
          ],
          [
            11.810695,
            46.433381,
            1925
          ],
          [
            11.810438,
            46.433387,
            1923.6
          ],
          [
            11.810349,
            46.43342,
            1922.2
          ],
          [
            11.810264,
            46.433476,
            1920.8
          ],
          [
            11.810114,
            46.433529,
            1919.4
          ],
          [
            11.809926,
            46.433607,
            1918
          ],
          [
            11.809814,
            46.433682,
            1916.6
          ],
          [
            11.809732,
            46.433705,
            1915.2
          ],
          [
            11.809651,
            46.433715,
            1913.8
          ],
          [
            11.809554,
            46.433716,
            1912.4
          ],
          [
            11.8095,
            46.433693,
            1911
          ],
          [
            11.809416,
            46.433614,
            1909.6
          ],
          [
            11.809378,
            46.433597,
            1908.2
          ],
          [
            11.80933,
            46.433594,
            1906.8
          ],
          [
            11.809252,
            46.433615,
            1905.4
          ],
          [
            11.809176,
            46.433683,
            1904
          ],
          [
            11.80912,
            46.433716,
            1902.6
          ],
          [
            11.808951,
            46.433772,
            1901.2
          ],
          [
            11.808782,
            46.433815,
            1899.8
          ],
          [
            11.808696,
            46.433825,
            1898.4
          ],
          [
            11.808604,
            46.433823,
            1897
          ],
          [
            11.808496,
            46.433831,
            1895.6
          ],
          [
            11.808328,
            46.433868,
            1894.2
          ],
          [
            11.807993,
            46.433998,
            1892.8
          ],
          [
            11.807606,
            46.434105,
            1891.4
          ],
          [
            11.807508,
            46.434141,
            1890
          ],
          [
            11.807431,
            46.434183,
            1888.6
          ],
          [
            11.807166,
            46.434348,
            1887.2
          ],
          [
            11.806973,
            46.434477,
            1885.8
          ],
          [
            11.806911,
            46.434508,
            1884.4
          ],
          [
            11.80656,
            46.434593,
            1883
          ],
          [
            11.806464,
            46.434631,
            1881.6
          ],
          [
            11.80603,
            46.434801,
            1880.2
          ],
          [
            11.806036,
            46.434808,
            1878.8
          ],
          [
            11.805663,
            46.434988,
            1877.4
          ],
          [
            11.805482,
            46.4351,
            1875.9
          ],
          [
            11.805294,
            46.435226,
            1874.5
          ],
          [
            11.805176,
            46.435319,
            1873.1
          ],
          [
            11.805088,
            46.435411,
            1871.7
          ],
          [
            11.804914,
            46.435549,
            1870.3
          ],
          [
            11.804834,
            46.435592,
            1868.9
          ],
          [
            11.804502,
            46.435727,
            1867.5
          ],
          [
            11.804393,
            46.435762,
            1866.1
          ],
          [
            11.80431,
            46.435796,
            1864.7
          ],
          [
            11.804238,
            46.435843,
            1863.3
          ],
          [
            11.804163,
            46.435912,
            1861.9
          ],
          [
            11.804087,
            46.435965,
            1860.5
          ],
          [
            11.803994,
            46.436009,
            1859.1
          ],
          [
            11.803821,
            46.436117,
            1857.7
          ],
          [
            11.803589,
            46.43629,
            1856.3
          ],
          [
            11.803259,
            46.436502,
            1854.9
          ],
          [
            11.802892,
            46.436687,
            1853.5
          ],
          [
            11.80275,
            46.436746,
            1852.1
          ],
          [
            11.80264,
            46.436819,
            1850.7
          ],
          [
            11.802466,
            46.436988,
            1849.3
          ],
          [
            11.802411,
            46.437002,
            1847.9
          ],
          [
            11.802365,
            46.436991,
            1846.5
          ],
          [
            11.80219,
            46.436931,
            1845.1
          ],
          [
            11.802009,
            46.436855,
            1843.7
          ],
          [
            11.801904,
            46.436806,
            1842.3
          ],
          [
            11.801844,
            46.436786,
            1840.9
          ],
          [
            11.801774,
            46.436784,
            1839.5
          ],
          [
            11.801667,
            46.436803,
            1838.1
          ],
          [
            11.801594,
            46.436822,
            1836.7
          ],
          [
            11.801334,
            46.436931,
            1835.3
          ],
          [
            11.801274,
            46.436987,
            1833.9
          ],
          [
            11.801151,
            46.437137,
            1832.5
          ],
          [
            11.801116,
            46.437197,
            1831.1
          ],
          [
            11.801067,
            46.437299,
            1829.7
          ],
          [
            11.800863,
            46.437856,
            1828.3
          ],
          [
            11.80079,
            46.43796,
            1826.9
          ],
          [
            11.800698,
            46.438137,
            1825.5
          ],
          [
            11.80065,
            46.438206,
            1824.1
          ],
          [
            11.800293,
            46.438576,
            1822.7
          ],
          [
            11.800213,
            46.438675,
            1821.3
          ],
          [
            11.800113,
            46.438818,
            1819.9
          ],
          [
            11.800039,
            46.438908,
            1818.5
          ],
          [
            11.799966,
            46.438979,
            1817.1
          ],
          [
            11.799666,
            46.439181,
            1815.7
          ],
          [
            11.799491,
            46.439268,
            1814.3
          ],
          [
            11.799395,
            46.439299,
            1812.9
          ],
          [
            11.798842,
            46.439409,
            1811.5
          ],
          [
            11.798681,
            46.439461,
            1810.1
          ],
          [
            11.798646,
            46.439484,
            1808.7
          ],
          [
            11.798595,
            46.439532,
            1807.3
          ],
          [
            11.798531,
            46.439646,
            1805.9
          ],
          [
            11.798266,
            46.439865,
            1804.5
          ],
          [
            11.798136,
            46.440034,
            1803.1
          ],
          [
            11.798036,
            46.440144,
            1801.7
          ],
          [
            11.797961,
            46.440277,
            1800.3
          ],
          [
            11.797895,
            46.440349,
            1798.9
          ],
          [
            11.79786,
            46.440404,
            1797.5
          ],
          [
            11.797856,
            46.440449,
            1796.1
          ],
          [
            11.797879,
            46.440631,
            1794.7
          ],
          [
            11.797873,
            46.44073,
            1793.3
          ],
          [
            11.797836,
            46.440834,
            1791.9
          ],
          [
            11.797656,
            46.441049,
            1790.5
          ],
          [
            11.797564,
            46.441124,
            1789.1
          ],
          [
            11.797465,
            46.441187,
            1787.7
          ],
          [
            11.797432,
            46.441233,
            1786.3
          ],
          [
            11.797408,
            46.441313,
            1784.9
          ],
          [
            11.797437,
            46.441623,
            1783.5
          ],
          [
            11.797417,
            46.441733,
            1782.1
          ],
          [
            11.797349,
            46.441815,
            1780.7
          ],
          [
            11.797063,
            46.442063,
            1779.3
          ],
          [
            11.796877,
            46.442289,
            1777.9
          ],
          [
            11.796638,
            46.442477,
            1776.5
          ],
          [
            11.7961,
            46.442972,
            1775.1
          ],
          [
            11.796033,
            46.443064,
            1773.7
          ],
          [
            11.79565,
            46.44396,
            1772.3
          ],
          [
            11.795517,
            46.444215,
            1770.9
          ],
          [
            11.795345,
            46.444427,
            1769.5
          ],
          [
            11.795274,
            46.444541,
            1768.1
          ],
          [
            11.795187,
            46.444734,
            1766.7
          ],
          [
            11.794805,
            46.44549,
            1765.3
          ],
          [
            11.794613,
            46.445821,
            1763.9
          ],
          [
            11.794458,
            46.446004,
            1762.5
          ],
          [
            11.794389,
            46.446106,
            1761.1
          ],
          [
            11.794342,
            46.446191,
            1759.7
          ],
          [
            11.794293,
            46.446308,
            1758.3
          ],
          [
            11.794206,
            46.446586,
            1756.9
          ],
          [
            11.794169,
            46.446666,
            1755.5
          ],
          [
            11.794076,
            46.446778,
            1754.1
          ],
          [
            11.793911,
            46.447032,
            1752.7
          ],
          [
            11.793862,
            46.44712,
            1751.3
          ],
          [
            11.793825,
            46.447213,
            1749.9
          ],
          [
            11.793817,
            46.447277,
            1748.5
          ],
          [
            11.793829,
            46.447403,
            1747.1
          ],
          [
            11.793778,
            46.447876,
            1745.7
          ],
          [
            11.79376,
            46.447962,
            1744.3
          ],
          [
            11.79366,
            46.448189,
            1742.9
          ],
          [
            11.79354,
            46.448505,
            1741.5
          ],
          [
            11.793479,
            46.448618,
            1740.1
          ],
          [
            11.793426,
            46.448686,
            1738.7
          ],
          [
            11.793155,
            46.448907,
            1737.3
          ],
          [
            11.792808,
            46.449193,
            1735.9
          ],
          [
            11.792663,
            46.449302,
            1734.5
          ],
          [
            11.792578,
            46.449353,
            1733.1
          ],
          [
            11.792494,
            46.449379,
            1731.7
          ],
          [
            11.792427,
            46.44941,
            1730.3
          ],
          [
            11.792387,
            46.449453,
            1728.9
          ],
          [
            11.792261,
            46.449706,
            1727.5
          ],
          [
            11.792136,
            46.449907,
            1726.1
          ],
          [
            11.792081,
            46.449956,
            1724.7
          ],
          [
            11.792015,
            46.449982,
            1723.3
          ],
          [
            11.79182,
            46.450025,
            1721.9
          ],
          [
            11.791762,
            46.450073,
            1720.5
          ],
          [
            11.791686,
            46.450198,
            1719.1
          ],
          [
            11.791612,
            46.45024,
            1717.7
          ],
          [
            11.791551,
            46.450252,
            1716.3
          ],
          [
            11.79135,
            46.450265,
            1714.9
          ],
          [
            11.791291,
            46.45028,
            1713.5
          ],
          [
            11.791084,
            46.450302,
            1712.1
          ],
          [
            11.790996,
            46.450356,
            1710.7
          ],
          [
            11.790841,
            46.450534,
            1709.3
          ],
          [
            11.790795,
            46.450543,
            1707.9
          ],
          [
            11.79067,
            46.450635,
            1706.5
          ],
          [
            11.790581,
            46.450667,
            1705.1
          ],
          [
            11.790513,
            46.450681,
            1703.7
          ],
          [
            11.790345,
            46.450702,
            1702.3
          ],
          [
            11.790084,
            46.450807,
            1700.9
          ],
          [
            11.78977,
            46.450867,
            1699.5
          ],
          [
            11.789261,
            46.45104,
            1698.1
          ],
          [
            11.789191,
            46.45112,
            1696.7
          ],
          [
            11.789548,
            46.451209,
            1695.3
          ],
          [
            11.789699,
            46.451222,
            1693.9
          ],
          [
            11.789756,
            46.451247,
            1692.5
          ],
          [
            11.789756,
            46.451271,
            1691.1
          ],
          [
            11.789678,
            46.451312,
            1689.7
          ],
          [
            11.789533,
            46.451353,
            1688.3
          ],
          [
            11.789441,
            46.451405,
            1686.9
          ],
          [
            11.789446,
            46.451432,
            1685.5
          ],
          [
            11.789565,
            46.451445,
            1684.1
          ],
          [
            11.789613,
            46.451438,
            1682.7
          ],
          [
            11.789749,
            46.451486,
            1681.3
          ],
          [
            11.789792,
            46.451524,
            1679.9
          ],
          [
            11.789737,
            46.451573,
            1678.5
          ],
          [
            11.789391,
            46.451587,
            1677.1
          ],
          [
            11.789319,
            46.451653,
            1675.7
          ],
          [
            11.789322,
            46.451694,
            1674.3
          ],
          [
            11.789371,
            46.451754,
            1672.9
          ],
          [
            11.789513,
            46.45178,
            1671.5
          ],
          [
            11.789579,
            46.451807,
            1670.1
          ],
          [
            11.789616,
            46.451839,
            1668.7
          ],
          [
            11.789543,
            46.45189,
            1667.3
          ],
          [
            11.789421,
            46.45195,
            1665.9
          ],
          [
            11.789271,
            46.45193,
            1664.5
          ],
          [
            11.789145,
            46.451984,
            1663.1
          ],
          [
            11.789025,
            46.452023,
            1661.7
          ],
          [
            11.788866,
            46.452103,
            1660.3
          ],
          [
            11.788786,
            46.452208,
            1658.9
          ],
          [
            11.789173,
            46.452203,
            1657.5
          ],
          [
            11.789221,
            46.452222,
            1656.1
          ],
          [
            11.789248,
            46.452255,
            1654.7
          ],
          [
            11.789248,
            46.452276,
            1653.3
          ],
          [
            11.789208,
            46.45231,
            1651.9
          ],
          [
            11.789155,
            46.452336,
            1650.5
          ],
          [
            11.788983,
            46.452365,
            1649.1
          ],
          [
            11.788867,
            46.452502,
            1647.7
          ],
          [
            11.788863,
            46.45257,
            1646.3
          ],
          [
            11.788864,
            46.452742,
            1644.9
          ],
          [
            11.788851,
            46.452835,
            1643.5
          ],
          [
            11.788784,
            46.452921,
            1642.1
          ],
          [
            11.788666,
            46.453,
            1640.7
          ],
          [
            11.788603,
            46.453062,
            1639.3
          ],
          [
            11.788566,
            46.453104,
            1637.9
          ],
          [
            11.788538,
            46.453157,
            1636.5
          ],
          [
            11.788506,
            46.453229,
            1635.1
          ],
          [
            11.78849,
            46.453326,
            1633.7
          ],
          [
            11.788521,
            46.453607,
            1632.3
          ],
          [
            11.788507,
            46.453631,
            1630.9
          ],
          [
            11.788255,
            46.453861,
            1629.5
          ],
          [
            11.788218,
            46.45398,
            1628.1
          ],
          [
            11.788195,
            46.4541,
            1626.7
          ],
          [
            11.788148,
            46.454154,
            1625.3
          ],
          [
            11.788152,
            46.454175,
            1623.9
          ],
          [
            11.788179,
            46.454189,
            1622.5
          ],
          [
            11.788283,
            46.454184,
            1621.1
          ],
          [
            11.788359,
            46.454162,
            1619.7
          ],
          [
            11.78843,
            46.454113,
            1618.3
          ],
          [
            11.788479,
            46.454055,
            1616.9
          ],
          [
            11.788609,
            46.453966,
            1615.5
          ],
          [
            11.788684,
            46.453942,
            1614.1
          ],
          [
            11.788718,
            46.453947,
            1612.7
          ],
          [
            11.788741,
            46.453979,
            1611.3
          ],
          [
            11.788746,
            46.454002,
            1609.9
          ],
          [
            11.788737,
            46.454022,
            1608.5
          ],
          [
            11.788654,
            46.454085,
            1607.1
          ],
          [
            11.788575,
            46.454156,
            1605.7
          ],
          [
            11.788474,
            46.45429,
            1604.3
          ],
          [
            11.78843,
            46.454368,
            1602.9
          ],
          [
            11.788369,
            46.454426,
            1601.5
          ],
          [
            11.788322,
            46.454454,
            1600.1
          ],
          [
            11.788377,
            46.454459,
            1598.6
          ],
          [
            11.788452,
            46.454456,
            1597.2
          ],
          [
            11.788548,
            46.454424,
            1595.8
          ],
          [
            11.788605,
            46.454397,
            1594.4
          ],
          [
            11.788764,
            46.45435,
            1593
          ],
          [
            11.788784,
            46.454368,
            1591.6
          ],
          [
            11.788768,
            46.454405,
            1590.2
          ],
          [
            11.788653,
            46.454506,
            1588.8
          ],
          [
            11.788632,
            46.454546,
            1587.4
          ],
          [
            11.788488,
            46.454665,
            1586
          ],
          [
            11.788325,
            46.454758,
            1584.6
          ],
          [
            11.788574,
            46.454724,
            1583.2
          ],
          [
            11.78892,
            46.454667,
            1581.8
          ],
          [
            11.788992,
            46.454674,
            1580.4
          ],
          [
            11.789019,
            46.454729,
            1579
          ],
          [
            11.789003,
            46.454757,
            1577.6
          ],
          [
            11.788931,
            46.454813,
            1576.2
          ],
          [
            11.788764,
            46.454929,
            1574.8
          ],
          [
            11.788714,
            46.455069,
            1573.4
          ],
          [
            11.788646,
            46.455304,
            1572
          ],
          [
            11.788606,
            46.455426,
            1570.6
          ],
          [
            11.788603,
            46.455444,
            1569.2
          ],
          [
            11.788574,
            46.455589,
            1567.8
          ],
          [
            11.788593,
            46.455656,
            1566.4
          ],
          [
            11.788687,
            46.455759,
            1565
          ],
          [
            11.788905,
            46.455895,
            1563.6
          ],
          [
            11.788939,
            46.455948,
            1562.2
          ],
          [
            11.788939,
            46.455997,
            1560.8
          ],
          [
            11.788889,
            46.456145,
            1559.4
          ],
          [
            11.788751,
            46.456301,
            1558
          ],
          [
            11.788578,
            46.456585,
            1556.6
          ],
          [
            11.788342,
            46.45678,
            1555.2
          ],
          [
            11.788043,
            46.456901,
            1553.8
          ],
          [
            11.787926,
            46.457042,
            1552.4
          ],
          [
            11.787855,
            46.457174,
            1551
          ],
          [
            11.787821,
            46.457227,
            1549.6
          ],
          [
            11.787433,
            46.457778,
            1548.2
          ],
          [
            11.787321,
            46.458,
            1546.8
          ],
          [
            11.787075,
            46.458531,
            1545.4
          ],
          [
            11.786943,
            46.458724,
            1544
          ],
          [
            11.786845,
            46.458844,
            1542.6
          ],
          [
            11.786818,
            46.458955,
            1541.2
          ],
          [
            11.786765,
            46.459075,
            1539.8
          ],
          [
            11.786757,
            46.459095,
            1538.4
          ],
          [
            11.78675,
            46.459111,
            1537
          ],
          [
            11.786626,
            46.459153,
            1535.6
          ],
          [
            11.786396,
            46.459237,
            1534.2
          ],
          [
            11.786228,
            46.45931,
            1532.8
          ],
          [
            11.785978,
            46.459419,
            1531.4
          ],
          [
            11.785702,
            46.459528,
            1530
          ],
          [
            11.785548,
            46.459598,
            1528.6
          ],
          [
            11.78509,
            46.45978,
            1527.2
          ],
          [
            11.784817,
            46.459914,
            1525.8
          ],
          [
            11.784608,
            46.460052,
            1524.4
          ],
          [
            11.784583,
            46.460068,
            1523
          ],
          [
            11.783997,
            46.460579,
            1521.6
          ],
          [
            11.783698,
            46.46085,
            1520.2
          ],
          [
            11.783593,
            46.460919,
            1518.8
          ],
          [
            11.783498,
            46.461003,
            1517.4
          ],
          [
            11.783124,
            46.461361,
            1516
          ],
          [
            11.783,
            46.46156,
            1514.6
          ],
          [
            11.783024,
            46.461589,
            1513.2
          ],
          [
            11.783027,
            46.461626,
            1511.8
          ],
          [
            11.782996,
            46.461712,
            1510.4
          ],
          [
            11.782945,
            46.461836,
            1509
          ],
          [
            11.782749,
            46.461927,
            1507.6
          ],
          [
            11.782775,
            46.461959,
            1506.2
          ],
          [
            11.782806,
            46.461996,
            1504.8
          ],
          [
            11.78284,
            46.461983,
            1503.4
          ],
          [
            11.782865,
            46.461983,
            1502
          ],
          [
            11.782894,
            46.462008,
            1500.6
          ],
          [
            11.782901,
            46.462032,
            1499.2
          ],
          [
            11.782889,
            46.46213,
            1497.8
          ],
          [
            11.78295,
            46.462131,
            1496.4
          ],
          [
            11.782985,
            46.462131,
            1495
          ],
          [
            11.782882,
            46.463195,
            1493.6
          ],
          [
            11.782854,
            46.463514,
            1492.2
          ],
          [
            11.782815,
            46.463791,
            1490.8
          ],
          [
            11.782751,
            46.464001,
            1489.4
          ],
          [
            11.782729,
            46.464062,
            1488
          ],
          [
            11.782531,
            46.464331,
            1486.6
          ],
          [
            11.781573,
            46.465588,
            1485.2
          ],
          [
            11.781365,
            46.465857,
            1483.8
          ],
          [
            11.781229,
            46.466032,
            1482.4
          ],
          [
            11.781148,
            46.466136,
            1481
          ],
          [
            11.781055,
            46.466268,
            1479.6
          ],
          [
            11.780999,
            46.466342,
            1478.2
          ],
          [
            11.780967,
            46.466383,
            1476.8
          ],
          [
            11.78127,
            46.466241,
            1475.4
          ],
          [
            11.781495,
            46.466219,
            1474
          ],
          [
            11.781753,
            46.466308,
            1472.6
          ],
          [
            11.782043,
            46.466367,
            1471.2
          ],
          [
            11.782311,
            46.466397,
            1469.8
          ],
          [
            11.782341,
            46.466424,
            1468.4
          ],
          [
            11.782437,
            46.466511,
            1467
          ],
          [
            11.7825,
            46.466569,
            1465.6
          ],
          [
            11.78208,
            46.46686,
            1464.2
          ],
          [
            11.781567,
            46.46741,
            1462.8
          ],
          [
            11.781278,
            46.467644,
            1461.4
          ],
          [
            11.78067,
            46.4679,
            1460
          ]
        ]
      }
    },
    {
      "type": "Feature",
      "properties": {
        "kind": "waypoint",
        "name": "Bivacco Dal Bianco",
        "show_label": true
      },
      "geometry": {
        "type": "Point",
        "coordinates": [
          11.845366,
          46.429115,
          2730
        ]
      }
    },
    {
      "type": "Feature",
      "properties": {
        "kind": "waypoint",
        "name": "Rifugio Contrin",
        "show_label": false
      },
      "geometry": {
        "type": "Point",
        "coordinates": [
          11.815758,
          46.429705,
          2016
        ]
      }
    },
    {
      "type": "Feature",
      "properties": {
        "kind": "waypoint",
        "name": "Alba di Canazei",
        "show_label": true
      },
      "geometry": {
        "type": "Point",
        "coordinates": [
          11.78067,
          46.4679,
          1460
        ]
      }
    }
  ]
}
