{
  "type": "FeatureCollection",
  "features": [
    {
      "type": "Feature",
      "properties": {
        "kind": "route",
        "name": "День 5 · Bontadini → Forcella Marmolada → Dal Bianco",
        "distance_km": 12.42,
        "ascent_m": 1321,
        "descent_m": 1142,
        "source": "OpenStreetMap mapped paths + planning elevation anchors"
      },
      "geometry": {
        "type": "LineString",
        "coordinates": [
          [
            11.888313,
            46.463584,
            2546
          ],
          [
            11.888398,
            46.463605,
            2542.4
          ],
          [
            11.888454,
            46.463568,
            2538.8
          ],
          [
            11.888472,
            46.463457,
            2535.2
          ],
          [
            11.888527,
            46.463402,
            2531.6
          ],
          [
            11.88862,
            46.463353,
            2528
          ],
          [
            11.888724,
            46.463371,
            2524.4
          ],
          [
            11.888804,
            46.463445,
            2520.8
          ],
          [
            11.888964,
            46.463537,
            2517.2
          ],
          [
            11.88897,
            46.463285,
            2513.6
          ],
          [
            11.88897,
            46.463076,
            2510
          ],
          [
            11.88897,
            46.462923,
            2506.4
          ],
          [
            11.88901,
            46.462949,
            2502.9
          ],
          [
            11.889062,
            46.463066,
            2499.3
          ],
          [
            11.889235,
            46.463227,
            2495.7
          ],
          [
            11.889216,
            46.463,
            2492.1
          ],
          [
            11.889222,
            46.462757,
            2488.5
          ],
          [
            11.889331,
            46.462805,
            2484.9
          ],
          [
            11.889496,
            46.46296,
            2481.3
          ],
          [
            11.889612,
            46.463096,
            2477.7
          ],
          [
            11.889637,
            46.463001,
            2474.1
          ],
          [
            11.889809,
            46.463155,
            2470.5
          ],
          [
            11.889854,
            46.463231,
            2466.9
          ],
          [
            11.889938,
            46.463482,
            2463.3
          ],
          [
            11.890039,
            46.463549,
            2459.7
          ],
          [
            11.890047,
            46.463484,
            2456.1
          ],
          [
            11.890086,
            46.463468,
            2452.5
          ],
          [
            11.890198,
            46.463533,
            2448.9
          ],
          [
            11.890274,
            46.463397,
            2445.3
          ],
          [
            11.890471,
            46.463466,
            2441.7
          ],
          [
            11.890792,
            46.463507,
            2438.1
          ],
          [
            11.891015,
            46.463462,
            2434.5
          ],
          [
            11.891082,
            46.463496,
            2430.9
          ],
          [
            11.891113,
            46.463623,
            2427.3
          ],
          [
            11.891391,
            46.463696,
            2423.8
          ],
          [
            11.891611,
            46.463745,
            2420.2
          ],
          [
            11.891861,
            46.463691,
            2416.6
          ],
          [
            11.891942,
            46.463678,
            2413
          ],
          [
            11.892016,
            46.46343,
            2409.4
          ],
          [
            11.892086,
            46.463337,
            2405.8
          ],
          [
            11.892183,
            46.463301,
            2402.2
          ],
          [
            11.89231,
            46.463304,
            2398.6
          ],
          [
            11.892635,
            46.46344,
            2395
          ],
          [
            11.89276,
            46.463571,
            2391.4
          ],
          [
            11.892997,
            46.46366,
            2387.8
          ],
          [
            11.89365,
            46.463887,
            2384.2
          ],
          [
            11.893989,
            46.463991,
            2380.6
          ],
          [
            11.894132,
            46.463938,
            2377
          ],
          [
            11.894142,
            46.463891,
            2373.4
          ],
          [
            11.894124,
            46.463845,
            2369.8
          ],
          [
            11.893809,
            46.463653,
            2366.2
          ],
          [
            11.893709,
            46.463483,
            2362.6
          ],
          [
            11.893625,
            46.463249,
            2359
          ],
          [
            11.893617,
            46.463001,
            2355.4
          ],
          [
            11.893622,
            46.462885,
            2351.8
          ],
          [
            11.89362,
            46.462698,
            2348.2
          ],
          [
            11.893573,
            46.462467,
            2344.6
          ],
          [
            11.893537,
            46.462253,
            2341.1
          ],
          [
            11.893493,
            46.461926,
            2337.5
          ],
          [
            11.893567,
            46.461856,
            2333.9
          ],
          [
            11.893702,
            46.461858,
            2330.3
          ],
          [
            11.893924,
            46.461888,
            2326.7
          ],
          [
            11.894048,
            46.461884,
            2323.1
          ],
          [
            11.894144,
            46.461818,
            2319.5
          ],
          [
            11.894122,
            46.461714,
            2315.9
          ],
          [
            11.894106,
            46.461587,
            2312.3
          ],
          [
            11.894089,
            46.461455,
            2308.7
          ],
          [
            11.893971,
            46.46129,
            2305.1
          ],
          [
            11.893993,
            46.461216,
            2301.5
          ],
          [
            11.894078,
            46.46119,
            2297.9
          ],
          [
            11.894271,
            46.461275,
            2294.3
          ],
          [
            11.894499,
            46.461349,
            2290.7
          ],
          [
            11.89456,
            46.461386,
            2287.1
          ],
          [
            11.894842,
            46.461402,
            2283.5
          ],
          [
            11.894856,
            46.461326,
            2279.9
          ],
          [
            11.89479,
            46.461235,
            2276.3
          ],
          [
            11.894713,
            46.461141,
            2272.7
          ],
          [
            11.894608,
            46.460965,
            2269.1
          ],
          [
            11.894543,
            46.460815,
            2265.5
          ],
          [
            11.894573,
            46.460755,
            2261.9
          ],
          [
            11.89476,
            46.460736,
            2258.4
          ],
          [
            11.895067,
            46.460739,
            2254.8
          ],
          [
            11.895228,
            46.460732,
            2251.2
          ],
          [
            11.895328,
            46.460719,
            2247.6
          ],
          [
            11.895342,
            46.460658,
            2244
          ],
          [
            11.895298,
            46.460579,
            2240.4
          ],
          [
            11.89496,
            46.460414,
            2236.8
          ],
          [
            11.894523,
            46.460272,
            2233.2
          ],
          [
            11.894309,
            46.46021,
            2229.6
          ],
          [
            11.894065,
            46.460153,
            2226
          ],
          [
            11.893985,
            46.460064,
            2222.4
          ],
          [
            11.893784,
            46.459663,
            2218.8
          ],
          [
            11.893554,
            46.459356,
            2215.2
          ],
          [
            11.893394,
            46.459224,
            2211.6
          ],
          [
            11.893084,
            46.459184,
            2208
          ],
          [
            11.892587,
            46.459184,
            2204.4
          ],
          [
            11.892278,
            46.459154,
            2200.8
          ],
          [
            11.891485,
            46.458956,
            2197.2
          ],
          [
            11.890674,
            46.458648,
            2193.6
          ],
          [
            11.890284,
            46.458342,
            2190
          ],
          [
            11.889984,
            46.45791,
            2186.4
          ],
          [
            11.889684,
            46.457481,
            2182.8
          ],
          [
            11.889601,
            46.457418,
            2179.3
          ],
          [
            11.88946,
            46.457308,
            2175.7
          ],
          [
            11.888994,
            46.456975,
            2172.1
          ],
          [
            11.888793,
            46.456851,
            2168.5
          ],
          [
            11.888617,
            46.456805,
            2164.9
          ],
          [
            11.888112,
            46.456686,
            2161.3
          ],
          [
            11.886953,
            46.45627,
            2157.7
          ],
          [
            11.886593,
            46.456205,
            2154.1
          ],
          [
            11.886329,
            46.456149,
            2150.5
          ],
          [
            11.886211,
            46.456045,
            2146.9
          ],
          [
            11.886241,
            46.455912,
            2143.3
          ],
          [
            11.886238,
            46.455623,
            2139.7
          ],
          [
            11.886178,
            46.455492,
            2136.1
          ],
          [
            11.886156,
            46.455354,
            2132.5
          ],
          [
            11.886156,
            46.455059,
            2128.9
          ],
          [
            11.886131,
            46.454831,
            2125.3
          ],
          [
            11.885806,
            46.45514,
            2121.7
          ],
          [
            11.885462,
            46.455385,
            2118.1
          ],
          [
            11.88521,
            46.455528,
            2114.5
          ],
          [
            11.884922,
            46.455655,
            2110.9
          ],
          [
            11.883433,
            46.456103,
            2107.3
          ],
          [
            11.883202,
            46.456187,
            2103.7
          ],
          [
            11.882989,
            46.456232,
            2100.1
          ],
          [
            11.882634,
            46.456269,
            2096.6
          ],
          [
            11.882273,
            46.456317,
            2093
          ],
          [
            11.882103,
            46.456338,
            2089.4
          ],
          [
            11.881918,
            46.456381,
            2085.8
          ],
          [
            11.881628,
            46.456463,
            2082.2
          ],
          [
            11.881358,
            46.456572,
            2078.6
          ],
          [
            11.881203,
            46.456641,
            2075
          ],
          [
            11.88099,
            46.4567,
            2071.4
          ],
          [
            11.880794,
            46.456729,
            2067.8
          ],
          [
            11.880314,
            46.456769,
            2064.2
          ],
          [
            11.880079,
            46.456788,
            2060.6
          ],
          [
            11.879953,
            46.456811,
            2057
          ],
          [
            11.879818,
            46.456871,
            2057
          ],
          [
            11.879626,
            46.456975,
            2057
          ],
          [
            11.87948,
            46.457075,
            2057
          ],
          [
            11.879323,
            46.457128,
            2057
          ],
          [
            11.878867,
            46.457181,
            2057
          ],
          [
            11.878612,
            46.457198,
            2057
          ],
          [
            11.878489,
            46.457202,
            2057
          ],
          [
            11.878339,
            46.457226,
            2057
          ],
          [
            11.878158,
            46.457333,
            2057
          ],
          [
            11.877992,
            46.457405,
            2057
          ],
          [
            11.877598,
            46.457497,
            2057
          ],
          [
            11.877297,
            46.457589,
            2057
          ],
          [
            11.876871,
            46.457781,
            2057
          ],
          [
            11.876218,
            46.45803,
            2057
          ],
          [
            11.87599,
            46.458132,
            2057
          ],
          [
            11.875597,
            46.458458,
            2057
          ],
          [
            11.875256,
            46.458748,
            2057
          ],
          [
            11.874936,
            46.459074,
            2057
          ],
          [
            11.874623,
            46.459416,
            2057
          ],
          [
            11.874513,
            46.459617,
            2057
          ],
          [
            11.87447,
            46.459738,
            2057
          ],
          [
            11.874534,
            46.459917,
            2057
          ],
          [
            11.874539,
            46.460048,
            2057
          ],
          [
            11.874493,
            46.460165,
            2057
          ],
          [
            11.874402,
            46.460339,
            2057
          ],
          [
            11.874268,
            46.460539,
            2057
          ],
          [
            11.874152,
            46.460675,
            2057
          ],
          [
            11.874047,
            46.460788,
            2057
          ],
          [
            11.873908,
            46.460888,
            2057
          ],
          [
            11.873287,
            46.46124,
            2057
          ],
          [
            11.873226,
            46.461311,
            2057
          ],
          [
            11.873164,
            46.461454,
            2057
          ],
          [
            11.873091,
            46.461531,
            2057
          ],
          [
            11.873035,
            46.46157,
            2057
          ],
          [
            11.872951,
            46.461605,
            2057
          ],
          [
            11.872745,
            46.46164,
            2057
          ],
          [
            11.872509,
            46.461698,
            2057
          ],
          [
            11.872065,
            46.461905,
            2057
          ],
          [
            11.87159,
            46.462101,
            2057
          ],
          [
            11.871306,
            46.462204,
            2057
          ],
          [
            11.871059,
            46.46226,
            2057
          ],
          [
            11.870734,
            46.462289,
            2057
          ],
          [
            11.870351,
            46.462358,
            2057
          ],
          [
            11.870128,
            46.462413,
            2057
          ],
          [
            11.869423,
            46.462637,
            2057
          ],
          [
            11.868716,
            46.462884,
            2057
          ],
          [
            11.867849,
            46.463124,
            2057
          ],
          [
            11.867377,
            46.463264,
            2057
          ],
          [
            11.867168,
            46.463318,
            2057
          ],
          [
            11.866432,
            46.463423,
            2057
          ],
          [
            11.866129,
            46.463471,
            2057
          ],
          [
            11.86578,
            46.463508,
            2057
          ],
          [
            11.865355,
            46.463541,
            2057
          ],
          [
            11.86497,
            46.463566,
            2057
          ],
          [
            11.864691,
            46.463611,
            2057
          ],
          [
            11.864484,
            46.463686,
            2057
          ],
          [
            11.863773,
            46.464106,
            2057
          ],
          [
            11.863677,
            46.464164,
            2057
          ],
          [
            11.863576,
            46.464199,
            2057
          ],
          [
            11.86347,
            46.46421,
            2057
          ],
          [
            11.863398,
            46.464205,
            2057
          ],
          [
            11.863271,
            46.464184,
            2057
          ],
          [
            11.863005,
            46.464121,
            2057
          ],
          [
            11.862712,
            46.464045,
            2057
          ],
          [
            11.86259,
            46.464024,
            2057
          ],
          [
            11.862356,
            46.463981,
            2056.8
          ],
          [
            11.862371,
            46.463939,
            2056.7
          ],
          [
            11.862386,
            46.463893,
            2056.5
          ],
          [
            11.862497,
            46.463603,
            2056.3
          ],
          [
            11.862651,
            46.463239,
            2056.1
          ],
          [
            11.862688,
            46.463115,
            2056
          ],
          [
            11.862653,
            46.462946,
            2055.8
          ],
          [
            11.862535,
            46.462607,
            2055.6
          ],
          [
            11.86246,
            46.462411,
            2055.4
          ],
          [
            11.862412,
            46.462281,
            2055.3
          ],
          [
            11.862404,
            46.46216,
            2055.1
          ],
          [
            11.862418,
            46.462089,
            2054.9
          ],
          [
            11.862549,
            46.461963,
            2054.7
          ],
          [
            11.862828,
            46.461733,
            2054.6
          ],
          [
            11.863222,
            46.46141,
            2054.4
          ],
          [
            11.86355,
            46.461137,
            2054.2
          ],
          [
            11.863809,
            46.460949,
            2054
          ],
          [
            11.863965,
            46.460791,
            2053.9
          ],
          [
            11.864128,
            46.460632,
            2053.7
          ],
          [
            11.86425,
            46.460464,
            2053.5
          ],
          [
            11.864344,
            46.460158,
            2053.3
          ],
          [
            11.86437,
            46.459998,
            2053.2
          ],
          [
            11.864343,
            46.459791,
            2053
          ],
          [
            11.864263,
            46.459566,
            2052.8
          ],
          [
            11.864066,
            46.459234,
            2052.6
          ],
          [
            11.863965,
            46.459036,
            2052.5
          ],
          [
            11.863931,
            46.458992,
            2052.3
          ],
          [
            11.863918,
            46.459029,
            2052.1
          ],
          [
            11.863857,
            46.459071,
            2051.9
          ],
          [
            11.863396,
            46.459272,
            2051.8
          ],
          [
            11.863242,
            46.459331,
            2051.6
          ],
          [
            11.863128,
            46.459341,
            2051.4
          ],
          [
            11.863037,
            46.459352,
            2051.2
          ],
          [
            11.862949,
            46.45936,
            2051.1
          ],
          [
            11.862952,
            46.459401,
            2050.9
          ],
          [
            11.86284,
            46.459387,
            2050.7
          ],
          [
            11.862775,
            46.459386,
            2050.5
          ],
          [
            11.862716,
            46.459389,
            2050.4
          ],
          [
            11.86267,
            46.459425,
            2050.2
          ],
          [
            11.862636,
            46.459469,
            2050
          ],
          [
            11.86267,
            46.459425,
            2052.5
          ],
          [
            11.862716,
            46.459389,
            2055
          ],
          [
            11.862775,
            46.459386,
            2057.5
          ],
          [
            11.86284,
            46.459387,
            2060
          ],
          [
            11.862952,
            46.459401,
            2062.5
          ],
          [
            11.86294,
            46.459373,
            2065
          ],
          [
            11.863037,
            46.459352,
            2067.5
          ],
          [
            11.863128,
            46.459341,
            2070
          ],
          [
            11.863242,
            46.459331,
            2072.5
          ],
          [
            11.863396,
            46.459272,
            2075
          ],
          [
            11.863857,
            46.459071,
            2077.5
          ],
          [
            11.863918,
            46.459029,
            2080
          ],
          [
            11.863931,
            46.458992,
            2082.5
          ],
          [
            11.863815,
            46.458954,
            2085
          ],
          [
            11.863582,
            46.458994,
            2087.5
          ],
          [
            11.863415,
            46.458981,
            2090
          ],
          [
            11.86327,
            46.458965,
            2092.5
          ],
          [
            11.86318,
            46.458938,
            2095
          ],
          [
            11.863073,
            46.458894,
            2097.5
          ],
          [
            11.863034,
            46.458875,
            2100
          ],
          [
            11.863006,
            46.45885,
            2102.5
          ],
          [
            11.862992,
            46.458827,
            2105
          ],
          [
            11.862985,
            46.458798,
            2107.5
          ],
          [
            11.862992,
            46.458766,
            2110
          ],
          [
            11.863012,
            46.458741,
            2112.5
          ],
          [
            11.86304,
            46.458731,
            2115
          ],
          [
            11.863073,
            46.458726,
            2117.5
          ],
          [
            11.863101,
            46.458728,
            2120
          ],
          [
            11.863128,
            46.458743,
            2122.5
          ],
          [
            11.863222,
            46.458819,
            2125
          ],
          [
            11.86331,
            46.45883,
            2127.5
          ],
          [
            11.863551,
            46.458764,
            2130
          ],
          [
            11.863906,
            46.458641,
            2132.5
          ],
          [
            11.863965,
            46.458576,
            2135
          ],
          [
            11.863947,
            46.458501,
            2137.5
          ],
          [
            11.863896,
            46.458459,
            2140
          ],
          [
            11.863766,
            46.458379,
            2142.5
          ],
          [
            11.863553,
            46.458274,
            2145
          ],
          [
            11.863524,
            46.458237,
            2147.5
          ],
          [
            11.863519,
            46.458206,
            2150
          ],
          [
            11.863552,
            46.458171,
            2152.5
          ],
          [
            11.863719,
            46.458087,
            2155
          ],
          [
            11.86379,
            46.458026,
            2157.5
          ],
          [
            11.863925,
            46.457866,
            2160
          ],
          [
            11.864018,
            46.457805,
            2162.5
          ],
          [
            11.864207,
            46.457735,
            2165
          ],
          [
            11.864329,
            46.457667,
            2167.5
          ],
          [
            11.864422,
            46.4576,
            2170
          ],
          [
            11.864765,
            46.457422,
            2172.5
          ],
          [
            11.864642,
            46.457258,
            2175
          ],
          [
            11.864613,
            46.457238,
            2177.5
          ],
          [
            11.86455,
            46.457234,
            2180
          ],
          [
            11.864471,
            46.457246,
            2182.5
          ],
          [
            11.864375,
            46.457273,
            2185
          ],
          [
            11.864327,
            46.45723,
            2187.5
          ],
          [
            11.864305,
            46.457159,
            2190
          ],
          [
            11.864269,
            46.457124,
            2192.5
          ],
          [
            11.864221,
            46.457111,
            2195
          ],
          [
            11.864243,
            46.457087,
            2197.5
          ],
          [
            11.864243,
            46.457068,
            2200
          ],
          [
            11.864107,
            46.457003,
            2202.5
          ],
          [
            11.863906,
            46.456985,
            2205
          ],
          [
            11.86385,
            46.456963,
            2207.5
          ],
          [
            11.86382,
            46.456931,
            2210
          ],
          [
            11.863791,
            46.456927,
            2212.5
          ],
          [
            11.863767,
            46.45696,
            2215
          ],
          [
            11.863723,
            46.456971,
            2217.5
          ],
          [
            11.8635,
            46.456933,
            2220
          ],
          [
            11.863382,
            46.456882,
            2222.5
          ],
          [
            11.863364,
            46.45684,
            2225
          ],
          [
            11.863376,
            46.456771,
            2227.5
          ],
          [
            11.863364,
            46.456707,
            2230
          ],
          [
            11.863409,
            46.456676,
            2232.5
          ],
          [
            11.863444,
            46.45666,
            2235
          ],
          [
            11.863398,
            46.456644,
            2237.5
          ],
          [
            11.863386,
            46.456603,
            2240
          ],
          [
            11.863436,
            46.456551,
            2242.5
          ],
          [
            11.863518,
            46.456525,
            2245
          ],
          [
            11.863563,
            46.456457,
            2247.5
          ],
          [
            11.863626,
            46.456408,
            2250
          ],
          [
            11.863659,
            46.456355,
            2252.5
          ],
          [
            11.863671,
            46.456291,
            2255
          ],
          [
            11.863732,
            46.456266,
            2257.5
          ],
          [
            11.863754,
            46.456211,
            2260
          ],
          [
            11.863874,
            46.456117,
            2262.5
          ],
          [
            11.863895,
            46.456079,
            2265
          ],
          [
            11.863932,
            46.456065,
            2267.5
          ],
          [
            11.864002,
            46.456014,
            2270
          ],
          [
            11.864064,
            46.455989,
            2272.5
          ],
          [
            11.864088,
            46.455936,
            2275
          ],
          [
            11.864023,
            46.455925,
            2277.5
          ],
          [
            11.863976,
            46.455944,
            2280
          ],
          [
            11.863982,
            46.455899,
            2282.5
          ],
          [
            11.864072,
            46.455812,
            2285
          ],
          [
            11.864167,
            46.455671,
            2287.5
          ],
          [
            11.864198,
            46.455622,
            2290
          ],
          [
            11.864265,
            46.45551,
            2292.5
          ],
          [
            11.864318,
            46.455472,
            2295
          ],
          [
            11.864379,
            46.455453,
            2297.5
          ],
          [
            11.864435,
            46.455462,
            2300
          ],
          [
            11.864456,
            46.455447,
            2302.5
          ],
          [
            11.864376,
            46.45542,
            2305
          ],
          [
            11.864183,
            46.455452,
            2307.5
          ],
          [
            11.864153,
            46.455426,
            2310
          ],
          [
            11.864198,
            46.455397,
            2312.5
          ],
          [
            11.864218,
            46.455377,
            2315
          ],
          [
            11.864215,
            46.455356,
            2317.5
          ],
          [
            11.864117,
            46.455344,
            2320
          ],
          [
            11.86405,
            46.455324,
            2322.5
          ],
          [
            11.864094,
            46.455277,
            2325
          ],
          [
            11.864198,
            46.455241,
            2327.5
          ],
          [
            11.864267,
            46.455192,
            2330
          ],
          [
            11.864251,
            46.455168,
            2332.5
          ],
          [
            11.86417,
            46.455148,
            2335
          ],
          [
            11.863926,
            46.455163,
            2337.5
          ],
          [
            11.863818,
            46.455148,
            2340
          ],
          [
            11.86368,
            46.45506,
            2342.5
          ],
          [
            11.863629,
            46.455016,
            2345
          ],
          [
            11.863685,
            46.454828,
            2347.5
          ],
          [
            11.863586,
            46.454838,
            2350
          ],
          [
            11.863546,
            46.454816,
            2352.5
          ],
          [
            11.863405,
            46.454839,
            2355
          ],
          [
            11.863349,
            46.454863,
            2357.5
          ],
          [
            11.863153,
            46.454881,
            2360
          ],
          [
            11.862989,
            46.454907,
            2362.5
          ],
          [
            11.862945,
            46.454865,
            2365
          ],
          [
            11.862996,
            46.454764,
            2367.5
          ],
          [
            11.863124,
            46.45442,
            2370
          ],
          [
            11.863109,
            46.454341,
            2372.5
          ],
          [
            11.863069,
            46.454303,
            2375
          ],
          [
            11.863014,
            46.454308,
            2377.5
          ],
          [
            11.862812,
            46.454396,
            2380
          ],
          [
            11.862732,
            46.454447,
            2382.5
          ],
          [
            11.862599,
            46.45447,
            2385
          ],
          [
            11.862505,
            46.454522,
            2387.5
          ],
          [
            11.862427,
            46.454582,
            2390
          ],
          [
            11.862395,
            46.454579,
            2392.5
          ],
          [
            11.862375,
            46.454592,
            2395
          ],
          [
            11.862346,
            46.454611,
            2397.5
          ],
          [
            11.862293,
            46.45464,
            2400
          ],
          [
            11.862246,
            46.454638,
            2402.5
          ],
          [
            11.862157,
            46.454715,
            2405
          ],
          [
            11.862125,
            46.454735,
            2407.5
          ],
          [
            11.8621,
            46.45468,
            2410
          ],
          [
            11.862116,
            46.454655,
            2412.5
          ],
          [
            11.8621,
            46.454606,
            2415
          ],
          [
            11.862087,
            46.454566,
            2417.5
          ],
          [
            11.862043,
            46.454562,
            2420
          ],
          [
            11.861962,
            46.454601,
            2422.5
          ],
          [
            11.861917,
            46.454581,
            2425
          ],
          [
            11.861923,
            46.454522,
            2427.5
          ],
          [
            11.861886,
            46.454492,
            2430
          ],
          [
            11.861883,
            46.454466,
            2432.5
          ],
          [
            11.861817,
            46.454438,
            2435
          ],
          [
            11.86178,
            46.45445,
            2437.5
          ],
          [
            11.861735,
            46.454452,
            2440
          ],
          [
            11.861701,
            46.454474,
            2442.5
          ],
          [
            11.861674,
            46.454478,
            2445
          ],
          [
            11.861648,
            46.454458,
            2447.5
          ],
          [
            11.861655,
            46.454434,
            2450
          ],
          [
            11.861648,
            46.454413,
            2452.5
          ],
          [
            11.861648,
            46.454337,
            2455
          ],
          [
            11.861668,
            46.454133,
            2457.5
          ],
          [
            11.861659,
            46.45409,
            2460
          ],
          [
            11.861615,
            46.454035,
            2462.5
          ],
          [
            11.861564,
            46.453947,
            2465
          ],
          [
            11.861477,
            46.453828,
            2467.5
          ],
          [
            11.861224,
            46.453563,
            2470
          ],
          [
            11.861188,
            46.453529,
            2472.5
          ],
          [
            11.861123,
            46.453512,
            2475
          ],
          [
            11.861031,
            46.453522,
            2477.5
          ],
          [
            11.86094,
            46.453501,
            2480
          ],
          [
            11.860773,
            46.453478,
            2482.5
          ],
          [
            11.860734,
            46.453445,
            2485
          ],
          [
            11.860675,
            46.453325,
            2487.5
          ],
          [
            11.86066,
            46.453227,
            2490
          ],
          [
            11.860628,
            46.453135,
            2492.5
          ],
          [
            11.860569,
            46.453065,
            2495
          ],
          [
            11.8605,
            46.452953,
            2497.5
          ],
          [
            11.860531,
            46.452856,
            2500
          ],
          [
            11.860539,
            46.45274,
            2502.5
          ],
          [
            11.86059,
            46.452666,
            2505
          ],
          [
            11.860676,
            46.452588,
            2507.5
          ],
          [
            11.860715,
            46.452564,
            2510
          ],
          [
            11.860723,
            46.452544,
            2512.5
          ],
          [
            11.860679,
            46.452526,
            2515
          ],
          [
            11.860639,
            46.452507,
            2517.5
          ],
          [
            11.860557,
            46.452495,
            2520
          ],
          [
            11.860471,
            46.452512,
            2522.5
          ],
          [
            11.860388,
            46.452522,
            2525
          ],
          [
            11.860329,
            46.452549,
            2527.5
          ],
          [
            11.860274,
            46.452598,
            2530
          ],
          [
            11.860256,
            46.452574,
            2532.5
          ],
          [
            11.860299,
            46.452333,
            2535
          ],
          [
            11.860338,
            46.452243,
            2537.5
          ],
          [
            11.860388,
            46.452169,
            2540
          ],
          [
            11.860327,
            46.45217,
            2542.5
          ],
          [
            11.860223,
            46.452212,
            2545
          ],
          [
            11.860133,
            46.452272,
            2547.5
          ],
          [
            11.86007,
            46.452289,
            2550
          ],
          [
            11.860036,
            46.452277,
            2552.5
          ],
          [
            11.860048,
            46.452221,
            2555
          ],
          [
            11.86002,
            46.452182,
            2557.5
          ],
          [
            11.860026,
            46.452027,
            2560
          ],
          [
            11.860037,
            46.451992,
            2562.5
          ],
          [
            11.860065,
            46.451942,
            2565
          ],
          [
            11.86003,
            46.451943,
            2567.5
          ],
          [
            11.859949,
            46.451969,
            2570
          ],
          [
            11.859865,
            46.452011,
            2572.5
          ],
          [
            11.859832,
            46.45199,
            2575
          ],
          [
            11.859845,
            46.451961,
            2577.5
          ],
          [
            11.85983,
            46.451917,
            2580
          ],
          [
            11.859803,
            46.451904,
            2582.5
          ],
          [
            11.859792,
            46.451849,
            2585
          ],
          [
            11.859757,
            46.451807,
            2587.5
          ],
          [
            11.859737,
            46.45177,
            2590
          ],
          [
            11.85974,
            46.451736,
            2592.5
          ],
          [
            11.859744,
            46.451709,
            2595
          ],
          [
            11.859688,
            46.451706,
            2597.5
          ],
          [
            11.859677,
            46.451686,
            2600
          ],
          [
            11.85968,
            46.451662,
            2602.5
          ],
          [
            11.859682,
            46.451643,
            2605
          ],
          [
            11.859664,
            46.451591,
            2607.5
          ],
          [
            11.859608,
            46.451604,
            2610
          ],
          [
            11.85956,
            46.451587,
            2612.5
          ],
          [
            11.859525,
            46.45157,
            2615
          ],
          [
            11.859541,
            46.451544,
            2617.5
          ],
          [
            11.859519,
            46.451486,
            2620
          ],
          [
            11.859536,
            46.451337,
            2622.5
          ],
          [
            11.859413,
            46.451301,
            2625
          ],
          [
            11.859331,
            46.45116,
            2627.5
          ],
          [
            11.859217,
            46.451047,
            2630
          ],
          [
            11.859055,
            46.450898,
            2632.5
          ],
          [
            11.858876,
            46.450802,
            2635
          ],
          [
            11.858719,
            46.450768,
            2637.5
          ],
          [
            11.858561,
            46.450756,
            2640
          ],
          [
            11.85832,
            46.450647,
            2642.5
          ],
          [
            11.858207,
            46.450489,
            2645
          ],
          [
            11.858016,
            46.450396,
            2647.5
          ],
          [
            11.857925,
            46.450321,
            2650
          ],
          [
            11.857941,
            46.450244,
            2652.5
          ],
          [
            11.857869,
            46.45019,
            2655
          ],
          [
            11.857716,
            46.450136,
            2657.5
          ],
          [
            11.857585,
            46.450022,
            2660
          ],
          [
            11.857569,
            46.449905,
            2662.5
          ],
          [
            11.857461,
            46.449856,
            2665
          ],
          [
            11.857443,
            46.449697,
            2667.5
          ],
          [
            11.857266,
            46.449615,
            2670
          ],
          [
            11.857121,
            46.44946,
            2672.5
          ],
          [
            11.856649,
            46.449216,
            2675
          ],
          [
            11.856201,
            46.448956,
            2677.5
          ],
          [
            11.856067,
            46.448882,
            2680
          ],
          [
            11.855997,
            46.448789,
            2682.5
          ],
          [
            11.853767,
            46.447986,
            2685
          ],
          [
            11.853422,
            46.447831,
            2687.5
          ],
          [
            11.852905,
            46.447494,
            2690
          ],
          [
            11.852655,
            46.447298,
            2692.5
          ],
          [
            11.85262,
            46.447058,
            2695
          ],
          [
            11.852569,
            46.447008,
            2697.5
          ],
          [
            11.852437,
            46.446951,
            2700
          ],
          [
            11.852282,
            46.446884,
            2702.5
          ],
          [
            11.852051,
            46.446808,
            2705
          ],
          [
            11.851869,
            46.446779,
            2707.5
          ],
          [
            11.851617,
            46.446657,
            2710
          ],
          [
            11.851429,
            46.446638,
            2712.5
          ],
          [
            11.851319,
            46.446666,
            2715
          ],
          [
            11.851147,
            46.446662,
            2717.5
          ],
          [
            11.85073,
            46.446713,
            2720
          ],
          [
            11.850168,
            46.446774,
            2722.5
          ],
          [
            11.84993,
            46.446743,
            2725
          ],
          [
            11.849482,
            46.446584,
            2727.5
          ],
          [
            11.849133,
            46.446596,
            2730
          ],
          [
            11.848645,
            46.44671,
            2732.5
          ],
          [
            11.848272,
            46.446786,
            2735
          ],
          [
            11.847894,
            46.446687,
            2737.5
          ],
          [
            11.847744,
            46.446673,
            2740
          ],
          [
            11.847589,
            46.446671,
            2742.5
          ],
          [
            11.847518,
            46.44667,
            2745
          ],
          [
            11.847454,
            46.446636,
            2747.5
          ],
          [
            11.847417,
            46.446396,
            2750
          ],
          [
            11.847171,
            46.446165,
            2752.5
          ],
          [
            11.847138,
            46.446015,
            2755
          ],
          [
            11.847151,
            46.445592,
            2757.5
          ],
          [
            11.847111,
            46.445391,
            2760
          ],
          [
            11.846979,
            46.445047,
            2762.5
          ],
          [
            11.846834,
            46.444923,
            2765
          ],
          [
            11.84669,
            46.444722,
            2767.5
          ],
          [
            11.846491,
            46.444624,
            2770
          ],
          [
            11.846284,
            46.444423,
            2772.5
          ],
          [
            11.846228,
            46.444296,
            2775
          ],
          [
            11.846094,
            46.444156,
            2777.5
          ],
          [
            11.845939,
            46.444093,
            2780
          ],
          [
            11.845737,
            46.443925,
            2782.5
          ],
          [
            11.845499,
            46.443761,
            2785
          ],
          [
            11.845099,
            46.44329,
            2787.5
          ],
          [
            11.844926,
            46.443208,
            2790
          ],
          [
            11.844729,
            46.443139,
            2792.5
          ],
          [
            11.844699,
            46.443053,
            2795
          ],
          [
            11.844475,
            46.442855,
            2797.5
          ],
          [
            11.844171,
            46.442583,
            2800
          ],
          [
            11.843914,
            46.442417,
            2802.5
          ],
          [
            11.843715,
            46.442343,
            2805
          ],
          [
            11.843538,
            46.441914,
            2807.5
          ],
          [
            11.843318,
            46.441707,
            2810
          ],
          [
            11.842994,
            46.44146,
            2812.5
          ],
          [
            11.842693,
            46.441293,
            2815
          ],
          [
            11.842226,
            46.440932,
            2817.5
          ],
          [
            11.841603,
            46.440439,
            2820
          ],
          [
            11.841493,
            46.44019,
            2822.5
          ],
          [
            11.84113,
            46.440045,
            2825
          ],
          [
            11.840953,
            46.439979,
            2827.5
          ],
          [
            11.840841,
            46.439893,
            2830
          ],
          [
            11.84068,
            46.439809,
            2832.5
          ],
          [
            11.84046,
            46.439717,
            2835
          ],
          [
            11.840245,
            46.43963,
            2837.5
          ],
          [
            11.840077,
            46.439655,
            2840
          ],
          [
            11.840061,
            46.439584,
            2842.5
          ],
          [
            11.840082,
            46.439566,
            2845
          ],
          [
            11.84002,
            46.439533,
            2847.5
          ],
          [
            11.840042,
            46.439484,
            2850
          ],
          [
            11.840094,
            46.439476,
            2852.5
          ],
          [
            11.840069,
            46.439434,
            2855
          ],
          [
            11.840122,
            46.439327,
            2857.5
          ],
          [
            11.840123,
            46.439256,
            2860
          ],
          [
            11.840086,
            46.439178,
            2862.5
          ],
          [
            11.840034,
            46.439107,
            2865
          ],
          [
            11.84005,
            46.439073,
            2867.5
          ],
          [
            11.840113,
            46.439033,
            2870
          ],
          [
            11.84014,
            46.438991,
            2872.5
          ],
          [
            11.840142,
            46.438939,
            2875
          ],
          [
            11.840204,
            46.438879,
            2877.5
          ],
          [
            11.840208,
            46.43883,
            2880
          ],
          [
            11.840197,
            46.438799,
            2882.5
          ],
          [
            11.84018,
            46.43878,
            2885
          ],
          [
            11.840043,
            46.438707,
            2888.3
          ],
          [
            11.839892,
            46.438595,
            2865.5
          ],
          [
            11.839488,
            46.438334,
            2826.5
          ],
          [
            11.839407,
            46.438282,
            2821.3
          ],
          [
            11.839233,
            46.438406,
            2817
          ],
          [
            11.839066,
            46.438465,
            2811.3
          ],
          [
            11.838853,
            46.438577,
            2800.8
          ],
          [
            11.838834,
            46.438488,
            2796.5
          ],
          [
            11.838744,
            46.438522,
            2793.3
          ],
          [
            11.838731,
            46.438477,
            2790.8
          ],
          [
            11.838499,
            46.43867,
            2820
          ],
          [
            11.838115,
            46.438765,
            2878.3
          ],
          [
            11.837698,
            46.438742,
            2870.5
          ],
          [
            11.83758,
            46.438662,
            2801
          ],
          [
            11.837726,
            46.438545,
            2752.8
          ],
          [
            11.837774,
            46.438466,
            2748.5
          ],
          [
            11.83776,
            46.438357,
            2741
          ],
          [
            11.837722,
            46.438317,
            2737.5
          ],
          [
            11.837411,
            46.43834,
            2730.8
          ],
          [
            11.837292,
            46.438132,
            2715
          ],
          [
            11.837254,
            46.438108,
            2712.5
          ],
          [
            11.837109,
            46.438058,
            2706
          ],
          [
            11.836722,
            46.437951,
            2693
          ],
          [
            11.836558,
            46.437899,
            2688.3
          ],
          [
            11.836521,
            46.437874,
            2686
          ],
          [
            11.836542,
            46.437846,
            2684
          ],
          [
            11.836669,
            46.437771,
            2679.5
          ],
          [
            11.83669,
            46.437735,
            2678
          ],
          [
            11.836685,
            46.437687,
            2675
          ],
          [
            11.836562,
            46.437609,
            2668.8
          ],
          [
            11.836556,
            46.437526,
            2663.5
          ],
          [
            11.836653,
            46.43743,
            2660.5
          ],
          [
            11.836668,
            46.437276,
            2654.3
          ],
          [
            11.836799,
            46.43705,
            2646
          ],
          [
            11.836875,
            46.43687,
            2640.3
          ],
          [
            11.836892,
            46.436688,
            2634.8
          ],
          [
            11.836796,
            46.436559,
            2628.8
          ],
          [
            11.836629,
            46.436465,
            2621
          ],
          [
            11.8365,
            46.436268,
            2614.3
          ],
          [
            11.836322,
            46.436149,
            2606.8
          ],
          [
            11.836072,
            46.435881,
            2595.8
          ],
          [
            11.835891,
            46.435799,
            2588.5
          ],
          [
            11.835831,
            46.43574,
            2585.5
          ],
          [
            11.835788,
            46.435597,
            2582.3
          ],
          [
            11.835751,
            46.435542,
            2580.3
          ],
          [
            11.835617,
            46.435491,
            2575.8
          ],
          [
            11.835502,
            46.435414,
            2572.3
          ],
          [
            11.835419,
            46.435309,
            2569.8
          ],
          [
            11.835345,
            46.435273,
            2568
          ],
          [
            11.835096,
            46.435241,
            2562.5
          ],
          [
            11.834844,
            46.435298,
            2558.3
          ],
          [
            11.834726,
            46.435253,
            2553.8
          ],
          [
            11.834464,
            46.435188,
            2542
          ],
          [
            11.834191,
            46.435055,
            2530.5
          ],
          [
            11.834001,
            46.435024,
            2524.5
          ],
          [
            11.833967,
            46.434978,
            2522
          ],
          [
            11.833913,
            46.434956,
            2519.8
          ],
          [
            11.833887,
            46.434877,
            2516
          ],
          [
            11.833796,
            46.43486,
            2513.3
          ],
          [
            11.833791,
            46.434823,
            2512
          ],
          [
            11.833744,
            46.434814,
            2510.8
          ],
          [
            11.833661,
            46.43482,
            2509.3
          ],
          [
            11.833252,
            46.434747,
            2502
          ],
          [
            11.83321,
            46.434696,
            2500
          ],
          [
            11.833108,
            46.434695,
            2498.3
          ],
          [
            11.833017,
            46.434654,
            2495.5
          ],
          [
            11.832958,
            46.434656,
            2494.5
          ],
          [
            11.832859,
            46.434636,
            2492
          ],
          [
            11.832704,
            46.434538,
            2487
          ],
          [
            11.832623,
            46.434498,
            2484.3
          ],
          [
            11.832554,
            46.434434,
            2480.8
          ],
          [
            11.832438,
            46.434421,
            2477
          ],
          [
            11.832283,
            46.434429,
            2473
          ],
          [
            11.83229,
            46.434361,
            2470
          ],
          [
            11.83243,
            46.434166,
            2464.8
          ],
          [
            11.832611,
            46.434016,
            2457
          ],
          [
            11.832403,
            46.433994,
            2451.8
          ],
          [
            11.832124,
            46.434002,
            2445.3
          ],
          [
            11.832096,
            46.433967,
            2442
          ],
          [
            11.832259,
            46.433791,
            2434.5
          ],
          [
            11.832581,
            46.433569,
            2426
          ],
          [
            11.83257,
            46.433547,
            2424.5
          ],
          [
            11.832388,
            46.433544,
            2420.3
          ],
          [
            11.832466,
            46.433453,
            2416
          ],
          [
            11.832444,
            46.433442,
            2414.8
          ],
          [
            11.832344,
            46.433446,
            2413.3
          ],
          [
            11.832353,
            46.433411,
            2411
          ],
          [
            11.832313,
            46.433396,
            2409.5
          ],
          [
            11.832313,
            46.433364,
            2407.5
          ],
          [
            11.832206,
            46.433373,
            2405.8
          ],
          [
            11.832174,
            46.433352,
            2403.8
          ],
          [
            11.8322,
            46.433299,
            2401.3
          ],
          [
            11.832156,
            46.433283,
            2399
          ],
          [
            11.832035,
            46.433317,
            2397.5
          ],
          [
            11.832038,
            46.433272,
            2394.8
          ],
          [
            11.832012,
            46.433235,
            2391.5
          ],
          [
            11.831967,
            46.433272,
            2392.5
          ],
          [
            11.831853,
            46.43326,
            2388.8
          ],
          [
            11.831748,
            46.43326,
            2386.3
          ],
          [
            11.831806,
            46.433173,
            2382.3
          ],
          [
            11.831805,
            46.43313,
            2379.8
          ],
          [
            11.8317,
            46.43313,
            2378.3
          ],
          [
            11.831703,
            46.433053,
            2374.3
          ],
          [
            11.831475,
            46.433129,
            2372.3
          ],
          [
            11.831436,
            46.433108,
            2370.3
          ],
          [
            11.831431,
            46.433011,
            2366
          ],
          [
            11.831559,
            46.432964,
            2367
          ],
          [
            11.831696,
            46.432951,
            2369.3
          ],
          [
            11.831846,
            46.432945,
            2371.8
          ],
          [
            11.831921,
            46.432873,
            2371
          ],
          [
            11.831999,
            46.432814,
            2372.3
          ],
          [
            11.832165,
            46.432724,
            2376
          ],
          [
            11.832246,
            46.432696,
            2377.3
          ],
          [
            11.832388,
            46.432659,
            2378.3
          ],
          [
            11.832911,
            46.432607,
            2393.5
          ],
          [
            11.833088,
            46.432563,
            2399.3
          ],
          [
            11.833195,
            46.432518,
            2397.8
          ],
          [
            11.833268,
            46.432457,
            2395.5
          ],
          [
            11.83345,
            46.432439,
            2401.3
          ],
          [
            11.833694,
            46.432404,
            2406.5
          ],
          [
            11.833968,
            46.432385,
            2412.8
          ],
          [
            11.833963,
            46.432443,
            2416.5
          ],
          [
            11.833987,
            46.43248,
            2419.8
          ],
          [
            11.834046,
            46.432483,
            2421.8
          ],
          [
            11.834388,
            46.432473,
            2430
          ],
          [
            11.834617,
            46.432526,
            2442.3
          ],
          [
            11.835003,
            46.432506,
            2449
          ],
          [
            11.835416,
            46.432494,
            2460
          ],
          [
            11.835725,
            46.432561,
            2490
          ],
          [
            11.835947,
            46.432553,
            2495.5
          ],
          [
            11.836213,
            46.432508,
            2486.5
          ],
          [
            11.836422,
            46.432425,
            2488.3
          ],
          [
            11.836588,
            46.432326,
            2489.5
          ],
          [
            11.836729,
            46.432293,
            2493.5
          ],
          [
            11.837147,
            46.432223,
            2497
          ],
          [
            11.837356,
            46.432158,
            2505.3
          ],
          [
            11.837578,
            46.432117,
            2515.3
          ],
          [
            11.837659,
            46.432075,
            2516.3
          ],
          [
            11.837782,
            46.43206,
            2520.3
          ],
          [
            11.837841,
            46.432081,
            2523.5
          ],
          [
            11.837873,
            46.432141,
            2529.3
          ],
          [
            11.838053,
            46.432117,
            2532.3
          ],
          [
            11.838289,
            46.43211,
            2532
          ],
          [
            11.83845,
            46.432123,
            2532.3
          ],
          [
            11.838537,
            46.432095,
            2529.3
          ],
          [
            11.838772,
            46.432112,
            2528.8
          ],
          [
            11.838895,
            46.432099,
            2526.8
          ],
          [
            11.839,
            46.432139,
            2528
          ],
          [
            11.839086,
            46.43216,
            2528
          ],
          [
            11.839216,
            46.432147,
            2527
          ],
          [
            11.839303,
            46.432189,
            2530
          ],
          [
            11.839405,
            46.432185,
            2531
          ],
          [
            11.839545,
            46.432147,
            2532.3
          ],
          [
            11.839796,
            46.432131,
            2536.3
          ],
          [
            11.839959,
            46.432155,
            2540
          ],
          [
            11.840158,
            46.432176,
            2544
          ],
          [
            11.840437,
            46.432165,
            2548.3
          ],
          [
            11.840859,
            46.43216,
            2555.5
          ],
          [
            11.840942,
            46.432183,
            2557.8
          ],
          [
            11.841055,
            46.432201,
            2560.3
          ],
          [
            11.841332,
            46.432139,
            2563.3
          ],
          [
            11.841615,
            46.432139,
            2569.5
          ],
          [
            11.842282,
            46.432066,
            2578.5
          ],
          [
            11.842661,
            46.432069,
            2585.8
          ],
          [
            11.842862,
            46.432062,
            2588.3
          ],
          [
            11.842982,
            46.432026,
            2588.5
          ],
          [
            11.843148,
            46.431944,
            2589.3
          ],
          [
            11.843323,
            46.431878,
            2593.5
          ],
          [
            11.843511,
            46.431783,
            2597.3
          ],
          [
            11.843603,
            46.431711,
            2598
          ],
          [
            11.843772,
            46.431558,
            2600.5
          ],
          [
            11.84394,
            46.431428,
            2605.5
          ],
          [
            11.843978,
            46.431333,
            2607.5
          ],
          [
            11.844037,
            46.431278,
            2610.3
          ],
          [
            11.84404,
            46.431206,
            2611.5
          ],
          [
            11.844151,
            46.431022,
            2618
          ],
          [
            11.84419,
            46.431036,
            2619.5
          ],
          [
            11.844276,
            46.431093,
            2623
          ],
          [
            11.844329,
            46.431154,
            2624.5
          ],
          [
            11.844383,
            46.431128,
            2627.5
          ],
          [
            11.844445,
            46.431025,
            2631
          ],
          [
            11.844549,
            46.430899,
            2636
          ],
          [
            11.844656,
            46.430707,
            2641.8
          ],
          [
            11.844769,
            46.430668,
            2646.3
          ],
          [
            11.844826,
            46.430711,
            2649.3
          ],
          [
            11.84497,
            46.430738,
            2656
          ],
          [
            11.845032,
            46.430792,
            2659.3
          ],
          [
            11.845101,
            46.430907,
            2661
          ],
          [
            11.845317,
            46.430805,
            2669.3
          ],
          [
            11.84544,
            46.430929,
            2677.8
          ],
          [
            11.845491,
            46.430912,
            2680.3
          ],
          [
            11.845515,
            46.430832,
            2677.3
          ],
          [
            11.84559,
            46.430781,
            2680
          ],
          [
            11.845641,
            46.430816,
            2682.5
          ],
          [
            11.845896,
            46.430629,
            2691
          ],
          [
            11.846124,
            46.430513,
            2698.5
          ],
          [
            11.846185,
            46.430539,
            2699.5
          ],
          [
            11.84625,
            46.430548,
            2701.5
          ],
          [
            11.846359,
            46.430472,
            2704.8
          ],
          [
            11.84642,
            46.430449,
            2704.5
          ],
          [
            11.846142,
            46.430274,
            2704.8
          ],
          [
            11.846074,
            46.430132,
            2706
          ],
          [
            11.846083,
            46.430071,
            2707.5
          ],
          [
            11.846109,
            46.43002,
            2709.5
          ],
          [
            11.846201,
            46.429922,
            2701.3
          ],
          [
            11.84621,
            46.429884,
            2699.5
          ],
          [
            11.846183,
            46.429847,
            2699.5
          ],
          [
            11.846117,
            46.429802,
            2701
          ],
          [
            11.846023,
            46.429759,
            2701.8
          ],
          [
            11.845892,
            46.429756,
            2705.3
          ],
          [
            11.845838,
            46.429735,
            2707.3
          ],
          [
            11.84576,
            46.429691,
            2706
          ],
          [
            11.845723,
            46.429637,
            2705.5
          ],
          [
            11.845684,
            46.429515,
            2706.5
          ],
          [
            11.845579,
            46.429367,
            2712.5
          ],
          [
            11.845523,
            46.429272,
            2716
          ],
          [
            11.845487,
            46.429193,
            2719
          ],
          [
            11.845463,
            46.429165,
            2720.5
          ],
          [
            11.845371,
            46.429119,
            2725
          ]
        ]
      }
    },
    {
      "type": "Feature",
      "properties": {
        "kind": "waypoint",
        "name": "Bivacco Bontadini",
        "show_label": true
      },
      "geometry": {
        "type": "Point",
        "coordinates": [
          11.888313,
          46.463584,
          2546
        ]
      }
    },
    {
      "type": "Feature",
      "properties": {
        "kind": "waypoint",
        "name": "Lago di Fedaia · південний бік",
        "show_label": false
      },
      "geometry": {
        "type": "Point",
        "coordinates": [
          11.879953,
          46.456811,
          2057
        ]
      }
    },
    {
      "type": "Feature",
      "properties": {
        "kind": "waypoint",
        "name": "Passo Fedaia",
        "show_label": true
      },
      "geometry": {
        "type": "Point",
        "coordinates": [
          11.86259,
          46.464024,
          2057
        ]
      }
    },
    {
      "type": "Feature",
      "properties": {
        "kind": "waypoint",
        "name": "Forcella Marmolada",
        "show_label": true
      },
      "geometry": {
        "type": "Point",
        "coordinates": [
          11.84018,
          46.43878,
          2885
        ]
      }
    },
    {
      "type": "Feature",
      "properties": {
        "kind": "waypoint",
        "name": "Passo Ombretta",
        "show_label": true
      },
      "geometry": {
        "type": "Point",
        "coordinates": [
          11.84642,
          46.430449,
          2704.5
        ]
      }
    },
    {
      "type": "Feature",
      "properties": {
        "kind": "waypoint",
        "name": "Bivacco Dal Bianco",
        "show_label": true
      },
      "geometry": {
        "type": "Point",
        "coordinates": [
          11.845371,
          46.429119,
          2725
        ]
      }
    }
  ]
}
